STN,DATE,TIME,COUNTRY,TEMP,DEWP,STP,SLP,VISIB,WDSP,PRCP,SNDP,FRSHTT,CLDC,WNDDIR
358490,2021-02-18,15:02:35,KAZAKHSTAN,-4.8,-8.8,1017.1,1024.3,18.2,11.8,0.02,1.1,111000,50.0,91
475910,2021-02-18,15:02:35,JAPAN,-1.3,-5.8,1002.4,998.2,12.3,14.1,0.05,0.5,111000,50.0,333
509490,2021-02-18,15:02:35,CHINA,-15.0,-21.6,1016.1,1023.2,14.1,9.0,0.01,0.0,110000,97.8,140
504340,2021-02-18,15:02:35,CHINA,-29.8,-33.2,967.3,1027.4,27.5,7.9,0.01,0.0,110000,50.3,352
350530,2021-02-18,15:02:35,KAZAKHSTAN,-7.5,-11.5,1035.1,1033.8,18.6,11.7,0.01,2.5,111000,50.3,290
580270,2021-02-18,15:02:35,CHINA,-0.5,-8.7,1021.3,1026.7,14.1,9.1,0.05,0.0,110000,52.4,300
529550,2021-02-18,15:02:35,CHINA,-10.3,-26.6,694.8,690.9,30.6,7.5,0.00,0.0,100000,15.4,161
350780,2021-02-18,15:02:35,KAZAKHSTAN,-10.8,-14.0,1034.3,1033.0,11.0,14.4,0.01,9.2,111000,50.0,64
470312,2021-02-18,15:02:35,CHINA,-2.1,-11.8,985.6,965.3,5.3,8.0,0.00,0.0,100000,29.2,91
443850,2021-02-18,15:02:35,MONGOLIA,-8.5,-19.6,896.4,1029.6,50.8,16.6,0.00,0.0,100000,14.6,36
548360,2021-02-18,15:02:35,CHINA,-4.0,-13.4,1030.7,1027.7,14.6,10.0,0.04,0.0,110000,50.3,31
523230,2021-02-18,15:02:35,CHINA,-14.3,-26.9,819.2,814.7,31.5,14.6,0.00,0.0,100000,33.7,14
476400,2021-02-18,15:02:35,JAPAN,-8.1,-16.1,920.5,913.9,30.6,5.3,0.00,0.0,100000,45.8,288
353020,2021-02-18,15:02:35,KAZAKHSTAN,-7.3,-10.8,1050.5,1035.0,19.9,18.2,0.00,0.0,100000,3.4,135
354260,2021-02-18,15:02:35,KAZAKHSTAN,-7.6,-11.0,1003.9,1025.3,38.9,11.8,0.00,4.8,101000,80.8,9
542920,2021-02-18,15:02:35,CHINA,-12.6,-23.2,1007.8,1025.5,21.2,11.5,0.00,0.0,100000,84.0,253
527370,2021-02-18,15:02:35,CHINA,-10.0,-25.4,725.3,726.7,25.6,7.2,0.00,0.0,100000,88.6,62
171400,2021-02-18,15:02:35,TURKEY,-7.7,-8.3,864.9,853.2,8.1,9.6,0.45,22.6,111000,50.1,108
367780,2021-02-18,15:02:35,KAZAKHSTAN,-12.0,-17.6,1060.9,1037.0,21.2,6.3,0.00,0.0,100000,91.1,204
532310,2021-02-18,15:02:35,CHINA,-13.2,-23.7,850.5,852.3,,20.6,0.01,0.0,110000,73.0,51
526740,2021-02-18,15:02:35,CHINA,-12.0,-24.9,801.4,797.0,28.7,10.9,0.01,0.0,110000,50.1,211
518280,2021-02-18,15:02:35,CHINA,-1.3,-12.9,897.8,1024.3,9.8,5.5,0.01,0.0,110000,50.2,249
471750,2021-02-18,15:02:35,KOREASOUTH,-0.7,-7.5,965.7,1024.1,13.5,21.2,0.06,0.0,110000,94.9,276
470250,2021-02-18,15:02:35,KOREANORTH,-4.9,-9.4,1015.1,1021.3,10.6,8.2,0.27,0.0,110000,50.5,12
350850,2021-02-18,15:02:35,KAZAKHSTAN,-13.6,-18.9,1017.7,1033.3,28.5,15.8,0.02,3.4,111000,74.9,337
544970,2021-02-18,15:02:35,CHINA,-2.5,-16.4,1025.0,1024.4,15.2,11.5,0.06,0.0,110000,50.3,350
470350,2021-02-18,15:02:35,KOREANORTH,-5.9,-13.4,1034.0,1024.8,16.3,11.6,0.05,0.0,110000,98.5,343
542180,2021-02-18,15:02:35,CHINA,-11.2,-23.5,992.0,1026.4,21.9,9.4,0.01,0.0,110000,50.0,180
442870,2021-02-18,15:02:35,MONGOLIA,-19.2,-23.3,813.8,1035.0,50.3,12.5,0.00,2.6,101000,50.4,62
382200,2021-02-18,15:02:35,KYRGYZSTAN,-8.0,-9.3,951.3,1031.1,6.9,6.9,0.00,6.8,101000,50.2,12
546560,2021-02-18,15:02:35,CHINA,-2.7,-8.4,1022.5,1024.8,20.2,25.3,0.00,0.0,100000,60.1,87
360030,2021-02-18,15:02:35,KAZAKHSTAN,-5.0,-9.1,1023.2,1030.2,23.4,16.3,0.01,5.0,111000,90.8,42
514310,2021-02-18,15:02:35,CHINA,-4.5,-7.9,976.8,1028.2,31.7,5.6,0.03,0.0,110000,50.5,146
470410,2021-02-18,15:02:35,KOREANORTH,-6.5,-12.0,1021.3,1021.6,13.3,9.6,0.03,0.0,110000,50.1,126
546180,2021-02-18,15:02:35,CHINA,-1.5,-9.9,1024.2,1026.1,10.9,9.8,0.08,0.0,110000,70.0,22
474400,2021-02-18,15:02:35,JAPAN,-7.7,-13.9,1012.4,1016.8,23.4,11.4,0.38,0.0,110000,53.0,130
475920,2021-02-18,15:02:35,JAPAN,-1.3,-6.6,1015.3,1018.1,19.5,12.5,0.17,0.9,111000,87.2,74
535430,2021-02-18,15:02:35,CHINA,-10.3,-21.6,883.3,1029.8,23.0,11.8,,0.0,110000,62.2,213
570460,2021-02-18,15:02:35,CHINA,-7.0,-15.0,817.5,831.5,18.2,16.1,0.03,0.0,110000,52.5,237
540120,2021-02-18,15:02:35,CHINA,-18.2,-23.6,935.8,1030.0,25.0,12.9,0.01,0.0,110000,50.3,177
509150,2021-02-18,15:02:35,CHINA,-19.9,-24.7,945.3,1029.6,29.3,10.4,0.02,0.0,110000,52.7,149
541610,2021-02-18,15:02:35,CHINA,-13.3,-21.1,1014.6,1024.0,12.5,13.5,0.02,0.0,110000,50.6,134
541611,2021-02-18,15:02:35,CHINA,-12.5,-24.9,1008.6,1008.0,9.8,17.4,0.00,0.0,100000,18.6,286
541570,2021-02-18,15:02:35,CHINA,-12.3,-19.2,1021.2,1024.3,14.8,10.8,0.04,0.0,110000,50.3,324
477560,2021-02-18,15:02:35,JAPAN,-0.6,-4.2,1001.3,1019.8,12.9,5.1,0.44,0.0,110000,58.6,158
507880,2021-02-18,15:02:35,CHINA,-17.1,-22.4,1023.1,1020.5,20.5,12.8,0.01,0.0,110000,50.5,268
170880,2021-02-18,15:02:35,TURKEY,-2.7,-4.3,876.6,878.7,16.4,11.8,0.05,16.2,111000,50.2,293
564440,2021-02-18,15:02:35,CHINA,-4.1,-10.0,734.6,734.9,23.3,11.0,0.04,0.0,110000,50.7,309
288790,2021-02-18,15:02:35,KAZAKHSTAN,-11.7,-15.7,1033.5,1031.1,9.9,16.9,0.00,0.9,101000,50.1,217
288770,2021-02-18,15:02:35,KAZAKHSTAN,-5.5,-10.8,1025.0,1022.8,14.7,12.2,0.03,1.9,111000,78.6,35
529570,2021-02-18,15:02:35,CHINA,-16.0,-33.0,723.5,726.8,26.9,14.1,0.00,0.0,100000,95.1,31
471240,2021-02-18,15:02:35,KOREASOUTH,-3.5,-12.7,1015.9,1042.0,11.6,10.7,0.00,0.0,100000,95.9,359
538630,2021-02-18,15:02:35,CHINA,-5.3,-13.8,1016.6,1028.0,13.2,8.4,0.02,0.0,110000,50.1,127
538870,2021-02-18,15:02:35,CHINA,-10.0,-27.0,915.3,1028.1,28.7,6.7,0.00,0.0,100000,49.5,332
564620,2021-02-18,15:02:35,CHINA,-1.9,-14.7,754.5,754.1,34.0,12.0,0.01,0.0,110000,50.2,83
357960,2021-02-18,15:02:35,KAZAKHSTAN,-8.5,-12.7,1018.5,1033.4,30.5,19.2,0.01,1.6,111000,67.7,295
546020,2021-02-18,15:02:35,CHINA,-3.5,-13.1,1022.0,1026.4,10.9,7.8,0.03,0.0,110000,64.9,213
474200,2021-02-18,15:02:35,JAPAN,-7.2,-11.9,1012.4,1015.2,20.6,15.2,0.06,3.8,111000,50.3,283
351910,2021-02-18,15:02:35,KAZAKHSTAN,-11.1,-18.2,1060.8,1042.6,37.0,12.1,0.00,0.0,100000,8.5,62
561720,2021-02-18,15:02:35,CHINA,-2.5,-12.9,778.4,781.1,32.3,3.5,0.04,0.0,110000,50.2,41
561730,2021-02-18,15:02:35,CHINA,-13.1,-24.4,660.4,670.4,29.4,10.6,0.00,0.0,100000,81.5,195
525760,2021-02-18,15:02:35,CHINA,-9.1,-22.1,852.6,855.6,30.5,17.9,0.00,0.0,100000,24.1,269
365350,2021-02-18,15:02:35,KAZAKHSTAN,-12.2,-15.9,1069.7,1040.2,45.3,7.0,0.00,0.0,100000,87.2,139
474280,2021-02-18,15:02:35,JAPAN,-3.4,-8.7,1012.1,1015.8,19.3,25.0,0.15,0.0,110000,50.4,124
526610,2021-02-18,15:02:35,CHINA,-11.0,-24.2,929.3,954.5,69.4,7.9,0.00,0.0,100000,22.4,244
544230,2021-02-18,15:02:35,CHINA,-10.2,-23.7,975.9,1024.6,24.2,5.0,0.00,0.0,100000,22.6,325
549060,2021-02-18,15:02:35,CHINA,-1.9,-10.5,1022.6,1026.4,17.8,8.2,0.02,0.0,110000,62.7,287
475150,2021-02-18,15:02:35,JAPAN,-2.6,-7.3,997.3,998.6,10.1,16.6,0.00,0.0,100000,99.6,34
534460,2021-02-18,15:02:35,CHINA,-11.6,-27.8,994.8,1031.1,13.5,12.7,0.00,0.0,100000,58.9,125
560650,2021-02-18,15:02:35,CHINA,-15.0,-26.6,661.0,660.0,26.6,9.6,0.01,0.0,110000,64.1,28
475530,2021-02-18,15:02:35,JAPAN,-2.3,-6.1,997.0,999.4,8.9,10.8,0.00,0.0,100000,25.6,325
478210,2021-02-18,15:02:35,JAPAN,-5.2,-11.0,892.3,899.2,29.2,12.6,0.00,0.0,100000,14.7,174
470690,2021-02-18,15:02:35,KOREANORTH,-4.5,-10.6,1021.9,1024.8,15.2,9.7,0.00,0.0,100000,90.9,179
517090,2021-02-18,15:02:35,CHINA,-1.5,-8.4,912.1,1026.9,15.3,5.9,0.01,0.0,110000,50.1,279
470700,2021-02-18,15:02:35,KOREANORTH,-4.2,-10.1,1028.4,1022.8,17.6,8.0,0.05,0.0,110000,88.7,106
540960,2021-02-18,15:02:35,CHINA,-15.5,-22.7,1022.9,1023.1,17.5,12.4,0.03,0.0,110000,50.3,13
547140,2021-02-18,15:02:35,CHINA,-3.5,-13.5,1029.4,1026.2,15.6,10.1,0.03,0.0,110000,50.1,228
471540,2021-02-18,15:02:35,KOREASOUTH,-0.1,-11.1,1012.8,1034.6,12.0,11.1,0.00,0.0,100000,6.8,284
471060,2021-02-18,15:02:35,KOREASOUTH,-4.1,-10.8,1017.0,1022.1,13.9,6.7,0.11,0.4,111000,50.2,319
542730,2021-02-18,15:02:35,CHINA,-16.8,-23.6,1017.2,1025.2,15.6,8.1,0.06,0.0,110000,67.6,344
583211,2021-02-18,15:02:35,CHINA,-0.3,-5.4,1006.8,999.5,9.5,9.6,0.00,0.0,100000,96.5,230
510530,2021-02-18,15:02:35,CHINA,-17.6,-20.9,1025.3,1035.8,25.8,14.6,0.01,0.0,110000,98.2,20
548570,2021-02-18,15:02:35,CHINA,-1.7,-8.7,1023.7,1026.6,12.4,20.2,0.03,0.0,110000,50.2,31
470460,2021-02-18,15:02:35,KOREANORTH,-4.1,-9.5,1024.0,1020.4,15.5,5.3,0.01,0.0,110000,62.4,244
347980,2021-02-18,15:02:35,KAZAKHSTAN,-3.2,-7.0,1018.8,1020.4,10.7,21.3,0.00,0.6,101000,74.7,41
381780,2021-02-18,15:02:35,UZBEKISTAN,-1.3,-6.4,1010.4,1025.2,14.4,10.7,0.00,0.0,100000,6.3,168
471170,2021-02-18,15:02:35,KOREASOUTH,-0.9,-6.4,1000.1,985.9,8.6,5.2,0.01,0.0,110000,50.3,72
541860,2021-02-18,15:02:35,CHINA,-16.0,-21.9,1013.4,1024.6,18.8,10.2,0.03,0.0,110000,50.2,143
524410,2021-02-18,15:02:35,CHINA,-14.2,-27.0,845.1,847.5,42.8,17.6,0.00,0.0,100000,78.4,354
516440,2021-02-18,15:02:35,CHINA,-2.7,-12.4,923.6,1028.1,22.7,7.4,0.01,0.0,110000,50.0,79
354160,2021-02-18,15:02:35,KAZAKHSTAN,-7.5,-10.3,1024.6,1027.4,7.6,17.4,0.03,5.6,111000,54.6,70
535020,2021-02-18,15:02:35,CHINA,-10.2,-21.9,979.8,1029.4,22.7,11.5,0.00,0.0,100000,46.5,178
547150,2021-02-18,15:02:35,CHINA,-2.8,-12.6,1025.4,1027.6,17.1,12.4,0.08,0.0,110000,63.4,148
542370,2021-02-18,15:02:35,CHINA,-16.5,-29.4,1006.2,1031.4,13.8,13.0,0.00,0.0,100000,39.3,21
470550,2021-02-18,15:02:35,KOREANORTH,-3.1,-10.4,1021.8,1023.0,16.2,8.7,0.46,0.3,111000,50.1,190
353760,2021-02-18,15:02:35,KAZAKHSTAN,-10.7,-15.1,991.0,1030.5,20.0,14.6,0.01,7.4,111000,69.8,179
170672,2021-02-18,15:02:35,TURKEY,-1.8,-4.8,993.7,1016.4,6.8,9.4,0.00,0.0,100000,3.0,163
170674,2021-02-18,15:02:35,TURKEY,-0.9,-4.8,1002.8,1016.2,8.0,19.3,0.00,0.0,100000,53.0,280
471290,2021-02-18,15:02:35,KOREASOUTH,-3.2,-9.3,1021.4,1024.0,19.2,8.4,0.03,0.0,110000,58.1,307
474230,2021-02-18,15:02:35,JAPAN,-4.8,-9.6,1009.6,1014.9,15.3,21.5,0.19,0.0,110000,92.3,12
474120,2021-02-18,15:02:35,JAPAN,-7.7,-11.7,1016.7,1016.1,9.5,8.0,0.19,17.8,111000,72.7,177
561460,2021-02-18,15:02:35,CHINA,-6.2,-19.3,680.6,677.7,31.5,7.2,0.02,0.0,110000,50.3,182
367440,2021-02-18,15:02:35,KAZAKHSTAN,-5.6,-8.6,1033.8,1034.0,43.9,10.5,0.08,1.0,111000,50.6,350
172480,2021-02-18,15:02:35,TURKEY,-3.9,-5.3,894.5,885.2,15.3,8.8,0.36,8.8,111000,87.0,44
478920,2021-02-18,15:02:35,JAPAN,-0.1,-9.2,1026.1,1028.6,27.2,9.5,0.00,0.0,100000,94.8,326
517470,2021-02-18,15:02:35,CHINA,-6.5,-18.0,893.8,1025.7,19.4,3.8,0.00,0.0,100000,35.6,53
541150,2021-02-18,15:02:35,CHINA,-14.2,-26.4,973.4,1027.1,24.5,11.0,0.01,0.0,110000,50.1,240
443540,2021-02-18,15:02:35,MONGOLIA,-14.8,-19.5,1058.4,1029.3,49.8,17.3,0.00,0.0,100000,46.8,285
442590,2021-02-18,15:02:35,MONGOLIA,-18.1,-20.6,950.2,1027.6,20.7,10.0,0.02,1.9,111000,50.0,350
470520,2021-02-18,15:02:35,KOREANORTH,-7.9,-10.5,1034.0,1028.5,13.8,4.7,0.00,0.0,100000,78.2,105
470990,2021-02-18,15:02:35,KOREASOUTH,-6.5,-12.8,1020.6,1024.6,11.6,5.6,0.01,0.0,110000,50.4,2
471030,2021-02-18,15:02:35,KOREASOUTH,-2.5,-6.3,1014.4,1022.6,12.2,21.2,0.00,0.0,100000,65.4,338
471025,2021-02-18,15:02:35,KOREASOUTH,-2.8,-8.6,1013.2,1022.3,11.6,4.2,0.00,0.0,100000,64.1,199
501360,2021-02-18,15:02:35,CHINA,-26.6,-31.4,968.2,1025.9,20.2,8.3,0.00,0.0,100000,10.4,1
549290,2021-02-18,15:02:35,CHINA,-0.8,-9.5,1023.4,1026.6,17.7,6.7,0.01,0.0,110000,72.1,281
581410,2021-02-18,15:02:35,CHINA,-0.9,-9.7,1031.8,1034.3,15.8,7.2,0.00,0.0,100000,30.9,295
534630,2021-02-18,15:02:35,CHINA,-11.5,-20.6,929.9,1030.4,16.7,7.0,0.01,0.0,110000,50.6,325
357910,2021-02-18,15:02:35,KAZAKHSTAN,-13.1,-16.5,1035.2,1036.4,40.3,6.2,0.03,2.4,111000,79.4,141
517110,2021-02-18,15:02:35,CHINA,-6.7,-14.6,801.1,805.2,24.9,8.8,0.02,0.0,110000,50.8,128
560040,2021-02-18,15:02:35,CHINA,-20.0,-30.6,1001.3,1001.2,30.3,19.9,0.00,0.0,100000,77.5,136
470600,2021-02-18,15:02:35,KOREANORTH,-4.3,-9.6,1028.3,1024.4,9.7,13.1,0.04,0.0,110000,50.3,204
387130,2021-02-18,15:02:35,TAJIKISTAN,-3.6,-8.9,996.0,1020.3,42.7,6.6,0.00,5.0,101000,55.5,15
509630,2021-02-18,15:02:35,CHINA,-19.5,-23.9,1019.7,1023.0,13.4,14.2,0.01,0.0,110000,50.3,126
534800,2021-02-18,15:02:35,CHINA,-14.4,-23.3,958.0,1030.3,26.1,11.7,0.03,0.0,110000,50.5,234
475570,2021-02-18,15:02:35,JAPAN,-0.7,-7.4,993.2,995.7,9.9,16.5,0.00,0.0,100000,73.3,346
524460,2021-02-18,15:02:35,CHINA,-11.1,-23.5,940.0,1033.7,43.6,13.5,0.00,0.0,100000,79.3,108
529080,2021-02-18,15:02:35,CHINA,-19.3,-31.6,999.9,1006.3,27.3,21.3,0.00,0.0,100000,93.5,196
474790,2021-02-18,15:02:35,JAPAN,-8.9,-12.5,1000.8,1000.7,8.1,13.6,0.00,0.0,100000,77.7,76
517650,2021-02-18,15:02:35,CHINA,-7.7,-19.1,939.6,1027.3,27.9,6.1,0.00,0.0,100000,47.2,25
560800,2021-02-18,15:02:35,CHINA,-12.2,-20.3,734.5,733.2,25.4,6.3,0.01,0.0,110000,95.6,158
560790,2021-02-18,15:02:35,CHINA,-12.2,-22.5,665.4,664.8,31.3,8.8,0.02,0.0,110000,50.4,232
357000,2021-02-18,15:02:35,KAZAKHSTAN,-3.1,-7.2,1025.3,1023.0,16.4,18.9,0.01,0.4,111000,50.3,172
475420,2021-02-18,15:02:35,JAPAN,-3.7,-8.0,999.7,1001.9,8.1,17.5,0.00,0.0,100000,53.5,233
542590,2021-02-18,15:02:35,CHINA,-14.2,-21.4,1025.0,1025.8,15.8,7.6,0.04,0.0,110000,91.1,252
471000,2021-02-18,15:02:35,KOREASOUTH,-8.5,-14.9,922.8,1024.3,13.6,15.4,0.19,13.0,111000,50.3,296
470980,2021-02-18,15:02:35,KOREASOUTH,-5.1,-13.0,1010.5,1024.6,12.9,6.9,0.00,0.0,100000,82.4,65
571930,2021-02-18,15:02:35,CHINA,-0.2,-8.6,1031.2,1026.3,14.3,9.0,0.02,0.0,110000,72.4,91
560460,2021-02-18,15:02:35,CHINA,-14.5,-24.9,671.4,671.8,25.1,8.0,0.01,0.0,110000,50.0,184
508620,2021-02-18,15:02:35,CHINA,-23.9,-30.7,988.8,1009.9,16.6,8.7,0.00,0.0,100000,21.1,349
368700,2021-02-18,15:02:35,KAZAKHSTAN,-2.3,-5.6,978.3,1022.2,8.1,3.7,0.29,2.9,111000,89.3,270
475880,2021-02-18,15:02:35,JAPAN,-3.6,-6.5,998.2,1017.1,10.9,6.7,0.07,0.0,110000,50.6,257
355490,2021-02-18,15:02:35,KAZAKHSTAN,-8.3,-11.5,1033.8,1030.4,22.2,9.9,0.00,4.8,101000,50.4,173
509780,2021-02-18,15:02:35,CHINA,-15.5,-21.7,1009.2,1022.3,26.5,12.5,0.01,0.0,110000,50.1,176
584450,2021-02-18,15:02:35,CHINA,-4.4,-11.3,875.3,946.9,15.7,20.1,0.19,0.0,110000,50.0,315
359970,2021-02-18,15:02:35,KAZAKHSTAN,-6.7,-11.4,1032.0,1034.0,25.1,9.9,,0.8,111000,58.5,68
443050,2021-02-18,15:02:35,MONGOLIA,-17.3,-20.4,950.4,1028.6,46.2,10.2,0.00,2.3,101000,97.6,99
536730,2021-02-18,15:02:35,CHINA,-8.1,-19.3,974.2,1028.2,17.5,8.7,0.01,0.0,110000,91.7,37
476370,2021-02-18,15:02:35,JAPAN,-3.6,-10.6,958.4,1018.2,27.3,9.5,0.18,0.0,110000,93.2,265
476120,2021-02-18,15:02:35,JAPAN,-0.6,-4.7,1017.4,1019.3,15.5,10.3,0.57,12.3,111000,50.0,357
475450,2021-02-18,15:02:35,JAPAN,-2.0,-6.1,1006.9,1004.4,8.9,15.4,0.00,0.0,100000,39.6,249
552280,2021-02-18,15:02:35,CHINA,-4.5,-18.5,603.4,600.6,30.2,12.0,0.01,0.0,110000,79.7,99
354060,2021-02-18,15:02:35,KAZAKHSTAN,-7.2,-11.2,1032.3,1028.9,24.0,21.6,0.01,0.0,110000,50.0,97
471100,2021-02-18,15:02:35,KOREASOUTH,-4.1,-9.2,1007.6,1010.5,9.5,10.5,0.00,0.0,100000,63.4,279
511560,2021-02-18,15:02:35,CHINA,-13.6,-19.4,928.5,1033.3,36.2,7.4,0.01,0.0,110000,50.6,199
513340,2021-02-18,15:02:35,CHINA,-8.6,-12.3,1030.5,1032.8,25.7,4.9,0.01,0.0,110000,50.2,165
530830,2021-02-18,15:02:35,CHINA,-18.4,-24.7,965.2,1031.2,29.2,12.9,0.01,0.0,110000,64.8,224
561250,2021-02-18,15:02:35,CHINA,-9.6,-22.3,650.0,654.8,23.4,7.5,0.03,0.0,110000,94.8,44
350420,2021-02-18,15:02:35,KAZAKHSTAN,-7.7,-11.4,1025.9,1025.6,16.6,17.7,0.00,6.3,101000,50.2,88
522030,2021-02-18,15:02:35,CHINA,-7.7,-18.1,989.1,,37.6,7.3,0.00,0.0,100000,80.8,147
505270,2021-02-18,15:02:35,CHINA,-24.1,-28.1,992.4,1028.1,17.3,8.9,0.01,0.0,110000,50.2,193
475120,2021-02-18,15:02:35,JAPAN,-3.4,-11.5,1018.7,1023.3,39.8,8.3,0.00,0.0,100000,24.0,263
563740,2021-02-18,15:02:35,CHINA,-3.0,-8.3,748.4,747.8,30.2,17.3,0.04,0.0,110000,91.7,307
537640,2021-02-18,15:02:35,CHINA,-8.0,-17.8,974.0,1029.5,19.0,8.4,0.12,0.0,110000,80.3,196
527070,2021-02-18,15:02:35,CHINA,-13.4,-32.1,725.5,721.6,21.4,11.7,0.00,0.0,100000,44.5,243
512880,2021-02-18,15:02:35,CHINA,-15.5,-23.5,836.1,838.7,35.2,7.3,0.01,0.0,110000,50.2,187
477420,2021-02-18,15:02:35,JAPAN,-1.2,-3.6,1026.9,1027.8,17.1,3.3,0.00,0.0,100000,56.1,353
353610,2021-02-18,15:02:35,KAZAKHSTAN,-10.1,-13.2,991.5,1021.0,26.4,8.0,0.00,0.0,100000,34.1,320
475980,2021-02-18,15:02:35,JAPAN,-0.1,-7.0,1021.9,1017.8,23.0,9.5,0.17,0.3,111000,50.3,103
509530,2021-02-18,15:02:35,CHINA,-16.9,-22.4,1015.9,1023.0,13.5,12.2,0.02,0.0,110000,92.8,218
362080,2021-02-18,15:02:35,KAZAKHSTAN,-23.4,-27.5,1013.6,1027.0,26.5,4.0,0.38,22.6,111000,50.0,228
346910,2021-02-18,15:02:35,KAZAKHSTAN,-3.6,-8.0,1022.2,1023.4,20.5,16.8,0.00,1.4,101000,67.9,24
521180,2021-02-18,15:02:35,CHINA,-13.5,-24.9,828.9,831.5,31.3,10.5,0.01,0.0,110000,79.4,88
549090,2021-02-18,15:02:35,CHINA,-1.0,-7.8,1021.1,1027.7,15.5,10.8,0.06,0.0,110000,50.1,144
353940,2021-02-18,15:02:35,KAZAKHSTAN,-10.1,-14.4,1006.2,1032.3,17.0,13.7,0.04,3.5,111000,50.6,193
539590,2021-02-18,15:02:35,CHINA,-1.4,-10.6,1011.0,1027.1,16.3,9.2,0.01,0.0,110000,50.3,51
476040,2021-02-18,15:02:35,JAPAN,-0.2,-5.2,1019.2,1018.8,14.7,15.3,0.21,6.1,111000,50.3,35
476000,2021-02-18,15:02:35,JAPAN,-0.1,-4.4,1018.4,1019.6,15.9,13.6,0.29,5.1,111000,50.2,354
443170,2021-02-18,15:02:35,MONGOLIA,-11.5,-16.2,890.0,1017.6,21.3,13.5,0.00,4.5,101000,50.8,289
477470,2021-02-18,15:02:35,JAPAN,-1.0,-3.0,1026.8,1027.5,14.5,4.4,0.19,0.0,110000,50.4,281
585060,2021-02-18,15:02:35,CHINA,-1.0,-4.8,977.7,1026.8,12.2,14.8,0.19,0.0,110000,94.1,221
527870,2021-02-18,15:02:35,CHINA,-13.4,-23.0,746.8,750.7,26.9,18.2,0.01,0.0,110000,72.9,25
477150,2021-02-18,15:02:35,JAPAN,-0.8,-6.7,1000.6,1003.7,9.1,10.3,0.09,0.6,111000,50.3,303
570710,2021-02-18,15:02:35,CHINA,-0.6,-9.2,1028.2,1027.9,13.1,10.8,0.06,0.0,110000,50.7,73
356990,2021-02-18,15:02:35,KAZAKHSTAN,-6.4,-15.4,958.4,1038.9,28.3,0.6,0.00,4.5,101000,50.8,128
535930,2021-02-18,15:02:35,CHINA,-11.8,-21.3,980.5,1029.0,24.1,7.3,0.01,0.0,110000,90.9,201
538210,2021-02-18,15:02:35,CHINA,-7.2,-18.4,931.6,1028.9,18.3,9.0,0.00,0.0,100000,0.4,93
443470,2021-02-18,15:02:35,MONGOLIA,-7.7,-27.4,861.4,1013.1,37.2,26.6,0.00,0.0,100000,23.8,3
534870,2021-02-18,15:02:35,CHINA,-10.8,-21.7,973.3,1029.3,16.5,11.6,0.01,0.0,110000,65.5,274
527540,2021-02-18,15:02:35,CHINA,-14.3,-27.1,676.2,676.3,24.0,10.6,0.00,0.0,100000,38.9,185
475750,2021-02-18,15:02:35,JAPAN,-3.5,-7.8,1020.5,1017.6,14.6,13.6,0.19,22.8,111000,60.9,222
510870,2021-02-18,15:02:35,CHINA,-9.4,-16.3,931.2,1032.2,23.5,6.1,0.00,0.0,100000,56.9,19
25105,2021-02-18,15:02:35,SINGAPORE,-1.0,-3.0,1010.7,998.4,10.7,6.4,0.00,0.0,100000,75.7,270
289570,2021-02-18,15:02:35,KAZAKHSTAN,-7.9,-10.4,1035.3,1028.2,10.3,11.5,0.00,6.8,101000,75.4,212
442820,2021-02-18,15:02:35,MONGOLIA,-8.5,-24.7,816.1,1009.4,49.2,7.3,0.00,0.0,100000,21.7,33
471360,2021-02-18,15:02:35,KOREASOUTH,-3.7,-9.8,1010.7,1024.1,18.1,7.3,0.06,0.0,110000,89.8,27
471370,2021-02-18,15:02:35,KOREASOUTH,-2.7,-10.9,1010.6,1023.0,15.6,6.8,0.03,0.0,110000,50.3,67
475160,2021-02-18,15:02:35,JAPAN,-3.0,-7.2,997.8,993.5,10.1,16.7,0.00,0.0,100000,0.1,2
474070,2021-02-18,15:02:35,JAPAN,-10.8,-14.0,1007.3,1016.5,9.4,6.5,0.11,20.4,111000,50.4,37
474060,2021-02-18,15:02:35,JAPAN,-7.4,-12.0,1011.2,1015.6,17.7,20.7,0.11,19.6,111000,50.8,73
523130,2021-02-18,15:02:35,CHINA,-12.0,-24.3,924.6,894.9,59.3,3.0,0.00,0.0,100000,9.3,188
470670,2021-02-18,15:02:35,KOREANORTH,-6.4,-10.5,1045.0,1024.9,15.5,7.3,0.00,0.0,100000,97.7,52
542260,2021-02-18,15:02:35,CHINA,-10.4,-23.6,1022.5,1025.9,25.6,14.9,0.01,0.0,110000,87.7,129
470680,2021-02-18,15:02:35,KOREANORTH,-4.4,-10.1,1030.9,1024.8,16.1,11.3,0.01,0.0,110000,50.0,171
555780,2021-02-18,15:02:35,CHINA,-8.2,-31.3,635.7,635.5,29.2,7.3,0.00,0.0,100000,67.0,234
504680,2021-02-18,15:02:35,CHINA,-20.5,-25.4,1011.4,1023.4,21.3,9.4,0.01,0.0,110000,86.7,327
509680,2021-02-18,15:02:35,CHINA,-19.7,-24.8,1025.2,1023.8,15.0,10.1,0.03,0.0,110000,51.9,54
508440,2021-02-18,15:02:35,CHINA,-14.8,-23.2,1026.3,1023.5,14.8,13.6,0.01,0.0,110000,50.2,32
380190,2021-02-18,15:02:35,KAZAKHSTAN,-10.8,-17.3,1042.0,1032.6,29.2,12.0,0.02,9.4,111000,92.6,60
544490,2021-02-18,15:02:35,CHINA,-0.3,-21.2,1031.1,1016.8,32.0,24.8,0.00,0.0,100000,47.7,297
545110,2021-02-18,15:02:35,CHINA,-3.9,-16.8,1022.7,1026.0,15.0,12.7,0.03,0.0,110000,73.3,120
474020,2021-02-18,15:02:35,JAPAN,-12.3,-14.9,1016.8,1017.9,21.6,10.5,0.11,0.0,110000,58.7,90
474010,2021-02-18,15:02:35,JAPAN,-7.3,-11.7,1011.3,1015.8,18.1,13.9,0.16,16.7,111000,90.5,198
515730,2021-02-18,15:02:35,CHINA,-3.7,-16.5,1023.0,1028.8,23.1,4.9,0.04,0.0,110000,65.0,219
356710,2021-02-18,15:02:35,KAZAKHSTAN,-10.8,-14.6,997.7,1029.5,20.2,17.3,0.00,5.0,101000,50.2,297
514670,2021-02-18,15:02:35,CHINA,-9.1,-23.0,829.6,831.0,27.7,9.0,0.00,0.0,100000,4.7,115
539470,2021-02-18,15:02:35,CHINA,-3.0,-11.3,949.9,1027.1,12.6,8.5,0.01,0.0,110000,57.5,203
570060,2021-02-18,15:02:35,CHINA,-2.1,-9.6,946.9,1025.4,11.3,5.4,0.01,0.0,110000,50.3,108
471064,2021-02-18,15:02:35,KOREASOUTH,-10.4,-14.0,1001.5,1011.1,10.6,10.1,0.00,0.0,100000,52.1,82
471066,2021-02-18,15:02:35,KOREASOUTH,-4.9,-12.1,1007.9,1002.2,8.8,5.6,0.00,0.0,100000,99.2,52
471050,2021-02-18,15:02:35,KOREASOUTH,-1.0,-9.6,1016.6,1021.8,20.5,11.7,0.18,1.4,111000,92.3,249
476490,2021-02-18,15:02:35,JAPAN,-0.1,-5.3,999.6,1019.5,18.6,12.3,0.28,0.0,110000,50.9,22
443140,2021-02-18,15:02:35,MONGOLIA,-15.3,-22.1,935.4,1022.0,17.4,18.9,0.01,1.8,111000,50.2,194
545390,2021-02-18,15:02:35,CHINA,-5.6,-14.7,1024.6,1027.3,18.4,10.8,0.03,0.0,110000,95.3,101
528660,2021-02-18,15:02:35,CHINA,-8.0,-21.3,772.2,771.4,16.1,7.6,0.00,0.0,100000,18.7,274
470750,2021-02-18,15:02:35,KOREANORTH,-5.9,-10.5,1027.7,1023.0,23.7,7.9,0.11,0.0,110000,50.6,260
508540,2021-02-18,15:02:35,CHINA,-17.5,-23.3,1022.5,1023.1,16.8,10.7,0.01,0.0,110000,95.1,302
474050,2021-02-18,15:02:35,JAPAN,-11.3,-14.9,1018.4,1019.1,40.1,10.2,0.06,0.0,110000,50.4,146
474340,2021-02-18,15:02:35,JAPAN,-10.4,-13.8,1002.8,1010.9,11.1,11.0,0.01,6.3,111000,54.8,270
474350,2021-02-18,15:02:35,JAPAN,-7.7,-12.4,1017.2,1019.3,38.3,11.8,0.16,0.0,110000,50.0,89
545870,2021-02-18,15:02:35,CHINA,-3.3,-9.8,1029.0,1024.9,27.7,22.7,0.26,0.0,110000,95.6,98
475840,2021-02-18,15:02:35,JAPAN,-4.3,-8.9,1007.1,1017.5,15.5,10.2,0.13,3.9,111000,50.1,122
535130,2021-02-18,15:02:35,CHINA,-9.7,-20.3,926.6,1029.6,21.4,7.3,0.00,0.0,100000,25.3,358
475900,2021-02-18,15:02:35,JAPAN,-1.0,-7.5,1014.6,1017.8,23.0,12.1,0.25,0.3,111000,50.2,203
529830,2021-02-18,15:02:35,CHINA,-10.9,-14.3,818.7,835.3,20.7,6.5,0.02,0.0,110000,66.9,324
549160,2021-02-18,15:02:35,CHINA,-2.7,-12.1,1029.1,1026.9,14.8,9.6,0.03,0.0,110000,50.1,136
548080,2021-02-18,15:02:35,CHINA,-2.4,-11.8,1030.3,1027.0,12.6,11.0,0.02,0.0,110000,50.3,103
513460,2021-02-18,15:02:35,CHINA,-18.3,-21.8,1068.1,1038.5,56.9,5.4,0.00,0.0,100000,56.7,300
354970,2021-02-18,15:02:35,KAZAKHSTAN,-7.5,-13.6,983.3,1035.4,31.2,,0.02,7.5,111000,50.7,202
475200,2021-02-18,15:02:35,JAPAN,-3.0,-7.1,1005.5,1018.6,16.2,11.2,0.15,0.0,110000,50.1,173
353860,2021-02-18,15:02:35,KAZAKHSTAN,-16.4,-19.0,986.9,989.7,17.4,9.5,0.00,0.0,100000,6.1,153
544360,2021-02-18,15:02:35,CHINA,-8.3,-20.8,1018.2,1026.0,26.5,6.1,0.02,0.0,110000,78.2,338
529550,2021-02-18,15:02:36,CHINA,-10.3,-24.7,694.8,691.0,30.6,7.6,0.00,0.0,100000,15.4,162
350780,2021-02-18,15:02:36,KAZAKHSTAN,-10.8,-13.0,1034.4,1033.0,11.0,14.3,0.01,9.2,111000,50.0,64
475530,2021-02-18,15:02:36,JAPAN,-2.3,-6.6,997.0,999.5,8.8,10.9,0.00,0.0,100000,25.7,326
470520,2021-02-18,15:02:36,KOREANORTH,-7.9,-11.7,1034.1,1028.5,13.7,4.6,0.00,0.0,100000,78.2,105
545390,2021-02-18,15:02:36,CHINA,-5.6,-13.5,1024.6,1027.3,18.4,10.7,0.03,0.0,110000,95.3,100
527650,2021-02-18,15:02:36,CHINA,-14.1,-26.4,715.2,717.4,20.6,9.0,0.00,0.0,100000,57.3,82
471920,2021-02-18,15:02:36,KOREASOUTH,-2.2,-10.4,1022.5,1022.5,21.5,6.9,0.06,0.0,110000,50.0,79
474230,2021-02-18,15:02:36,JAPAN,-4.9,-9.6,1009.6,1014.9,15.2,21.7,0.19,0.0,110000,92.3,12
474120,2021-02-18,15:02:36,JAPAN,-7.8,-12.5,1016.7,1016.1,9.4,7.9,0.19,17.8,111000,72.7,177
508620,2021-02-18,15:02:36,CHINA,-25.6,-28.8,988.9,1009.9,16.7,8.8,0.00,0.0,100000,21.1,349
368700,2021-02-18,15:02:36,KAZAKHSTAN,-2.3,-6.7,978.3,1022.2,8.0,3.7,0.29,2.9,111000,89.3,270
529960,2021-02-18,15:02:36,CHINA,-9.2,-13.9,778.7,779.2,15.1,15.7,0.01,0.0,110000,50.5,329
541610,2021-02-18,15:02:36,CHINA,-12.3,-21.1,1014.6,1024.0,12.5,13.4,0.02,0.0,110000,50.6,133
541611,2021-02-18,15:02:36,CHINA,-13.1,-26.3,1008.8,1007.6,9.9,17.4,0.00,0.0,100000,18.6,286
541570,2021-02-18,15:02:36,CHINA,-12.3,-20.5,1021.2,1024.3,14.7,10.8,0.04,0.0,110000,50.3,324
547760,2021-02-18,15:02:36,CHINA,-1.0,-7.3,1020.5,1025.8,19.8,24.2,0.07,0.0,110000,76.8,22
549290,2021-02-18,15:02:36,CHINA,-0.8,-10.7,1023.4,1026.6,17.7,6.7,0.01,0.0,110000,72.1,281
443850,2021-02-18,15:02:36,MONGOLIA,-7.9,-20.8,896.4,1029.6,50.8,16.7,0.00,0.0,100000,14.6,37
517110,2021-02-18,15:02:36,CHINA,-6.1,-15.6,801.1,805.2,24.9,8.8,0.02,0.0,110000,50.8,128
560040,2021-02-18,15:02:36,CHINA,-20.0,-32.4,1001.3,1001.2,30.2,20.1,0.00,0.0,100000,77.5,137
470600,2021-02-18,15:02:36,KOREANORTH,-4.3,-8.9,1028.3,1024.4,9.7,13.0,0.04,0.0,110000,50.3,203
171890,2021-02-18,15:02:36,TURKEY,-6.7,-10.4,901.4,926.3,15.5,12.6,0.24,9.4,111000,75.3,358
356330,2021-02-18,15:02:36,KAZAKHSTAN,-11.1,-13.7,1025.9,1023.8,21.7,16.6,0.00,5.2,101000,70.3,158
557730,2021-02-18,15:02:36,CHINA,-12.6,-21.8,620.3,621.1,20.0,11.7,0.00,0.0,100000,57.9,140
503530,2021-02-18,15:02:36,CHINA,-14.3,-21.0,998.6,1021.5,19.4,8.4,0.00,0.0,100000,7.6,226
542370,2021-02-18,15:02:36,CHINA,-17.2,-27.8,1006.2,1031.4,13.9,12.9,0.00,0.0,100000,39.3,21
470550,2021-02-18,15:02:36,KOREANORTH,-3.3,-10.4,1021.9,1023.0,16.2,8.7,0.46,0.3,111000,50.1,190
472185,2021-02-18,15:02:36,JAPAN,-5.2,-12.4,985.2,975.4,9.6,19.8,0.00,0.0,100000,74.1,316
355490,2021-02-18,15:02:36,KAZAKHSTAN,-7.9,-11.5,1034.0,1030.4,22.3,10.0,0.00,4.8,101000,50.5,174
530830,2021-02-18,15:02:36,CHINA,-19.8,-23.4,965.1,1031.2,29.1,12.8,0.01,0.0,110000,64.7,224
561250,2021-02-18,15:02:36,CHINA,-9.1,-23.8,650.0,654.8,23.3,7.4,0.03,0.0,110000,94.8,44
529830,2021-02-18,15:02:36,CHINA,-10.4,-15.4,818.7,835.4,20.8,6.5,0.02,0.0,110000,66.9,324
581500,2021-02-18,15:02:36,CHINA,-0.7,-5.0,1028.1,1026.6,13.9,11.1,0.12,0.0,110000,56.3,315
564620,2021-02-18,15:02:36,CHINA,-1.9,-14.7,754.5,754.1,33.9,12.0,0.01,0.0,110000,50.2,84
474130,2021-02-18,15:02:36,JAPAN,-7.0,-9.0,1008.2,1014.7,16.8,9.7,0.03,0.0,110000,50.1,279
474170,2021-02-18,15:02:36,JAPAN,-15.4,-20.5,1009.8,1015.0,10.3,5.5,0.04,0.0,110000,51.1,263
542590,2021-02-18,15:02:36,CHINA,-13.2,-19.8,1025.0,1025.8,15.8,7.6,0.04,0.0,110000,91.0,253
471000,2021-02-18,15:02:36,KOREASOUTH,-8.5,-13.8,922.8,1024.3,13.6,15.3,0.19,13.0,111000,50.3,296
470980,2021-02-18,15:02:36,KOREASOUTH,-5.2,-14.4,1010.5,1024.6,12.9,6.9,0.00,0.0,100000,82.4,64
518550,2021-02-18,15:02:36,CHINA,-7.6,-21.7,933.0,1025.4,17.5,7.7,0.00,0.0,100000,93.8,253
543860,2021-02-18,15:02:36,CHINA,-16.5,-23.4,965.8,1026.2,18.3,10.1,0.04,0.0,110000,73.5,276
363350,2021-02-18,15:02:36,KAZAKHSTAN,-9.9,-13.6,1031.4,1033.1,43.2,18.1,0.04,7.6,111000,50.7,16
471223,2021-02-18,15:02:36,KOREASOUTH,-0.5,-2.5,1010.0,1018.1,4.5,11.7,1.07,0.0,110000,50.2,154
471220,2021-02-18,15:02:36,KOREASOUTH,-4.7,-9.5,1017.1,1018.1,9.8,8.2,0.03,0.3,111000,50.1,12
477420,2021-02-18,15:02:36,JAPAN,-1.1,-4.2,1026.9,1027.8,17.2,3.3,0.00,0.0,100000,56.1,353
537230,2021-02-18,15:02:36,CHINA,-9.5,-20.1,908.1,1029.7,19.9,8.5,0.02,0.0,110000,80.8,75
537640,2021-02-18,15:02:36,CHINA,-7.5,-16.4,974.0,1029.5,19.0,8.3,0.12,0.0,110000,80.3,196
529080,2021-02-18,15:02:36,CHINA,-19.3,-30.0,999.9,1006.4,27.3,21.2,0.00,0.0,100000,93.5,196
474790,2021-02-18,15:02:36,JAPAN,-8.9,-12.5,1000.8,1000.7,8.1,13.7,0.00,0.0,100000,77.7,77
442770,2021-02-18,15:02:36,MONGOLIA,-24.0,-30.0,996.5,1028.3,49.0,18.0,0.00,0.0,100000,27.4,124
354590,2021-02-18,15:02:36,KAZAKHSTAN,-7.6,-13.9,1031.9,1029.9,48.2,24.3,0.00,4.5,101000,50.2,213
581020,2021-02-18,15:02:36,CHINA,-0.3,-7.2,1021.5,1026.7,18.4,8.6,0.08,0.0,110000,69.4,232
474300,2021-02-18,15:02:36,JAPAN,-5.7,-10.4,1016.4,1016.6,13.3,12.8,0.09,8.8,111000,97.1,126
474180,2021-02-18,15:02:36,JAPAN,-9.7,-14.2,1011.4,1015.7,20.5,15.3,0.06,5.1,111000,86.6,266
351880,2021-02-18,15:02:36,KAZAKHSTAN,-11.6,-14.8,1028.0,1028.9,16.1,16.4,0.22,1.9,111000,89.7,85
528420,2021-02-18,15:02:36,CHINA,-2.0,-18.8,696.7,692.0,17.0,15.0,0.00,0.0,100000,83.5,28
516280,2021-02-18,15:02:36,CHINA,-1.7,-8.5,998.8,1030.7,19.3,4.2,0.00,0.0,100000,53.3,160
470500,2021-02-18,15:02:36,KOREANORTH,-7.2,-13.5,1027.3,1023.9,14.7,7.5,0.08,0.0,110000,91.1,208
523130,2021-02-18,15:02:36,CHINA,-12.6,-22.3,924.6,894.9,59.3,2.9,0.00,0.0,100000,9.3,188
470670,2021-02-18,15:02:36,KOREANORTH,-6.8,-11.6,1045.0,1024.9,15.6,7.3,0.00,0.0,100000,97.7,52
542260,2021-02-18,15:02:36,CHINA,-11.0,-24.8,1022.5,1026.0,25.5,15.0,0.01,0.0,110000,87.7,130
470680,2021-02-18,15:02:36,KOREANORTH,-4.4,-9.1,1030.9,1024.8,16.0,11.2,0.01,0.0,110000,50.0,171
583430,2021-02-18,15:02:36,CHINA,-0.2,-5.9,1013.1,1025.9,16.3,10.5,0.00,0.0,100000,97.9,18
475800,2021-02-18,15:02:36,JAPAN,-2.8,-6.9,1004.7,1005.2,11.5,14.1,0.00,1.7,101000,51.8,62
583211,2021-02-18,15:02:36,CHINA,-0.1,-5.4,1007.0,999.0,9.5,9.6,0.00,0.0,100000,96.5,231
510530,2021-02-18,15:02:36,CHINA,-16.8,-20.9,1025.3,1035.8,25.9,14.5,0.01,0.0,110000,98.2,20
470312,2021-02-18,15:02:36,CHINA,-2.1,-11.8,985.5,965.1,5.2,8.1,0.00,0.0,100000,29.2,91
358490,2021-02-18,15:02:36,KAZAKHSTAN,-4.8,-8.8,1017.2,1024.3,18.1,11.9,0.02,1.1,111000,50.0,91
546020,2021-02-18,15:02:36,CHINA,-3.5,-14.2,1022.0,1026.4,10.8,7.8,0.03,0.0,110000,64.9,213
474200,2021-02-18,15:02:36,JAPAN,-7.8,-11.9,1012.4,1015.2,20.7,15.1,0.06,3.8,111000,50.4,283
351910,2021-02-18,15:02:36,KAZAKHSTAN,-11.3,-18.2,1060.8,1042.6,36.8,12.0,0.00,0.0,100000,8.5,62
345810,2021-02-18,15:02:36,KAZAKHSTAN,-1.2,-6.2,1043.7,1027.4,50.8,18.1,0.00,0.0,100000,25.0,235
381980,2021-02-18,15:02:36,KAZAKHSTAN,-1.6,-7.1,1030.4,1026.3,21.4,8.4,0.32,0.4,111000,62.7,170
514310,2021-02-18,15:02:36,CHINA,-4.5,-7.9,976.8,1028.2,31.7,5.6,0.03,0.0,110000,50.5,146
383280,2021-02-18,15:02:36,KAZAKHSTAN,-1.8,-5.5,952.1,1025.8,10.2,11.0,0.00,2.4,101000,50.7,177
544360,2021-02-18,15:02:36,CHINA,-8.3,-19.3,1018.2,1026.0,26.6,6.0,0.02,0.0,110000,78.2,338
548430,2021-02-18,15:02:36,CHINA,-4.5,-13.1,1023.9,1026.6,17.0,12.2,0.04,0.0,110000,50.9,23
561930,2021-02-18,15:02:36,CHINA,-1.3,-5.7,1033.7,1031.2,14.2,2.6,0.11,0.0,110000,50.4,35
570360,2021-02-18,15:02:36,CHINA,-0.9,-7.6,1011.4,1025.3,8.8,7.1,0.04,0.0,110000,50.5,271
382320,2021-02-18,15:02:36,KAZAKHSTAN,-0.4,-6.7,1020.9,1023.7,33.6,13.4,0.02,0.4,111000,50.3,66
548360,2021-02-18,15:02:36,CHINA,-4.0,-13.4,1030.6,1027.7,14.6,10.0,0.04,0.0,110000,50.3,30
523230,2021-02-18,15:02:36,CHINA,-5.6,-26.9,819.2,814.8,31.5,14.7,0.00,0.0,100000,33.6,15
507740,2021-02-18,15:02:36,CHINA,-21.0,-27.5,1013.2,1023.1,10.5,7.0,0.01,0.0,110000,50.1,328
546180,2021-02-18,15:02:36,CHINA,-1.5,-11.1,1024.2,1026.1,11.0,9.9,0.08,0.0,110000,70.0,22
474400,2021-02-18,15:02:36,JAPAN,-8.0,-13.2,1012.4,1016.8,23.4,11.3,0.38,0.0,110000,53.0,129
355320,2021-02-18,15:02:36,KAZAKHSTAN,-2.6,-4.6,1013.4,1027.9,15.7,18.6,0.06,15.6,111000,75.6,4
354970,2021-02-18,15:02:36,KAZAKHSTAN,-7.5,-12.5,983.3,1035.4,31.1,11.7,0.02,7.5,111000,50.6,202
387130,2021-02-18,15:02:36,TAJIKISTAN,-3.6,-7.5,996.0,1020.3,42.7,6.7,0.00,5.0,101000,55.5,15
476370,2021-02-18,15:02:36,JAPAN,-3.5,-9.5,958.4,1018.2,27.2,9.5,0.18,0.0,110000,93.1,265
514670,2021-02-18,15:02:36,CHINA,-9.4,-23.0,829.6,831.0,27.8,9.0,0.00,0.0,100000,4.7,116
539470,2021-02-18,15:02:36,CHINA,-2.8,-12.3,949.9,1027.2,12.6,8.4,0.01,0.0,110000,57.5,204
570060,2021-02-18,15:02:36,CHINA,-2.2,-10.7,946.9,1025.4,11.3,5.4,0.01,0.0,110000,50.3,107
478210,2021-02-18,15:02:36,JAPAN,-5.4,-11.0,892.3,899.2,29.3,12.7,0.00,0.0,100000,14.7,174
548630,2021-02-18,15:02:36,CHINA,-3.0,-11.9,1026.6,1026.4,19.9,14.0,0.03,0.0,110000,50.3,340
507450,2021-02-18,15:02:36,CHINA,-16.7,-22.8,1015.0,1023.0,11.4,11.1,0.01,0.0,110000,51.0,222
477560,2021-02-18,15:02:36,JAPAN,-0.7,-5.3,1001.3,1019.8,12.8,5.0,0.44,0.0,110000,58.7,158
475840,2021-02-18,15:02:36,JAPAN,-4.3,-9.8,1007.1,1017.5,15.6,10.3,0.13,3.9,111000,50.1,123
535130,2021-02-18,15:02:36,CHINA,-9.1,-20.3,926.6,1029.6,21.4,7.3,0.00,0.0,100000,25.3,358
475900,2021-02-18,15:02:36,JAPAN,-1.0,-6.8,1014.6,1017.7,23.0,12.2,0.25,0.3,111000,50.2,203
581410,2021-02-18,15:02:36,CHINA,-0.8,-9.7,1031.9,1034.3,15.9,7.2,0.00,0.0,100000,30.9,295
513340,2021-02-18,15:02:36,CHINA,-8.6,-12.3,1030.5,1032.8,25.8,4.9,0.01,0.0,110000,50.2,165
543460,2021-02-18,15:02:36,CHINA,-8.6,-16.3,1019.2,1025.9,13.9,9.1,0.04,0.0,110000,53.2,208
363970,2021-02-18,15:02:36,KAZAKHSTAN,-4.6,-8.7,1045.0,1036.7,24.7,33.5,1.07,2.6,111000,91.6,281
525760,2021-02-18,15:02:36,CHINA,-9.1,-23.3,852.6,855.5,30.4,17.8,0.00,0.0,100000,24.1,269
471290,2021-02-18,15:02:36,KOREASOUTH,-3.2,-9.3,1021.4,1024.0,19.1,8.5,0.03,0.0,110000,58.1,306
564440,2021-02-18,15:02:36,CHINA,-3.8,-11.1,734.6,734.9,23.3,10.9,0.04,0.0,110000,50.7,310
507270,2021-02-18,15:02:36,CHINA,-23.4,-27.5,914.8,1028.3,25.9,7.4,0.01,0.0,110000,50.2,349
356050,2021-02-18,15:02:36,KAZAKHSTAN,-0.3,-1.6,1036.5,1014.5,22.5,18.2,0.19,0.0,110000,50.3,160
366220,2021-02-18,15:02:36,KAZAKHSTAN,-7.6,-11.3,1034.1,1037.4,43.0,13.8,0.02,6.3,111000,51.9,126
547150,2021-02-18,15:02:36,CHINA,-2.6,-11.5,1025.4,1027.6,17.0,12.5,0.08,0.0,110000,63.5,148
474410,2021-02-18,15:02:36,JAPAN,-6.5,-11.6,1004.0,1006.2,9.4,24.4,0.00,0.0,100000,82.7,98
471100,2021-02-18,15:02:36,KOREASOUTH,-4.1,-9.2,1007.6,1010.5,9.5,10.4,0.00,0.0,100000,63.4,279
504680,2021-02-18,15:02:36,CHINA,-21.6,-26.8,1011.4,1023.4,21.4,9.3,0.01,0.0,110000,86.8,327
369820,2021-02-18,15:02:36,KYRGYZSTAN,-21.7,-27.6,646.3,646.7,43.0,9.9,0.00,0.0,100000,63.8,265
534870,2021-02-18,15:02:36,CHINA,-10.8,-23.1,973.3,1029.3,16.6,11.7,0.01,0.0,110000,65.4,274
537050,2021-02-18,15:02:36,CHINA,-7.2,-19.6,974.7,1028.6,19.3,11.3,0.01,0.0,110000,50.3,251
509630,2021-02-18,15:02:36,CHINA,-19.5,-22.3,1019.7,1023.0,13.4,14.3,0.01,0.0,110000,50.4,125
515730,2021-02-18,15:02:36,CHINA,-3.7,-16.5,1022.9,1028.8,23.1,4.8,0.04,0.0,110000,65.0,219
356710,2021-02-18,15:02:36,KAZAKHSTAN,-10.8,-13.7,997.8,1029.5,20.3,17.3,0.00,5.0,101000,50.1,297
443290,2021-02-18,15:02:36,MONGOLIA,-14.9,-18.4,779.6,1033.1,19.5,14.0,0.00,3.2,101000,50.1,226
476200,2021-02-18,15:02:36,JAPAN,-3.2,-7.7,926.7,1018.6,27.1,12.7,0.18,0.0,110000,50.1,123
382200,2021-02-18,15:02:36,KYRGYZSTAN,-8.0,-11.3,951.3,1031.1,7.0,6.8,0.00,6.8,101000,50.3,12
546560,2021-02-18,15:02:36,CHINA,-2.7,-8.4,1022.5,1024.8,20.2,25.2,0.00,0.0,100000,60.2,87
531920,2021-02-18,15:02:36,CHINA,-19.7,-24.9,918.0,1033.1,31.0,10.5,0.01,0.0,110000,63.5,238
170672,2021-02-18,15:02:36,TURKEY,-1.8,-4.8,993.6,1016.6,6.8,9.5,0.00,0.0,100000,2.9,163
170674,2021-02-18,15:02:36,TURKEY,-0.7,-3.8,1003.0,1016.5,8.0,19.1,0.00,0.0,100000,53.0,280
548260,2021-02-18,15:02:36,CHINA,-8.5,-20.1,871.4,874.1,27.2,26.2,0.08,0.0,110000,50.8,359
517650,2021-02-18,15:02:36,CHINA,-8.2,-20.8,939.6,1027.3,27.8,6.0,0.00,0.0,100000,47.2,25
560800,2021-02-18,15:02:36,CHINA,-12.2,-20.3,734.5,733.3,25.4,6.4,0.01,0.0,110000,95.6,158
560790,2021-02-18,15:02:36,CHINA,-12.2,-22.5,665.4,664.8,31.3,8.9,0.02,0.0,110000,50.3,232
471070,2021-02-18,15:02:36,KOREASOUTH,-2.1,-8.2,1013.3,1014.1,12.4,11.7,0.00,0.3,101000,61.0,123
471065,2021-02-18,15:02:36,KOREASOUTH,-1.8,-6.0,1015.7,983.3,11.1,10.0,0.00,3.2,101000,76.2,202
474340,2021-02-18,15:02:36,JAPAN,-10.4,-13.8,1002.8,1010.8,11.0,10.9,0.01,6.3,111000,54.8,271
474350,2021-02-18,15:02:36,JAPAN,-7.7,-11.8,1017.3,1019.4,38.4,11.9,0.16,0.0,110000,50.0,89
545870,2021-02-18,15:02:36,CHINA,-3.5,-10.5,1029.0,1024.8,27.8,22.5,0.26,0.0,110000,95.6,98
350420,2021-02-18,15:02:36,KAZAKHSTAN,-7.0,-10.2,1025.8,1025.6,16.7,17.6,0.00,6.3,101000,50.1,87
522030,2021-02-18,15:02:36,CHINA,-7.7,-19.5,989.1,1027.9,37.6,7.3,0.00,0.0,100000,80.7,146
561370,2021-02-18,15:02:36,CHINA,-5.1,-20.1,715.8,711.9,25.3,5.1,0.01,0.0,110000,50.0,108
546620,2021-02-18,15:02:36,CHINA,-1.3,-12.0,1022.3,1025.7,13.9,17.8,0.02,0.0,110000,64.4,243
549160,2021-02-18,15:02:36,CHINA,-2.7,-10.9,1029.1,1026.9,14.8,9.6,0.03,0.0,110000,50.1,136
354260,2021-02-18,15:02:36,KAZAKHSTAN,-7.6,-11.7,1003.9,1025.2,38.8,11.7,0.00,4.8,101000,80.9,8
561460,2021-02-18,15:02:36,CHINA,-6.2,-19.3,680.6,677.7,31.5,7.3,0.02,0.0,110000,50.2,181
367440,2021-02-18,15:02:36,KAZAKHSTAN,-5.6,-9.9,1033.9,1034.0,44.0,10.6,0.08,1.0,111000,50.7,350
549090,2021-02-18,15:02:36,CHINA,-1.0,-8.9,1021.1,1027.7,15.4,10.8,0.06,0.0,110000,50.1,144
541350,2021-02-18,15:02:36,CHINA,-12.7,-24.4,1018.4,1024.7,25.5,15.1,0.01,0.0,110000,51.6,186
361860,2021-02-18,15:02:36,KAZAKHSTAN,-4.7,-7.2,1023.2,1025.7,12.0,2.9,0.00,0.0,100000,32.7,202
538630,2021-02-18,15:02:36,CHINA,-5.3,-13.8,1016.6,1028.0,13.3,8.4,0.02,0.0,110000,50.1,127
538870,2021-02-18,15:02:36,CHINA,-10.7,-29.0,915.3,1028.0,28.8,6.8,0.00,0.0,100000,49.4,331
524360,2021-02-18,15:02:36,CHINA,-10.7,-22.9,863.3,1029.2,30.2,13.1,0.00,0.0,100000,77.8,28
470050,2021-02-18,15:02:36,KOREANORTH,-18.4,-22.2,900.1,898.5,19.9,6.2,0.06,6.7,111000,50.5,67
287850,2021-02-18,15:02:36,KAZAKHSTAN,-8.5,-10.9,1031.0,1021.0,16.5,4.1,0.00,13.2,101000,77.4,168
526740,2021-02-18,15:02:36,CHINA,-12.0,-23.5,801.4,797.0,28.8,10.8,0.01,0.0,110000,50.1,211
518280,2021-02-18,15:02:36,CHINA,-2.1,-12.9,897.8,1024.3,9.9,5.4,0.01,0.0,110000,50.2,249
474900,2021-02-18,15:02:36,JAPAN,-10.9,-16.3,992.8,995.9,10.1,8.7,0.00,0.0,100000,32.8,144
474890,2021-02-18,15:02:36,JAPAN,-8.0,-14.0,1002.5,1001.6,10.5,10.7,0.00,0.0,100000,65.4,251
505480,2021-02-18,15:02:36,CHINA,-21.3,-24.1,998.3,1010.6,30.5,3.4,0.00,0.0,100000,,227
560290,2021-02-18,15:02:36,CHINA,-8.4,-21.4,645.7,645.7,29.3,4.1,0.01,0.0,110000,71.3,302
581440,2021-02-18,15:02:36,CHINA,-0.3,-6.4,1026.9,1026.4,16.6,9.5,0.08,0.0,110000,50.2,12
538980,2021-02-18,15:02:36,CHINA,-1.8,-10.3,1023.5,1027.2,12.9,7.8,0.03,0.0,110000,50.2,91
475450,2021-02-18,15:02:36,JAPAN,-1.8,-6.7,1006.8,1004.3,8.9,15.3,0.00,0.0,100000,39.7,249
552280,2021-02-18,15:02:36,CHINA,-4.7,-19.8,603.4,600.5,30.3,11.8,0.01,0.0,110000,79.7,99
354060,2021-02-18,15:02:36,KAZAKHSTAN,-7.2,-11.2,1032.2,1028.9,24.0,21.7,0.01,0.0,110000,50.0,97
514635,2021-02-18,15:02:36,CHINA,-12.4,-15.7,989.5,987.9,3.5,4.8,0.00,0.0,100000,71.0,315
513790,2021-02-18,15:02:36,CHINA,-18.4,-23.2,1018.0,1036.0,26.4,9.9,0.01,0.0,110000,53.0,118
509680,2021-02-18,15:02:36,CHINA,-19.7,-24.8,1025.2,1023.8,14.9,10.2,0.03,0.0,110000,51.9,54
534460,2021-02-18,15:02:36,CHINA,-12.2,-25.8,994.9,1031.1,13.5,12.8,0.00,0.0,100000,58.8,125
528660,2021-02-18,15:02:36,CHINA,-8.0,-19.8,772.2,771.4,16.1,7.5,0.00,0.0,100000,18.8,273
350850,2021-02-18,15:02:36,KAZAKHSTAN,-13.6,-18.9,1017.7,1033.3,28.6,15.7,0.02,3.4,111000,74.8,337
544970,2021-02-18,15:02:36,CHINA,-6.9,-16.4,1025.0,1024.4,15.2,11.4,0.06,0.0,110000,50.3,350
527540,2021-02-18,15:02:36,CHINA,-14.3,-27.1,676.2,676.3,23.9,10.7,0.00,0.0,100000,39.0,184
353760,2021-02-18,15:02:36,KAZAKHSTAN,-10.8,-15.1,991.0,1030.5,20.1,14.5,0.01,7.4,111000,69.8,179
470990,2021-02-18,15:02:36,KOREASOUTH,-6.5,-12.8,1020.6,1024.6,11.6,5.6,0.01,0.0,110000,50.4,2
471030,2021-02-18,15:02:36,KOREASOUTH,-2.4,-6.3,1014.4,1022.6,12.2,21.1,0.00,0.0,100000,65.4,338
471025,2021-02-18,15:02:36,KOREASOUTH,-2.7,-8.6,1013.2,1022.3,11.6,4.2,0.00,0.0,100000,64.2,199
501360,2021-02-18,15:02:36,CHINA,-26.6,-33.9,968.2,1025.9,20.3,8.2,0.00,0.0,100000,10.4,0
443730,2021-02-18,15:02:36,MONGOLIA,-11.5,-22.5,854.3,1027.7,45.0,9.3,0.00,0.2,101000,50.6,346
443740,2021-02-18,15:02:36,MONGOLIA,-13.7,-22.0,830.7,1030.7,49.4,14.4,0.00,1.3,101000,69.6,341
475420,2021-02-18,15:02:36,JAPAN,-3.7,-8.0,999.6,1001.9,8.2,17.6,0.00,0.0,100000,53.5,233
549450,2021-02-18,15:02:36,CHINA,-1.4,-8.9,1024.7,1027.0,17.0,12.7,0.09,0.0,110000,50.1,31
343980,2021-02-18,15:02:36,KAZAKHSTAN,-8.1,-10.7,1016.2,1015.7,17.5,16.2,0.00,5.6,101000,82.7,170
509530,2021-02-18,15:02:36,CHINA,-16.9,-22.4,1016.0,1023.0,13.6,12.2,0.02,0.0,110000,92.8,217
536460,2021-02-18,15:02:36,CHINA,-9.0,-18.1,928.0,1029.2,17.8,9.8,0.01,0.0,110000,50.7,20
540270,2021-02-18,15:02:36,CHINA,-12.7,-26.4,993.9,1025.4,29.5,12.2,0.01,0.0,110000,50.1,48
544830,2021-02-18,15:02:36,CHINA,-15.4,-23.9,1025.9,1024.4,16.1,7.3,0.01,0.0,110000,55.0,181
570230,2021-02-18,15:02:36,CHINA,-0.3,-11.9,872.7,1009.8,11.2,5.4,0.00,0.0,100000,47.0,95
357460,2021-02-18,15:02:36,KAZAKHSTAN,-8.5,-11.3,1025.4,1027.7,16.4,18.9,0.01,1.1,111000,99.2,123
442410,2021-02-18,15:02:36,MONGOLIA,-22.3,-26.6,1029.8,1033.6,45.5,9.5,0.00,1.9,101000,65.1,158
538210,2021-02-18,15:02:36,CHINA,-7.2,-20.0,931.7,1029.0,18.3,8.9,0.00,0.0,100000,0.4,93
443470,2021-02-18,15:02:36,MONGOLIA,-7.6,-25.9,861.4,1013.2,37.3,26.7,0.00,0.0,100000,23.8,4
560460,2021-02-18,15:02:36,CHINA,-14.5,-23.2,671.4,671.8,25.1,7.9,0.01,0.0,110000,50.0,184
561440,2021-02-18,15:02:36,CHINA,-4.6,-20.6,683.3,684.3,35.3,4.9,0.00,0.0,100000,73.2,217
518480,2021-02-18,15:02:36,CHINA,-5.7,-20.5,923.6,1027.2,15.5,7.1,0.00,0.0,100000,49.6,278
517470,2021-02-18,15:02:36,CHINA,-6.5,-19.8,893.8,1025.7,19.4,3.9,0.00,0.0,100000,35.6,53
471170,2021-02-18,15:02:36,KOREASOUTH,-1.0,-6.4,1000.1,986.0,8.5,5.1,0.01,0.0,110000,50.3,72
475160,2021-02-18,15:02:36,JAPAN,-2.9,-7.2,997.8,993.5,10.1,16.9,0.00,0.0,100000,0.0,3
561820,2021-02-18,15:02:36,CHINA,-7.2,-16.9,778.5,822.0,28.2,6.5,0.06,0.0,110000,50.5,226
470900,2021-02-18,15:02:36,KOREASOUTH,-1.0,-9.2,1020.0,1021.3,20.3,10.9,0.17,0.5,111000,96.9,112
470080,2021-02-18,15:02:36,KOREANORTH,-7.1,-12.4,1015.7,1022.0,11.9,8.2,0.01,0.0,110000,72.9,241
442120,2021-02-18,15:02:36,MONGOLIA,-33.1,-34.7,914.6,1040.7,46.4,2.7,0.00,11.3,101000,79.7,329
544050,2021-02-18,15:02:36,CHINA,-7.7,-20.4,1023.7,1028.0,21.4,12.5,0.01,0.0,110000,55.4,67
442140,2021-02-18,15:02:36,MONGOLIA,-15.6,-23.3,827.1,1027.9,9.1,15.4,0.00,0.0,100000,91.8,237
527070,2021-02-18,15:02:36,CHINA,-13.7,-30.2,725.5,721.6,21.4,11.6,0.00,0.0,100000,44.5,244
477470,2021-02-18,15:02:36,JAPAN,-1.0,-2.4,1026.8,1027.6,14.6,4.5,0.19,0.0,110000,50.5,281
528180,2021-02-18,15:02:36,CHINA,-9.7,-27.6,753.9,752.8,26.8,8.8,0.00,0.0,100000,70.3,87
474210,2021-02-18,15:02:36,JAPAN,-4.6,-9.7,1015.2,,18.8,18.9,0.14,14.5,111000,50.5,322
508440,2021-02-18,15:02:36,CHINA,-14.8,-24.5,1026.4,1023.6,14.9,13.5,0.01,0.0,110000,50.2,32
513460,2021-02-18,15:02:36,CHINA,-19.1,-20.6,1068.0,1038.5,57.0,5.4,0.00,0.0,100000,56.7,299
547250,2021-02-18,15:02:36,CHINA,-3.9,-12.6,1026.5,1026.5,14.2,12.3,0.08,0.0,110000,70.8,179
443140,2021-02-18,15:02:36,MONGOLIA,-15.3,-22.1,935.4,1022.0,17.3,19.0,0.01,1.8,111000,50.2,195
471400,2021-02-18,15:02:36,KOREASOUTH,-1.3,-6.5,1019.4,1023.9,17.1,14.8,0.04,0.0,110000,92.2,358
471410,2021-02-18,15:02:36,KOREASOUTH,-1.4,-5.7,1013.4,1013.8,10.6,14.0,0.04,0.1,111000,51.3,211
471420,2021-02-18,15:02:36,KOREASOUTH,-2.5,-10.9,1015.0,1015.0,12.0,10.7,0.01,0.0,110000,50.2,47
476180,2021-02-18,15:02:36,JAPAN,-4.0,-10.2,976.3,1019.1,13.6,6.9,0.14,1.3,111000,81.8,113
571930,2021-02-18,15:02:36,CHINA,-0.2,-7.5,1031.2,1026.3,14.3,9.0,0.02,0.0,110000,72.4,91
547140,2021-02-18,15:02:36,CHINA,-3.5,-12.3,1029.4,1026.2,15.6,10.1,0.03,0.0,110000,50.0,228
471540,2021-02-18,15:02:36,KOREASOUTH,-0.1,-11.1,1012.8,1034.7,12.0,11.1,0.00,0.0,100000,6.8,284
471060,2021-02-18,15:02:36,KOREASOUTH,-3.8,-11.8,1017.0,1022.1,13.9,6.6,0.11,0.4,111000,50.2,319
443170,2021-02-18,15:02:36,MONGOLIA,-10.9,-16.2,890.0,1017.6,21.2,13.4,0.00,4.5,101000,50.8,290
353450,2021-02-18,15:02:36,KAZAKHSTAN,-7.0,-11.9,1061.9,1040.2,23.0,11.8,0.00,0.0,100000,42.5,118
475810,2021-02-18,15:02:36,JAPAN,-3.2,-7.6,1016.2,1017.0,19.0,15.4,0.12,6.2,111000,50.6,166
535290,2021-02-18,15:02:36,CHINA,-10.1,-21.0,893.4,1029.7,25.2,10.6,0.21,0.0,110000,50.5,66
475740,2021-02-18,15:02:36,JAPAN,-1.3,-8.3,1014.4,1024.2,29.9,13.8,0.16,0.0,110000,50.5,293
505270,2021-02-18,15:02:36,CHINA,-24.7,-26.7,992.4,1028.1,17.3,8.8,0.01,0.0,110000,50.2,193
475120,2021-02-18,15:02:36,JAPAN,-3.4,-11.5,1018.7,1023.4,39.6,8.3,0.00,0.0,100000,24.0,263
563740,2021-02-18,15:02:36,CHINA,-3.0,-8.3,748.4,747.8,30.2,17.4,0.04,0.0,110000,91.6,307
475920,2021-02-18,15:02:36,JAPAN,-1.4,-5.9,1015.3,1018.1,19.6,12.5,0.17,0.9,111000,87.2,74
535430,2021-02-18,15:02:36,CHINA,-10.1,-21.6,883.3,1029.8,23.0,11.9,0.01,0.0,110000,62.2,212
476900,2021-02-18,15:02:36,JAPAN,-7.6,-11.9,866.7,866.9,25.3,13.9,0.14,0.0,110000,50.1,216
507880,2021-02-18,15:02:36,CHINA,-17.1,-23.7,1023.1,1020.5,20.5,12.8,0.01,0.0,110000,50.6,267
522670,2021-02-18,15:02:36,CHINA,-10.8,-27.3,931.3,1030.8,27.8,12.2,0.00,0.0,100000,26.3,140
561520,2021-02-18,15:02:36,CHINA,-12.5,-20.4,663.1,663.9,32.2,5.1,0.02,0.0,110000,50.1,144
530680,2021-02-18,15:02:36,CHINA,-15.9,-25.2,934.1,1030.4,27.9,13.0,0.01,0.0,110000,50.3,212
286790,2021-02-18,15:02:36,KAZAKHSTAN,-11.2,-14.7,1024.6,1029.5,11.1,19.0,0.02,7.1,111000,50.2,188
474760,2021-02-18,15:02:36,JAPAN,-11.3,-14.9,1002.0,1003.9,8.5,11.8,0.00,0.0,100000,43.3,168
548570,2021-02-18,15:02:36,CHINA,-1.7,-8.7,1023.6,1026.6,12.4,20.1,0.03,0.0,110000,50.2,31
476290,2021-02-18,15:02:36,JAPAN,-1.9,-9.3,1012.6,1016.4,33.0,9.9,0.03,0.0,110000,50.3,106
552790,2021-02-18,15:02:36,CHINA,-12.8,-29.7,996.5,997.6,27.7,18.6,0.01,0.0,110000,50.0,292
471140,2021-02-18,15:02:36,KOREASOUTH,-4.7,-10.6,1008.0,1023.9,14.6,4.7,0.08,0.0,110000,97.0,258
476400,2021-02-18,15:02:36,JAPAN,-2.3,-16.1,920.4,914.1,30.8,5.4,0.00,0.0,100000,45.8,287
353020,2021-02-18,15:02:36,KAZAKHSTAN,-7.5,-11.6,1050.2,1035.0,19.9,18.2,0.00,0.0,100000,3.4,135
476000,2021-02-18,15:02:36,JAPAN,-0.1,-5.0,1018.4,1019.6,16.0,13.7,0.29,5.1,111000,50.2,354
471300,2021-02-18,15:02:36,KOREASOUTH,-0.8,-9.1,1020.3,1022.0,20.9,13.1,0.18,0.0,110000,50.6,27
471310,2021-02-18,15:02:36,KOREASOUTH,-3.4,-8.9,1021.1,1024.1,18.0,6.1,0.04,0.0,110000,64.0,118
476490,2021-02-18,15:02:36,JAPAN,-0.2,-4.4,999.6,1019.5,18.7,12.4,0.28,0.0,110000,50.9,22
364420,2021-02-18,15:02:36,KAZAKHSTAN,-19.0,-28.2,1017.2,1008.7,38.6,27.3,0.00,2.6,101000,80.9,296
544010,2021-02-18,15:02:36,CHINA,-8.3,-20.5,986.6,1028.2,20.6,10.7,0.01,0.0,110000,50.1,287
518390,2021-02-18,15:02:36,CHINA,-2.5,-16.4,889.8,1029.3,13.6,6.6,0.00,0.0,100000,93.1,201
471131,2021-02-18,15:02:36,KOREASOUTH,-1.7,-10.6,977.4,985.6,8.8,11.8,0.00,0.0,100000,36.5,81
471130,2021-02-18,15:02:36,KOREASOUTH,-1.4,-7.6,1020.0,1022.4,11.0,7.6,0.00,0.0,100000,58.9,272
531490,2021-02-18,15:02:36,CHINA,-13.2,-25.1,905.9,1030.0,29.1,16.1,0.01,0.0,110000,62.5,297
477150,2021-02-18,15:02:36,JAPAN,-0.8,-5.7,1000.5,1003.7,9.2,10.2,0.09,0.6,111000,50.3,303
474830,2021-02-18,15:02:36,JAPAN,-6.6,-14.0,1002.4,1004.2,10.9,15.4,0.00,0.0,100000,86.1,320
570830,2021-02-18,15:02:36,CHINA,-1.0,-10.8,1020.6,1027.1,9.9,8.4,0.04,0.0,110000,51.0,98
383530,2021-02-18,15:02:36,KYRGYZSTAN,-2.3,-6.3,995.4,1027.6,5.5,8.0,0.04,0.6,111000,61.0,38
383531,2021-02-18,15:02:36,KYRGYZSTAN,-1.6,-6.3,988.3,975.0,2.2,13.6,0.00,0.0,100000,7.3,133
476040,2021-02-18,15:02:36,JAPAN,-0.2,-4.6,1019.2,1018.8,14.8,15.4,0.21,6.1,111000,50.3,35
585060,2021-02-18,15:02:36,CHINA,-1.0,-5.5,977.7,1026.8,12.2,14.7,0.19,0.0,110000,94.2,221
509490,2021-02-18,15:02:36,CHINA,-14.4,-21.6,1016.1,1023.2,14.2,9.1,0.01,0.0,110000,97.9,140
383340,2021-02-18,15:02:36,KAZAKHSTAN,-1.3,-5.0,927.1,1024.4,12.0,10.4,0.00,4.7,101000,73.2,150
545110,2021-02-18,15:02:36,CHINA,-3.7,-16.8,1022.7,1026.0,14.9,12.8,0.03,0.0,110000,73.3,121
546160,2021-02-18,15:02:36,CHINA,-4.0,-14.3,1027.4,1026.5,12.3,13.2,0.03,0.0,110000,64.6,341
542360,2021-02-18,15:02:36,CHINA,-11.4,-21.4,1020.5,1024.8,19.4,14.1,0.02,0.0,110000,51.0,77
470580,2021-02-18,15:02:36,KOREANORTH,-6.5,-13.0,1017.4,1024.5,13.2,8.3,0.03,0.3,111000,50.5,42
362080,2021-02-18,15:02:36,KAZAKHSTAN,-23.4,-25.7,1013.5,1026.9,26.6,3.9,0.38,22.6,111000,50.1,229
346910,2021-02-18,15:02:36,KAZAKHSTAN,-3.6,-7.1,1022.2,1023.4,20.5,16.9,0.00,1.4,101000,67.9,24
470950,2021-02-18,15:02:36,KOREASOUTH,-6.5,-12.2,1007.6,1024.0,16.3,6.2,0.05,0.0,110000,50.0,94
357960,2021-02-18,15:02:36,KAZAKHSTAN,-8.5,-11.6,1018.5,1033.4,30.5,19.1,0.01,1.6,111000,67.6,294
381780,2021-02-18,15:02:36,UZBEKISTAN,-0.8,-6.4,1010.4,1025.1,14.5,10.6,0.00,0.0,100000,6.3,168
549060,2021-02-18,15:02:36,CHINA,-1.9,-10.5,1022.6,1026.4,17.8,8.2,0.02,0.0,110000,62.7,288
442870,2021-02-18,15:02:36,MONGOLIA,-19.2,-24.5,813.8,1035.1,50.3,12.6,0.00,2.6,101000,50.4,62
475750,2021-02-18,15:02:36,JAPAN,-3.5,-7.1,1020.5,1017.6,14.5,13.5,0.19,22.8,111000,60.9,222
510870,2021-02-18,15:02:36,CHINA,-9.1,-16.3,931.2,1032.2,23.6,6.2,0.00,0.0,100000,56.8,19
470200,2021-02-18,15:02:36,KOREANORTH,-11.4,-19.1,1016.0,1028.9,10.7,3.9,0.00,0.0,100000,48.0,347
523780,2021-02-18,15:02:36,CHINA,-9.8,-25.1,986.5,1008.0,29.8,15.6,0.00,0.0,100000,23.4,39
506580,2021-02-18,15:02:36,CHINA,-19.6,-25.6,1025.3,1023.7,15.2,7.5,0.01,0.0,110000,75.4,352
474020,2021-02-18,15:02:36,JAPAN,-12.3,-15.8,1016.8,1017.9,21.5,10.4,0.11,0.0,110000,58.8,90
474010,2021-02-18,15:02:36,JAPAN,-2.4,-12.3,1011.3,1015.8,18.1,13.8,0.16,16.7,111000,90.4,199
353210,2021-02-18,15:02:36,KAZAKHSTAN,-14.7,-20.5,1047.0,1037.0,9.1,9.9,0.00,0.0,100000,53.1,68
552990,2021-02-18,15:02:36,CHINA,-15.5,-29.0,1003.3,1004.5,27.1,12.3,0.03,0.0,110000,99.3,333
475880,2021-02-18,15:02:36,JAPAN,-3.6,-7.3,998.2,1017.1,11.0,6.6,0.07,0.0,110000,50.6,258
525330,2021-02-18,15:02:36,CHINA,-9.7,-20.1,894.0,1029.3,29.8,7.2,0.01,0.0,110000,50.6,164
525331,2021-02-18,15:02:36,CHINA,-10.9,-13.5,,987.9,4.6,5.5,0.00,0.0,100000,49.1,188
475150,2021-02-18,15:02:36,JAPAN,-2.6,-6.7,997.3,998.6,10.0,16.7,0.00,0.0,100000,99.5,34
563850,2021-02-18,15:02:36,CHINA,-7.2,-10.1,745.9,745.2,10.2,10.6,0.04,0.0,110000,50.6,96
505570,2021-02-18,15:02:36,CHINA,-23.3,-27.1,1009.7,1023.8,14.6,7.9,0.01,0.0,110000,50.3,318
471064,2021-02-18,15:02:36,KOREASOUTH,-10.0,-14.0,1001.3,1011.1,10.7,10.0,0.00,0.0,100000,52.1,82
471066,2021-02-18,15:02:36,KOREASOUTH,-5.1,-11.0,1007.9,1002.3,8.9,5.5,0.00,0.0,100000,99.1,52
471050,2021-02-18,15:02:36,KOREASOUTH,-1.0,-9.6,1016.6,1021.8,20.4,11.8,0.18,1.4,111000,92.3,249
511560,2021-02-18,15:02:36,CHINA,-13.6,-19.4,928.5,1033.3,36.2,7.3,0.01,0.0,110000,50.7,199
570460,2021-02-18,15:02:36,CHINA,-7.0,-15.0,817.5,831.4,18.2,16.0,0.03,0.0,110000,52.5,237
540120,2021-02-18,15:02:36,CHINA,-19.5,-24.9,935.8,1030.0,25.1,13.0,0.01,0.0,110000,50.3,176
529570,2021-02-18,15:02:36,CHINA,-16.0,-33.0,723.5,726.8,26.9,14.2,0.00,0.0,100000,95.0,31
560180,2021-02-18,15:02:36,CHINA,-13.0,-24.4,627.0,632.9,26.3,8.7,0.02,0.0,110000,85.8,170
560340,2021-02-18,15:02:36,CHINA,-21.8,-30.3,600.9,595.9,22.6,16.7,0.02,0.0,110000,50.0,215
471190,2021-02-18,15:02:36,KOREASOUTH,-3.6,-10.4,1027.3,1024.1,15.2,7.5,0.05,0.1,111000,50.0,308
471180,2021-02-18,15:02:36,KOREASOUTH,-9.7,-17.5,1014.6,1029.9,10.7,8.2,0.00,0.0,100000,68.3,108
442190,2021-02-18,15:02:36,MONGOLIA,-11.0,-21.5,850.8,1015.1,19.3,6.6,0.00,0.0,100000,27.3,214
475760,2021-02-18,15:02:36,JAPAN,-4.3,-8.9,1016.9,1017.5,21.2,10.5,0.11,0.0,110000,76.9,285
555780,2021-02-18,15:02:36,CHINA,-8.2,-29.6,635.7,635.5,29.1,7.2,0.00,0.0,100000,66.9,233
541860,2021-02-18,15:02:36,CHINA,-16.0,-21.9,1013.4,1024.6,18.8,10.1,0.03,0.0,110000,50.2,142
524410,2021-02-18,15:02:36,CHINA,-13.3,-27.0,845.1,847.5,42.9,17.4,0.00,0.0,100000,78.4,353
516440,2021-02-18,15:02:36,CHINA,-2.1,-11.4,923.6,1028.1,22.8,7.4,0.01,0.0,110000,50.0,80
539150,2021-02-18,15:02:36,CHINA,-5.6,-15.1,907.8,1027.7,22.2,7.4,0.02,0.0,110000,56.4,62
570250,2021-02-18,15:02:36,CHINA,-1.4,-4.9,1037.7,1034.5,6.6,7.0,0.00,0.0,100000,47.0,339
475870,2021-02-18,15:02:36,JAPAN,-1.4,-5.6,1013.5,1017.9,14.9,24.2,0.34,4.2,111000,50.3,29
475850,2021-02-18,15:02:36,JAPAN,-3.6,-10.3,1010.6,1017.0,23.9,9.2,0.12,2.8,111000,50.0,331
172480,2021-02-18,15:02:36,TURKEY,-4.0,-5.7,894.5,885.5,15.4,8.8,0.36,8.8,111000,87.1,45
515420,2021-02-18,15:02:36,CHINA,-20.5,-24.7,755.0,752.7,31.6,6.4,0.01,0.0,110000,88.1,70
539750,2021-02-18,15:02:36,CHINA,-3.8,-12.4,1018.9,1028.8,14.4,7.3,0.02,0.0,110000,50.5,221
508880,2021-02-18,15:02:36,CHINA,-16.1,-22.3,1016.0,1022.1,23.4,12.7,0.01,0.0,110000,91.1,332
355420,2021-02-18,15:02:36,KAZAKHSTAN,-13.2,-16.6,1026.9,1029.0,12.4,14.7,0.48,2.1,111000,76.3,239
288790,2021-02-18,15:02:36,KAZAKHSTAN,-11.4,-16.8,1033.4,1031.1,9.8,17.0,0.00,0.9,101000,50.1,217
288770,2021-02-18,15:02:36,KAZAKHSTAN,-5.5,-10.0,1025.0,1022.8,14.7,12.3,0.03,1.9,111000,78.6,35
474880,2021-02-18,15:02:36,JAPAN,-3.7,-9.3,995.5,998.1,8.9,16.2,0.00,0.0,100000,44.0,231
535930,2021-02-18,15:02:36,CHINA,-11.0,-22.8,980.5,1029.0,24.1,7.2,0.01,0.0,110000,90.9,201
476120,2021-02-18,15:02:36,JAPAN,-0.6,-4.7,1017.4,1019.3,15.6,10.2,0.57,12.3,111000,50.0,357
357000,2021-02-18,15:02:36,KAZAKHSTAN,-3.2,-6.3,1025.3,1023.0,16.4,19.0,0.01,0.4,111000,50.3,172
477090,2021-02-18,15:02:36,JAPAN,-1.5,-9.6,998.8,1002.6,9.4,10.4,0.00,0.0,100000,71.5,128
471074,2021-02-18,15:02:36,KOREASOUTH,-2.9,-7.1,1008.3,1025.0,9.4,18.9,0.00,0.0,100000,99.2,330
471087,2021-02-18,15:02:36,KOREASOUTH,-4.5,-15.3,1006.3,984.6,11.0,11.2,0.00,0.0,100000,32.9,320
471080,2021-02-18,15:02:36,KOREASOUTH,-3.2,-10.1,1019.3,1023.7,11.3,8.9,0.03,0.1,111000,85.3,294
471120,2021-02-18,15:02:36,KOREASOUTH,-2.7,-9.7,1018.4,1023.5,16.0,12.4,0.04,0.0,110000,51.2,44
506320,2021-02-18,15:02:36,CHINA,-19.6,-23.9,983.1,1024.4,27.5,10.5,0.02,0.0,110000,50.4,167
380190,2021-02-18,15:02:36,KAZAKHSTAN,-11.2,-17.3,1042.4,1032.7,29.3,12.1,0.02,9.4,111000,92.7,61
544490,2021-02-18,15:02:36,CHINA,-0.3,-21.2,1031.0,1016.7,31.9,24.7,0.00,0.0,100000,47.7,297
442320,2021-02-18,15:02:36,MONGOLIA,-27.6,-32.8,1068.8,1049.0,44.6,4.5,0.00,0.0,100000,92.4,327
561160,2021-02-18,15:02:36,CHINA,-7.9,-21.6,684.3,685.0,26.6,3.9,0.00,0.0,100000,34.5,301
570670,2021-02-18,15:02:36,CHINA,-2.3,-8.3,993.4,1028.8,14.2,5.1,0.02,0.0,110000,58.1,275
509150,2021-02-18,15:02:36,CHINA,-19.9,-24.7,945.4,1029.6,29.3,10.5,0.02,0.0,110000,52.7,150
386150,2021-02-18,15:02:36,KYRGYZSTAN,-2.7,-8.9,925.5,1033.6,9.0,7.8,0.00,11.3,101000,50.9,120
355820,2021-02-18,15:02:36,KAZAKHSTAN,-10.7,-15.0,1036.7,1035.0,34.5,15.4,0.02,2.5,111000,67.3,127
478180,2021-02-18,15:02:36,JAPAN,-2.7,-9.1,946.2,1029.3,26.6,13.8,0.00,0.0,100000,50.1,318
560650,2021-02-18,15:02:36,CHINA,-15.0,-24.6,661.0,660.0,26.6,9.7,0.01,0.0,110000,64.2,28
475970,2021-02-18,15:02:36,JAPAN,-2.9,-9.3,974.2,1018.3,23.8,15.0,0.11,0.0,110000,69.5,291
544930,2021-02-18,15:02:36,CHINA,-11.3,-19.5,1023.3,1025.5,20.1,4.6,0.03,0.0,110000,50.2,170
570140,2021-02-18,15:02:36,CHINA,-5.7,-9.8,1016.3,1034.8,11.9,6.6,0.00,0.0,100000,73.8,190
548080,2021-02-18,15:02:36,CHINA,-2.4,-11.8,1030.2,1027.0,12.6,10.9,0.02,0.0,110000,50.2,104
543240,2021-02-18,15:02:36,CHINA,-11.0,-26.3,1022.2,1025.3,21.0,11.5,0.01,0.0,110000,54.3,184
471010,2021-02-18,15:02:36,KOREASOUTH,-5.2,-12.1,1017.9,1023.5,18.2,5.0,0.04,0.6,111000,59.1,310
471020,2021-02-18,15:02:36,KOREASOUTH,-0.2,-6.4,1004.1,1023.8,12.1,17.7,0.00,0.0,100000,49.9,17
353940,2021-02-18,15:02:36,KAZAKHSTAN,-10.1,-13.4,1006.2,1032.3,17.1,13.7,0.04,3.5,111000,50.6,193
577070,2021-02-18,15:02:36,CHINA,-0.4,-2.2,852.3,855.5,9.4,3.0,0.03,0.0,110000,80.5,44
367780,2021-02-18,15:02:36,KAZAKHSTAN,-12.0,-17.6,1060.9,1036.9,21.4,6.3,0.00,0.0,100000,91.0,203
532310,2021-02-18,15:02:36,CHINA,-13.8,-25.0,850.5,852.3,26.0,20.7,0.01,0.0,110000,72.9,51
470390,2021-02-18,15:02:36,KOREANORTH,-8.4,-11.1,1021.5,1024.0,8.2,3.3,0.00,0.0,100000,89.8,98
442820,2021-02-18,15:02:36,MONGOLIA,-8.4,-26.2,816.1,1009.5,49.2,7.3,0.00,0.0,100000,21.7,33
527130,2021-02-18,15:02:36,CHINA,-14.3,-30.8,698.8,699.0,29.1,8.9,0.00,0.0,100000,11.1,258
514950,2021-02-18,15:02:36,CHINA,-8.0,-20.9,990.2,1032.5,34.9,26.8,0.01,0.0,110000,50.7,333
357390,2021-02-18,15:02:36,KAZAKHSTAN,-4.9,-10.7,1041.9,1029.5,46.3,14.8,0.00,1.3,101000,50.3,37
556640,2021-02-18,15:02:36,CHINA,-11.7,-33.4,601.9,600.7,28.6,12.6,0.00,0.0,100000,44.3,350
561060,2021-02-18,15:02:36,CHINA,-10.7,-22.7,619.1,618.1,27.6,9.1,0.04,0.0,110000,95.8,333
518110,2021-02-18,15:02:36,CHINA,-2.5,-9.6,919.8,1025.0,14.2,4.7,0.00,0.0,100000,45.1,248
526020,2021-02-18,15:02:36,CHINA,-15.5,-33.3,726.2,726.5,26.8,15.0,0.00,0.0,100000,53.1,188
361770,2021-02-18,15:02:36,KAZAKHSTAN,-6.9,-11.9,1020.4,1027.0,10.2,9.0,0.00,0.0,100000,53.5,25
476240,2021-02-18,15:02:36,JAPAN,-0.5,-8.6,1009.7,1017.8,27.1,13.1,0.08,0.2,111000,50.1,327
577760,2021-02-18,15:02:36,CHINA,-0.6,-3.0,977.1,1024.0,8.4,18.7,0.21,0.0,110000,50.8,105
368215,2021-02-18,15:02:36,KAZAKHSTAN,-7.9,-11.5,1020.9,1045.1,9.0,17.1,0.00,0.0,100000,29.1,216
442370,2021-02-18,15:02:36,MONGOLIA,-15.7,-21.5,844.0,1022.9,49.0,11.3,0.01,0.3,111000,50.4,27
471610,2021-02-18,15:02:36,KOREASOUTH,-2.0,-8.3,999.2,994.7,10.6,7.1,0.03,0.0,110000,50.1,54
471240,2021-02-18,15:02:36,KOREASOUTH,-3.4,-12.7,1016.1,1042.2,11.6,10.8,0.00,0.0,100000,95.9,359
536140,2021-02-18,15:02:36,CHINA,-7.9,-17.3,928.6,1029.1,20.6,7.2,0.01,0.0,110000,50.2,316
517770,2021-02-18,15:02:36,CHINA,-5.9,-20.3,939.7,1027.2,21.9,8.3,0.00,0.0,100000,50.6,71
533360,2021-02-18,15:02:36,CHINA,-13.7,-23.7,910.1,1030.8,27.1,10.0,0.04,0.0,110000,78.8,14
381411,2021-02-18,15:02:36,KAZAKHSTAN,-8.2,-8.8,1006.4,987.2,6.4,17.4,0.00,0.0,100000,90.7,87
381410,2021-02-18,15:02:36,UZBEKISTAN,-1.1,-5.4,1004.6,1020.9,18.5,13.0,0.00,0.0,100000,30.7,357
366390,2021-02-18,15:02:36,KAZAKHSTAN,-10.3,-14.2,1056.3,1038.6,49.0,2.6,1.83,0.0,110000,71.0,343
570710,2021-02-18,15:02:36,CHINA,-0.6,-9.2,1028.2,1027.9,13.1,10.9,0.06,0.0,110000,50.6,74
356990,2021-02-18,15:02:36,KAZAKHSTAN,-6.4,-14.0,958.5,1038.9,28.3,0.6,0.00,4.5,101000,50.9,128
554720,2021-02-18,15:02:36,CHINA,-13.5,-31.1,996.3,993.5,26.4,26.2,0.01,0.0,110000,84.5,315
540260,2021-02-18,15:02:36,CHINA,-11.4,-22.8,1013.2,1024.6,25.9,12.0,0.01,0.0,110000,84.7,11
287660,2021-02-18,15:02:36,KAZAKHSTAN,-6.8,-10.5,1016.7,1025.5,11.4,14.0,0.01,4.5,111000,85.4,278
509780,2021-02-18,15:02:36,CHINA,-15.5,-21.7,1009.2,1022.3,26.6,12.6,0.01,0.0,110000,50.1,175
584450,2021-02-18,15:02:36,CHINA,-4.1,-10.5,875.3,946.9,15.6,20.0,0.19,0.0,110000,50.0,314
442590,2021-02-18,15:02:36,MONGOLIA,-17.5,-22.0,950.1,1027.6,20.7,10.1,0.02,1.9,111000,50.0,350
593530,2021-02-18,15:02:36,TAIWAN,-3.0,-3.0,763.2,1022.0,7.5,5.3,0.00,0.0,100000,96.6,17
471320,2021-02-18,15:02:36,KOREASOUTH,-8.3,-15.2,1003.8,995.7,10.4,1.1,0.00,0.0,100000,46.1,38
25105,2021-02-18,15:02:36,SINGAPORE,-1.0,-3.9,1010.6,998.7,10.6,6.4,0.00,0.0,100000,75.8,270
289570,2021-02-18,15:02:36,KAZAKHSTAN,-7.9,-10.4,1035.4,1028.1,10.3,11.4,0.00,6.8,101000,75.5,213
541150,2021-02-18,15:02:36,CHINA,-13.8,-26.4,973.5,1027.1,24.5,11.1,0.01,0.0,110000,50.2,241
170880,2021-02-18,15:02:36,TURKEY,-2.7,-4.3,876.6,878.4,16.5,11.8,0.05,16.2,111000,50.2,294
170671,2021-02-18,15:02:36,TURKEY,-2.2,-4.9,1008.7,997.6,11.9,9.4,0.00,0.0,100000,7.0,318
170960,2021-02-18,15:02:36,TURKEY,-3.0,-5.2,890.8,899.4,10.0,9.9,0.04,8.5,111000,66.1,72
478920,2021-02-18,15:02:36,JAPAN,-0.1,-8.0,1026.2,1028.6,27.3,9.7,0.00,0.0,100000,94.8,327
539590,2021-02-18,15:02:36,CHINA,-1.4,-10.6,1011.0,1027.1,16.4,9.3,0.01,0.0,110000,50.3,51
537720,2021-02-18,15:02:36,CHINA,-6.3,-18.2,981.9,1028.1,11.1,10.0,0.01,0.0,110000,70.1,149
524240,2021-02-18,15:02:36,CHINA,-10.5,-23.7,900.0,1030.2,25.6,14.5,0.01,0.0,110000,50.6,55
383450,2021-02-18,15:02:36,KYRGYZSTAN,-2.1,-6.5,895.5,896.0,20.2,4.0,0.00,1.8,101000,70.9,10
383430,2021-02-18,15:02:36,KAZAKHSTAN,-0.9,-3.3,939.8,1025.4,9.9,4.1,0.00,2.6,101000,93.2,17
749347,2021-02-18,15:02:36,CHINA,-3.5,-8.1,1035.2,1037.9,10.7,9.7,0.00,0.0,100000,69.0,324
749348,2021-02-18,15:02:36,CHINA,-17.8,-21.8,1032.4,1037.1,63.2,2.5,0.00,0.0,100000,76.0,197
470410,2021-02-18,15:02:36,KOREANORTH,-6.3,-12.0,1021.3,1021.6,13.3,9.7,0.03,0.0,110000,50.0,127
527870,2021-02-18,15:02:36,CHINA,-14.0,-24.2,746.8,750.7,26.9,18.4,0.01,0.0,110000,72.9,24
543370,2021-02-18,15:02:36,CHINA,-7.3,-19.0,1024.0,1025.5,12.3,13.8,0.01,0.0,110000,50.5,227
443520,2021-02-18,15:02:36,MONGOLIA,-15.7,-24.2,1020.1,1029.0,50.1,14.8,0.00,0.0,100000,27.2,202
540960,2021-02-18,15:02:36,CHINA,-16.5,-22.7,1022.9,1023.1,17.6,12.5,0.03,0.0,110000,50.3,13
471360,2021-02-18,15:02:36,KOREASOUTH,-3.7,-9.8,1010.7,1024.1,18.0,7.3,0.06,0.0,110000,89.7,27
471370,2021-02-18,15:02:36,KOREASOUTH,-2.8,-10.9,1010.6,1023.0,15.5,6.8,0.03,0.0,110000,50.2,66
561720,2021-02-18,15:02:36,CHINA,-2.5,-14.6,778.4,781.1,32.4,3.6,0.04,0.0,110000,50.2,40
561730,2021-02-18,15:02:36,CHINA,-12.5,-26.6,660.4,670.4,29.5,10.5,0.00,0.0,100000,81.6,196
386090,2021-02-18,15:02:36,TAJIKISTAN,-2.4,-7.0,925.0,1028.1,17.1,10.0,0.00,0.0,100000,83.0,120
474740,2021-02-18,15:02:36,JAPAN,-11.8,-20.0,1004.2,1012.8,10.4,9.8,0.00,0.0,100000,63.3,70
360030,2021-02-18,15:02:36,KAZAKHSTAN,-5.0,-8.0,1023.2,1030.2,23.3,16.4,0.01,5.0,111000,90.8,42
508540,2021-02-18,15:02:36,CHINA,-17.5,-23.3,1022.6,1023.1,16.9,10.7,0.01,0.0,110000,95.0,301
534800,2021-02-18,15:02:36,CHINA,-14.1,-24.6,958.0,1030.3,26.1,11.6,0.03,0.0,110000,50.5,235
475570,2021-02-18,15:02:36,JAPAN,-0.7,-7.4,993.2,995.7,9.8,16.5,0.00,0.0,100000,73.3,346
359970,2021-02-18,15:02:36,KAZAKHSTAN,-6.6,-10.1,1032.0,1034.0,25.1,10.0,0.01,0.8,111000,58.5,69
443050,2021-02-18,15:02:36,MONGOLIA,-17.9,-20.4,950.4,1028.7,46.2,10.1,0.00,2.3,101000,97.6,100
536730,2021-02-18,15:02:36,CHINA,-7.5,-17.9,974.2,1028.2,17.6,8.8,0.01,0.0,110000,91.7,37
526610,2021-02-18,15:02:36,CHINA,-10.3,-26.7,929.2,954.7,69.4,7.9,0.00,0.0,100000,22.4,244
544230,2021-02-18,15:02:36,CHINA,-3.2,-22.0,975.9,1024.6,24.1,5.1,0.00,0.0,100000,22.5,326
504340,2021-02-18,15:02:36,CHINA,-30.5,-33.2,967.2,1027.4,27.4,7.9,0.01,0.0,110000,50.4,352
350530,2021-02-18,15:02:36,KAZAKHSTAN,-8.2,-11.5,1035.0,1033.8,18.7,11.6,0.01,2.5,111000,50.2,290
580270,2021-02-18,15:02:36,CHINA,-0.6,-8.7,1021.2,1026.7,14.1,9.0,0.05,0.0,110000,52.4,300
360010,2021-02-18,15:02:36,KAZAKHSTAN,-6.1,-8.6,1011.0,1026.6,4.0,33.6,0.02,3.2,111000,59.9,277
507560,2021-02-18,15:02:36,CHINA,-18.7,-23.2,1010.9,1023.3,12.6,9.8,0.00,0.0,100000,23.2,292
541020,2021-02-18,15:02:36,CHINA,-18.5,-25.1,936.5,1030.5,28.5,12.1,0.01,0.0,110000,50.3,227
517300,2021-02-18,15:02:36,CHINA,-3.1,-12.9,987.2,1028.6,20.1,4.4,0.01,0.0,110000,50.4,72
470690,2021-02-18,15:02:36,KOREANORTH,-4.5,-10.6,1021.9,1024.8,15.1,9.7,0.00,0.0,100000,90.8,180
517090,2021-02-18,15:02:36,CHINA,-0.9,-9.5,912.0,1026.9,15.3,5.8,0.01,0.0,110000,50.1,278
470700,2021-02-18,15:02:36,KOREANORTH,-4.3,-10.1,1028.4,1022.8,17.6,8.0,0.05,0.0,110000,88.7,106
543740,2021-02-18,15:02:36,CHINA,-14.7,-20.9,1005.3,1024.4,15.3,3.5,0.05,0.0,110000,95.5,268
475200,2021-02-18,15:02:36,JAPAN,-0.9,-7.1,1005.5,1018.6,16.2,11.1,0.15,0.0,110000,50.1,173
353860,2021-02-18,15:02:36,KAZAKHSTAN,-16.5,-19.8,986.7,989.8,17.3,9.5,0.00,0.0,100000,6.2,153
470750,2021-02-18,15:02:36,KOREANORTH,-6.3,-10.5,1027.8,1023.0,23.8,7.8,0.11,0.0,110000,50.7,260
354160,2021-02-18,15:02:36,KAZAKHSTAN,-7.4,-10.3,1024.6,1027.4,7.5,17.5,0.03,5.6,111000,54.5,71
535020,2021-02-18,15:02:36,CHINA,-10.2,-21.9,979.9,1029.4,22.7,11.6,0.00,0.0,100000,46.4,178
512880,2021-02-18,15:02:36,CHINA,-15.9,-23.5,836.1,838.7,35.1,7.4,0.01,0.0,110000,50.2,187
539290,2021-02-18,15:02:36,CHINA,-4.3,-6.3,883.8,880.2,7.9,11.8,0.00,0.0,100000,71.5,8
353610,2021-02-18,15:02:36,KAZAKHSTAN,-10.1,-13.2,991.6,1021.0,26.5,8.0,0.00,0.0,100000,34.1,321
475980,2021-02-18,15:02:36,JAPAN,-0.1,-7.9,1021.9,1017.8,23.1,9.4,0.17,0.3,111000,50.3,103
524460,2021-02-18,15:02:36,CHINA,-11.7,-23.5,940.0,1033.7,43.5,13.6,0.00,0.0,100000,79.2,108
533910,2021-02-18,15:02:36,CHINA,-3.9,-21.9,884.1,1027.2,28.9,18.0,0.01,0.0,110000,50.3,291
470350,2021-02-18,15:02:36,KOREANORTH,-6.3,-13.4,1034.0,1024.8,16.3,11.5,0.05,0.0,110000,98.5,343
542180,2021-02-18,15:02:36,CHINA,-11.2,-23.5,992.0,1026.4,21.8,9.3,0.01,0.0,110000,50.0,181
534630,2021-02-18,15:02:36,CHINA,-11.5,-19.4,929.9,1030.4,16.8,6.9,0.01,0.0,110000,50.6,325
542920,2021-02-18,15:02:36,CHINA,-11.8,-23.2,1007.8,1025.5,21.2,11.4,0.00,0.0,100000,84.0,253
527370,2021-02-18,15:02:36,CHINA,-10.0,-26.9,725.3,726.7,25.5,7.1,0.00,0.0,100000,88.6,62
542730,2021-02-18,15:02:36,CHINA,-16.5,-23.6,1017.1,1025.2,15.5,8.1,0.06,0.0,110000,67.6,344
442880,2021-02-18,15:02:36,MONGOLIA,-8.2,-15.2,917.4,1028.7,47.2,12.5,0.02,0.1,111000,50.1,316
545270,2021-02-18,15:02:36,CHINA,-3.6,-12.6,1026.8,1026.4,10.6,8.8,0.03,0.0,110000,50.0,2
545273,2021-02-18,15:02:36,CHINA,-1.6,-10.9,1000.4,998.5,6.8,11.7,0.00,0.0,100000,8.3,210
549380,2021-02-18,15:02:36,CHINA,-2.4,-12.4,1033.5,1027.6,15.1,10.1,0.02,0.0,110000,50.3,155
365350,2021-02-18,15:02:36,KAZAKHSTAN,-12.5,-15.9,1069.7,1040.1,45.2,7.0,0.00,0.0,100000,87.3,139
474280,2021-02-18,15:02:36,JAPAN,-3.3,-8.7,1012.1,1015.8,19.3,25.1,0.15,0.0,110000,50.4,125
474040,2021-02-18,15:02:36,JAPAN,-7.5,-12.1,1015.5,1016.7,26.2,14.8,0.24,0.0,110000,54.8,262
474110,2021-02-18,15:02:36,JAPAN,-6.1,-11.4,1012.9,1016.1,19.3,12.2,0.21,0.0,110000,,198
474090,2021-02-18,15:02:36,JAPAN,-10.6,-14.7,1013.8,1016.1,22.7,9.7,0.04,9.9,111000,50.3,153
521180,2021-02-18,15:02:36,CHINA,-13.5,-24.9,828.9,831.5,31.2,10.4,0.01,0.0,110000,79.3,87
475910,2021-02-18,15:02:36,JAPAN,-1.3,-5.8,1002.4,998.3,12.4,14.0,0.05,0.5,111000,50.0,333
359250,2021-02-18,15:02:36,KAZAKHSTAN,-4.6,-9.4,1017.8,1028.7,21.8,21.8,0.00,0.0,100000,11.0,81
474070,2021-02-18,15:02:36,JAPAN,-11.6,-14.0,1007.3,1016.5,9.5,6.4,0.11,20.4,111000,50.4,37
474060,2021-02-18,15:02:36,JAPAN,-8.0,-12.0,1011.2,1015.6,17.7,20.8,0.11,19.6,111000,50.8,73
543420,2021-02-18,15:02:36,CHINA,-10.5,-20.1,1022.2,1024.7,7.3,12.5,0.03,0.0,110000,50.2,193
353630,2021-02-18,15:02:36,KAZAKHSTAN,-9.0,-11.3,1041.0,1040.3,14.3,17.2,0.00,0.0,100000,54.8,275
171400,2021-02-18,15:02:36,TURKEY,-7.7,-8.3,865.0,853.3,8.2,9.6,0.45,22.6,111000,50.1,108
528360,2021-02-18,15:02:36,CHINA,-9.4,-26.4,687.5,687.0,28.0,10.0,0.06,0.0,110000,50.3,116
475690,2021-02-18,15:02:36,JAPAN,-0.7,-7.5,997.1,997.5,9.5,15.2,0.00,0.0,100000,45.1,279
357910,2021-02-18,15:02:36,KAZAKHSTAN,-13.3,-16.5,1035.1,1036.5,40.3,6.1,0.03,2.4,111000,79.4,141
288670,2021-02-18,15:02:36,KAZAKHSTAN,-15.6,-20.1,997.3,1033.5,20.5,8.2,0.00,26.3,101000,85.6,72
544710,2021-02-18,15:02:36,CHINA,-8.6,-15.5,1026.6,1025.4,13.3,13.8,0.04,0.0,110000,50.5,256
477690,2021-02-18,15:02:36,JAPAN,-0.4,-6.5,1022.6,1027.8,27.6,8.9,0.00,0.0,100000,29.8,155
474050,2021-02-18,15:02:36,JAPAN,-11.7,-14.9,1018.4,1019.1,40.1,10.3,0.06,0.0,110000,50.3,147
471750,2021-02-18,15:02:36,KOREASOUTH,-0.8,-8.6,965.7,1024.1,13.6,21.3,0.06,0.0,110000,94.9,276
470250,2021-02-18,15:02:36,KOREANORTH,-4.9,-9.4,1015.1,1021.3,10.7,8.3,0.27,0.0,110000,50.5,12
443540,2021-02-18,15:02:36,MONGOLIA,-14.1,-19.5,1058.6,1029.3,49.8,17.4,0.00,0.0,100000,46.7,285
470460,2021-02-18,15:02:36,KOREANORTH,-4.4,-8.6,1024.0,1020.4,15.6,5.2,0.01,0.0,110000,62.4,245
347980,2021-02-18,15:02:36,KAZAKHSTAN,-3.3,-7.0,1018.8,1020.4,10.7,21.2,0.00,0.6,101000,74.7,41
442290,2021-02-18,15:02:36,MONGOLIA,-15.8,-24.5,780.5,1013.9,50.2,6.9,0.00,0.0,100000,63.8,155
359250,2021-02-18,15:02:37,KAZAKHSTAN,-4.6,-10.7,1017.9,1028.7,21.9,21.8,0.00,0.0,100000,11.1,81
471070,2021-02-18,15:02:37,KOREASOUTH,-2.1,-8.2,1013.3,1014.2,12.5,11.8,0.00,0.3,101000,61.0,123
471065,2021-02-18,15:02:37,KOREASOUTH,-1.7,-6.0,1015.7,983.3,11.0,9.9,0.00,3.2,101000,76.1,202
507740,2021-02-18,15:02:37,CHINA,-21.5,-25.8,1013.2,1023.1,10.4,7.0,0.01,0.0,110000,50.0,328
471100,2021-02-18,15:02:37,KOREASOUTH,-4.1,-9.2,1007.6,1010.5,9.5,10.5,0.00,0.0,100000,63.4,279
532760,2021-02-18,15:02:37,CHINA,-14.2,-22.6,919.4,1030.2,28.2,19.9,0.01,0.0,110000,76.5,90
543370,2021-02-18,15:02:37,CHINA,-7.6,-17.8,1024.0,1025.5,12.4,13.9,0.01,0.0,110000,50.5,226
172480,2021-02-18,15:02:37,TURKEY,-4.0,-5.7,894.5,885.7,15.3,8.8,0.36,8.8,111000,87.1,45
540960,2021-02-18,15:02:37,CHINA,-16.5,-21.4,1022.9,1023.1,17.5,12.6,0.03,0.0,110000,50.3,13
581500,2021-02-18,15:02:37,CHINA,-0.7,-5.9,1028.1,1026.6,13.9,11.0,0.12,0.0,110000,56.4,315
474110,2021-02-18,15:02:37,JAPAN,-6.1,-10.8,1012.9,1016.1,19.2,12.3,0.21,0.0,110000,50.0,198
474090,2021-02-18,15:02:37,JAPAN,-10.6,-14.7,1013.8,1016.1,22.6,9.6,0.04,9.9,111000,50.4,154
443520,2021-02-18,15:02:37,MONGOLIA,-15.7,-24.2,1019.9,1029.0,50.1,14.7,0.00,0.0,100000,27.2,201
545270,2021-02-18,15:02:37,CHINA,-3.6,-13.7,1026.8,1026.3,10.5,8.8,0.03,0.0,110000,50.1,2
545273,2021-02-18,15:02:37,CHINA,-1.6,-10.0,1000.4,998.5,6.7,11.8,0.00,0.0,100000,8.3,211
353630,2021-02-18,15:02:37,KAZAKHSTAN,-8.2,-12.1,1041.2,1040.3,14.2,17.1,0.00,0.0,100000,54.8,274
576220,2021-02-18,15:02:37,CHINA,-3.3,-3.9,842.1,838.0,3.0,10.6,0.15,0.0,110000,50.3,169
560670,2021-02-18,15:02:37,CHINA,-13.2,-21.9,650.5,646.4,19.9,12.9,0.00,0.0,100000,25.8,103
548230,2021-02-18,15:02:37,CHINA,-0.9,-12.8,1022.8,1026.4,11.7,11.6,0.05,0.0,110000,50.1,214
353450,2021-02-18,15:02:37,KAZAKHSTAN,-7.4,-11.9,1061.8,1040.2,22.9,11.8,0.00,0.0,100000,42.5,118
475810,2021-02-18,15:02:37,JAPAN,-3.4,-7.6,1016.2,1017.0,19.0,15.5,0.12,6.2,111000,50.6,166
535290,2021-02-18,15:02:37,CHINA,-10.8,-21.0,893.4,1029.7,25.2,10.7,0.21,0.0,110000,50.4,66
475740,2021-02-18,15:02:37,JAPAN,-1.3,-7.9,1014.5,1024.2,30.0,13.7,0.16,0.0,110000,50.4,293
471300,2021-02-18,15:02:37,KOREASOUTH,-0.8,-9.1,1020.3,1022.0,20.9,13.0,0.18,0.0,110000,50.6,27
471310,2021-02-18,15:02:37,KOREASOUTH,-3.3,-8.9,1021.2,1024.1,17.9,6.0,0.04,0.0,110000,64.0,118
471140,2021-02-18,15:02:37,KOREASOUTH,-4.7,-10.6,1008.0,1023.9,14.6,4.7,0.08,0.0,110000,97.1,258
570670,2021-02-18,15:02:37,CHINA,-2.3,-9.5,993.5,1028.8,14.1,5.2,0.02,0.0,110000,58.1,275
505270,2021-02-18,15:02:37,CHINA,-24.7,-26.7,992.4,1028.1,17.3,8.9,0.01,0.0,110000,50.2,193
475120,2021-02-18,15:02:37,JAPAN,-3.3,-12.5,1018.7,1023.4,39.5,8.3,0.00,0.0,100000,24.0,263
563740,2021-02-18,15:02:37,CHINA,-2.9,-9.2,748.5,747.8,30.3,17.5,0.04,0.0,110000,91.7,307
360030,2021-02-18,15:02:37,KAZAKHSTAN,-5.6,-9.1,1023.2,1030.2,23.4,16.3,0.01,5.0,111000,90.9,42
514670,2021-02-18,15:02:37,CHINA,-9.1,-21.7,829.6,831.1,27.8,9.0,0.00,0.0,100000,4.7,115
539470,2021-02-18,15:02:37,CHINA,-3.0,-11.3,949.9,1027.1,12.5,8.5,0.01,0.0,110000,57.5,204
570060,2021-02-18,15:02:37,CHINA,-2.2,-9.6,946.9,1025.4,11.3,5.5,0.01,0.0,110000,50.3,107
357000,2021-02-18,15:02:37,KAZAKHSTAN,-3.1,-7.2,1025.3,1023.0,16.4,18.9,0.01,0.4,111000,50.2,172
442840,2021-02-18,15:02:37,MONGOLIA,-28.1,-31.6,787.5,1046.4,49.8,2.2,0.00,4.5,101000,67.8,103
471223,2021-02-18,15:02:37,KOREASOUTH,-0.5,-2.5,1010.2,1018.1,4.5,11.8,1.07,0.0,110000,50.1,154
471220,2021-02-18,15:02:37,KOREASOUTH,-4.7,-9.5,1017.1,1018.1,9.9,8.1,0.03,0.3,111000,50.0,13
552790,2021-02-18,15:02:37,CHINA,-12.8,-30.9,996.6,997.5,27.8,18.5,0.01,0.0,110000,50.1,291
546020,2021-02-18,15:02:37,CHINA,-3.5,-14.2,1022.1,1026.4,10.9,7.8,0.03,0.0,110000,64.9,213
474200,2021-02-18,15:02:37,JAPAN,-7.2,-11.1,1012.3,1015.2,20.6,15.0,0.06,3.8,111000,50.4,282
351910,2021-02-18,15:02:37,KAZAKHSTAN,-11.1,-18.2,1060.9,1042.6,36.7,12.1,0.00,0.0,100000,8.5,62
523130,2021-02-18,15:02:37,CHINA,-12.0,-24.3,924.6,894.9,59.2,2.9,0.00,0.0,100000,9.3,188
541350,2021-02-18,15:02:37,CHINA,-12.7,-24.4,1018.4,1024.7,25.6,15.1,0.01,0.0,110000,51.6,186
361860,2021-02-18,15:02:37,KAZAKHSTAN,-4.7,-7.2,1023.1,1025.7,11.9,2.9,0.00,0.0,100000,32.7,202
382200,2021-02-18,15:02:37,KYRGYZSTAN,-8.0,-11.3,951.3,1031.1,7.0,6.8,0.00,6.8,101000,50.2,11
546560,2021-02-18,15:02:37,CHINA,-2.7,-8.9,1022.5,1024.8,20.2,25.1,0.00,0.0,100000,60.1,87
472185,2021-02-18,15:02:37,JAPAN,-4.8,-12.4,985.3,975.6,9.7,19.9,0.00,0.0,100000,74.1,317
555780,2021-02-18,15:02:37,CHINA,-8.2,-31.3,635.7,635.5,29.2,7.1,0.00,0.0,100000,66.9,233
362080,2021-02-18,15:02:37,KAZAKHSTAN,-24.0,-25.7,1013.6,1026.9,26.7,4.0,0.38,22.6,111000,50.1,228
346910,2021-02-18,15:02:37,KAZAKHSTAN,-3.6,-7.1,1022.3,1023.4,20.5,16.8,0.00,1.4,101000,68.0,24
536980,2021-02-18,15:02:37,CHINA,-2.0,-12.3,1029.0,1026.5,13.3,6.6,0.04,0.0,110000,50.5,356
289840,2021-02-18,15:02:37,KAZAKHSTAN,-6.0,-8.8,1011.4,1024.4,38.7,11.5,0.00,0.0,100000,76.1,167
554720,2021-02-18,15:02:37,CHINA,-13.5,-31.1,996.4,993.5,26.3,26.4,0.01,0.0,110000,84.5,314
287660,2021-02-18,15:02:37,KAZAKHSTAN,-6.2,-10.5,1016.8,1025.5,11.3,14.1,0.01,4.5,111000,85.3,278
513340,2021-02-18,15:02:37,CHINA,-8.6,-12.3,1030.6,1032.8,25.7,5.0,0.01,0.0,110000,50.2,165
570140,2021-02-18,15:02:37,CHINA,-5.9,-9.8,1016.0,1034.8,11.9,6.5,0.00,0.0,100000,73.8,190
476000,2021-02-18,15:02:37,JAPAN,-0.1,-4.4,1018.4,1019.6,15.9,13.8,0.29,5.1,111000,50.2,354
521120,2021-02-18,15:02:37,CHINA,-8.0,-19.1,1029.8,1026.4,29.5,12.3,0.00,0.0,100000,49.9,184
513460,2021-02-18,15:02:37,CHINA,-18.3,-21.8,1068.1,1038.5,56.9,5.4,0.00,0.0,100000,56.7,300
353610,2021-02-18,15:02:37,KAZAKHSTAN,-10.1,-12.2,991.6,1021.0,26.6,8.0,0.00,0.0,100000,34.1,321
475980,2021-02-18,15:02:37,JAPAN,-0.1,-7.9,1021.9,1017.8,23.0,9.5,0.17,0.3,111000,50.3,103
543420,2021-02-18,15:02:37,CHINA,-10.5,-20.1,1022.1,1024.7,7.3,12.5,0.03,0.0,110000,50.3,194
471460,2021-02-18,15:02:37,KOREASOUTH,-1.9,-6.9,1020.2,1023.8,18.4,5.7,0.06,0.1,111000,50.1,291
524950,2021-02-18,15:02:37,CHINA,-11.4,-23.7,903.3,1031.0,26.1,12.4,0.00,0.0,100000,88.0,134
512320,2021-02-18,15:02:37,CHINA,-8.3,-13.1,1029.1,1032.3,16.0,18.0,0.01,0.0,110000,57.3,117
544830,2021-02-18,15:02:37,CHINA,-15.0,-23.9,1025.9,1024.4,16.1,7.4,0.01,0.0,110000,55.0,182
288670,2021-02-18,15:02:37,KAZAKHSTAN,-15.3,-18.9,997.4,1033.5,20.6,8.2,0.00,26.3,101000,85.6,71
507270,2021-02-18,15:02:37,CHINA,-24.9,-29.1,914.8,1028.3,26.0,7.5,0.01,0.0,110000,50.2,349
471131,2021-02-18,15:02:37,KOREASOUTH,-1.7,-11.3,977.4,985.9,8.9,11.8,0.00,0.0,100000,36.5,81
471130,2021-02-18,15:02:37,KOREASOUTH,-1.4,-7.6,1020.0,1022.4,10.9,7.7,0.00,0.0,100000,58.9,272
531490,2021-02-18,15:02:37,CHINA,-14.0,-23.7,905.9,1030.0,29.0,16.0,0.01,0.0,110000,62.6,296
442320,2021-02-18,15:02:37,MONGOLIA,-27.1,-35.0,1068.6,1049.0,44.7,4.6,0.00,0.0,100000,92.4,327
474070,2021-02-18,15:02:37,JAPAN,-10.8,-14.0,1007.3,1016.5,,6.5,0.11,20.4,111000,50.4,36
474060,2021-02-18,15:02:37,JAPAN,-8.0,-12.0,1011.2,1015.6,17.7,20.9,0.11,19.6,111000,50.7,73
471610,2021-02-18,15:02:37,KOREASOUTH,-2.0,-8.3,999.2,994.6,10.5,7.2,0.03,0.0,110000,50.1,54
549290,2021-02-18,15:02:37,CHINA,-0.8,-9.5,1023.5,1026.6,17.6,6.7,0.01,0.0,110000,72.1,281
357960,2021-02-18,15:02:37,KAZAKHSTAN,-8.4,-11.6,1018.5,1033.4,30.4,19.1,0.01,1.6,111000,67.6,295
478140,2021-02-18,15:02:37,JAPAN,-0.2,-5.4,1011.4,1021.9,15.2,5.8,0.24,0.0,110000,50.1,226
355760,2021-02-18,15:02:37,KAZAKHSTAN,-11.4,-14.7,1014.2,1035.4,21.7,11.6,0.00,6.2,101000,52.0,256
547250,2021-02-18,15:02:37,CHINA,-3.7,-13.8,1026.5,1026.5,14.3,12.3,0.08,0.0,110000,70.8,179
504680,2021-02-18,15:02:37,CHINA,-20.5,-26.8,1011.4,1023.4,21.3,9.4,0.01,0.0,110000,86.8,327
475910,2021-02-18,15:02:37,JAPAN,-1.3,-5.8,1002.4,998.2,12.4,14.1,0.05,0.5,111000,50.0,333
514635,2021-02-18,15:02:37,CHINA,-13.2,-14.9,989.5,987.9,3.6,4.8,0.00,0.0,100000,71.0,314
511560,2021-02-18,15:02:37,CHINA,-13.6,-19.4,928.5,1033.3,36.1,7.4,0.01,0.0,110000,50.7,199
476400,2021-02-18,15:02:37,JAPAN,-8.1,-17.5,920.4,914.2,30.6,5.3,0.00,0.0,100000,45.8,287
353020,2021-02-18,15:02:37,KAZAKHSTAN,-7.3,-11.6,1050.5,1035.0,19.9,18.2,0.00,0.0,100000,3.4,135
351080,2021-02-18,15:02:37,KAZAKHSTAN,-7.9,-9.9,1017.3,1024.3,8.2,18.3,0.04,11.3,111000,53.1,175
529570,2021-02-18,15:02:37,CHINA,-15.3,-33.0,723.5,726.8,27.0,14.3,0.00,0.0,100000,95.1,31
383530,2021-02-18,15:02:37,KYRGYZSTAN,-2.6,-6.3,995.3,1027.6,5.5,8.1,0.04,0.6,111000,61.0,37
383531,2021-02-18,15:02:37,KYRGYZSTAN,-1.6,-5.4,988.2,974.6,2.2,13.6,0.00,0.0,100000,7.4,133
531920,2021-02-18,15:02:37,CHINA,-19.7,-24.9,918.0,1033.1,30.9,10.4,0.01,0.0,110000,63.4,238
476380,2021-02-18,15:02:37,JAPAN,-0.9,-8.1,996.5,1017.1,17.7,9.7,0.16,0.1,111000,53.4,49
477420,2021-02-18,15:02:37,JAPAN,-1.2,-4.2,1026.9,1027.8,17.1,3.3,0.00,0.0,100000,56.1,353
570710,2021-02-18,15:02:37,CHINA,-0.6,-10.1,1028.2,1027.9,13.2,10.9,0.06,0.0,110000,50.6,73
356990,2021-02-18,15:02:37,KAZAKHSTAN,-6.4,-14.0,958.4,1038.9,28.2,0.6,0.00,4.5,101000,50.9,127
470690,2021-02-18,15:02:37,KOREANORTH,-4.5,-10.6,1021.9,1024.8,15.1,9.7,0.00,0.0,100000,90.9,180
517090,2021-02-18,15:02:37,CHINA,-0.9,-9.5,912.0,1026.9,15.4,5.8,0.01,0.0,110000,50.1,278
470700,2021-02-18,15:02:37,KOREANORTH,-4.3,-11.2,1028.4,1022.8,17.7,8.1,0.05,0.0,110000,88.7,106
543424,2021-02-18,15:02:37,CHINA,-7.2,-16.5,998.5,1001.4,9.6,12.2,0.00,0.0,100000,51.3,234
561820,2021-02-18,15:02:37,CHINA,-6.9,-16.9,778.5,822.1,28.3,6.6,0.06,0.0,110000,50.5,226
470312,2021-02-18,15:02:37,CHINA,-2.1,-10.7,985.6,965.0,5.3,8.1,0.00,0.0,100000,29.2,91
477150,2021-02-18,15:02:37,JAPAN,-0.8,-5.7,1000.6,1003.7,9.2,10.1,0.09,0.6,111000,50.3,304
475870,2021-02-18,15:02:37,JAPAN,-1.4,-5.6,1013.5,1017.9,15.0,24.3,0.34,4.2,111000,50.4,29
475850,2021-02-18,15:02:37,JAPAN,-3.6,-9.4,1010.6,1017.0,23.8,9.1,0.12,2.8,111000,50.0,331
570830,2021-02-18,15:02:37,CHINA,-1.0,-10.8,1020.6,1027.1,9.8,8.5,0.04,0.0,110000,51.0,98
544710,2021-02-18,15:02:37,CHINA,-8.3,-15.5,1026.6,1025.4,13.3,13.8,0.04,0.0,110000,50.5,255
359530,2021-02-18,15:02:37,KAZAKHSTAN,-7.1,-10.7,1023.5,1029.6,31.7,16.5,0.02,0.0,110000,71.5,225
586530,2021-02-18,15:02:37,CHINA,-2.7,-5.7,916.2,1023.9,9.1,23.1,0.15,0.0,110000,50.7,241
544010,2021-02-18,15:02:37,CHINA,-8.3,-20.5,986.6,1028.2,20.7,10.6,0.01,0.0,110000,50.0,286
518390,2021-02-18,15:02:37,CHINA,-1.8,-14.9,889.9,1029.3,13.6,6.7,0.00,0.0,100000,93.2,200
522670,2021-02-18,15:02:37,CHINA,-11.3,-27.3,931.3,1030.8,27.9,12.3,0.00,0.0,100000,26.4,140
561520,2021-02-18,15:02:37,CHINA,-12.2,-20.4,663.1,663.9,32.2,5.1,0.02,0.0,110000,50.0,145
530680,2021-02-18,15:02:37,CHINA,-15.9,-23.6,934.1,1030.4,28.0,13.1,0.01,0.0,110000,50.2,212
442190,2021-02-18,15:02:37,MONGOLIA,-11.0,-21.5,850.8,1015.1,19.2,6.5,0.00,0.0,100000,27.3,214
570460,2021-02-18,15:02:37,CHINA,-6.7,-15.0,817.5,831.5,18.3,16.1,0.03,0.0,110000,52.5,238
540120,2021-02-18,15:02:37,CHINA,-18.2,-23.6,935.8,1030.0,25.1,12.9,0.01,0.0,110000,50.3,176
593530,2021-02-18,15:02:37,TAIWAN,-2.9,-3.0,763.2,1022.0,7.4,5.3,0.00,0.0,100000,96.7,17
471320,2021-02-18,15:02:37,KOREASOUTH,-8.3,-15.2,1003.8,995.6,10.3,1.0,0.00,0.0,100000,46.0,38
470950,2021-02-18,15:02:37,KOREASOUTH,-6.0,-12.2,1007.6,1024.0,16.3,6.2,0.05,0.0,110000,50.1,94
476290,2021-02-18,15:02:37,JAPAN,-1.9,-8.1,1012.6,1016.4,33.1,10.0,0.03,0.0,110000,50.4,106
474210,2021-02-18,15:02:37,JAPAN,-4.3,-9.2,1015.2,1016.4,18.8,19.0,0.14,14.5,111000,50.6,323
476120,2021-02-18,15:02:37,JAPAN,-0.6,-4.7,1017.4,1019.3,15.5,10.1,0.57,12.3,111000,50.0,357
355320,2021-02-18,15:02:37,KAZAKHSTAN,-2.5,-4.6,1013.1,1027.9,15.6,18.7,0.06,15.6,111000,75.6,5
535640,2021-02-18,15:02:37,CHINA,-10.8,-23.3,936.3,1030.3,18.8,6.3,0.00,0.0,100000,7.6,82
476410,2021-02-18,15:02:37,JAPAN,-1.1,-7.8,989.4,1018.1,21.1,6.6,0.08,0.0,110000,50.4,284
476390,2021-02-18,15:02:37,JAPAN,-20.2,-27.6,1001.8,997.7,48.9,82.6,0.00,0.0,100000,5.7,238
511330,2021-02-18,15:02:37,CHINA,-3.0,-9.0,992.6,1033.3,32.1,7.3,0.04,0.0,110000,59.9,175
443850,2021-02-18,15:02:37,MONGOLIA,-7.9,-20.8,896.4,1029.6,50.8,16.8,0.00,0.0,100000,14.6,37
533910,2021-02-18,15:02:37,CHINA,-14.8,-23.0,884.1,1027.2,29.0,18.1,0.01,0.0,110000,50.4,291
547760,2021-02-18,15:02:37,CHINA,-1.1,-7.3,1020.5,1025.8,19.8,24.1,0.07,0.0,110000,76.8,21
474230,2021-02-18,15:02:37,JAPAN,-4.9,-9.1,1009.6,1014.9,15.3,21.8,0.19,0.0,110000,92.4,12
474120,2021-02-18,15:02:37,JAPAN,-7.7,-11.7,1016.7,1016.1,9.4,8.0,0.19,17.8,111000,72.7,177
350670,2021-02-18,15:02:37,KAZAKHSTAN,-8.6,-11.8,1043.2,1033.9,10.5,9.6,0.00,5.2,101000,50.9,313
504340,2021-02-18,15:02:37,CHINA,-30.5,-35.5,967.3,1027.4,27.4,7.9,0.01,0.0,110000,50.3,351
350530,2021-02-18,15:02:37,KAZAKHSTAN,-7.5,-11.5,1035.1,1033.8,18.7,11.7,0.01,2.5,111000,50.2,290
580270,2021-02-18,15:02:37,CHINA,-0.6,-8.7,1021.3,1026.7,14.0,9.1,0.05,0.0,110000,52.5,301
474040,2021-02-18,15:02:37,JAPAN,-7.9,-12.1,1015.5,1016.7,26.2,14.7,0.24,0.0,110000,54.8,262
359970,2021-02-18,15:02:37,KAZAKHSTAN,-6.6,-11.4,1031.9,1034.0,25.1,9.9,0.01,0.8,111000,58.5,68
443050,2021-02-18,15:02:37,MONGOLIA,-17.3,-20.4,950.4,1028.6,46.3,10.0,0.00,2.3,101000,97.6,99
536730,2021-02-18,15:02:37,CHINA,-7.5,-17.9,974.2,1028.2,17.5,8.9,0.01,0.0,110000,91.8,37
443730,2021-02-18,15:02:37,MONGOLIA,-11.0,-21.2,854.3,1027.8,45.0,9.3,0.00,0.2,101000,50.6,346
443740,2021-02-18,15:02:37,MONGOLIA,-13.0,-20.7,830.7,1030.6,49.4,14.4,0.00,1.3,101000,69.5,342
381960,2021-02-18,15:02:37,KAZAKHSTAN,-2.1,-9.4,925.1,1024.5,18.0,4.3,0.00,9.0,101000,50.3,351
288790,2021-02-18,15:02:37,KAZAKHSTAN,-11.7,-16.8,1033.4,1031.1,9.9,16.9,0.00,0.9,101000,50.1,217
288770,2021-02-18,15:02:37,KAZAKHSTAN,-5.5,-10.0,1025.0,1022.8,14.7,,0.03,1.9,111000,78.6,36
476490,2021-02-18,15:02:37,JAPAN,-0.2,-5.3,999.6,1019.5,18.6,12.4,0.28,0.0,110000,50.9,21
350420,2021-02-18,15:02:37,KAZAKHSTAN,-7.0,-10.2,1025.8,1025.6,16.6,17.7,0.00,6.3,101000,50.2,88
522030,2021-02-18,15:02:37,CHINA,-7.7,-18.1,989.1,1027.9,37.5,7.3,0.00,0.0,100000,80.8,147
470030,2021-02-18,15:02:37,KOREANORTH,-9.8,-16.6,1018.9,1021.9,21.8,10.1,0.06,0.0,110000,67.7,94
470990,2021-02-18,15:02:37,KOREASOUTH,-6.5,-14.3,1020.6,1024.6,11.5,5.6,0.01,0.0,110000,50.4,2
471030,2021-02-18,15:02:37,KOREASOUTH,-2.4,-6.3,1014.4,1022.6,12.1,21.0,0.00,0.0,100000,65.4,338
471025,2021-02-18,15:02:37,KOREASOUTH,-2.8,-7.6,1013.2,1022.3,11.5,4.2,0.00,0.0,100000,64.2,199
501360,2021-02-18,15:02:37,CHINA,-27.9,-31.4,968.2,1025.9,20.3,8.3,0.00,0.0,100000,10.4,0
471240,2021-02-18,15:02:37,KOREASOUTH,-3.5,-12.7,1016.2,1042.3,11.7,10.8,0.00,0.0,100000,95.9,359
360010,2021-02-18,15:02:37,KAZAKHSTAN,-6.1,-8.6,1011.1,1026.6,4.1,33.5,0.02,3.2,111000,59.9,277
25105,2021-02-18,15:02:37,SINGAPORE,-1.0,-3.0,1010.4,998.9,10.7,6.4,0.00,0.0,100000,75.8,270
289570,2021-02-18,15:02:37,KAZAKHSTAN,-7.9,-11.5,1035.5,1028.2,10.3,11.5,0.00,6.8,101000,75.5,213
442290,2021-02-18,15:02:37,MONGOLIA,-15.8,-22.6,780.5,1014.0,50.3,6.8,0.00,0.0,100000,63.8,155
474050,2021-02-18,15:02:37,JAPAN,-11.7,-14.9,1018.4,1019.1,40.1,10.2,0.06,0.0,110000,50.3,147
476370,2021-02-18,15:02:37,JAPAN,-3.6,-10.6,958.4,1018.2,27.2,9.6,0.18,0.0,110000,93.1,266
475880,2021-02-18,15:02:37,JAPAN,-3.6,-7.3,998.2,1017.2,10.9,6.7,0.07,0.0,110000,50.6,258
470460,2021-02-18,15:02:37,KOREANORTH,-4.1,-8.6,1024.1,1020.4,15.6,5.2,0.01,0.0,110000,62.4,245
347980,2021-02-18,15:02:37,KAZAKHSTAN,-3.3,-6.3,1018.8,1020.4,10.6,21.3,0.00,0.6,101000,74.7,42
549380,2021-02-18,15:02:37,CHINA,-2.4,-12.4,1033.5,1027.6,15.1,10.1,0.02,0.0,110000,50.3,155
515730,2021-02-18,15:02:37,CHINA,-3.7,-17.6,1023.0,1028.8,23.2,4.8,0.04,0.0,110000,65.0,219
356710,2021-02-18,15:02:37,KAZAKHSTAN,-10.8,-14.6,997.8,1029.5,20.2,17.2,0.00,5.0,101000,50.2,297
560650,2021-02-18,15:02:37,CHINA,-15.4,-26.6,661.0,660.0,26.6,9.6,0.01,0.0,110000,64.2,29
560930,2021-02-18,15:02:37,CHINA,-9.8,-15.8,1006.4,1018.0,15.7,12.3,0.00,0.0,100000,29.0,312
475920,2021-02-18,15:02:37,JAPAN,-1.3,-5.9,1015.3,1018.1,,12.5,0.17,0.9,111000,87.2,74
535430,2021-02-18,15:02:37,CHINA,-10.3,-21.6,883.3,1029.8,22.9,11.8,0.01,0.0,110000,62.2,213
355490,2021-02-18,15:02:37,KAZAKHSTAN,-8.3,-11.5,1034.1,1030.5,,10.1,0.00,4.8,101000,50.4,174
476900,2021-02-18,15:02:37,JAPAN,-7.6,-12.8,866.7,866.9,25.3,13.9,0.14,0.0,110000,50.1,215
571930,2021-02-18,15:02:37,CHINA,-0.2,-7.5,1031.3,1026.3,14.3,9.0,0.02,0.0,110000,72.4,92
471064,2021-02-18,15:02:37,KOREASOUTH,-10.4,-14.0,1001.2,1011.1,10.7,10.0,0.00,0.0,100000,52.1,82
471066,2021-02-18,15:02:37,KOREASOUTH,-4.9,-11.0,1007.8,1002.3,8.8,5.6,0.00,0.0,100000,99.1,52
471050,2021-02-18,15:02:37,KOREASOUTH,-0.9,-8.7,1016.6,1021.8,20.5,11.9,0.18,1.4,111000,92.3,249
386090,2021-02-18,15:02:37,TAJIKISTAN,-2.3,-7.7,925.0,1028.1,17.0,10.0,0.00,0.0,100000,83.0,120
509630,2021-02-18,15:02:37,CHINA,-18.0,-22.3,1019.7,1023.0,13.5,14.2,0.01,0.0,110000,50.3,126
547150,2021-02-18,15:02:37,CHINA,-2.8,-12.6,1025.3,1027.6,17.0,12.5,0.08,0.0,110000,63.4,148
509830,2021-02-18,15:02:37,CHINA,-15.9,-21.2,1017.8,1022.3,16.5,10.8,0.01,0.0,110000,50.1,255
443290,2021-02-18,15:02:37,MONGOLIA,-15.8,-17.1,779.6,1033.0,19.4,13.9,0.00,3.2,101000,50.1,225
508440,2021-02-18,15:02:37,CHINA,-15.3,-23.2,1026.5,1023.5,14.8,13.5,0.01,0.0,110000,50.2,32
475530,2021-02-18,15:02:37,JAPAN,-2.3,-6.1,997.0,999.4,8.9,10.9,0.00,0.0,100000,25.6,326
369820,2021-02-18,15:02:37,KYRGYZSTAN,-21.7,-27.6,646.3,646.6,43.1,9.8,0.00,0.0,100000,63.9,265
474410,2021-02-18,15:02:37,JAPAN,-6.5,-11.0,1004.0,1006.2,9.4,24.6,0.00,0.0,100000,82.6,98
475200,2021-02-18,15:02:37,JAPAN,-3.0,-6.3,1005.5,1018.6,16.1,11.2,0.15,0.0,110000,50.1,172
353860,2021-02-18,15:02:37,KAZAKHSTAN,-16.4,-19.8,986.9,989.7,17.4,9.5,0.00,0.0,100000,6.1,152
529830,2021-02-18,15:02:37,CHINA,-10.9,-15.4,818.7,835.5,20.7,6.5,0.02,0.0,110000,66.9,324
541150,2021-02-18,15:02:37,CHINA,-13.8,-25.0,973.4,1027.1,24.5,11.0,0.01,0.0,110000,50.1,241
514950,2021-02-18,15:02:37,CHINA,-8.0,-22.1,990.2,1032.5,35.0,26.7,0.01,0.0,110000,50.6,333
357390,2021-02-18,15:02:37,KAZAKHSTAN,-4.7,-9.5,1041.9,1029.5,46.2,14.9,0.00,1.3,101000,50.3,37
556640,2021-02-18,15:02:37,CHINA,-11.7,-33.4,601.9,600.7,28.5,12.4,0.00,0.0,100000,44.4,350
354260,2021-02-18,15:02:37,KAZAKHSTAN,-7.9,-11.0,1003.9,1025.3,38.7,11.6,0.00,4.8,101000,80.9,8
475160,2021-02-18,15:02:37,JAPAN,-3.0,-7.7,997.9,993.6,10.1,16.7,0.00,0.0,100000,0.1,3
508540,2021-02-18,15:02:37,CHINA,-16.7,-23.3,1022.6,1023.1,16.9,10.6,0.01,0.0,110000,95.0,301
515420,2021-02-18,15:02:37,CHINA,-20.5,-23.3,755.0,752.7,31.6,6.5,0.01,0.0,110000,88.1,70
539750,2021-02-18,15:02:37,CHINA,-3.8,-13.5,1018.8,1028.8,14.4,7.3,0.02,0.0,110000,50.5,220
530830,2021-02-18,15:02:37,CHINA,-18.4,-24.7,965.1,1031.2,29.2,12.7,0.01,0.0,110000,64.7,223
561250,2021-02-18,15:02:37,CHINA,-9.6,-23.8,650.0,654.9,23.4,7.5,0.03,0.0,110000,94.8,44
548080,2021-02-18,15:02:37,CHINA,-2.3,-11.8,1030.3,1027.0,12.7,11.0,0.02,0.0,110000,50.2,103
585060,2021-02-18,15:02:37,CHINA,-1.0,-5.5,977.7,1026.8,12.2,14.8,0.19,0.0,110000,94.1,221
538450,2021-02-18,15:02:37,CHINA,-6.1,-15.3,933.5,1028.8,12.2,6.5,0.01,0.0,110000,68.9,2
289520,2021-02-18,15:02:37,KAZAKHSTAN,-13.7,-17.0,1038.2,1033.1,7.8,13.4,0.04,0.0,110000,52.0,296
570360,2021-02-18,15:02:37,CHINA,-0.9,-8.6,1011.4,1025.3,8.8,7.2,0.04,0.0,110000,50.5,270
383340,2021-02-18,15:02:37,KAZAKHSTAN,-1.9,-5.0,927.1,1024.4,12.0,10.4,0.00,4.7,101000,73.1,150
476240,2021-02-18,15:02:37,JAPAN,-0.5,-8.6,1009.7,1017.8,27.2,13.0,0.08,0.2,111000,50.1,327
546620,2021-02-18,15:02:37,CHINA,-3.9,-12.0,1022.3,1025.6,13.8,17.7,0.02,0.0,110000,64.5,243
528360,2021-02-18,15:02:37,CHINA,-9.9,-26.4,687.5,687.0,27.9,9.9,0.06,0.0,110000,50.4,116
356050,2021-02-18,15:02:37,KAZAKHSTAN,-0.3,-1.6,1036.6,1014.5,22.4,18.4,0.19,0.0,110000,50.3,160
354970,2021-02-18,15:02:37,KAZAKHSTAN,-7.2,-13.6,983.3,1035.4,31.2,11.8,0.02,7.5,111000,50.6,202
343980,2021-02-18,15:02:37,KAZAKHSTAN,-8.1,-11.6,1016.2,1015.7,17.4,16.1,0.00,5.6,101000,82.7,170
546180,2021-02-18,15:02:37,CHINA,-1.5,-9.9,1024.2,1026.1,11.0,9.9,0.08,0.0,110000,70.0,22
474400,2021-02-18,15:02:37,JAPAN,-8.0,-13.2,1012.4,1016.8,23.4,11.2,0.38,0.0,110000,53.0,129
534870,2021-02-18,15:02:37,CHINA,-10.8,-21.7,973.3,1029.3,16.6,11.6,0.01,0.0,110000,65.4,273
171400,2021-02-18,15:02:37,TURKEY,-8.1,-8.3,865.0,853.2,8.3,9.6,0.45,22.6,111000,50.1,108
509490,2021-02-18,15:02:37,CHINA,-15.0,-21.6,1016.1,1023.2,14.2,9.0,0.01,0.0,110000,97.8,141
509150,2021-02-18,15:02:37,CHINA,-19.9,-26.2,945.3,1029.6,29.4,10.5,0.02,0.0,110000,52.7,150
477090,2021-02-18,15:02:37,JAPAN,-1.4,-9.6,998.8,1002.5,9.4,10.4,0.00,0.0,100000,71.5,128
475750,2021-02-18,15:02:37,JAPAN,-3.5,-7.8,1020.5,1017.6,14.5,13.4,0.19,22.8,111000,60.9,222
510870,2021-02-18,15:02:37,CHINA,-9.1,-16.3,931.3,1032.2,23.5,6.1,0.00,0.0,100000,56.9,19
528660,2021-02-18,15:02:37,CHINA,-8.0,-21.3,772.2,771.4,16.1,7.4,0.00,0.0,100000,18.8,273
170980,2021-02-18,15:02:37,TURKEY,-4.9,-7.2,815.6,815.6,9.1,9.9,0.06,12.5,111000,50.1,321
474020,2021-02-18,15:02:37,JAPAN,-12.3,-14.9,1016.8,1017.9,21.6,10.3,0.11,0.0,110000,58.7,90
474010,2021-02-18,15:02:37,JAPAN,-7.3,-12.3,1011.3,1015.8,18.1,,0.16,16.7,111000,90.5,198
470350,2021-02-18,15:02:37,KOREANORTH,-6.3,-13.4,1034.0,1024.8,16.3,11.6,0.05,0.0,110000,98.5,343
542180,2021-02-18,15:02:37,CHINA,-11.2,-23.5,992.1,1026.4,21.8,9.4,0.01,0.0,110000,50.0,181
524180,2021-02-18,15:02:37,CHINA,-7.8,-23.0,917.5,1027.6,27.8,6.2,0.00,0.0,100000,81.3,244
536460,2021-02-18,15:02:37,CHINA,-2.8,-18.1,928.0,1029.2,17.8,9.8,0.01,0.0,110000,50.7,19
537050,2021-02-18,15:02:37,CHINA,-7.2,-18.1,974.7,1028.6,19.2,11.3,0.01,0.0,110000,50.3,251
475420,2021-02-18,15:02:37,JAPAN,-3.7,-7.5,999.6,1001.8,8.2,17.7,0.00,0.0,100000,53.5,233
524240,2021-02-18,15:02:37,CHINA,-11.1,-22.0,900.0,1030.2,25.5,14.4,0.01,0.0,110000,50.5,54
383450,2021-02-18,15:02:37,KYRGYZSTAN,-1.6,-5.4,895.5,896.0,20.1,3.9,0.00,1.8,101000,70.9,9
383430,2021-02-18,15:02:37,KAZAKHSTAN,-1.4,-3.3,939.9,1025.4,10.0,4.1,0.00,2.6,101000,93.2,16
749347,2021-02-18,15:02:37,CHINA,-3.5,-8.1,1035.2,1037.9,10.7,9.8,0.00,0.0,100000,69.0,323
749348,2021-02-18,15:02:37,CHINA,-18.3,-21.5,1032.4,1037.1,63.2,2.5,0.00,0.0,100000,76.0,197
533520,2021-02-18,15:02:37,CHINA,-15.1,,959.1,1031.4,29.0,16.8,0.02,0.0,110000,50.2,278
564440,2021-02-18,15:02:37,CHINA,-3.8,-10.0,734.6,734.9,23.4,11.0,0.04,0.0,110000,50.8,309
543460,2021-02-18,15:02:37,CHINA,-8.8,-16.3,1019.2,1025.9,13.9,9.1,0.04,0.0,110000,53.2,208
363970,2021-02-18,15:02:37,KAZAKHSTAN,-4.9,-10.7,1044.9,1036.8,24.6,33.3,1.07,2.6,111000,91.6,281
583211,2021-02-18,15:02:37,CHINA,-0.3,-5.4,1006.8,999.5,9.5,9.7,0.00,0.0,100000,96.5,230
510530,2021-02-18,15:02:37,CHINA,-16.8,-20.9,1025.3,1035.8,25.8,14.6,0.01,0.0,110000,98.2,20
442870,2021-02-18,15:02:37,MONGOLIA,-19.2,-24.5,813.8,1035.1,50.3,12.6,0.00,2.6,101000,50.4,61
548260,2021-02-18,15:02:37,CHINA,-8.5,-19.3,871.4,874.1,27.2,26.3,0.08,0.0,110000,50.8,359
524460,2021-02-18,15:02:37,CHINA,-11.1,-23.5,940.0,1033.7,43.5,13.5,0.00,0.0,100000,79.2,108
364390,2021-02-18,15:02:37,KAZAKHSTAN,-15.6,-21.8,997.0,1002.3,37.4,15.5,0.81,2.3,111000,97.8,267
381411,2021-02-18,15:02:37,KAZAKHSTAN,-7.5,-8.8,1006.3,987.3,6.5,17.5,0.00,0.0,100000,90.7,87
381410,2021-02-18,15:02:37,UZBEKISTAN,-0.7,-5.4,1004.6,1020.9,18.5,13.3,0.00,0.0,100000,30.7,357
475700,2021-02-18,15:02:37,JAPAN,-2.8,-6.5,1008.8,1019.3,14.9,7.1,0.15,9.5,111000,50.1,199
537640,2021-02-18,15:02:37,CHINA,-8.0,-17.8,974.0,1029.5,19.0,8.3,0.12,0.0,110000,80.3,197
477470,2021-02-18,15:02:37,JAPAN,-1.0,-2.4,1026.8,1027.5,14.7,4.4,0.19,0.0,110000,50.4,281
478210,2021-02-18,15:02:37,JAPAN,-5.4,-11.0,892.3,899.1,29.2,12.8,0.00,0.0,100000,14.7,174
529550,2021-02-18,15:02:37,CHINA,-10.3,-24.7,694.8,691.1,30.7,7.6,0.00,0.0,100000,15.4,161
350780,2021-02-18,15:02:37,KAZAKHSTAN,-10.4,-14.0,1034.3,1033.0,11.0,14.4,0.01,9.2,111000,50.0,64
517110,2021-02-18,15:02:37,CHINA,-6.1,-14.6,801.1,805.3,25.0,8.9,0.02,0.0,110000,50.8,128
560040,2021-02-18,15:02:37,CHINA,-20.0,-30.6,1001.3,1001.2,30.3,19.9,0.00,0.0,100000,77.5,136
470600,2021-02-18,15:02:37,KOREANORTH,-1.1,-8.9,1028.3,1024.4,9.8,13.1,0.04,0.0,110000,50.3,204
555910,2021-02-18,15:02:37,CHINA,-3.4,-25.7,676.7,675.6,29.7,9.5,0.00,0.0,100000,80.5,341
540490,2021-02-18,15:02:37,CHINA,-13.4,-22.0,1025.9,1024.1,19.5,11.9,0.01,0.0,110000,50.0,23
538210,2021-02-18,15:02:37,CHINA,-7.2,-18.4,931.6,1029.0,18.3,8.7,0.00,0.0,100000,0.4,93
443470,2021-02-18,15:02:37,MONGOLIA,-7.6,-25.9,861.4,1013.1,37.3,26.6,0.00,0.0,100000,23.8,4
521180,2021-02-18,15:02:37,CHINA,-13.5,-26.1,828.9,831.5,31.1,10.5,0.01,0.0,110000,79.4,87
527870,2021-02-18,15:02:37,CHINA,-14.0,-24.2,746.8,750.7,26.8,18.5,0.01,0.0,110000,72.9,24
513790,2021-02-18,15:02:37,CHINA,-19.3,-23.2,1018.0,1036.0,26.3,9.9,0.01,0.0,110000,52.9,118
476040,2021-02-18,15:02:37,JAPAN,-0.1,-4.6,1019.2,1018.8,14.9,15.3,0.21,6.1,111000,50.3,35
536140,2021-02-18,15:02:37,CHINA,-7.7,-18.7,928.6,1029.1,20.5,7.2,0.01,0.0,110000,50.3,316
474880,2021-02-18,15:02:37,JAPAN,-3.7,-8.6,995.5,998.1,9.0,16.1,0.00,0.0,100000,44.0,230
508620,2021-02-18,15:02:37,CHINA,-23.9,-28.8,989.0,1009.8,16.8,8.8,0.00,0.0,100000,21.1,350
368700,2021-02-18,15:02:37,KAZAKHSTAN,-2.5,-6.7,978.3,1022.2,8.1,3.7,0.29,2.9,111000,89.3,270
471270,2021-02-18,15:02:37,KOREASOUTH,-3.7,-8.8,1007.7,1014.4,9.3,8.3,0.01,0.1,111000,50.4,22
172410,2021-02-18,15:02:37,TURKEY,-4.7,-8.8,1012.8,1047.1,10.8,15.7,0.00,0.0,100000,94.8,132
516560,2021-02-18,15:02:37,CHINA,-3.9,-16.1,932.8,1027.0,18.6,9.1,0.00,0.0,100000,11.8,126
470200,2021-02-18,15:02:37,KOREANORTH,-12.0,-19.1,1016.0,1028.9,10.7,4.0,0.00,0.0,100000,48.0,347
534460,2021-02-18,15:02:37,CHINA,-12.2,-27.8,995.0,1031.1,13.6,12.7,0.00,0.0,100000,58.8,124
526610,2021-02-18,15:02:37,CHINA,-10.3,-26.7,929.3,954.5,69.4,,0.00,0.0,100000,22.5,244
544230,2021-02-18,15:02:37,CHINA,-10.2,-22.0,975.9,1024.6,24.1,5.1,0.00,0.0,100000,22.5,325
442410,2021-02-18,15:02:37,MONGOLIA,-21.4,-24.7,1029.8,1033.6,45.6,9.4,0.00,1.9,101000,65.2,158
518550,2021-02-18,15:02:37,CHINA,-7.6,-20.4,933.1,1025.4,17.5,7.6,0.00,0.0,100000,93.8,253
543860,2021-02-18,15:02:37,CHINA,-16.5,-23.4,965.8,1026.2,18.3,10.2,0.04,0.0,110000,73.5,276
363350,2021-02-18,15:02:37,KAZAKHSTAN,-9.9,-13.6,1031.4,1033.1,43.1,18.2,0.04,7.6,111000,50.6,15
577070,2021-02-18,15:02:37,CHINA,-0.4,-2.4,852.3,855.2,9.3,3.0,0.03,0.0,110000,80.4,45
471170,2021-02-18,15:02:37,KOREASOUTH,-1.0,-6.4,1000.1,986.2,8.5,5.2,0.01,0.0,110000,50.3,72
345810,2021-02-18,15:02:37,KAZAKHSTAN,-1.8,-6.2,1043.8,1027.4,50.9,18.2,0.00,0.0,100000,24.9,234
560460,2021-02-18,15:02:37,CHINA,-14.5,-23.2,671.4,671.8,25.2,8.0,0.01,0.0,110000,50.0,183
549450,2021-02-18,15:02:37,CHINA,-1.4,-9.7,1024.7,1027.0,17.0,12.8,0.09,0.0,110000,50.1,31
442590,2021-02-18,15:02:37,MONGOLIA,-18.1,-20.6,950.2,1027.6,20.7,10.0,0.02,1.9,111000,50.0,351
381980,2021-02-18,15:02:37,KAZAKHSTAN,-1.6,-5.9,1030.4,1026.3,21.5,8.4,0.32,0.4,111000,62.8,170
380190,2021-02-18,15:02:37,KAZAKHSTAN,-10.8,-15.3,1042.7,1032.7,29.4,12.1,0.02,9.4,111000,92.7,61
544490,2021-02-18,15:02:37,CHINA,-0.2,-19.4,1031.1,1016.8,32.0,24.6,0.00,0.0,100000,47.7,297
443540,2021-02-18,15:02:37,MONGOLIA,-14.1,-19.5,1058.8,1029.3,49.7,17.3,0.00,0.0,100000,46.8,285
517770,2021-02-18,15:02:37,CHINA,-5.8,-20.3,939.7,1027.2,21.9,8.2,0.00,0.0,100000,50.7,72
516280,2021-02-18,15:02:37,CHINA,-1.7,-7.0,998.8,1030.7,19.2,4.2,0.00,0.0,100000,53.3,160
470500,2021-02-18,15:02:37,KOREANORTH,-7.2,-12.5,1027.3,1023.9,14.7,7.4,0.08,0.0,110000,91.1,208
518180,2021-02-18,15:02:37,CHINA,-1.2,-11.8,976.6,1023.7,15.7,4.7,0.01,0.0,110000,50.6,46
170671,2021-02-18,15:02:37,TURKEY,-2.2,-4.9,1008.9,997.5,11.8,9.5,0.00,0.0,100000,6.9,318
509780,2021-02-18,15:02:37,CHINA,-15.5,-21.7,1009.2,1022.3,26.5,12.7,0.01,0.0,110000,50.1,175
584450,2021-02-18,15:02:37,CHINA,-4.1,-10.5,875.3,946.9,15.6,19.9,0.19,0.0,110000,50.0,315
387130,2021-02-18,15:02:37,TAJIKISTAN,-3.6,-7.5,996.0,1020.4,42.7,6.6,0.00,5.0,101000,55.5,15
471400,2021-02-18,15:02:37,KOREASOUTH,-1.4,-6.5,1019.4,1023.9,17.2,14.7,0.04,0.0,110000,92.2,359
471410,2021-02-18,15:02:37,KOREASOUTH,-1.4,-6.4,1013.4,1013.8,10.7,14.1,0.04,0.1,111000,51.3,211
471420,2021-02-18,15:02:37,KOREASOUTH,-2.4,-9.8,1015.0,1015.0,12.0,10.8,0.01,0.0,110000,50.3,46
471330,2021-02-18,15:02:37,KOREASOUTH,-2.6,-8.9,1019.8,1024.1,17.3,6.4,0.04,0.0,110000,79.5,329
471340,2021-02-18,15:02:37,KOREASOUTH,-3.2,-8.5,1001.1,997.0,10.2,7.0,0.01,0.0,110000,95.5,217
506030,2021-02-18,15:02:37,CHINA,-19.9,-23.3,982.8,1028.0,29.5,10.9,0.01,0.0,110000,72.1,112
471350,2021-02-18,15:02:37,KOREASOUTH,-3.0,-10.6,1011.8,1023.3,19.8,14.6,0.08,0.0,110000,55.0,131
471074,2021-02-18,15:02:37,KOREASOUTH,-2.8,-6.3,1008.1,1025.4,9.3,18.8,0.00,0.0,100000,99.2,331
471087,2021-02-18,15:02:37,KOREASOUTH,-4.5,-14.3,1006.6,984.9,11.0,11.2,0.00,0.0,100000,32.9,320
471080,2021-02-18,15:02:37,KOREASOUTH,-3.2,-9.2,1019.3,1023.7,11.2,9.0,0.03,0.1,111000,85.3,294
471120,2021-02-18,15:02:37,KOREASOUTH,-2.7,-9.7,1018.4,1023.5,15.9,12.3,0.04,0.0,110000,51.1,44
506320,2021-02-18,15:02:37,CHINA,-19.6,-23.9,983.0,1024.4,27.5,10.4,0.02,0.0,110000,50.4,167
471430,2021-02-18,15:02:37,KOREASOUTH,-0.7,-9.2,1016.2,1023.0,18.3,10.2,0.06,0.1,111000,50.0,20
171890,2021-02-18,15:02:37,TURKEY,-6.5,-10.4,901.4,926.5,15.5,12.7,0.24,9.4,111000,75.4,358
356330,2021-02-18,15:02:37,KAZAKHSTAN,-11.3,-15.0,1026.0,1023.8,21.6,16.5,0.00,5.2,101000,70.3,158
471190,2021-02-18,15:02:37,KOREASOUTH,-3.5,-10.4,1027.3,1024.1,15.3,7.5,0.05,0.1,111000,50.1,307
471180,2021-02-18,15:02:37,KOREASOUTH,-10.3,-17.5,1014.6,1030.0,10.8,8.1,0.00,0.0,100000,68.3,108
442770,2021-02-18,15:02:37,MONGOLIA,-25.3,-28.6,996.5,1028.4,49.0,18.0,0.00,0.0,100000,27.5,124
470390,2021-02-18,15:02:37,KOREANORTH,-8.4,-11.3,1021.7,1024.0,8.2,3.3,0.00,0.0,100000,89.8,98
286790,2021-02-18,15:02:37,KAZAKHSTAN,-11.1,-14.7,1024.7,1029.5,11.1,18.9,0.02,7.1,111000,50.2,188
548430,2021-02-18,15:02:37,CHINA,-4.4,-13.1,1023.9,1026.6,17.0,12.2,0.04,0.0,110000,50.8,23
561930,2021-02-18,15:02:37,CHINA,-1.3,-6.4,1033.5,1031.2,14.3,2.6,0.11,0.0,110000,50.4,35
368590,2021-02-18,15:02:37,KAZAKHSTAN,-5.6,-10.5,1007.2,1027.6,39.7,7.5,0.02,1.6,111000,50.3,258
471110,2021-02-18,15:02:37,KOREASOUTH,-2.0,-8.5,989.3,990.4,9.2,7.5,0.00,0.0,100000,36.4,256
547050,2021-02-18,15:02:37,CHINA,-15.6,-20.4,1024.2,1034.0,7.8,3.6,0.00,0.0,100000,51.4,264
528250,2021-02-18,15:02:37,CHINA,-9.8,-27.9,724.2,719.1,23.5,11.6,0.00,0.0,100000,78.0,131
470610,2021-02-18,15:02:37,KOREANORTH,-2.3,-9.3,1016.2,1020.7,21.1,8.1,0.18,1.2,111000,88.9,244
470650,2021-02-18,15:02:37,KOREANORTH,-5.8,-12.3,1031.6,1024.9,11.6,8.4,0.02,0.0,110000,79.8,251
545390,2021-02-18,15:02:37,CHINA,-5.4,-14.7,1024.5,1027.2,18.5,10.6,0.03,0.0,110000,95.3,101
548630,2021-02-18,15:02:37,CHINA,-3.0,-11.9,1026.6,1026.4,19.9,13.9,0.03,0.0,110000,50.3,341
507450,2021-02-18,15:02:37,CHINA,-17.1,-24.1,1015.0,1023.0,11.4,11.0,0.01,0.0,110000,51.0,221
529960,2021-02-18,15:02:37,CHINA,-8.7,-13.9,778.7,779.3,15.1,15.8,0.01,0.0,110000,50.6,330
526740,2021-02-18,15:02:37,CHINA,-11.8,-23.5,801.4,797.0,28.7,10.9,0.01,0.0,110000,50.1,211
518280,2021-02-18,15:02:37,CHINA,-1.3,-12.9,897.8,1024.3,9.8,5.4,0.01,0.0,110000,50.2,249
517650,2021-02-18,15:02:37,CHINA,-7.7,-19.1,939.6,1027.3,27.9,6.0,0.00,0.0,100000,47.2,26
560800,2021-02-18,15:02:37,CHINA,-11.4,-20.3,734.5,733.2,25.4,6.5,0.01,0.0,110000,95.6,158
560790,2021-02-18,15:02:37,CHINA,-12.2,-22.5,665.4,664.8,31.2,8.8,0.02,0.0,110000,50.4,232
382320,2021-02-18,15:02:37,KAZAKHSTAN,-0.4,-6.7,1020.9,1023.7,33.6,13.4,0.02,0.4,111000,50.4,67
539590,2021-02-18,15:02:37,CHINA,-1.4,-11.8,1011.0,1027.1,16.3,9.2,0.01,0.0,110000,50.3,51
517470,2021-02-18,15:02:37,CHINA,-7.5,-19.8,893.8,1025.7,19.3,3.8,0.00,0.0,100000,35.6,53
514310,2021-02-18,15:02:37,CHINA,-4.5,-7.9,976.8,1028.2,31.7,5.7,0.03,0.0,110000,50.4,146
475150,2021-02-18,15:02:37,JAPAN,-2.4,-6.7,997.3,998.6,9.9,16.6,0.00,0.0,100000,99.5,33
471920,2021-02-18,15:02:37,KOREASOUTH,-2.2,-9.2,1022.5,1022.5,21.5,6.8,0.06,0.0,110000,50.0,80
583430,2021-02-18,15:02:37,CHINA,-0.2,-6.8,1013.2,1025.8,16.4,10.6,0.00,0.0,100000,97.9,18
475800,2021-02-18,15:02:37,JAPAN,-3.0,-6.9,1004.7,1005.2,11.4,14.0,0.00,1.7,101000,51.9,62
545340,2021-02-18,15:02:37,CHINA,-5.2,-15.5,1022.3,1026.3,14.6,10.2,0.01,0.0,110000,71.3,92
354160,2021-02-18,15:02:37,KAZAKHSTAN,-7.4,-10.3,1024.6,1027.4,7.6,17.4,0.03,5.6,111000,54.6,71
535020,2021-02-18,15:02:37,CHINA,-10.4,-23.5,979.9,1029.4,22.8,11.7,0.00,0.0,100000,46.5,177
477560,2021-02-18,15:02:37,JAPAN,-0.6,-5.3,1001.3,1019.8,12.9,5.1,0.44,0.0,110000,58.6,158
527130,2021-02-18,15:02:37,CHINA,-13.4,-30.8,698.8,699.1,29.0,8.8,0.00,0.0,100000,11.2,259
548570,2021-02-18,15:02:37,CHINA,-1.7,-8.7,1023.6,1026.6,12.3,20.2,0.03,0.0,110000,50.1,31
560290,2021-02-18,15:02:37,CHINA,-8.2,-21.4,645.7,645.7,29.3,4.1,0.01,0.0,110000,71.3,302
380810,2021-02-18,15:02:37,KAZAKHSTAN,-5.0,-8.5,1030.5,1029.7,23.5,14.4,0.01,0.3,111000,69.7,135
526510,2021-02-18,15:02:37,CHINA,-2.6,-24.9,985.2,1001.5,70.0,5.8,0.00,0.0,100000,48.0,209
474130,2021-02-18,15:02:37,JAPAN,-6.9,-10.1,1008.2,1014.7,16.9,9.6,0.03,0.0,110000,50.1,279
474170,2021-02-18,15:02:37,JAPAN,-15.4,-20.5,1009.8,1015.0,10.4,5.6,0.04,0.0,110000,51.1,263
366390,2021-02-18,15:02:37,KAZAKHSTAN,-9.9,-12.8,1056.1,1038.6,49.1,2.7,1.83,0.0,110000,71.0,343
476200,2021-02-18,15:02:37,JAPAN,-3.2,-7.7,926.8,1018.6,27.0,12.6,0.18,0.0,110000,50.1,123
581020,2021-02-18,15:02:37,CHINA,-0.4,-8.3,1021.5,1026.7,18.3,8.6,0.08,0.0,110000,69.4,232
474300,2021-02-18,15:02:37,JAPAN,-5.7,-10.4,1016.5,1016.6,13.2,12.8,0.09,8.8,111000,97.1,127
474180,2021-02-18,15:02:37,JAPAN,-10.3,-15.4,1011.4,1015.8,20.6,15.2,0.06,5.1,111000,86.7,266
351880,2021-02-18,15:02:37,KAZAKHSTAN,-11.6,-13.8,1028.0,1028.9,16.2,16.5,0.22,1.9,111000,89.7,86
528420,2021-02-18,15:02:37,CHINA,-2.9,-20.6,696.7,692.1,17.0,15.1,0.00,0.0,100000,83.4,28
546160,2021-02-18,15:02:37,CHINA,-3.8,-13.2,1027.4,1026.5,12.2,13.2,0.03,0.0,110000,64.6,341
528180,2021-02-18,15:02:37,CHINA,-9.7,-29.1,753.9,752.8,26.8,8.8,0.00,0.0,100000,70.3,87
541860,2021-02-18,15:02:37,CHINA,-16.0,-23.3,1013.4,1024.5,18.8,10.0,0.03,0.0,110000,50.2,142
524410,2021-02-18,15:02:37,CHINA,-14.2,-25.8,845.1,847.5,42.9,17.3,0.00,0.0,100000,78.5,353
516440,2021-02-18,15:02:37,CHINA,-2.1,-11.4,923.6,1028.1,22.8,7.4,0.01,0.0,110000,50.0,80
350850,2021-02-18,15:02:37,KAZAKHSTAN,-13.6,-18.9,1017.6,1033.3,28.7,15.8,0.02,3.4,111000,74.8,337
544970,2021-02-18,15:02:37,CHINA,-6.9,-16.4,1025.0,1024.4,15.2,11.3,0.06,0.0,110000,50.3,349
475760,2021-02-18,15:02:37,JAPAN,-4.3,-8.9,1016.9,1017.5,21.2,10.6,0.11,0.0,110000,76.9,286
549060,2021-02-18,15:02:37,CHINA,-1.9,-9.4,1022.6,1026.4,17.9,8.2,0.02,0.0,110000,62.7,288
289780,2021-02-18,15:02:37,KAZAKHSTAN,-10.2,-12.6,969.2,1022.4,17.0,10.8,0.00,0.0,100000,31.2,274
474900,2021-02-18,15:02:37,JAPAN,-11.1,-17.2,992.7,996.0,10.1,8.7,0.00,0.0,100000,32.8,144
474890,2021-02-18,15:02:37,JAPAN,-8.0,-14.7,1002.6,1001.6,10.4,10.7,0.00,0.0,100000,65.4,251
505480,2021-02-18,15:02:37,CHINA,-21.3,-26.0,998.5,1010.5,30.5,3.5,0.00,0.0,100000,62.0,228
507880,2021-02-18,15:02:37,CHINA,-17.1,-23.7,1023.1,1020.5,20.5,12.8,0.01,0.0,110000,50.5,267
509680,2021-02-18,15:02:37,CHINA,-19.0,-23.1,1025.2,1023.8,14.9,10.3,0.03,0.0,110000,51.9,54
541020,2021-02-18,15:02:37,CHINA,-19.0,-23.7,936.5,1030.5,28.5,12.2,0.01,0.0,110000,50.3,226
517300,2021-02-18,15:02:37,CHINA,-3.1,-11.6,987.2,1028.6,20.0,4.4,0.01,0.0,110000,50.4,72
535930,2021-02-18,15:02:37,CHINA,-11.0,-22.8,980.5,1029.0,24.1,7.2,0.01,0.0,110000,90.9,201
562570,2021-02-18,15:02:37,CHINA,-8.9,-22.5,684.5,683.3,37.7,8.2,0.00,0.0,100000,63.9,262
367780,2021-02-18,15:02:37,KAZAKHSTAN,-11.7,-17.6,1060.9,1037.0,21.2,6.3,0.00,0.0,100000,91.1,204
532310,2021-02-18,15:02:37,CHINA,-13.8,-25.0,850.5,852.3,26.0,20.8,0.01,0.0,110000,72.9,51
549160,2021-02-18,15:02:37,CHINA,-2.7,-10.9,1029.1,1026.9,14.8,9.5,0.03,0.0,110000,50.1,136
471750,2021-02-18,15:02:37,KOREASOUTH,-0.7,-7.5,965.7,1024.1,13.6,21.2,0.06,0.0,110000,95.0,276
470250,2021-02-18,15:02:37,KOREANORTH,-4.9,-8.6,1015.1,1021.3,10.6,8.2,0.27,0.0,110000,50.6,12
364420,2021-02-18,15:02:37,KAZAKHSTAN,-19.0,-28.2,1017.3,1008.7,38.5,27.2,0.00,2.6,101000,80.8,295
515670,2021-02-18,15:02:37,CHINA,-7.1,-15.0,1004.5,1032.5,18.5,7.6,0.00,0.0,100000,26.4,248
476180,2021-02-18,15:02:37,JAPAN,-4.0,-10.2,976.3,1019.1,13.6,6.8,0.14,1.3,111000,81.8,113
471571,2021-02-18,15:02:37,KOREASOUTH,-3.0,-13.2,988.4,960.8,10.8,11.9,0.00,0.0,100000,91.5,259
547510,2021-02-18,15:02:37,CHINA,-1.2,-8.2,1029.1,1027.2,17.0,20.9,0.06,0.0,110000,87.6,202
474830,2021-02-18,15:02:37,JAPAN,-6.6,-14.0,1002.4,1004.2,10.8,15.5,0.00,0.0,100000,86.2,320
547140,2021-02-18,15:02:37,CHINA,-3.7,-12.3,1029.4,1026.2,15.5,10.1,0.03,0.0,110000,50.1,228
471540,2021-02-18,15:02:37,KOREASOUTH,-0.1,-11.1,1012.8,1034.6,11.9,11.1,0.00,0.0,100000,6.9,284
471060,2021-02-18,15:02:37,KOREASOUTH,-3.8,-11.8,1017.0,1022.1,13.8,6.7,0.11,0.4,111000,50.2,319
366220,2021-02-18,15:02:37,KAZAKHSTAN,-7.6,-12.7,1034.1,1037.4,43.0,13.7,0.02,6.3,111000,51.9,126
353210,2021-02-18,15:02:37,KAZAKHSTAN,-14.7,-21.1,1047.1,1037.0,9.1,9.8,0.00,0.0,100000,53.2,68
561060,2021-02-18,15:02:37,CHINA,-10.7,-22.7,619.1,618.0,27.6,9.2,0.04,0.0,110000,95.8,332
561160,2021-02-18,15:02:37,CHINA,-7.9,-21.6,684.3,685.0,26.7,4.0,0.00,0.0,100000,34.5,301
443170,2021-02-18,15:02:37,MONGOLIA,-11.5,-16.2,890.0,1017.6,21.2,13.5,0.00,4.5,101000,50.7,290
548360,2021-02-18,15:02:37,CHINA,-4.0,-13.4,1030.7,1027.7,14.6,10.0,0.04,0.0,110000,50.3,31
523230,2021-02-18,15:02:37,CHINA,-14.3,-25.3,819.2,814.7,31.5,14.8,0.00,0.0,100000,33.6,15
527070,2021-02-18,15:02:37,CHINA,-13.7,-32.1,725.5,721.6,21.3,11.5,0.00,0.0,100000,44.5,244
381780,2021-02-18,15:02:37,UZBEKISTAN,-0.8,-7.7,1010.5,1025.1,14.6,10.7,0.00,0.0,100000,6.3,168
476170,2021-02-18,15:02:37,JAPAN,-6.0,-10.4,957.4,1027.9,23.9,4.4,0.00,0.0,100000,14.6,35
523910,2021-02-18,15:02:37,CHINA,-26.2,-35.4,1002.2,1046.0,36.6,6.7,0.00,0.0,100000,62.8,100
538630,2021-02-18,15:02:37,CHINA,-5.3,-13.8,1016.6,1028.0,13.2,8.4,0.02,0.0,110000,50.1,128
538870,2021-02-18,15:02:37,CHINA,-10.0,-27.0,915.3,1028.0,28.7,6.9,0.00,0.0,100000,49.5,332
287850,2021-02-18,15:02:37,KAZAKHSTAN,-8.5,-9.6,1030.6,1021.0,16.6,4.1,0.00,13.2,101000,77.3,168
542370,2021-02-18,15:02:37,CHINA,-16.5,-27.8,1006.2,1031.4,13.8,13.0,0.00,0.0,100000,39.3,21
470550,2021-02-18,15:02:37,KOREANORTH,-3.3,-11.2,1021.9,1023.0,16.2,8.8,0.46,0.3,111000,50.0,190
545110,2021-02-18,15:02:37,CHINA,-3.9,-16.8,1022.6,1026.0,14.9,12.7,0.03,0.0,110000,73.4,121
442880,2021-02-18,15:02:37,MONGOLIA,-8.2,-14.1,917.4,1028.6,47.1,12.4,0.02,0.1,111000,50.2,316
354590,2021-02-18,15:02:37,KAZAKHSTAN,-7.6,-13.9,1031.8,1029.9,48.1,24.2,0.00,4.5,101000,50.2,213
474760,2021-02-18,15:02:37,JAPAN,-10.6,-14.9,1001.9,1003.9,8.6,11.8,0.00,0.0,100000,43.3,168
523780,2021-02-18,15:02:37,CHINA,-10.5,-26.6,986.5,1007.9,29.8,15.7,0.00,0.0,100000,23.4,39
506580,2021-02-18,15:02:37,CHINA,-20.1,-24.3,1025.3,1023.7,15.2,7.6,0.01,0.0,110000,75.4,352
353760,2021-02-18,15:02:37,KAZAKHSTAN,-10.7,-15.1,991.0,1030.5,20.0,14.6,0.01,7.4,111000,69.8,178
475450,2021-02-18,15:02:37,JAPAN,-2.0,-6.1,1006.9,1004.3,8.8,15.3,0.00,0.0,100000,39.6,248
552280,2021-02-18,15:02:37,CHINA,-4.5,-18.5,603.4,600.6,30.3,11.7,0.01,0.0,110000,79.7,98
354060,2021-02-18,15:02:37,KAZAKHSTAN,-7.2,-12.1,1032.1,1028.9,24.0,21.8,0.01,0.0,110000,50.0,96
470670,2021-02-18,15:02:37,KOREANORTH,-6.4,-11.6,1045.0,1024.9,15.5,7.4,0.00,0.0,100000,97.8,53
542260,2021-02-18,15:02:37,CHINA,-11.0,-24.8,1022.5,1026.0,25.5,15.1,0.01,0.0,110000,87.8,129
470680,2021-02-18,15:02:37,KOREANORTH,-4.7,-10.1,1030.9,1024.8,16.0,11.3,0.01,0.0,110000,50.0,171
386150,2021-02-18,15:02:37,KYRGYZSTAN,-2.0,-10.2,925.5,1033.6,9.1,7.8,0.00,11.3,101000,50.9,121
355820,2021-02-18,15:02:37,KAZAKHSTAN,-10.8,-15.0,1036.7,1035.0,34.5,15.5,0.02,2.5,111000,67.3,127
478180,2021-02-18,15:02:37,JAPAN,-2.6,-10.3,946.2,1029.3,26.5,13.8,0.00,0.0,100000,50.1,317
478920,2021-02-18,15:02:37,JAPAN,-0.1,-9.2,1026.1,1028.5,27.4,9.5,0.00,0.0,100000,94.8,326
552990,2021-02-18,15:02:37,CHINA,-15.5,-29.0,1003.3,1004.4,27.1,12.4,0.03,0.0,110000,99.3,333
563850,2021-02-18,15:02:37,CHINA,-7.2,-10.1,745.9,745.2,10.2,10.6,0.04,0.0,110000,50.6,97
505570,2021-02-18,15:02:37,CHINA,-23.3,-28.8,1009.8,1023.8,14.5,8.0,0.01,0.0,110000,50.3,318
475840,2021-02-18,15:02:37,JAPAN,-4.6,-9.8,1007.1,1017.5,15.5,10.4,0.13,3.9,111000,50.1,122
535130,2021-02-18,15:02:37,CHINA,-9.7,-20.3,926.6,1029.6,21.3,7.2,0.00,0.0,100000,25.3,358
475900,2021-02-18,15:02:37,JAPAN,-1.1,-7.5,1014.6,1017.7,23.1,12.3,0.25,0.3,111000,50.2,203
533360,2021-02-18,15:02:37,CHINA,-13.3,-22.3,910.1,1030.8,27.0,10.1,0.04,0.0,110000,78.7,14
560330,2021-02-18,15:02:37,CHINA,-5.4,-16.3,626.3,623.1,26.0,12.1,0.01,0.0,110000,50.3,224
561370,2021-02-18,15:02:37,CHINA,-5.5,-20.1,715.8,711.9,25.4,5.0,0.01,0.0,110000,50.0,108
542590,2021-02-18,15:02:37,CHINA,-13.2,-21.4,1025.0,1025.8,15.7,7.6,0.04,0.0,110000,91.1,252
471000,2021-02-18,15:02:37,KOREASOUTH,-8.5,-13.8,922.8,1024.3,13.7,15.3,0.19,13.0,111000,50.3,296
470980,2021-02-18,15:02:37,KOREASOUTH,-5.2,-13.0,1010.5,1024.6,12.8,6.9,0.00,0.0,100000,82.4,64
471010,2021-02-18,15:02:37,KOREASOUTH,-5.2,-12.1,1017.9,1023.5,18.1,5.0,0.04,0.6,111000,59.1,309
471020,2021-02-18,15:02:37,KOREASOUTH,-0.2,-5.7,1004.1,1023.8,12.0,17.6,0.00,0.0,100000,49.9,17
577760,2021-02-18,15:02:37,CHINA,-0.5,-2.5,977.1,1024.0,8.3,18.8,0.21,0.0,110000,50.7,105
368215,2021-02-18,15:02:37,KAZAKHSTAN,-7.9,-11.5,1020.9,1045.0,9.0,17.1,0.00,0.0,100000,29.2,216
475490,2021-02-18,15:02:37,JAPAN,-2.3,-8.9,998.4,999.5,8.9,9.3,0.00,0.0,100000,87.4,238
529080,2021-02-18,15:02:37,CHINA,-19.3,-30.0,999.9,1006.4,27.3,21.3,0.00,0.0,100000,93.5,196
474790,2021-02-18,15:02:37,JAPAN,-8.9,-12.5,1000.8,1000.7,8.2,13.8,0.00,0.0,100000,77.7,77
470410,2021-02-18,15:02:37,KOREANORTH,-6.5,-13.2,1021.4,1021.6,13.3,9.7,0.03,0.0,110000,50.0,126
537230,2021-02-18,15:02:37,CHINA,-9.9,-20.1,908.0,1029.7,20.0,8.5,0.02,0.0,110000,80.8,75
542360,2021-02-18,15:02:37,CHINA,-11.6,-22.8,1020.5,1024.8,19.5,14.0,0.02,0.0,110000,51.0,77
470580,2021-02-18,15:02:37,KOREANORTH,-6.3,-12.0,1017.4,1024.5,13.1,8.3,0.03,0.3,111000,50.5,42
544930,2021-02-18,15:02:37,CHINA,-11.3,-19.5,1023.3,1025.5,20.1,4.6,0.03,0.0,110000,50.2,170
561460,2021-02-18,15:02:37,CHINA,-6.2,-19.3,680.6,677.7,31.6,7.4,0.02,0.0,110000,50.2,182
367440,2021-02-18,15:02:37,KAZAKHSTAN,-5.7,-9.9,1034.0,1034.1,43.9,10.5,0.08,1.0,111000,50.7,349
365350,2021-02-18,15:02:37,KAZAKHSTAN,-12.2,-15.9,1069.7,1040.1,45.3,7.1,0.00,0.0,100000,87.3,139
474280,2021-02-18,15:02:37,JAPAN,-3.4,-8.7,1012.0,1015.8,19.3,25.2,0.15,0.0,110000,50.4,124
475970,2021-02-18,15:02:37,JAPAN,-2.8,-10.2,974.2,1018.3,23.8,14.9,0.11,0.0,110000,69.6,290
509530,2021-02-18,15:02:37,CHINA,-15.7,-22.4,1015.9,1023.0,13.5,12.1,0.02,0.0,110000,92.8,217
557730,2021-02-18,15:02:37,CHINA,-12.3,-20.1,620.3,621.2,20.0,11.6,0.00,0.0,100000,57.9,139
503530,2021-02-18,15:02:37,CHINA,-13.2,-21.0,998.5,1021.5,19.4,8.4,0.00,0.0,100000,7.6,226
471290,2021-02-18,15:02:37,KOREASOUTH,-3.2,-8.2,1021.3,1024.0,19.1,8.6,0.03,0.0,110000,58.1,307
525330,2021-02-18,15:02:37,CHINA,-9.7,-21.5,894.0,1029.3,29.9,7.3,0.01,0.0,110000,50.6,164
525331,2021-02-18,15:02:37,CHINA,-10.9,-13.5,1000.6,987.9,4.5,5.6,0.00,0.0,100000,49.1,188
474740,2021-02-18,15:02:37,JAPAN,-11.4,-19.8,1004.1,1012.5,10.4,9.9,0.00,0.0,100000,63.2,70
443140,2021-02-18,15:02:37,MONGOLIA,-15.3,-20.9,935.3,1022.1,17.3,18.9,0.01,1.8,111000,50.1,195
518860,2021-02-18,15:02:37,CHINA,-4.5,-28.9,701.4,700.8,27.1,12.8,0.00,0.0,100000,42.1,221
541610,2021-02-18,15:02:37,CHINA,-12.3,-21.1,1014.6,1023.9,12.6,13.5,0.02,0.0,110000,50.6,133
541611,2021-02-18,15:02:37,CHINA,-12.5,-24.9,1008.6,1007.2,9.8,17.3,0.00,0.0,100000,18.6,286
541570,2021-02-18,15:02:37,CHINA,-12.3,-20.5,1021.2,1024.3,14.7,10.7,0.04,0.0,110000,50.3,325
470520,2021-02-18,15:02:37,KOREANORTH,-7.9,-11.7,1034.2,1028.5,13.8,4.7,0.00,0.0,100000,78.2,105
561440,2021-02-18,15:02:37,CHINA,-4.6,-20.6,683.3,684.3,35.4,4.8,0.00,0.0,100000,73.2,216
353940,2021-02-18,15:02:37,KAZAKHSTAN,-10.1,-13.4,1006.2,1032.3,17.0,13.6,0.04,3.5,111000,50.6,192
505640,2021-02-18,15:02:37,CHINA,-23.4,-28.0,1018.7,1024.1,18.4,7.1,0.01,0.0,110000,50.1,306
474810,2021-02-18,15:02:37,JAPAN,-10.1,,1000.5,992.1,9.2,11.8,0.00,0.0,100000,39.8,357
526810,2021-02-18,15:02:37,CHINA,-9.4,-23.0,898.2,1029.7,30.0,10.7,0.00,0.0,100000,3.2,315
380620,2021-02-18,15:02:37,KAZAKHSTAN,-4.6,-8.3,1026.6,1024.5,19.7,14.4,0.01,0.7,111000,93.7,349
170880,2021-02-18,15:02:37,TURKEY,-2.1,-3.7,876.6,878.7,16.4,11.8,0.05,16.2,111000,50.3,293
527540,2021-02-18,15:02:37,CHINA,-14.3,-27.1,676.2,676.4,24.0,10.6,0.00,0.0,100000,38.9,184
170960,2021-02-18,15:02:37,TURKEY,-3.0,-5.2,890.8,899.4,9.9,9.9,0.04,8.5,111000,66.2,72
383280,2021-02-18,15:02:37,KAZAKHSTAN,-1.8,-4.3,952.1,1025.7,10.1,11.1,0.00,2.4,101000,50.7,177
470900,2021-02-18,15:02:37,KOREASOUTH,-1.1,-8.5,1020.0,1021.3,20.2,11.0,0.17,0.5,111000,96.9,113
442820,2021-02-18,15:02:37,MONGOLIA,-8.4,-24.7,816.1,1009.5,49.1,7.3,0.00,0.0,100000,21.7,32
475690,2021-02-18,15:02:37,JAPAN,-0.7,-7.5,997.1,997.5,9.6,15.3,0.00,0.0,100000,45.1,279
471360,2021-02-18,15:02:37,KOREASOUTH,-3.5,-9.8,1010.7,1024.1,18.0,7.3,0.06,0.0,110000,89.7,27
471370,2021-02-18,15:02:37,KOREASOUTH,-2.8,-10.9,1010.6,1023.0,15.5,6.8,0.03,,110000,50.2,67
537720,2021-02-18,15:02:37,CHINA,-6.3,-16.8,981.9,1028.1,11.2,10.0,0.01,0.0,110000,70.1,148
518110,2021-02-18,15:02:37,CHINA,-2.5,-9.6,919.8,1025.0,14.2,4.7,0.00,0.0,100000,45.1,247
526020,2021-02-18,15:02:37,CHINA,-15.0,-31.4,726.3,726.5,26.8,15.1,0.00,0.0,100000,53.0,188
361770,2021-02-18,15:02:37,KAZAKHSTAN,-7.2,-10.6,1020.5,1027.1,10.3,9.0,0.00,0.0,100000,53.5,26
527650,2021-02-18,15:02:37,CHINA,-14.1,-26.4,715.2,717.3,20.7,8.9,0.00,0.0,100000,57.2,82
542730,2021-02-18,15:02:37,CHINA,-16.8,-21.9,1017.2,1025.2,15.6,8.0,0.06,0.0,110000,67.5,343
534800,2021-02-18,15:02:37,CHINA,-14.1,-23.3,958.0,1030.3,26.1,11.7,0.03,0.0,110000,50.5,234
475570,2021-02-18,15:02:37,JAPAN,-0.7,-7.4,993.2,995.7,9.8,16.6,0.00,0.0,100000,73.3,346
470750,2021-02-18,15:02:37,KOREANORTH,-5.9,-10.5,1027.7,1023.0,23.8,7.7,0.11,0.0,110000,50.7,259
539150,2021-02-18,15:02:37,CHINA,-5.6,-15.1,907.8,1027.7,22.2,7.5,0.02,0.0,110000,56.4,62
570250,2021-02-18,15:02:37,CHINA,-1.4,-4.3,1037.9,1034.5,6.5,7.0,0.00,0.0,100000,47.0,339
508880,2021-02-18,15:02:37,CHINA,-15.6,-23.6,1016.0,1022.1,23.3,12.8,0.01,0.0,110000,91.1,333
355420,2021-02-18,15:02:37,KAZAKHSTAN,-13.5,-15.5,1026.8,1029.0,12.5,14.8,0.48,2.1,111000,76.3,239
543110,2021-02-18,15:02:37,CHINA,-12.2,-23.0,970.7,1028.1,28.2,6.6,0.01,0.0,110000,54.2,78
549090,2021-02-18,15:02:37,CHINA,-1.0,-8.9,1021.1,1027.7,15.4,10.8,0.06,0.0,110000,50.2,144
170672,2021-02-18,15:02:37,TURKEY,-2.0,-3.9,993.4,1016.8,6.8,9.6,0.00,0.0,100000,2.9,164
170674,2021-02-18,15:02:37,TURKEY,-0.7,-3.8,1003.2,1016.9,8.0,19.0,0.00,0.0,100000,53.0,280
540260,2021-02-18,15:02:37,CHINA,-11.4,-24.1,1013.2,1024.6,25.9,12.1,0.01,0.0,110000,84.7,11
512880,2021-02-18,15:02:37,CHINA,-15.9,-23.5,836.1,838.6,35.2,7.5,0.01,0.0,110000,50.2,187
474340,2021-02-18,15:02:37,JAPAN,-10.4,-15.0,1002.8,1010.8,11.1,11.0,0.01,6.3,111000,54.8,271
474350,2021-02-18,15:02:37,JAPAN,-7.1,-11.8,1017.3,1019.4,38.5,11.8,0.16,0.0,110000,50.0,89
545870,2021-02-18,15:02:37,CHINA,-3.5,-10.5,1029.0,1024.9,27.7,22.4,0.26,0.0,110000,95.6,98
561720,2021-02-18,15:02:37,CHINA,-2.6,-12.9,778.4,781.1,32.4,3.5,0.04,0.0,110000,50.1,40
561730,2021-02-18,15:02:37,CHINA,-12.5,-24.4,660.4,670.4,29.4,10.6,0.00,0.0,100000,81.5,195
442920,2021-02-18,15:02:37,MONGOLIA,-20.8,-25.8,887.4,1031.3,17.3,5.0,0.00,3.7,101000,61.0,75
525760,2021-02-18,15:02:37,CHINA,-9.7,-22.1,852.6,855.6,30.5,17.7,0.00,0.0,100000,24.0,269
581410,2021-02-18,15:02:37,CHINA,-0.8,-10.6,1031.9,1034.3,15.9,7.1,0.00,0.0,100000,30.9,296
543740,2021-02-18,15:02:37,CHINA,-13.9,-19.2,1005.3,1024.4,15.3,3.6,0.05,0.0,110000,95.6,269
560210,2021-02-18,15:02:37,CHINA,-16.2,-29.9,616.6,616.3,29.0,9.1,0.01,,110000,85.1,49
540940,2021-02-18,15:02:37,CHINA,-15.8,-21.3,1009.1,1023.0,7.7,8.1,0.03,0.0,110000,50.0,302
507560,2021-02-18,15:02:37,CHINA,-19.7,-23.2,1010.9,1023.3,12.7,9.8,0.00,0.0,100000,23.3,292
442370,2021-02-18,15:02:37,MONGOLIA,-14.7,-19.8,844.0,1022.9,49.1,11.2,0.01,0.3,111000,50.4,27
358840,2021-02-18,15:02:37,KAZAKHSTAN,-7.9,-10.4,977.4,994.1,19.6,12.5,0.03,12.6,111000,50.8,313
544360,2021-02-18,15:02:37,CHINA,-8.8,-19.3,1018.2,1026.0,26.7,6.1,0.02,0.0,110000,78.2,337
540270,2021-02-18,15:02:37,CHINA,-5.1,-26.4,993.9,1025.4,29.4,12.3,0.01,0.0,110000,50.1,49
517160,2021-02-18,15:02:37,CHINA,-2.3,-11.3,910.9,1025.5,19.0,7.3,0.00,0.0,100000,73.5,180
442120,2021-02-18,15:02:37,MONGOLIA,-33.1,-35.9,914.6,1040.7,46.3,2.6,0.00,11.3,101000,79.7,329
544050,2021-02-18,15:02:37,CHINA,-8.0,-20.4,1023.7,1028.0,21.3,12.4,0.01,0.0,110000,55.4,67
442140,2021-02-18,15:02:37,MONGOLIA,-14.6,-24.9,827.0,1027.9,9.1,15.5,0.00,0.0,100000,91.7,238
470080,2021-02-18,15:02:37,KOREANORTH,-7.1,-12.4,1015.8,1022.0,12.0,8.1,0.01,0.0,110000,72.8,241
358490,2021-02-18,15:02:37,KAZAKHSTAN,-4.8,-9.9,1017.1,1024.3,18.2,12.0,0.02,1.1,111000,50.1,91
560180,2021-02-18,15:02:37,CHINA,-13.0,-22.9,627.0,632.9,26.2,8.8,0.02,0.0,110000,85.8,171
560340,2021-02-18,15:02:37,CHINA,-21.8,-30.3,600.9,595.9,22.6,16.9,0.02,0.0,110000,50.0,215
351730,2021-02-18,15:02:37,KAZAKHSTAN,-11.4,-14.9,1025.6,1033.9,29.6,13.4,0.00,6.0,101000,81.8,5
570230,2021-02-18,15:02:37,CHINA,-0.3,-11.9,872.7,1009.7,11.1,5.4,0.00,0.0,100000,47.1,95
357460,2021-02-18,15:02:37,KAZAKHSTAN,-8.5,-12.3,1025.4,1027.7,16.4,19.0,0.01,1.1,111000,99.2,124
524360,2021-02-18,15:02:37,CHINA,-10.7,-24.3,863.3,1029.2,30.2,13.0,0.00,0.0,100000,77.7,28
470050,2021-02-18,15:02:37,KOREANORTH,-18.4,-22.2,900.1,898.5,19.8,6.3,0.06,6.7,111000,50.6,68
357910,2021-02-18,15:02:37,KAZAKHSTAN,-13.1,-17.8,1035.1,1036.5,40.3,6.2,0.03,2.4,111000,79.4,141
534630,2021-02-18,15:02:37,CHINA,-11.5,-20.6,929.9,1030.4,,7.0,0.01,0.0,110000,50.6,326
542920,2021-02-18,15:02:37,CHINA,-11.8,-21.8,1007.8,1025.4,21.1,11.3,0.00,0.0,100000,84.1,253
527370,2021-02-18,15:02:37,CHINA,-9.4,-25.4,725.3,726.7,25.4,7.0,0.00,0.0,100000,88.6,63
518480,2021-02-18,15:02:37,CHINA,-5.7,-18.9,923.6,1027.2,15.5,7.1,0.00,0.0,100000,49.6,277
539290,2021-02-18,15:02:37,CHINA,-4.0,-5.9,883.8,880.2,8.0,11.7,0.00,0.0,100000,71.6,8
543240,2021-02-18,15:02:37,CHINA,-11.9,-24.6,1022.2,1025.4,21.0,11.6,0.01,0.0,110000,54.4,184
564620,2021-02-18,15:02:37,CHINA,-1.9,-14.7,754.5,754.1,33.9,12.0,0.01,0.0,110000,50.2,83
538980,2021-02-18,15:02:37,CHINA,-1.8,-10.3,1023.5,1027.2,12.9,7.9,0.03,0.0,110000,50.2,92
581440,2021-02-18,15:02:37,CHINA,-0.4,-6.4,1026.9,1026.4,16.6,9.6,0.08,0.0,110000,50.2,12
477690,2021-02-18,15:02:37,JAPAN,-0.5,-7.6,1022.6,1027.8,27.7,8.8,0.00,0.0,100000,29.8,155
528360,2021-02-18,15:02:38,CHINA,-9.9,-25.1,687.5,687.0,27.8,9.8,0.06,0.0,110000,50.4,116
513340,2021-02-18,15:02:38,CHINA,-8.6,-12.3,1030.5,1032.8,25.8,5.0,0.01,0.0,110000,50.2,165
475920,2021-02-18,15:02:38,JAPAN,-1.4,-6.6,1015.3,1018.1,19.6,12.5,0.17,0.9,111000,87.2,75
535430,2021-02-18,15:02:38,CHINA,-10.3,-20.5,883.3,1029.8,22.9,11.9,0.01,0.0,110000,62.3,213
471571,2021-02-18,15:02:38,KOREASOUTH,-3.0,-12.3,988.5,960.8,10.7,11.8,0.00,0.0,100000,91.5,260
547510,2021-02-18,15:02:38,CHINA,-1.2,-8.2,1029.2,1027.2,17.0,21.0,0.06,0.0,110000,87.6,202
564620,2021-02-18,15:02:38,CHINA,-1.9,-16.5,754.5,754.1,33.9,11.9,0.01,0.0,110000,50.2,83
526610,2021-02-18,15:02:38,CHINA,-11.0,-24.2,929.3,954.4,69.3,7.9,0.00,0.0,100000,22.4,244
544230,2021-02-18,15:02:38,CHINA,-10.2,-22.0,975.9,1024.6,24.0,5.1,0.00,0.0,100000,22.5,326
548230,2021-02-18,15:02:38,CHINA,-0.9,-11.8,1022.8,1026.4,11.6,11.7,0.05,0.0,110000,50.1,214
509780,2021-02-18,15:02:38,CHINA,-15.5,-22.9,1009.2,1022.3,26.5,12.6,0.01,0.0,110000,50.1,175
584450,2021-02-18,15:02:38,CHINA,-4.4,-11.3,875.3,947.0,15.6,20.0,0.19,0.0,110000,50.1,315
365350,2021-02-18,15:02:38,KAZAKHSTAN,-12.5,-17.8,1069.6,1040.1,45.3,7.0,0.00,0.0,100000,87.3,139
474280,2021-02-18,15:02:38,JAPAN,-3.3,-8.1,1012.1,1015.8,19.2,25.4,0.15,0.0,110000,50.4,124
474050,2021-02-18,15:02:38,JAPAN,-11.7,-16.0,1018.4,1019.1,40.0,10.1,0.06,0.0,110000,50.3,147
471270,2021-02-18,15:02:38,KOREASOUTH,-3.4,-8.8,1007.7,1014.4,9.2,8.2,0.01,0.1,111000,50.3,22
172410,2021-02-18,15:02:38,TURKEY,-5.0,-8.8,1012.9,1047.0,10.9,15.5,,0.0,100000,94.9,133
541350,2021-02-18,15:02:38,CHINA,-11.8,-24.4,1018.4,1024.7,25.5,15.1,0.01,0.0,110000,51.7,185
361860,2021-02-18,15:02:38,KAZAKHSTAN,-4.7,-8.3,1023.2,1025.6,12.0,2.8,0.00,0.0,100000,32.7,202
515670,2021-02-18,15:02:38,CHINA,-7.1,-13.2,1004.5,1032.5,18.4,7.6,0.00,0.0,100000,26.4,249
366220,2021-02-18,15:02:38,KAZAKHSTAN,-7.3,-12.7,1034.1,1037.4,42.9,13.8,0.02,6.3,111000,51.8,126
471010,2021-02-18,15:02:38,KOREASOUTH,-5.2,-11.0,1017.9,1023.5,18.2,5.0,0.04,0.6,111000,59.2,309
471020,2021-02-18,15:02:38,KOREASOUTH,-0.2,-6.4,1004.1,1023.8,12.0,17.7,0.00,0.0,100000,49.9,17
505270,2021-02-18,15:02:38,CHINA,-24.1,-28.1,992.5,1028.0,17.3,9.0,0.01,0.0,110000,50.1,193
475120,2021-02-18,15:02:38,JAPAN,-3.3,-12.5,1018.7,1023.4,39.4,8.3,0.00,0.0,100000,24.0,263
563740,2021-02-18,15:02:38,CHINA,-3.0,-9.2,748.5,747.8,30.4,17.6,0.04,0.0,110000,91.7,307
364420,2021-02-18,15:02:38,KAZAKHSTAN,-19.0,-29.4,1017.3,1008.7,38.3,27.1,0.00,2.6,101000,80.9,296
471750,2021-02-18,15:02:38,KOREASOUTH,-0.7,-7.5,965.7,1024.1,13.6,21.3,0.06,0.0,110000,94.9,276
470250,2021-02-18,15:02:38,KOREANORTH,-4.9,-8.6,1015.1,1021.3,10.5,8.3,0.27,0.0,110000,50.5,13
512880,2021-02-18,15:02:38,CHINA,-15.9,-23.5,836.1,838.7,35.1,7.5,0.01,0.0,110000,50.2,188
547760,2021-02-18,15:02:38,CHINA,-1.1,-6.8,1020.5,1025.8,19.8,24.0,0.07,0.0,110000,76.8,22
470750,2021-02-18,15:02:38,KOREANORTH,-5.9,-10.5,1027.8,1023.0,23.8,7.6,0.11,0.0,110000,50.7,260
560290,2021-02-18,15:02:38,CHINA,-8.2,-21.4,645.7,645.7,29.3,4.1,0.01,0.0,110000,71.3,302
535640,2021-02-18,15:02:38,CHINA,-10.8,-21.7,936.3,1030.3,18.7,6.3,0.00,0.0,100000,7.6,81
476410,2021-02-18,15:02:38,JAPAN,-1.1,-6.6,989.4,1018.1,21.0,6.6,0.08,0.0,110000,50.4,283
476390,2021-02-18,15:02:38,JAPAN,-21.1,-27.0,1001.8,997.7,48.8,82.3,0.00,,100000,5.8,238
511330,2021-02-18,15:02:38,CHINA,-3.0,-7.8,992.6,1033.3,32.1,7.3,0.04,0.0,110000,59.9,175
571930,2021-02-18,15:02:38,CHINA,-0.2,-8.6,1031.2,1026.3,14.3,8.9,0.02,0.0,110000,72.4,92
539590,2021-02-18,15:02:38,CHINA,-1.4,-10.6,1011.0,1027.1,16.3,9.1,0.01,0.0,110000,50.3,51
476900,2021-02-18,15:02:38,JAPAN,-2.9,-11.9,866.7,866.9,25.2,13.9,0.14,0.0,110000,50.2,216
353940,2021-02-18,15:02:38,KAZAKHSTAN,-10.1,-14.4,1006.2,1032.3,17.1,13.5,0.04,3.5,111000,50.5,193
561370,2021-02-18,15:02:38,CHINA,-5.5,-21.8,715.8,711.9,25.4,5.0,0.01,0.0,110000,50.0,108
512320,2021-02-18,15:02:38,CHINA,-8.0,-13.1,1029.2,1032.3,16.0,17.9,0.01,0.0,110000,57.3,117
355320,2021-02-18,15:02:38,KAZAKHSTAN,-2.6,-4.1,1012.8,1027.8,15.7,18.9,0.06,15.6,111000,75.6,4
368590,2021-02-18,15:02:38,KAZAKHSTAN,-5.6,-9.3,1007.2,1027.6,39.8,7.5,0.02,1.6,111000,50.3,258
471110,2021-02-18,15:02:38,KOREASOUTH,-2.0,-8.5,989.3,990.4,9.3,7.5,0.00,0.0,100000,36.3,256
547050,2021-02-18,15:02:38,CHINA,-15.6,-20.4,1024.2,1034.0,7.9,3.6,0.00,0.0,100000,51.4,264
546180,2021-02-18,15:02:38,CHINA,-1.5,-9.9,1024.2,1026.1,11.1,10.0,0.08,0.0,110000,70.0,22
474400,2021-02-18,15:02:38,JAPAN,-8.0,-13.9,1012.4,1016.8,23.4,11.1,0.38,0.0,110000,53.0,129
577070,2021-02-18,15:02:38,CHINA,-0.4,-2.2,852.3,854.9,9.3,3.0,0.03,0.0,110000,80.4,44
525330,2021-02-18,15:02:38,CHINA,-9.5,-21.5,894.0,1029.3,29.8,7.2,0.01,0.0,110000,50.5,164
525331,2021-02-18,15:02:38,CHINA,-10.9,-13.5,1000.7,988.0,4.6,5.5,0.00,0.0,100000,49.1,188
477560,2021-02-18,15:02:38,JAPAN,-0.7,-5.3,1001.3,1019.8,12.8,5.0,0.44,0.0,110000,58.7,158
549450,2021-02-18,15:02:38,CHINA,-1.4,-8.9,1024.7,1027.0,17.0,12.7,0.09,0.0,110000,50.1,32
351730,2021-02-18,15:02:38,KAZAKHSTAN,-11.4,-13.9,1025.6,1033.9,29.6,13.3,0.00,6.0,101000,81.8,5
560460,2021-02-18,15:02:38,CHINA,-14.5,-23.2,671.4,671.8,25.2,8.1,0.01,0.0,110000,50.0,183
474210,2021-02-18,15:02:38,JAPAN,-4.6,-9.7,1015.3,1016.4,18.7,18.9,0.14,14.5,111000,50.5,322
536460,2021-02-18,15:02:38,CHINA,-8.5,-18.1,928.0,1029.2,17.8,9.8,0.01,0.0,110000,50.7,19
471330,2021-02-18,15:02:38,KOREASOUTH,-2.8,-9.9,1019.8,1024.1,17.2,6.5,0.04,0.0,110000,79.5,329
471340,2021-02-18,15:02:38,KOREASOUTH,-3.1,-9.6,1001.1,997.0,10.2,7.0,0.01,0.0,110000,95.4,217
506030,2021-02-18,15:02:38,CHINA,-18.9,-23.3,982.8,1028.0,29.5,10.9,0.01,0.0,110000,72.1,111
471350,2021-02-18,15:02:38,KOREASOUTH,-3.0,-9.6,1011.8,1023.3,19.7,14.5,0.08,0.0,110000,55.0,131
543424,2021-02-18,15:02:38,CHINA,-7.2,-15.4,998.5,1001.5,9.6,12.1,0.00,0.0,100000,51.3,234
442870,2021-02-18,15:02:38,MONGOLIA,-19.2,-24.5,813.8,1035.1,50.2,12.7,0.00,2.6,101000,50.4,61
561160,2021-02-18,15:02:38,CHINA,-8.1,-20.2,684.3,685.0,26.7,4.1,0.00,0.0,100000,34.5,301
170880,2021-02-18,15:02:38,TURKEY,-2.7,-4.3,876.6,878.9,16.3,11.8,0.05,16.2,111000,50.3,293
476400,2021-02-18,15:02:38,JAPAN,-7.9,-16.1,920.4,914.4,30.8,5.4,0.00,0.0,100000,45.7,287
353020,2021-02-18,15:02:38,KAZAKHSTAN,-7.5,-10.8,1050.8,1034.9,19.9,18.3,0.00,0.0,100000,3.5,135
524240,2021-02-18,15:02:38,CHINA,-11.1,-22.0,900.0,1030.2,25.6,14.5,0.01,0.0,110000,50.6,54
383450,2021-02-18,15:02:38,KYRGYZSTAN,-2.1,-6.5,895.5,896.0,20.2,3.9,0.00,1.8,101000,70.9,10
383430,2021-02-18,15:02:38,KAZAKHSTAN,-0.9,-3.3,939.9,1025.4,9.9,4.1,0.00,2.6,101000,93.2,16
749347,2021-02-18,15:02:38,CHINA,-3.4,-7.5,1035.2,1037.9,10.7,9.7,0.00,0.0,100000,69.0,323
749348,2021-02-18,15:02:38,CHINA,-18.3,-21.8,1032.4,1037.1,63.2,2.6,0.00,0.0,100000,76.0,197
354590,2021-02-18,15:02:38,KAZAKHSTAN,-8.2,-13.9,1031.7,1029.9,48.2,24.0,0.00,4.5,101000,50.2,213
472185,2021-02-18,15:02:38,JAPAN,-5.2,-12.4,985.3,975.4,9.6,19.8,0.00,0.0,100000,74.1,317
517650,2021-02-18,15:02:38,CHINA,-7.7,-19.1,939.6,1027.3,28.0,6.0,0.00,0.0,100000,47.2,25
560800,2021-02-18,15:02:38,CHINA,-12.2,-20.3,734.5,733.3,25.3,6.5,0.01,0.0,110000,95.5,158
560790,2021-02-18,15:02:38,CHINA,-12.2,-22.5,665.4,664.8,31.3,8.7,0.02,0.0,110000,50.3,232
511560,2021-02-18,15:02:38,CHINA,-13.6,-20.6,928.5,1033.3,36.2,7.3,0.01,0.0,110000,50.7,198
528180,2021-02-18,15:02:38,CHINA,-9.7,-27.6,753.9,752.8,26.8,8.9,0.00,0.0,100000,70.3,87
537050,2021-02-18,15:02:38,CHINA,-6.9,-18.1,974.7,1028.6,19.2,11.3,0.01,0.0,110000,50.2,251
509680,2021-02-18,15:02:38,CHINA,-19.0,-23.1,1025.2,1023.8,14.9,10.2,0.03,0.0,110000,51.9,54
570670,2021-02-18,15:02:38,CHINA,-2.4,-9.5,993.4,1028.8,14.1,5.1,0.02,0.0,110000,58.1,274
442770,2021-02-18,15:02:38,MONGOLIA,-24.0,-28.6,996.6,1028.4,49.1,18.0,0.00,0.0,100000,27.5,124
513790,2021-02-18,15:02:38,CHINA,-18.4,-21.6,1018.1,1036.0,26.4,9.8,0.01,0.0,110000,53.0,118
475750,2021-02-18,15:02:38,JAPAN,-3.3,-7.8,1020.6,1017.6,14.5,13.5,0.19,22.8,111000,60.9,222
510870,2021-02-18,15:02:38,CHINA,-9.4,-16.3,931.2,1032.2,23.4,6.1,0.00,0.0,100000,56.8,19
25105,2021-02-18,15:02:38,SINGAPORE,-1.0,-3.0,1010.6,999.1,10.7,6.3,0.00,0.0,100000,75.8,269
289570,2021-02-18,15:02:38,KAZAKHSTAN,-7.4,-10.4,1035.4,1028.2,10.3,11.6,0.00,6.8,101000,75.5,213
359530,2021-02-18,15:02:38,KAZAKHSTAN,-6.9,-9.6,1023.4,1029.6,31.6,16.4,0.02,0.0,110000,71.5,225
350420,2021-02-18,15:02:38,KAZAKHSTAN,-7.0,-10.2,1025.8,1025.6,16.6,17.6,0.00,6.3,101000,50.1,88
522030,2021-02-18,15:02:38,CHINA,-7.5,-18.1,989.1,1027.9,37.5,7.2,0.00,0.0,100000,80.7,147
541610,2021-02-18,15:02:38,CHINA,-12.3,-19.9,1014.6,1024.0,12.5,13.4,0.02,0.0,110000,50.6,133
541611,2021-02-18,15:02:38,CHINA,-12.5,-24.9,1008.8,1007.6,9.9,17.4,0.00,0.0,100000,18.6,286
541570,2021-02-18,15:02:38,CHINA,-12.3,-19.2,1021.2,1024.3,14.7,10.7,0.04,0.0,110000,50.3,324
471400,2021-02-18,15:02:38,KOREASOUTH,-1.3,-5.8,1019.4,1023.9,17.1,14.6,0.04,0.0,110000,92.2,359
471410,2021-02-18,15:02:38,KOREASOUTH,-1.4,-6.4,1013.4,1013.8,10.7,14.0,0.04,0.1,111000,51.3,211
471420,2021-02-18,15:02:38,KOREASOUTH,-2.5,-9.8,1015.0,1015.0,12.0,10.9,0.01,0.0,110000,50.2,46
381780,2021-02-18,15:02:38,UZBEKISTAN,-0.8,-7.7,1010.4,1025.1,14.6,10.6,0.00,0.0,100000,6.2,167
470990,2021-02-18,15:02:38,KOREASOUTH,-6.2,-14.3,1020.6,1024.6,11.6,5.6,0.01,0.0,110000,50.4,2
471030,2021-02-18,15:02:38,KOREASOUTH,-2.5,-6.3,1014.4,1022.6,12.1,21.1,0.00,0.0,100000,65.3,338
471025,2021-02-18,15:02:38,KOREASOUTH,-2.8,-8.6,1013.2,1022.3,11.6,4.3,0.00,0.0,100000,64.2,199
501360,2021-02-18,15:02:38,CHINA,-26.6,-31.4,968.2,1025.9,20.4,8.2,0.00,0.0,100000,10.4,0
286790,2021-02-18,15:02:38,KAZAKHSTAN,-11.1,-13.8,1024.7,1029.5,11.2,18.8,0.02,7.1,111000,50.2,188
477420,2021-02-18,15:02:38,JAPAN,-1.2,-4.2,1026.9,1027.8,17.2,3.3,0.00,0.0,100000,56.1,353
477690,2021-02-18,15:02:38,JAPAN,-0.4,-7.6,1022.5,1027.9,27.6,8.7,0.00,0.0,100000,29.7,155
557730,2021-02-18,15:02:38,CHINA,-12.3,-20.1,620.3,621.2,19.9,11.7,0.00,0.0,100000,57.9,140
503530,2021-02-18,15:02:38,CHINA,-13.2,-21.0,998.5,1021.5,19.5,8.4,0.00,0.0,100000,7.6,226
542370,2021-02-18,15:02:38,CHINA,-16.5,-29.4,1006.2,1031.4,13.9,13.1,0.00,0.0,100000,39.3,22
470550,2021-02-18,15:02:38,KOREANORTH,-3.3,-10.4,1021.9,1023.0,16.2,8.7,0.46,0.3,111000,50.0,190
536980,2021-02-18,15:02:38,CHINA,-2.0,-12.3,1029.0,1026.5,13.2,6.6,0.04,0.0,110000,50.5,357
289840,2021-02-18,15:02:38,KAZAKHSTAN,-1.8,-9.4,1011.3,1024.4,38.8,11.5,0.00,0.0,100000,76.1,167
570140,2021-02-18,15:02:38,CHINA,-5.9,-9.8,1015.7,1034.8,11.8,6.6,0.00,0.0,100000,73.8,190
547150,2021-02-18,15:02:38,CHINA,-2.6,-12.6,1025.4,1027.6,17.0,12.5,0.08,0.0,110000,63.5,147
531920,2021-02-18,15:02:38,CHINA,-18.9,-23.5,918.0,1033.1,31.0,10.3,0.01,0.0,110000,63.4,238
471460,2021-02-18,15:02:38,KOREASOUTH,-1.9,-6.9,1020.2,1023.8,18.4,5.7,0.06,0.1,111000,50.2,291
527070,2021-02-18,15:02:38,CHINA,-13.7,-30.2,725.5,721.7,21.3,11.4,0.00,0.0,100000,44.5,244
515730,2021-02-18,15:02:38,CHINA,-3.6,-16.5,1023.0,1028.8,23.2,4.8,0.04,0.0,110000,64.9,219
356710,2021-02-18,15:02:38,KAZAKHSTAN,-10.5,-13.7,997.8,1029.5,20.3,17.1,0.00,5.0,101000,50.2,297
470390,2021-02-18,15:02:38,KOREANORTH,-8.4,-11.1,1022.0,1024.0,8.1,3.3,0.00,0.0,100000,89.8,98
362080,2021-02-18,15:02:38,KAZAKHSTAN,-23.4,-25.7,1013.5,1026.8,26.6,3.9,0.38,22.6,111000,50.1,229
346910,2021-02-18,15:02:38,KAZAKHSTAN,-3.6,-7.1,1022.2,1023.4,20.5,16.7,0.00,1.4,101000,68.0,25
523910,2021-02-18,15:02:38,CHINA,-24.9,-37.4,1002.2,1046.0,36.5,6.7,0.00,0.0,100000,62.8,101
354970,2021-02-18,15:02:38,KAZAKHSTAN,-7.2,-13.6,983.2,1035.3,31.2,11.8,0.02,7.5,111000,50.6,202
529550,2021-02-18,15:02:38,CHINA,-10.7,-26.6,694.8,691.2,30.7,7.6,0.00,0.0,100000,15.5,161
350780,2021-02-18,15:02:38,KAZAKHSTAN,-10.8,-13.0,1034.3,1033.0,11.1,14.3,0.01,9.2,111000,50.0,64
471240,2021-02-18,15:02:38,KOREASOUTH,-3.5,-11.5,1016.3,1042.5,11.6,10.9,0.00,0.0,100000,95.9,359
538630,2021-02-18,15:02:38,CHINA,-5.0,-15.1,1016.6,1028.0,13.3,8.5,0.02,0.0,110000,50.2,128
538870,2021-02-18,15:02:38,CHINA,-10.7,-27.0,915.3,1028.0,28.8,6.8,0.00,0.0,100000,49.5,331
353610,2021-02-18,15:02:38,KAZAKHSTAN,-10.1,-12.2,991.6,1021.0,26.7,7.9,0.00,0.0,100000,34.0,321
475980,2021-02-18,15:02:38,JAPAN,-0.1,-7.0,1021.9,1017.8,23.1,9.6,0.17,0.3,111000,50.3,103
509530,2021-02-18,15:02:38,CHINA,-16.9,-22.4,1016.0,1023.0,13.6,12.2,0.02,0.0,110000,92.7,217
505640,2021-02-18,15:02:38,CHINA,-24.6,-29.8,1018.7,1024.1,18.4,7.0,0.01,0.0,110000,50.1,307
474810,2021-02-18,15:02:38,JAPAN,-10.1,-14.3,1000.5,992.1,9.3,11.7,0.00,0.0,100000,39.7,357
343980,2021-02-18,15:02:38,KAZAKHSTAN,-8.1,-10.7,1016.2,1015.7,17.5,16.0,0.00,5.6,101000,82.7,170
443850,2021-02-18,15:02:38,MONGOLIA,-7.9,-19.6,896.4,1029.6,50.8,16.9,0.00,0.0,100000,14.6,37
470030,2021-02-18,15:02:38,KOREANORTH,-9.3,-16.6,1018.9,1021.9,21.9,10.1,0.06,0.0,110000,67.6,94
537720,2021-02-18,15:02:38,CHINA,-6.3,-16.8,981.9,1028.1,11.1,10.0,0.01,0.0,110000,70.1,149
475700,2021-02-18,15:02:38,JAPAN,-2.9,-5.8,1008.8,1019.3,14.8,7.1,0.15,9.5,111000,50.1,199
358840,2021-02-18,15:02:38,KAZAKHSTAN,-7.9,-11.8,977.5,993.8,19.6,12.6,0.03,12.6,111000,50.9,313
471290,2021-02-18,15:02:38,KOREASOUTH,-3.3,-8.2,1021.3,1024.0,19.0,8.6,0.03,0.0,110000,58.1,307
516560,2021-02-18,15:02:38,CHINA,-3.9,-17.2,932.8,1027.0,18.6,9.2,0.00,0.0,100000,11.8,126
518110,2021-02-18,15:02:38,CHINA,-2.5,-9.6,919.7,1025.0,14.2,4.8,0.00,0.0,100000,45.1,247
526020,2021-02-18,15:02:38,CHINA,-15.0,-31.4,726.2,726.5,26.8,15.2,0.00,0.0,100000,53.0,188
361770,2021-02-18,15:02:38,KAZAKHSTAN,-6.9,-10.6,1020.4,1027.0,10.3,9.0,0.00,0.0,100000,53.5,26
442410,2021-02-18,15:02:38,MONGOLIA,-21.4,-26.6,1029.8,1033.6,45.6,9.3,0.00,1.9,101000,65.1,158
581440,2021-02-18,15:02:38,CHINA,-0.3,-7.3,1026.9,1026.4,16.6,9.7,0.08,0.0,110000,50.2,12
474130,2021-02-18,15:02:38,JAPAN,-6.9,-10.1,1008.2,1014.7,17.0,9.7,0.03,0.0,110000,50.1,279
474170,2021-02-18,15:02:38,JAPAN,-15.4,-20.5,1009.8,1015.0,10.4,5.7,0.04,0.0,110000,51.2,263
527540,2021-02-18,15:02:38,CHINA,-14.3,-27.1,676.2,676.3,24.0,10.5,0.00,0.0,100000,39.0,184
474760,2021-02-18,15:02:38,JAPAN,-11.3,-14.0,1001.9,1003.9,8.5,11.8,0.00,0.0,100000,43.3,168
475840,2021-02-18,15:02:38,JAPAN,-4.6,-9.8,1007.1,1017.5,15.5,10.5,0.13,3.9,111000,50.1,123
535130,2021-02-18,15:02:38,CHINA,-9.1,-21.6,926.6,1029.6,21.3,7.3,0.00,0.0,100000,25.3,359
475900,2021-02-18,15:02:38,JAPAN,-1.1,-6.8,1014.6,1017.7,23.0,12.2,0.25,0.3,111000,50.2,203
524950,2021-02-18,15:02:38,CHINA,-12.2,-23.7,903.3,1031.0,26.2,12.4,0.00,0.0,100000,88.0,135
369820,2021-02-18,15:02:38,KYRGYZSTAN,-21.7,-25.6,646.3,646.5,43.0,9.7,0.00,0.0,100000,63.9,266
382200,2021-02-18,15:02:38,KYRGYZSTAN,-7.6,-9.3,951.3,1031.1,7.1,6.7,0.00,6.8,101000,50.3,12
546560,2021-02-18,15:02:38,CHINA,-2.8,-8.4,1022.4,1024.8,20.1,25.2,0.00,0.0,100000,60.1,86
547250,2021-02-18,15:02:38,CHINA,-3.7,-12.6,1026.5,1026.5,14.2,12.3,0.08,0.0,110000,70.8,179
518550,2021-02-18,15:02:38,CHINA,-7.9,-21.7,933.0,1025.4,17.6,7.5,0.00,0.0,100000,93.8,253
543860,2021-02-18,15:02:38,CHINA,-16.5,-23.4,965.9,1026.2,18.2,10.3,0.04,0.0,110000,73.6,275
363350,2021-02-18,15:02:38,KAZAKHSTAN,-9.6,-13.6,1031.4,1033.1,43.2,18.4,0.04,7.6,111000,50.6,15
593530,2021-02-18,15:02:38,TAIWAN,-2.9,-3.0,763.2,1022.0,7.5,5.3,0.00,0.0,100000,96.7,17
471320,2021-02-18,15:02:38,KOREASOUTH,-8.3,-16.6,1003.8,995.5,10.4,1.1,0.00,0.0,100000,46.0,38
471360,2021-02-18,15:02:38,KOREASOUTH,-3.7,-9.8,1010.7,1024.1,17.9,7.2,0.06,0.0,110000,89.7,27
471370,2021-02-18,15:02:38,KOREASOUTH,-2.7,-12.1,1010.5,1023.0,15.4,6.7,0.03,0.0,110000,50.2,66
523130,2021-02-18,15:02:38,CHINA,-12.0,-24.3,924.6,894.9,59.3,2.8,0.00,0.0,100000,9.3,188
471430,2021-02-18,15:02:38,KOREASOUTH,-0.7,-8.3,1016.2,1023.0,18.4,10.1,0.06,0.1,111000,50.0,20
513460,2021-02-18,15:02:38,CHINA,-18.3,-21.8,1068.0,1038.6,57.0,5.4,0.00,0.0,100000,56.7,299
546160,2021-02-18,15:02:38,CHINA,-3.8,-14.3,1027.4,1026.5,12.3,13.3,0.03,0.0,110000,64.7,341
535930,2021-02-18,15:02:38,CHINA,-11.0,-22.8,980.5,1029.0,24.1,7.2,0.01,0.0,110000,91.0,201
586530,2021-02-18,15:02:38,CHINA,-2.6,-4.9,916.2,1023.9,9.0,23.0,0.15,0.0,110000,50.7,241
471170,2021-02-18,15:02:38,KOREASOUTH,-1.0,-6.4,1000.1,986.0,8.5,5.2,0.01,0.0,110000,50.3,72
475450,2021-02-18,15:02:38,JAPAN,-2.0,-6.7,1006.9,1004.3,8.7,15.2,0.00,0.0,100000,39.7,249
552280,2021-02-18,15:02:38,CHINA,-4.5,-19.8,603.4,600.5,30.3,11.8,0.01,0.0,110000,79.7,99
354060,2021-02-18,15:02:38,KAZAKHSTAN,-7.2,-12.1,1032.1,1028.9,24.0,21.7,0.01,0.0,110000,50.0,97
471064,2021-02-18,15:02:38,KOREASOUTH,-10.0,-14.0,1001.3,1011.1,10.7,10.0,0.00,0.0,100000,52.2,83
471066,2021-02-18,15:02:38,KOREASOUTH,-5.1,-11.0,1007.9,1002.4,8.9,5.6,0.00,0.0,100000,99.1,51
471050,2021-02-18,15:02:38,KOREASOUTH,-1.0,-8.7,1016.6,1021.8,20.5,11.9,0.18,1.4,111000,92.3,249
545270,2021-02-18,15:02:38,CHINA,-3.6,-13.7,1026.8,1026.3,10.6,8.7,0.03,0.0,110000,50.1,2
545273,2021-02-18,15:02:38,CHINA,-1.7,-10.9,1000.3,998.4,6.8,11.9,0.00,0.0,100000,8.4,211
171890,2021-02-18,15:02:38,TURKEY,-6.5,-10.4,901.4,926.6,15.5,12.6,0.24,9.4,111000,75.3,358
356330,2021-02-18,15:02:38,KAZAKHSTAN,-11.3,-13.7,1025.9,1023.8,21.7,16.6,0.00,5.2,101000,70.2,158
543370,2021-02-18,15:02:38,CHINA,-7.6,-17.8,1023.9,1025.5,12.4,13.8,0.01,0.0,110000,50.5,226
170672,2021-02-18,15:02:38,TURKEY,-2.0,-3.9,993.6,1017.1,6.7,9.5,0.00,0.0,100000,2.9,163
170674,2021-02-18,15:02:38,TURKEY,-0.7,-4.8,1003.0,1017.2,7.9,19.1,0.00,0.0,100000,52.9,280
526810,2021-02-18,15:02:38,CHINA,-9.7,-21.5,898.2,1029.7,30.0,10.7,0.00,0.0,100000,3.2,315
380620,2021-02-18,15:02:38,KAZAKHSTAN,-4.6,-9.3,1026.6,1024.5,19.8,14.3,0.01,0.7,111000,93.7,349
525760,2021-02-18,15:02:38,CHINA,-9.7,-23.3,852.6,855.5,30.6,17.6,0.00,0.0,100000,24.1,268
386150,2021-02-18,15:02:38,KYRGYZSTAN,-2.0,-8.9,925.5,1033.6,9.0,7.8,0.00,11.3,101000,51.0,121
355820,2021-02-18,15:02:38,KAZAKHSTAN,-10.8,-13.9,1036.7,1035.0,34.5,15.4,0.02,2.5,111000,67.3,127
478180,2021-02-18,15:02:38,JAPAN,-2.6,-10.3,946.3,1029.3,26.4,13.8,0.00,0.0,100000,50.1,317
529830,2021-02-18,15:02:38,CHINA,-10.9,-15.4,818.7,835.5,20.8,6.4,0.02,0.0,110000,67.0,324
508620,2021-02-18,15:02:38,CHINA,-25.6,-30.7,989.1,1009.9,16.8,8.8,0.00,0.0,100000,21.1,349
368700,2021-02-18,15:02:38,KAZAKHSTAN,-2.5,-5.6,978.3,1022.2,8.2,3.7,0.29,2.9,111000,89.3,271
540960,2021-02-18,15:02:38,CHINA,-15.5,-21.4,1022.9,1023.1,17.5,12.5,0.03,0.0,110000,50.3,14
546620,2021-02-18,15:02:38,CHINA,-3.7,-11.2,1022.3,1025.7,13.8,17.6,0.02,0.0,110000,64.5,243
583211,2021-02-18,15:02:38,CHINA,-0.3,-5.4,1006.5,999.0,9.5,9.6,0.00,0.0,100000,96.5,231
510530,2021-02-18,15:02:38,CHINA,-16.8,-21.9,1025.3,1035.8,25.8,14.5,0.01,0.0,110000,98.3,20
354160,2021-02-18,15:02:38,KAZAKHSTAN,-7.4,-11.2,1024.7,1027.4,7.6,17.3,0.03,5.6,111000,54.6,71
535020,2021-02-18,15:02:38,CHINA,-10.4,-21.9,979.9,1029.4,22.7,11.6,0.00,0.0,100000,46.4,177
544710,2021-02-18,15:02:38,CHINA,-8.3,-15.5,1026.6,1025.4,13.3,13.8,0.04,0.0,110000,50.5,256
358490,2021-02-18,15:02:38,KAZAKHSTAN,-5.2,-9.9,1017.2,1024.3,18.1,11.9,0.02,1.1,111000,50.0,91
543740,2021-02-18,15:02:38,CHINA,-13.9,-19.2,1005.3,1024.4,15.4,3.5,0.05,0.0,110000,95.5,269
477470,2021-02-18,15:02:38,JAPAN,-1.0,-2.4,1026.8,1027.6,14.8,4.4,0.19,0.0,110000,50.4,281
353210,2021-02-18,15:02:38,KAZAKHSTAN,-14.7,-21.1,1047.0,1037.0,9.0,9.8,0.00,0.0,100000,53.2,68
470312,2021-02-18,15:02:38,CHINA,-0.8,-10.7,985.5,965.1,5.4,8.2,0.00,0.0,100000,29.3,90
560650,2021-02-18,15:02:38,CHINA,-15.0,-26.6,661.0,659.9,26.6,9.7,0.01,0.0,110000,64.2,29
442920,2021-02-18,15:02:38,MONGOLIA,-21.3,-25.8,887.4,1031.3,17.3,5.1,0.00,3.7,101000,61.1,75
470610,2021-02-18,15:02:38,KOREANORTH,-2.4,-8.6,1016.2,1020.7,21.0,8.2,0.18,1.2,111000,88.9,244
470650,2021-02-18,15:02:38,KOREANORTH,-1.9,-12.3,1031.6,1024.9,11.6,8.5,0.02,0.0,110000,79.8,251
383530,2021-02-18,15:02:38,KYRGYZSTAN,-2.3,-6.3,995.3,1027.6,5.5,8.1,0.04,0.6,111000,61.0,37
383531,2021-02-18,15:02:38,KYRGYZSTAN,-0.4,-5.4,988.3,975.0,2.1,13.5,0.00,0.0,100000,7.4,133
470950,2021-02-18,15:02:38,KOREASOUTH,-6.0,-12.2,1007.6,1024.0,16.2,6.3,0.05,0.0,110000,50.0,94
548080,2021-02-18,15:02:38,CHINA,-2.3,-10.7,1030.3,1027.0,12.7,10.9,0.02,0.0,110000,50.2,103
548360,2021-02-18,15:02:38,CHINA,-4.0,-14.6,1030.7,1027.7,14.6,9.9,0.04,0.0,110000,50.2,30
523230,2021-02-18,15:02:38,CHINA,-15.4,-26.9,819.2,814.8,31.4,14.9,0.00,0.0,100000,33.6,15
561060,2021-02-18,15:02:38,CHINA,-11.3,-22.7,619.1,618.1,27.5,9.3,0.04,0.0,110000,95.8,333
470200,2021-02-18,15:02:38,KOREANORTH,-12.0,-20.8,1016.0,1028.8,10.6,4.0,0.00,0.0,100000,47.9,347
357910,2021-02-18,15:02:38,KAZAKHSTAN,-13.3,-17.8,1035.1,1036.5,40.3,6.2,0.03,2.4,111000,79.3,140
367780,2021-02-18,15:02:38,KAZAKHSTAN,-11.7,-17.6,1060.9,1036.9,21.4,6.3,0.00,0.0,100000,91.0,204
532310,2021-02-18,15:02:38,CHINA,-13.8,-23.7,850.5,852.2,25.9,20.9,0.01,0.0,110000,72.9,51
507270,2021-02-18,15:02:38,CHINA,-24.9,-29.1,914.8,1028.2,25.9,7.4,0.01,0.0,110000,50.2,349
504340,2021-02-18,15:02:38,CHINA,-29.8,-33.2,967.3,1027.4,27.3,7.9,0.01,0.0,110000,50.3,351
350530,2021-02-18,15:02:38,KAZAKHSTAN,-7.5,-11.5,1035.1,1033.8,18.8,11.6,0.01,2.5,111000,50.2,290
580270,2021-02-18,15:02:38,CHINA,-0.6,-8.7,1021.2,1026.7,14.0,9.1,0.05,0.0,110000,52.4,300
526740,2021-02-18,15:02:38,CHINA,-12.0,-24.9,801.4,797.0,28.8,11.0,0.01,0.0,110000,50.2,211
518280,2021-02-18,15:02:38,CHINA,-2.1,-13.9,897.8,1024.3,9.8,5.4,0.01,0.0,110000,50.3,248
544360,2021-02-18,15:02:38,CHINA,-2.5,-20.8,1018.3,1026.0,26.7,6.0,0.02,0.0,110000,78.2,338
518860,2021-02-18,15:02:38,CHINA,-12.0,-30.4,701.4,700.8,27.2,12.9,0.00,0.0,100000,42.1,220
476200,2021-02-18,15:02:38,JAPAN,-3.0,-6.8,926.7,1018.5,27.1,12.7,0.18,0.0,110000,50.0,123
471190,2021-02-18,15:02:38,KOREASOUTH,-3.6,-10.4,1027.3,1024.1,15.3,7.5,0.05,0.1,111000,50.1,308
471180,2021-02-18,15:02:38,KOREASOUTH,-10.3,-18.9,1014.5,1029.9,10.7,8.0,0.00,0.0,100000,68.3,108
534870,2021-02-18,15:02:38,CHINA,-11.6,-23.1,973.2,1029.3,16.7,11.7,0.01,0.0,110000,65.4,274
471131,2021-02-18,15:02:38,KOREASOUTH,-1.7,-11.3,977.4,986.1,9.0,11.8,0.00,0.0,100000,36.6,81
471130,2021-02-18,15:02:38,KOREASOUTH,-1.4,-7.6,1020.0,1022.4,11.0,7.8,0.00,0.0,100000,58.9,272
531490,2021-02-18,15:02:38,CHINA,-14.0,-23.7,905.9,1030.0,29.1,16.1,0.01,0.0,110000,62.6,297
354260,2021-02-18,15:02:38,KAZAKHSTAN,-7.9,-11.7,1003.9,1025.2,38.7,11.7,0.00,4.8,101000,80.9,8
540260,2021-02-18,15:02:38,CHINA,-11.4,-24.1,1013.2,1024.6,25.9,12.0,0.01,0.0,110000,84.7,10
542590,2021-02-18,15:02:38,CHINA,-14.2,-19.8,1025.0,1025.8,15.7,7.6,0.04,0.0,110000,91.1,252
471000,2021-02-18,15:02:38,KOREASOUTH,-8.5,-14.9,922.8,1024.3,13.6,15.2,0.19,13.0,111000,50.3,296
470980,2021-02-18,15:02:38,KOREASOUTH,-5.2,-14.4,1010.5,1024.6,12.9,6.8,0.00,0.0,100000,82.3,64
549290,2021-02-18,15:02:38,CHINA,-0.8,-10.7,1023.5,1026.6,17.6,6.7,0.01,0.0,110000,72.1,280
570710,2021-02-18,15:02:38,CHINA,-0.6,-9.2,1028.2,1027.9,13.3,11.0,0.06,0.0,110000,50.6,74
356990,2021-02-18,15:02:38,KAZAKHSTAN,-6.4,-15.4,958.4,1039.0,28.1,0.6,0.00,4.5,101000,50.9,128
545390,2021-02-18,15:02:38,CHINA,-5.6,-13.5,1024.6,1027.2,18.4,10.7,0.03,0.0,110000,95.3,101
537640,2021-02-18,15:02:38,CHINA,-8.0,-16.4,974.0,1029.5,19.0,8.2,0.12,0.0,110000,80.3,196
478210,2021-02-18,15:02:38,JAPAN,-5.2,-11.0,892.3,899.2,29.2,12.7,0.00,0.0,100000,14.8,175
442190,2021-02-18,15:02:38,MONGOLIA,-11.0,-21.5,850.8,1015.1,19.2,6.4,0.00,0.0,100000,27.3,215
560180,2021-02-18,15:02:38,CHINA,-13.0,-24.4,627.0,632.9,26.2,8.7,0.02,0.0,110000,85.9,170
560340,2021-02-18,15:02:38,CHINA,-22.8,-30.3,600.9,595.9,22.6,17.0,0.02,0.0,110000,50.1,215
475160,2021-02-18,15:02:38,JAPAN,-3.0,-7.2,997.8,993.7,10.1,16.9,0.00,0.0,100000,0.0,3
507740,2021-02-18,15:02:38,CHINA,-21.0,-25.8,1013.2,1023.1,10.4,7.0,0.01,0.0,110000,50.0,328
545340,2021-02-18,15:02:38,CHINA,-5.2,-14.3,1022.3,1026.3,14.5,10.3,0.01,0.0,110000,71.3,92
474230,2021-02-18,15:02:38,JAPAN,-4.8,-9.6,1009.6,1015.0,15.2,21.7,0.19,0.0,110000,92.4,13
474120,2021-02-18,15:02:38,JAPAN,-7.7,-12.5,1016.7,1016.1,9.3,7.9,0.19,17.8,111000,72.8,177
541020,2021-02-18,15:02:38,CHINA,-19.0,-25.1,936.5,1030.5,28.5,12.3,0.01,0.0,110000,50.3,227
517300,2021-02-18,15:02:38,CHINA,-3.1,-12.9,987.2,1028.6,20.0,4.4,0.01,0.0,110000,50.4,72
555910,2021-02-18,15:02:38,CHINA,-3.4,-24.2,676.7,675.6,29.7,9.4,0.00,0.0,100000,80.6,341
540490,2021-02-18,15:02:38,CHINA,-14.0,-23.3,1025.9,1024.1,19.5,11.8,0.01,0.0,110000,50.0,23
288670,2021-02-18,15:02:38,KAZAKHSTAN,-15.3,-18.9,997.3,1033.5,20.6,8.2,0.00,26.3,101000,85.6,71
359250,2021-02-18,15:02:38,KAZAKHSTAN,-4.3,-9.4,1018.0,1028.7,21.8,21.8,0.00,0.0,100000,11.0,81
474070,2021-02-18,15:02:38,JAPAN,-10.8,-14.0,1007.3,1016.5,9.5,6.5,0.11,20.4,111000,50.4,36
474060,2021-02-18,15:02:38,JAPAN,-8.0,-11.1,1011.2,1015.6,17.8,20.8,0.11,19.6,111000,50.8,73
538450,2021-02-18,15:02:38,CHINA,-6.5,-16.7,933.5,1028.8,12.1,6.5,0.01,0.0,110000,69.0,2
289520,2021-02-18,15:02:38,KAZAKHSTAN,-13.7,-17.0,1038.2,1033.1,7.7,13.5,0.04,0.0,110000,52.0,295
478920,2021-02-18,15:02:38,JAPAN,-0.1,-8.0,1026.2,1028.6,27.3,9.4,0.00,0.0,100000,94.8,326
563850,2021-02-18,15:02:38,CHINA,-7.2,-10.1,745.9,745.2,10.3,10.5,0.04,0.0,110000,50.6,96
505570,2021-02-18,15:02:38,CHINA,-23.3,-27.1,1009.7,1023.8,14.6,7.9,0.01,0.0,110000,50.3,318
549160,2021-02-18,15:02:38,CHINA,-2.7,-10.9,1029.1,1026.9,14.8,9.4,0.03,0.0,110000,50.0,136
355490,2021-02-18,15:02:38,KAZAKHSTAN,-8.3,-12.7,1034.0,1030.4,22.3,10.2,0.00,4.8,101000,50.4,174
471140,2021-02-18,15:02:38,KOREASOUTH,-4.7,-11.8,1008.0,1023.9,14.7,4.7,0.08,0.0,110000,97.0,258
289780,2021-02-18,15:02:38,KAZAKHSTAN,-11.4,-13.4,969.2,1022.3,16.9,10.8,0.00,0.0,100000,31.2,275
475970,2021-02-18,15:02:38,JAPAN,-2.8,-9.3,974.2,1018.3,23.8,15.0,0.11,0.0,110000,69.5,290
470670,2021-02-18,15:02:38,KOREANORTH,-6.8,-11.6,1044.9,1024.9,15.4,7.5,0.00,0.0,100000,97.8,53
542260,2021-02-18,15:02:38,CHINA,-11.0,-24.8,1022.5,1026.0,25.4,15.2,0.01,0.0,110000,87.7,130
470680,2021-02-18,15:02:38,KOREANORTH,-4.4,-10.1,1030.8,1024.8,16.0,11.4,0.01,0.0,110000,50.0,171
478140,2021-02-18,15:02:38,JAPAN,-0.2,-5.4,1011.4,1021.9,15.2,5.7,0.24,0.0,110000,50.1,226
355760,2021-02-18,15:02:38,KAZAKHSTAN,-11.5,-14.7,1014.2,1035.3,21.6,11.5,0.00,6.2,101000,52.1,256
442840,2021-02-18,15:02:38,MONGOLIA,-28.1,-31.6,787.5,1046.4,49.9,2.3,0.00,4.5,101000,67.8,103
387130,2021-02-18,15:02:38,TAJIKISTAN,-3.6,-7.5,996.0,1020.3,42.8,6.6,0.00,5.0,101000,55.6,15
471100,2021-02-18,15:02:38,KOREASOUTH,-4.1,-10.1,1007.6,1010.5,9.5,10.4,0.00,0.0,100000,63.5,279
476180,2021-02-18,15:02:38,JAPAN,-3.8,-10.2,976.3,1019.1,13.6,6.8,0.14,1.3,111000,81.7,112
507880,2021-02-18,15:02:38,CHINA,-18.2,-23.7,1023.1,1020.5,20.5,12.9,0.01,0.0,110000,50.5,267
509630,2021-02-18,15:02:38,CHINA,-18.0,-23.9,1019.7,1023.0,13.4,14.3,0.01,0.0,110000,50.4,126
581020,2021-02-18,15:02:38,CHINA,-0.4,-7.2,1021.5,1026.7,18.4,8.5,0.08,0.0,110000,69.3,232
474300,2021-02-18,15:02:38,JAPAN,-5.7,-10.4,1016.5,1016.6,13.2,12.8,0.09,8.8,111000,97.1,127
474180,2021-02-18,15:02:38,JAPAN,-10.3,-14.2,1011.3,1015.7,20.6,15.3,0.06,5.1,111000,86.7,265
351880,2021-02-18,15:02:38,KAZAKHSTAN,-11.6,-14.8,1028.0,1028.9,16.2,16.6,0.22,1.9,111000,89.8,85
528420,2021-02-18,15:02:38,CHINA,-2.9,-18.8,696.7,692.0,16.9,15.0,0.00,0.0,100000,83.5,29
534460,2021-02-18,15:02:38,CHINA,-12.2,-25.8,994.9,1031.1,13.5,12.6,0.00,0.0,100000,58.8,124
470410,2021-02-18,15:02:38,KOREANORTH,-6.5,-13.2,1021.4,1021.6,13.4,9.8,0.03,0.0,110000,50.0,127
476490,2021-02-18,15:02:38,JAPAN,-0.1,-5.3,999.6,1019.5,18.6,12.5,0.28,0.0,110000,50.9,22
529570,2021-02-18,15:02:38,CHINA,-15.3,-33.0,723.5,726.8,27.0,14.2,0.00,0.0,100000,95.1,31
544010,2021-02-18,15:02:38,CHINA,-8.3,-20.5,986.6,1028.2,20.6,10.7,0.01,0.0,110000,50.1,286
518390,2021-02-18,15:02:38,CHINA,-1.8,-16.4,889.8,1029.3,13.5,6.7,0.00,0.0,100000,93.1,201
538980,2021-02-18,15:02:38,CHINA,-1.8,-11.5,1023.5,1027.2,12.9,7.8,0.03,0.0,110000,50.2,92
585060,2021-02-18,15:02:38,CHINA,-1.0,-5.5,977.7,1026.8,12.2,14.7,0.19,0.0,110000,94.1,222
529080,2021-02-18,15:02:38,CHINA,-19.3,-30.0,999.9,1006.4,27.3,21.5,0.00,0.0,100000,93.4,196
474790,2021-02-18,15:02:38,JAPAN,-8.5,-13.3,1000.8,1000.7,8.1,13.7,0.00,0.0,100000,77.6,77
443290,2021-02-18,15:02:38,MONGOLIA,-14.9,-18.4,779.6,1033.0,19.5,14.0,0.00,3.2,101000,50.1,226
443140,2021-02-18,15:02:38,MONGOLIA,-14.5,-20.9,935.4,1022.0,17.3,18.8,0.01,1.8,111000,50.2,195
474830,2021-02-18,15:02:38,JAPAN,-6.2,-13.6,1002.4,1004.2,10.9,15.4,0.00,0.0,100000,86.1,320
471300,2021-02-18,15:02:38,KOREASOUTH,-0.8,-9.1,1020.3,1022.0,20.8,13.1,0.18,0.0,110000,50.6,27
471310,2021-02-18,15:02:38,KOREASOUTH,-3.3,-8.9,1021.2,1024.1,,6.1,0.04,0.0,110000,64.0,118
528250,2021-02-18,15:02:38,CHINA,-9.8,-27.9,724.2,719.1,23.4,11.5,0.00,0.0,100000,78.0,131
549060,2021-02-18,15:02:38,CHINA,-1.9,-10.5,1022.6,1026.4,17.8,8.2,0.02,0.0,110000,62.7,288
353630,2021-02-18,15:02:38,KAZAKHSTAN,-8.2,-11.3,1041.5,1040.3,14.2,17.2,0.00,0.0,100000,54.8,275
386090,2021-02-18,15:02:38,TAJIKISTAN,-2.4,-7.7,925.0,1028.1,16.9,10.0,0.00,0.0,100000,82.9,120
581500,2021-02-18,15:02:38,CHINA,-0.7,-5.9,1028.1,1026.6,13.9,11.0,0.12,0.0,110000,56.3,315
357000,2021-02-18,15:02:38,KAZAKHSTAN,-3.2,-6.3,1025.3,1023.0,16.5,18.8,0.01,0.4,111000,50.2,171
476240,2021-02-18,15:02:38,JAPAN,-0.5,-9.6,1009.7,1017.8,27.1,13.1,0.08,0.2,111000,50.1,327
517110,2021-02-18,15:02:38,CHINA,-6.1,-14.6,801.1,805.3,24.9,9.0,0.02,0.0,110000,50.8,128
560040,2021-02-18,15:02:38,CHINA,-20.0,-30.6,1001.3,1001.2,30.2,19.7,0.00,0.0,100000,77.5,136
470600,2021-02-18,15:02:38,KOREANORTH,-4.3,-9.6,1028.4,1024.4,9.8,13.0,0.04,0.0,110000,50.3,204
380810,2021-02-18,15:02:38,KAZAKHSTAN,-5.0,-8.5,1030.6,1029.7,23.4,14.4,0.01,0.3,111000,69.7,135
526510,2021-02-18,15:02:38,CHINA,-2.9,-23.9,985.4,1001.6,69.9,5.9,0.00,0.0,100000,48.1,209
475490,2021-02-18,15:02:38,JAPAN,-2.2,-8.9,998.4,999.4,8.8,9.2,0.00,0.0,100000,87.5,238
504680,2021-02-18,15:02:38,CHINA,-21.6,-26.8,1011.4,1023.4,21.3,9.3,0.01,0.0,110000,86.8,327
474900,2021-02-18,15:02:38,JAPAN,-10.9,-16.3,992.7,995.9,10.1,8.7,0.00,0.0,100000,32.8,143
474890,2021-02-18,15:02:38,JAPAN,-8.3,-14.7,1002.5,1001.7,10.4,10.7,0.00,0.0,100000,65.4,251
505480,2021-02-18,15:02:38,CHINA,-21.3,-24.1,998.6,1010.5,30.4,3.5,0.00,0.0,100000,62.0,227
475760,2021-02-18,15:02:38,JAPAN,-4.3,-9.8,1016.9,1017.5,21.2,10.7,0.11,0.0,110000,76.9,286
443730,2021-02-18,15:02:38,MONGOLIA,-11.0,-21.2,854.3,1027.7,45.0,9.4,0.00,0.2,101000,50.6,345
443740,2021-02-18,15:02:38,MONGOLIA,-13.0,-22.0,830.7,1030.6,49.5,14.3,0.00,1.3,101000,69.6,342
475530,2021-02-18,15:02:38,JAPAN,-2.3,-6.1,997.0,999.4,8.8,10.9,0.00,0.0,100000,25.7,326
530830,2021-02-18,15:02:38,CHINA,-19.8,-23.4,965.1,1031.2,29.2,12.6,0.01,0.0,110000,64.7,223
561250,2021-02-18,15:02:38,CHINA,-9.1,-22.3,650.0,654.8,23.4,7.6,0.03,0.0,110000,94.8,43
476040,2021-02-18,15:02:38,JAPAN,-0.2,-4.6,1019.2,1018.8,14.8,15.4,0.21,6.1,111000,50.2,36
577760,2021-02-18,15:02:38,CHINA,-0.5,-2.5,977.1,1024.0,8.4,18.9,0.21,0.0,110000,50.8,105
368215,2021-02-18,15:02:38,KAZAKHSTAN,-7.9,-11.5,1020.9,1045.1,9.0,17.1,0.00,0.0,100000,29.2,217
442820,2021-02-18,15:02:38,MONGOLIA,-8.4,-24.7,816.1,1009.5,49.1,7.3,0.00,0.0,100000,21.7,33
475150,2021-02-18,15:02:38,JAPAN,-2.4,-6.7,997.3,998.6,10.0,16.5,0.00,0.0,100000,99.5,33
474740,2021-02-18,15:02:38,JAPAN,-11.8,-19.8,1004.2,1012.2,10.3,9.8,0.00,0.0,100000,63.3,70
471074,2021-02-18,15:02:38,KOREASOUTH,-2.9,-7.1,1008.3,1025.9,9.4,18.9,0.00,0.0,100000,99.2,330
471087,2021-02-18,15:02:38,KOREASOUTH,-4.6,-15.3,1006.3,984.6,11.0,11.2,0.00,0.0,100000,32.9,321
471080,2021-02-18,15:02:38,KOREASOUTH,-3.1,-9.2,1019.3,1023.7,11.3,8.9,0.03,0.1,111000,85.3,294
471120,2021-02-18,15:02:38,KOREASOUTH,-2.7,-9.0,1018.4,1023.5,15.9,12.2,0.04,0.0,110000,51.2,44
506320,2021-02-18,15:02:38,CHINA,-18.3,-23.9,983.1,1024.4,27.6,10.3,0.02,0.0,110000,50.3,166
521120,2021-02-18,15:02:38,CHINA,-8.0,-19.1,1029.9,1026.4,29.6,12.4,0.00,0.0,100000,49.9,184
541150,2021-02-18,15:02:38,CHINA,-14.2,-26.4,973.5,1027.1,24.6,10.9,0.01,0.0,110000,50.2,241
541860,2021-02-18,15:02:38,CHINA,-16.4,-23.3,1013.4,1024.6,18.9,10.0,0.03,0.0,110000,50.2,142
524410,2021-02-18,15:02:38,CHINA,-14.2,-25.8,845.1,847.5,43.0,17.4,0.00,0.0,100000,78.4,353
516440,2021-02-18,15:02:38,CHINA,-2.1,-12.4,923.6,1028.1,22.8,7.4,0.01,0.0,110000,50.0,80
383340,2021-02-18,15:02:38,KAZAKHSTAN,-1.9,-6.0,927.1,1024.4,12.0,10.4,0.00,4.7,101000,73.2,151
470350,2021-02-18,15:02:38,KOREANORTH,-5.9,-14.4,1034.0,1024.8,16.2,11.5,0.05,0.0,110000,98.5,343
542180,2021-02-18,15:02:38,CHINA,-12.0,-23.5,992.0,1026.4,21.7,9.4,0.01,0.0,110000,50.0,181
527650,2021-02-18,15:02:38,CHINA,-14.1,-28.5,715.2,717.4,20.6,8.8,0.00,0.0,100000,57.2,82
508540,2021-02-18,15:02:38,CHINA,-17.5,-23.3,1022.6,1023.1,16.9,10.7,0.01,0.0,110000,95.0,301
561460,2021-02-18,15:02:38,CHINA,-6.0,-17.7,680.6,677.7,31.5,7.5,0.02,0.0,110000,50.2,182
367440,2021-02-18,15:02:38,KAZAKHSTAN,-5.6,-8.6,1033.9,1034.0,43.9,10.6,0.08,1.0,111000,50.7,350
517770,2021-02-18,15:02:38,CHINA,-5.8,-19.0,939.7,1027.1,22.0,8.3,0.00,0.0,100000,50.7,72
548260,2021-02-18,15:02:38,CHINA,-8.5,-19.3,871.4,874.1,27.3,26.5,0.08,0.0,110000,50.8,358
543460,2021-02-18,15:02:38,CHINA,-8.8,-16.3,1019.3,1025.9,13.9,9.2,0.04,0.0,110000,53.2,208
363970,2021-02-18,15:02:38,KAZAKHSTAN,-4.6,-8.7,1044.8,1036.7,24.7,33.5,1.07,2.6,111000,91.6,281
366390,2021-02-18,15:02:38,KAZAKHSTAN,-9.9,-12.8,1056.3,1038.6,49.0,2.7,1.83,0.0,110000,71.0,343
471610,2021-02-18,15:02:38,KOREASOUTH,-2.0,-8.3,999.2,994.7,10.6,7.3,0.03,0.0,110000,50.1,54
360030,2021-02-18,15:02:38,KAZAKHSTAN,-5.0,-8.0,1023.1,1030.2,23.4,16.4,0.01,5.0,111000,90.8,42
474110,2021-02-18,15:02:38,JAPAN,-6.1,-11.4,1012.9,1016.1,19.3,12.2,0.21,0.0,110000,50.1,198
474090,2021-02-18,15:02:38,JAPAN,-10.2,-13.8,1013.7,1016.1,22.6,9.7,0.04,9.9,111000,50.4,154
554720,2021-02-18,15:02:38,CHINA,-13.2,-32.6,996.3,993.6,26.3,26.2,0.01,0.0,110000,84.5,314
560930,2021-02-18,15:02:38,CHINA,-9.4,-15.8,1006.3,1018.2,15.8,12.3,0.00,0.0,100000,29.1,311
583430,2021-02-18,15:02:38,CHINA,-0.2,-5.9,1013.1,1025.8,16.3,10.5,0.00,0.0,100000,97.9,18
475800,2021-02-18,15:02:38,JAPAN,-3.0,-6.9,1004.7,1005.2,11.5,13.9,0.00,1.7,101000,51.8,62
515420,2021-02-18,15:02:38,CHINA,-20.5,-24.7,755.0,752.7,31.5,6.6,0.01,0.0,110000,88.2,70
539750,2021-02-18,15:02:38,CHINA,-3.8,-12.4,1018.7,1028.8,14.5,7.3,0.02,0.0,110000,50.5,220
350670,2021-02-18,15:02:38,KAZAKHSTAN,-8.6,-11.8,1043.3,1033.9,10.5,9.5,0.00,5.2,101000,50.9,314
442880,2021-02-18,15:02:38,MONGOLIA,-7.7,-15.2,917.4,1028.6,47.2,12.5,0.02,0.1,111000,50.1,317
442590,2021-02-18,15:02:38,MONGOLIA,-17.5,-22.0,950.1,1027.6,20.8,10.1,0.02,1.9,111000,50.0,350
353450,2021-02-18,15:02:38,KAZAKHSTAN,-7.0,-11.9,1061.9,1040.2,22.9,11.8,0.00,0.0,100000,42.5,118
475810,2021-02-18,15:02:38,JAPAN,-3.4,-7.6,1016.2,1017.0,19.0,15.6,0.12,6.2,111000,50.6,165
535290,2021-02-18,15:02:38,CHINA,-10.1,-21.0,893.4,1029.7,25.3,10.6,0.21,0.0,110000,50.4,66
475740,2021-02-18,15:02:38,JAPAN,-1.3,-7.9,1014.5,1024.2,30.1,13.6,0.16,0.0,110000,50.5,292
443540,2021-02-18,15:02:38,MONGOLIA,-14.1,-19.5,1058.6,1029.3,49.7,17.1,0.00,0.0,100000,46.8,285
540270,2021-02-18,15:02:38,CHINA,-12.7,-24.7,993.9,1025.4,29.5,12.2,0.01,0.0,110000,50.1,49
570360,2021-02-18,15:02:38,CHINA,-0.9,-7.6,1011.4,1025.3,8.8,7.1,0.04,0.0,110000,50.6,271
514635,2021-02-18,15:02:38,CHINA,-13.2,-14.9,989.6,988.0,3.6,4.9,0.00,0.0,100000,71.0,314
287660,2021-02-18,15:02:38,KAZAKHSTAN,-6.1,-9.6,1016.8,1025.5,11.4,14.2,0.01,4.5,111000,85.3,278
476370,2021-02-18,15:02:38,JAPAN,-3.6,-10.6,958.4,1018.2,27.1,9.7,0.18,0.0,110000,93.1,265
534800,2021-02-18,15:02:38,CHINA,-14.4,-23.3,958.0,1030.3,26.1,11.8,0.03,0.0,110000,50.5,235
475570,2021-02-18,15:02:38,JAPAN,-0.7,-7.4,993.1,995.7,9.7,16.7,0.00,0.0,100000,73.3,346
477090,2021-02-18,15:02:38,JAPAN,-1.5,-9.6,998.9,1002.5,9.3,10.4,0.00,0.0,100000,71.5,127
476120,2021-02-18,15:02:38,JAPAN,-0.6,-4.7,1017.4,1019.3,15.6,10.1,0.57,12.3,111000,50.0,357
514310,2021-02-18,15:02:38,CHINA,-4.5,-9.2,976.8,1028.2,31.6,5.6,0.03,0.0,110000,50.5,146
471070,2021-02-18,15:02:38,KOREASOUTH,-2.1,-8.2,1013.3,1014.1,12.4,11.7,0.00,0.3,101000,60.9,123
471065,2021-02-18,15:02:38,KOREASOUTH,-1.8,-5.1,1015.7,983.3,11.1,9.9,0.00,3.2,101000,76.2,202
533910,2021-02-18,15:02:38,CHINA,-14.8,-23.0,884.1,1027.2,28.9,18.2,0.01,0.0,110000,50.3,291
524460,2021-02-18,15:02:38,CHINA,-11.7,-25.1,940.0,1033.7,43.4,13.4,0.00,0.0,100000,79.2,107
518180,2021-02-18,15:02:38,CHINA,-1.2,-12.9,976.6,1023.7,15.7,4.7,0.01,0.0,110000,50.6,45
359970,2021-02-18,15:02:38,KAZAKHSTAN,-6.7,-11.4,1031.9,1034.0,25.2,10.0,0.01,0.8,111000,58.5,69
443050,2021-02-18,15:02:38,MONGOLIA,-17.3,-21.7,950.4,1028.7,46.2,10.1,0.00,2.3,101000,97.6,99
536730,2021-02-18,15:02:38,CHINA,-7.5,-17.9,974.2,1028.2,17.6,8.9,0.01,0.0,110000,91.8,37
470690,2021-02-18,15:02:38,KOREANORTH,-4.3,-10.6,1021.8,1024.8,15.1,9.6,0.00,0.0,100000,90.8,180
517090,2021-02-18,15:02:38,CHINA,-1.5,-9.5,912.0,1026.9,15.3,5.8,0.01,0.0,110000,50.0,278
470700,2021-02-18,15:02:38,KOREANORTH,-4.2,-11.2,1028.4,1022.8,17.7,8.0,0.05,0.0,110000,88.7,106
471920,2021-02-18,15:02:38,KOREASOUTH,-2.2,-10.4,1022.5,1022.5,21.4,6.8,0.06,0.0,110000,50.0,79
442370,2021-02-18,15:02:38,MONGOLIA,-15.7,-19.8,844.0,1022.9,49.1,11.2,0.01,0.3,111000,50.4,27
549380,2021-02-18,15:02:38,CHINA,-2.4,-11.3,1033.5,1027.6,15.1,10.1,0.02,0.0,110000,50.3,155
475200,2021-02-18,15:02:38,JAPAN,-3.0,-6.3,1005.5,1018.6,16.2,11.3,0.15,0.0,110000,50.1,173
353860,2021-02-18,15:02:38,KAZAKHSTAN,-16.4,-19.0,987.1,989.8,17.5,9.5,0.00,0.0,100000,6.2,153
514670,2021-02-18,15:02:38,CHINA,-9.1,-23.0,829.6,831.0,27.8,9.1,0.00,0.0,100000,4.7,115
539470,2021-02-18,15:02:38,CHINA,-2.8,-12.3,949.9,1027.2,12.6,8.4,0.01,0.0,110000,57.5,204
570060,2021-02-18,15:02:38,CHINA,-2.1,-9.6,946.8,1025.4,11.2,5.5,0.01,0.0,110000,50.3,107
475870,2021-02-18,15:02:38,JAPAN,-1.4,-5.6,1013.5,1017.9,15.0,24.2,0.34,4.2,111000,50.4,28
475850,2021-02-18,15:02:38,JAPAN,-3.6,-10.3,1010.6,1017.0,23.9,9.2,0.12,2.8,111000,50.0,331
381960,2021-02-18,15:02:38,KAZAKHSTAN,-2.4,-9.4,925.1,1024.5,17.9,4.3,0.00,9.0,101000,50.3,351
539150,2021-02-18,15:02:38,CHINA,-5.5,-13.9,907.8,1027.7,22.2,7.4,0.02,0.0,110000,56.4,62
570250,2021-02-18,15:02:38,CHINA,-1.4,-4.3,1037.7,1034.5,6.5,6.9,0.00,0.0,100000,46.9,339
527130,2021-02-18,15:02:38,CHINA,-14.3,-29.1,698.8,699.1,29.1,8.9,0.00,0.0,100000,11.2,259
364390,2021-02-18,15:02:38,KAZAKHSTAN,-15.6,-21.8,997.0,1002.4,37.5,15.6,0.81,2.3,111000,97.8,267
474340,2021-02-18,15:02:38,JAPAN,-10.9,-13.8,1002.8,1010.8,11.0,11.1,0.01,6.3,111000,54.7,271
474350,2021-02-18,15:02:38,JAPAN,-7.7,-11.8,1017.3,1019.5,38.4,11.9,0.16,0.0,110000,50.0,90
545870,2021-02-18,15:02:38,CHINA,-3.3,-9.7,1029.0,1024.9,27.6,22.5,0.26,0.0,110000,95.6,98
561820,2021-02-18,15:02:38,CHINA,-6.9,-16.9,778.5,822.0,28.3,6.6,0.06,0.0,110000,50.4,226
518480,2021-02-18,15:02:38,CHINA,-5.7,-20.5,923.6,1027.2,15.4,7.1,0.00,0.0,100000,49.6,278
564440,2021-02-18,15:02:38,CHINA,-3.8,-11.1,734.6,734.9,23.3,10.9,0.04,0.0,110000,50.8,309
380190,2021-02-18,15:02:38,KAZAKHSTAN,-11.2,-17.3,1043.1,1032.7,29.5,12.1,0.02,9.4,111000,92.7,61
544490,2021-02-18,15:02:38,CHINA,-0.3,-21.2,1031.0,1016.8,32.0,24.7,0.00,0.0,100000,47.8,298
524360,2021-02-18,15:02:38,CHINA,-10.7,-24.3,863.3,1029.2,30.2,13.0,0.00,0.0,100000,77.7,28
470050,2021-02-18,15:02:38,KOREANORTH,-17.3,-22.2,900.1,898.5,19.8,6.3,0.06,6.7,111000,50.6,68
470080,2021-02-18,15:02:38,KOREANORTH,-6.9,-12.4,1015.7,1022.0,12.0,8.2,0.01,0.0,110000,72.9,242
537230,2021-02-18,15:02:38,CHINA,-9.5,-21.6,908.0,1029.7,19.9,8.4,0.02,0.0,110000,80.8,75
539290,2021-02-18,15:02:38,CHINA,-4.0,-5.9,883.8,880.2,7.9,11.7,0.00,0.0,100000,71.6,8
470460,2021-02-18,15:02:38,KOREANORTH,-4.4,-8.6,1024.0,1020.4,15.7,5.1,0.01,0.0,110000,62.3,245
347980,2021-02-18,15:02:38,KAZAKHSTAN,-3.2,-6.3,1018.8,1020.4,10.6,21.4,0.00,0.6,101000,74.7,42
170980,2021-02-18,15:02:38,TURKEY,-4.9,-8.4,815.6,815.6,9.1,9.8,0.06,12.5,111000,50.0,321
542730,2021-02-18,15:02:38,CHINA,-16.8,-23.6,1017.2,1025.2,15.6,8.1,0.06,0.0,110000,67.5,343
475420,2021-02-18,15:02:38,JAPAN,-4.0,-8.0,999.6,1001.8,8.3,17.6,0.00,0.0,100000,53.5,233
345810,2021-02-18,15:02:38,KAZAKHSTAN,-1.8,-6.2,1043.9,1027.4,50.8,18.3,0.00,0.0,100000,25.0,234
351080,2021-02-18,15:02:38,KAZAKHSTAN,-7.9,-9.9,1017.3,1024.3,8.1,18.4,0.04,11.3,111000,53.1,175
443170,2021-02-18,15:02:38,MONGOLIA,-11.5,-16.2,890.0,1017.6,21.1,13.6,0.00,4.5,101000,50.8,290
476000,2021-02-18,15:02:38,JAPAN,-0.1,-5.0,1018.5,1019.6,16.0,13.9,0.29,5.1,111000,50.3,354
570830,2021-02-18,15:02:38,CHINA,-1.0,-10.8,1020.6,1027.1,9.9,8.5,0.04,0.0,110000,51.0,98
474410,2021-02-18,15:02:38,JAPAN,-6.7,-11.6,1004.0,1006.2,9.3,24.7,0.00,0.0,100000,82.7,98
474040,2021-02-18,15:02:38,JAPAN,-7.9,-11.1,1015.5,1016.7,26.1,14.8,0.24,0.0,110000,54.8,263
509490,2021-02-18,15:02:38,CHINA,-14.4,-21.6,1016.1,1023.2,14.2,9.1,0.01,0.0,110000,,141
527870,2021-02-18,15:02:38,CHINA,-13.4,-23.0,746.8,750.7,26.8,18.4,,0.0,110000,72.9,24
523780,2021-02-18,15:02:38,CHINA,-9.8,-26.6,986.5,1007.9,29.8,15.8,0.00,0.0,100000,23.3,39
506580,2021-02-18,15:02:38,CHINA,-19.6,-25.6,1025.3,1023.7,15.1,7.6,0.01,0.0,110000,75.5,352
552790,2021-02-18,15:02:38,CHINA,-12.8,-30.9,996.6,997.6,27.7,18.6,0.01,0.0,110000,50.1,291
544830,2021-02-18,15:02:38,CHINA,-15.4,-23.9,1025.9,1024.4,16.1,7.4,0.01,0.0,110000,54.9,181
522670,2021-02-18,15:02:38,CHINA,-10.8,-27.3,931.2,1030.8,27.9,12.4,0.00,0.0,100000,26.3,140
561520,2021-02-18,15:02:38,CHINA,-12.2,-20.4,663.1,663.9,32.2,5.0,0.02,0.0,110000,50.1,144
530680,2021-02-18,15:02:38,CHINA,-15.9,-23.6,934.1,1030.4,27.9,13.2,0.01,0.0,110000,50.2,212
514950,2021-02-18,15:02:38,CHINA,-8.0,-22.1,990.2,1032.5,35.0,26.8,0.01,0.0,110000,50.6,333
357390,2021-02-18,15:02:38,KAZAKHSTAN,-4.9,-10.7,1041.9,1029.5,46.3,15.0,0.00,1.3,101000,50.3,37
556640,2021-02-18,15:02:38,CHINA,-11.7,-33.4,601.9,600.7,28.5,12.6,0.00,0.0,100000,44.3,351
476170,2021-02-18,15:02:38,JAPAN,-6.0,-10.4,957.4,1027.9,24.0,4.3,0.00,0.0,100000,14.6,35
470520,2021-02-18,15:02:38,KOREANORTH,-7.9,-10.5,1034.1,1028.5,13.7,4.8,0.00,0.0,100000,78.3,105
548630,2021-02-18,15:02:38,CHINA,-3.0,-11.0,1026.5,1026.4,19.8,13.8,0.03,0.0,110000,50.3,341
507450,2021-02-18,15:02:38,CHINA,-16.7,-22.8,1015.0,1023.1,11.3,10.9,0.01,0.0,110000,51.0,222
382320,2021-02-18,15:02:38,KAZAKHSTAN,-0.4,-6.7,1020.9,1023.7,33.6,13.4,0.02,0.4,111000,50.3,67
546020,2021-02-18,15:02:38,CHINA,-3.5,-14.2,1022.0,1026.4,10.9,7.7,0.03,0.0,110000,64.9,213
474200,2021-02-18,15:02:38,JAPAN,-7.8,-11.1,1012.3,1015.2,20.6,14.9,0.06,3.8,111000,50.4,283
351910,2021-02-18,15:02:38,KAZAKHSTAN,-11.3,-18.2,1060.9,1042.6,36.8,12.2,0.00,0.0,100000,8.5,62
547140,2021-02-18,15:02:38,CHINA,-3.7,-13.5,1029.4,1026.2,15.6,10.1,0.03,0.0,110000,50.0,228
471540,2021-02-18,15:02:38,KOREASOUTH,-0.1,-11.1,1012.8,1034.7,12.0,11.1,0.00,0.0,100000,6.8,284
471060,2021-02-18,15:02:38,KOREASOUTH,-4.1,-10.8,1017.0,1022.1,13.9,6.6,0.11,0.4,111000,50.2,318
476290,2021-02-18,15:02:38,JAPAN,-1.9,-8.1,1012.6,1016.4,33.2,9.9,0.03,0.0,110000,50.3,106
543110,2021-02-18,15:02:38,CHINA,-11.4,-23.0,970.7,1028.1,28.2,6.6,0.01,0.0,110000,54.2,77
524180,2021-02-18,15:02:38,CHINA,-7.8,-23.0,917.5,1027.6,27.9,6.3,0.00,0.0,100000,81.3,244
508880,2021-02-18,15:02:38,CHINA,-15.6,-22.3,1016.1,1022.1,23.4,12.7,0.01,0.0,110000,91.0,333
355420,2021-02-18,15:02:38,KAZAKHSTAN,-13.5,-15.5,1026.9,1029.0,12.4,14.7,0.48,2.1,111000,76.3,239
508440,2021-02-18,15:02:38,CHINA,-14.8,-23.2,1026.4,1023.5,14.9,13.4,0.01,0.0,110000,50.2,32
555780,2021-02-18,15:02:38,CHINA,-7.7,-31.3,635.7,635.5,29.1,7.0,0.00,0.0,100000,66.9,233
545110,2021-02-18,15:02:38,CHINA,-3.7,-15.6,1022.7,1026.0,14.9,12.8,0.03,0.0,110000,73.4,121
357960,2021-02-18,15:02:38,KAZAKHSTAN,-8.4,-12.7,1018.5,1033.4,30.4,19.1,0.01,1.6,111000,67.6,295
509150,2021-02-18,15:02:38,CHINA,-19.9,-26.2,945.3,1029.6,29.5,10.6,0.02,0.0,110000,52.7,150
581410,2021-02-18,15:02:38,CHINA,-0.9,-10.6,1031.9,1034.3,15.9,7.1,0.00,0.0,100000,30.9,295
533520,2021-02-18,15:02:38,CHINA,-15.8,-25.7,959.2,1031.4,28.9,16.9,0.02,0.0,110000,50.2,278
560210,2021-02-18,15:02:38,CHINA,-16.7,-29.9,616.6,616.3,29.0,9.3,0.01,0.0,110000,85.2,49
540940,2021-02-18,15:02:38,CHINA,-16.2,-22.7,1009.2,1023.0,7.6,8.1,0.03,0.0,110000,50.0,301
509830,2021-02-18,15:02:38,CHINA,-15.9,-21.2,1017.8,1022.3,16.4,10.9,0.01,0.0,110000,50.1,256
521180,2021-02-18,15:02:38,CHINA,-13.5,-24.9,828.9,831.5,31.1,10.4,0.01,0.0,110000,79.4,87
548430,2021-02-18,15:02:38,CHINA,-4.5,-13.1,1023.9,1026.6,17.0,12.2,0.04,0.0,110000,50.9,22
561930,2021-02-18,15:02:38,CHINA,-1.3,-6.4,1033.3,1031.2,14.2,2.6,0.11,0.0,110000,50.4,35
442120,2021-02-18,15:02:38,MONGOLIA,-31.9,-34.7,914.5,1040.8,46.4,2.6,0.00,11.3,101000,79.7,329
544050,2021-02-18,15:02:38,CHINA,-8.0,-20.4,1023.7,1028.0,21.4,12.5,0.01,0.0,110000,55.4,68
442140,2021-02-18,15:02:38,MONGOLIA,-15.6,-24.9,827.1,1027.8,9.1,15.4,0.00,0.0,100000,91.7,237
288790,2021-02-18,15:02:38,KAZAKHSTAN,-11.4,-15.7,1033.4,1031.1,9.8,17.0,0.00,0.9,101000,50.1,218
288770,2021-02-18,15:02:38,KAZAKHSTAN,-5.5,-10.8,1025.0,1022.8,14.7,12.3,0.03,1.9,111000,78.7,35
570460,2021-02-18,15:02:38,CHINA,-7.0,-15.0,817.5,831.4,18.2,16.0,0.03,0.0,110000,52.5,238
540120,2021-02-18,15:02:38,CHINA,-19.5,-24.9,935.8,1030.0,25.1,13.0,0.01,0.0,110000,50.3,176
560330,2021-02-18,15:02:38,CHINA,-5.6,-14.7,626.3,623.0,26.0,12.0,0.01,0.0,110000,50.3,225
544930,2021-02-18,15:02:38,CHINA,-11.3,-19.5,1023.3,1025.5,20.1,4.6,0.03,0.0,110000,50.2,170
475880,2021-02-18,15:02:38,JAPAN,-3.3,-6.5,998.2,1017.1,10.9,6.7,0.07,0.0,110000,50.7,258
507560,2021-02-18,15:02:38,CHINA,-19.7,-24.4,1010.9,1023.3,12.7,9.7,0.00,0.0,100000,23.2,291
471223,2021-02-18,15:02:38,KOREASOUTH,-0.5,-2.5,1010.4,1018.2,4.5,11.7,1.07,0.0,110000,50.1,155
471220,2021-02-18,15:02:38,KOREASOUTH,-4.6,-10.6,1017.1,1018.2,9.8,8.0,0.03,0.3,111000,50.0,13
528660,2021-02-18,15:02:38,CHINA,-8.0,-19.8,772.2,771.4,16.2,7.5,0.00,0.0,100000,18.8,273
474020,2021-02-18,15:02:38,JAPAN,-12.3,-15.8,1016.8,1017.9,21.7,10.2,0.11,0.0,110000,58.8,89
474010,2021-02-18,15:02:38,JAPAN,-7.5,-11.7,1011.3,1015.8,18.0,13.8,0.16,16.7,111000,90.5,199
350850,2021-02-18,15:02:38,KAZAKHSTAN,-13.6,-18.9,1017.7,1033.3,28.6,15.7,0.02,3.4,111000,74.8,337
544970,2021-02-18,15:02:38,CHINA,-6.9,-16.4,1025.0,1024.4,15.2,11.2,0.06,0.0,110000,50.3,350
287850,2021-02-18,15:02:38,KAZAKHSTAN,-8.5,-10.9,1031.0,1021.0,16.5,4.1,0.00,13.2,101000,77.4,168
552990,2021-02-18,15:02:38,CHINA,-16.2,-29.0,1003.3,1004.5,27.1,12.3,0.03,0.0,110000,99.2,333
538210,2021-02-18,15:02:38,CHINA,-7.6,-20.0,931.6,1029.0,18.4,8.6,0.00,0.0,100000,0.4,93
443470,2021-02-18,15:02:38,MONGOLIA,-7.7,-25.9,861.4,1013.2,37.3,26.7,0.00,0.0,100000,23.8,4
562570,2021-02-18,15:02:38,CHINA,-8.6,-22.5,684.5,683.4,37.6,8.1,0.00,0.0,100000,63.9,261
476380,2021-02-18,15:02:38,JAPAN,-0.9,-8.1,996.5,1017.1,17.7,9.6,0.16,0.1,111000,53.4,49
548570,2021-02-18,15:02:38,CHINA,-1.7,-7.9,1023.6,1026.6,12.4,20.1,0.03,0.0,110000,50.2,32
576220,2021-02-18,15:02:38,CHINA,-3.3,-3.9,842.1,837.9,3.1,10.6,0.15,0.0,110000,50.3,168
560670,2021-02-18,15:02:38,CHINA,-13.2,-21.9,650.5,646.4,20.0,12.8,0.00,0.0,100000,25.8,102
477150,2021-02-18,15:02:38,JAPAN,-0.8,-5.7,1000.6,1003.7,9.3,10.1,0.09,0.6,111000,50.3,303
536140,2021-02-18,15:02:38,CHINA,-7.9,-17.3,928.6,1029.1,20.6,7.2,0.01,0.0,110000,50.2,316
353760,2021-02-18,15:02:38,KAZAKHSTAN,-10.7,-15.1,991.0,1030.5,20.0,14.5,0.01,7.4,111000,69.9,178
170671,2021-02-18,15:02:38,TURKEY,-2.3,-4.2,1009.0,997.3,11.7,9.6,0.00,0.0,100000,6.9,318
533360,2021-02-18,15:02:38,CHINA,-13.7,-23.7,910.1,1030.8,27.1,10.2,0.04,0.0,110000,78.7,14
381411,2021-02-18,15:02:38,KAZAKHSTAN,-7.5,-8.8,1006.2,987.3,6.6,17.4,0.00,0.0,100000,90.7,87
381410,2021-02-18,15:02:38,UZBEKISTAN,-1.1,-5.4,1004.5,1020.9,18.6,13.0,0.00,0.0,100000,30.7,357
516280,2021-02-18,15:02:38,CHINA,-1.7,-7.0,998.8,1030.7,19.3,4.3,0.00,0.0,100000,53.3,160
470500,2021-02-18,15:02:38,KOREANORTH,-7.5,-12.5,1027.3,1023.9,14.7,7.3,0.08,0.0,110000,91.1,208
549090,2021-02-18,15:02:38,CHINA,-1.0,-8.9,1021.1,1027.7,15.4,10.8,0.06,0.0,110000,50.2,144
443520,2021-02-18,15:02:38,MONGOLIA,-15.1,-22.8,1020.1,1029.0,50.0,14.6,0.00,0.0,100000,27.2,201
532760,2021-02-18,15:02:38,CHINA,-14.2,-23.9,919.4,1030.2,28.3,19.8,0.01,0.0,110000,76.5,90
543420,2021-02-18,15:02:38,CHINA,-10.0,-18.8,1022.1,1024.7,7.2,12.4,0.03,0.0,110000,50.3,193
442320,2021-02-18,15:02:38,MONGOLIA,-27.6,-32.8,1068.8,1049.0,44.7,4.5,0.00,0.0,100000,92.4,328
542360,2021-02-18,15:02:38,CHINA,-11.6,-21.4,1020.5,1024.8,19.5,14.1,0.02,0.0,110000,51.0,77
470580,2021-02-18,15:02:38,KOREANORTH,-6.5,-13.0,1017.4,1024.5,13.2,8.4,0.03,0.3,111000,50.5,42
542920,2021-02-18,15:02:38,CHINA,-11.8,-21.8,1007.8,1025.5,21.0,11.4,0.00,0.0,100000,84.0,253
527370,2021-02-18,15:02:38,CHINA,-10.0,-26.9,725.3,726.7,25.4,7.1,0.00,0.0,100000,88.7,63
356050,2021-02-18,15:02:38,KAZAKHSTAN,-0.8,-1.6,1036.5,1014.5,22.3,18.5,0.19,0.0,110000,50.4,161
171400,2021-02-18,15:02:38,TURKEY,-7.7,-8.6,865.0,853.1,8.2,9.5,0.45,22.6,111000,50.1,107
474880,2021-02-18,15:02:38,JAPAN,-3.9,-9.3,995.6,998.2,9.0,16.2,0.00,0.0,100000,44.0,230
383280,2021-02-18,15:02:38,KAZAKHSTAN,-1.8,-5.5,952.1,1025.8,10.1,11.2,0.00,2.4,101000,50.8,178
561720,2021-02-18,15:02:38,CHINA,-2.6,-14.6,778.4,781.2,32.4,3.6,0.04,0.0,110000,50.1,40
561730,2021-02-18,15:02:38,CHINA,-13.1,-24.4,660.4,670.4,29.5,10.5,0.00,0.0,100000,81.5,195
517470,2021-02-18,15:02:38,CHINA,-6.5,-18.0,893.8,1025.7,19.4,3.8,0.00,0.0,100000,35.6,53
475910,2021-02-18,15:02:38,JAPAN,-1.3,-6.5,1002.4,998.3,12.4,14.0,0.05,0.5,111000,50.0,333
534630,2021-02-18,15:02:38,CHINA,-11.7,-19.4,929.9,1030.4,16.8,6.9,0.01,0.0,110000,50.5,326
170960,2021-02-18,15:02:38,TURKEY,-2.6,-5.2,890.8,899.4,9.9,9.8,0.04,8.5,111000,66.2,72
470900,2021-02-18,15:02:38,KOREASOUTH,-1.0,-9.2,1020.0,1021.3,20.2,10.9,0.17,0.5,111000,96.9,113
360010,2021-02-18,15:02:38,KAZAKHSTAN,-5.4,-9.6,1011.0,1026.7,4.0,33.6,0.02,3.2,111000,59.9,277
543240,2021-02-18,15:02:38,CHINA,-11.0,-26.3,1022.1,1025.3,21.0,11.7,0.01,0.0,110000,54.4,184
172480,2021-02-18,15:02:38,TURKEY,-4.0,-5.3,894.5,885.5,15.2,8.7,0.36,8.8,111000,87.1,45
442290,2021-02-18,15:02:38,MONGOLIA,-15.8,-24.5,780.5,1014.0,50.2,6.8,0.00,0.0,100000,63.9,155
570230,2021-02-18,15:02:38,CHINA,-0.3,-13.8,872.7,1009.8,11.1,5.4,0.00,0.0,100000,47.0,95
357460,2021-02-18,15:02:38,KAZAKHSTAN,-8.6,-11.3,1025.5,1027.7,16.4,18.9,0.01,1.1,111000,99.2,123
517160,2021-02-18,15:02:38,CHINA,-1.5,-11.3,910.9,1025.5,18.9,7.2,0.00,0.0,100000,73.5,180
561440,2021-02-18,15:02:38,CHINA,-4.7,-22.3,683.3,684.3,35.3,4.9,0.00,0.0,100000,73.2,217
381980,2021-02-18,15:02:38,KAZAKHSTAN,-2.4,-5.9,1030.4,1026.3,21.4,8.4,0.32,0.4,111000,62.8,170
529960,2021-02-18,15:02:38,CHINA,-8.7,-14.7,778.7,779.2,15.0,15.7,0.01,0.0,110000,50.6,329
475690,2021-02-18,15:02:38,JAPAN,-0.7,-8.2,997.1,997.5,9.5,15.4,0.00,0.0,100000,45.1,279
359970,2021-02-18,15:02:39,KAZAKHSTAN,-6.7,-11.4,1031.9,1034.0,25.1,10.1,0.01,0.8,111000,58.5,69
443050,2021-02-18,15:02:39,MONGOLIA,-17.9,-21.7,950.4,1028.7,46.3,10.0,0.00,2.3,101000,97.6,99
536730,2021-02-18,15:02:39,CHINA,-7.5,-17.9,974.2,1028.2,17.6,9.0,0.01,0.0,110000,91.8,38
515420,2021-02-18,15:02:39,CHINA,-20.4,-23.3,755.0,752.7,31.6,6.6,0.01,0.0,110000,88.1,71
539750,2021-02-18,15:02:39,CHINA,-3.8,-12.4,1018.8,1028.8,14.5,7.3,0.02,0.0,110000,50.5,220
548260,2021-02-18,15:02:39,CHINA,-8.5,-20.1,871.4,874.0,27.2,26.6,0.08,0.0,110000,50.8,359
476200,2021-02-18,15:02:39,JAPAN,-3.2,-7.7,926.8,1018.5,27.2,12.6,0.18,0.0,110000,50.1,123
287660,2021-02-18,15:02:39,KAZAKHSTAN,-6.1,-10.5,1016.8,1025.5,11.3,14.2,0.01,4.5,111000,85.3,278
570140,2021-02-18,15:02:39,CHINA,-5.9,-10.8,1015.5,1034.8,11.7,6.5,0.00,0.0,100000,73.8,191
524240,2021-02-18,15:02:39,CHINA,-11.1,-23.7,900.0,1030.2,25.5,14.6,0.01,0.0,110000,50.6,54
383450,2021-02-18,15:02:39,KYRGYZSTAN,-2.1,-6.5,895.5,896.0,20.1,3.9,0.00,1.8,101000,70.9,9
383430,2021-02-18,15:02:39,KAZAKHSTAN,-0.9,-3.3,940.0,1025.5,10.0,4.1,0.00,2.6,101000,93.1,16
749347,2021-02-18,15:02:39,CHINA,-3.4,-8.1,1035.2,1037.9,10.8,9.6,0.00,0.0,100000,68.9,323
749348,2021-02-18,15:02:39,CHINA,-17.8,-21.5,1032.4,1037.1,63.1,2.6,0.00,0.0,100000,75.9,197
523780,2021-02-18,15:02:39,CHINA,-9.8,-25.1,986.5,1007.9,29.8,15.9,0.00,0.0,100000,23.3,39
506580,2021-02-18,15:02:39,CHINA,-20.1,-24.3,1025.3,1023.7,15.1,7.6,0.01,0.0,110000,75.4,352
470410,2021-02-18,15:02:39,KOREANORTH,-6.3,-12.0,1021.4,1021.6,13.4,9.9,0.03,0.0,110000,50.1,126
535640,2021-02-18,15:02:39,CHINA,-10.8,-23.3,936.3,1030.3,18.8,6.4,0.00,0.0,100000,7.6,81
476410,2021-02-18,15:02:39,JAPAN,-1.1,-7.8,989.4,1018.1,21.1,6.7,0.08,0.0,110000,50.5,284
476390,2021-02-18,15:02:39,JAPAN,-21.1,-27.6,1001.8,997.7,48.9,82.1,0.00,0.0,100000,5.8,238
511330,2021-02-18,15:02:39,CHINA,-3.0,-7.8,992.6,1033.3,32.2,7.4,0.04,0.0,110000,59.9,175
507880,2021-02-18,15:02:39,CHINA,-18.2,-23.7,1023.1,1020.5,20.6,13.0,0.01,0.0,110000,50.5,268
478140,2021-02-18,15:02:39,JAPAN,-0.1,-5.4,1011.3,1021.9,15.1,,0.24,0.0,110000,50.1,226
355760,2021-02-18,15:02:39,KAZAKHSTAN,-11.5,-14.7,1014.1,1035.4,21.6,11.4,0.00,6.2,101000,52.1,255
542590,2021-02-18,15:02:39,CHINA,-13.2,-21.4,1025.0,1025.8,15.6,7.5,0.04,0.0,110000,91.1,252
471000,2021-02-18,15:02:39,KOREASOUTH,-8.5,-13.8,922.8,1024.3,13.6,15.3,0.19,13.0,111000,50.3,296
470980,2021-02-18,15:02:39,KOREASOUTH,-5.2,-14.4,1010.5,1024.6,12.9,6.8,0.00,0.0,100000,82.3,63
527650,2021-02-18,15:02:39,CHINA,-13.5,-28.5,715.2,717.3,20.5,8.7,0.00,0.0,100000,57.2,83
477420,2021-02-18,15:02:39,JAPAN,-1.1,-4.2,1026.8,1027.8,17.1,3.4,0.00,0.0,100000,56.1,353
474130,2021-02-18,15:02:39,JAPAN,-7.0,-10.1,1008.2,1014.6,16.9,9.6,0.03,0.0,110000,50.0,279
474170,2021-02-18,15:02:39,JAPAN,-14.6,-18.8,1009.8,1015.0,10.4,5.8,0.04,0.0,110000,51.1,264
543420,2021-02-18,15:02:39,CHINA,-10.0,-20.1,1022.1,1024.7,7.2,12.5,0.03,0.0,110000,50.3,193
475970,2021-02-18,15:02:39,JAPAN,-2.8,-9.3,974.2,1018.3,23.8,14.9,0.11,0.0,110000,69.5,290
471240,2021-02-18,15:02:39,KOREASOUTH,-3.4,-11.5,1016.5,1042.7,11.6,11.0,0.00,0.0,100000,95.9,359
535930,2021-02-18,15:02:39,CHINA,-11.0,-22.8,980.5,1029.0,24.0,7.2,0.01,0.0,110000,90.9,201
381411,2021-02-18,15:02:39,KAZAKHSTAN,-7.5,-8.0,1006.3,987.3,6.5,17.3,0.00,0.0,100000,90.8,87
381410,2021-02-18,15:02:39,UZBEKISTAN,-1.1,-4.8,1004.6,1020.9,18.6,13.3,0.00,0.0,100000,30.7,357
507270,2021-02-18,15:02:39,CHINA,-23.4,-29.1,914.8,1028.2,25.9,7.5,0.01,0.0,110000,50.2,348
381980,2021-02-18,15:02:39,KAZAKHSTAN,-1.6,-5.9,1030.4,1026.3,21.5,8.3,0.32,0.4,111000,62.8,170
516560,2021-02-18,15:02:39,CHINA,-4.2,-17.2,932.8,1027.0,18.6,9.1,0.00,0.0,100000,11.8,126
367780,2021-02-18,15:02:39,KAZAKHSTAN,-12.0,-16.9,1060.9,1037.0,21.5,6.3,0.00,0.0,100000,91.1,204
532310,2021-02-18,15:02:39,CHINA,-13.8,-25.0,850.5,852.3,25.9,20.8,0.01,0.0,110000,72.9,51
442290,2021-02-18,15:02:39,MONGOLIA,-15.8,-24.5,780.6,1014.0,50.3,6.7,0.00,0.0,100000,63.9,155
288670,2021-02-18,15:02:39,KAZAKHSTAN,-15.3,-20.1,997.3,1033.5,20.7,8.2,0.00,26.3,101000,85.6,71
581410,2021-02-18,15:02:39,CHINA,-0.8,-10.6,1031.8,1034.4,15.8,7.1,0.00,0.0,100000,30.9,296
509150,2021-02-18,15:02:39,CHINA,-19.9,-26.2,945.3,1029.6,29.4,10.7,0.02,0.0,110000,52.7,151
552790,2021-02-18,15:02:39,CHINA,-12.0,-29.7,996.6,997.6,27.7,18.5,0.01,0.0,110000,50.1,291
528250,2021-02-18,15:02:39,CHINA,-10.3,-27.9,724.2,719.1,23.4,11.6,0.00,0.0,100000,78.0,131
474740,2021-02-18,15:02:39,JAPAN,-11.4,-20.0,1004.2,1012.5,10.4,9.8,0.00,0.0,100000,63.3,70
523910,2021-02-18,15:02:39,CHINA,-26.2,-37.4,1002.2,1046.0,36.6,6.7,0.00,0.0,100000,62.8,100
477560,2021-02-18,15:02:39,JAPAN,-0.7,-4.2,1001.3,1019.8,12.7,5.0,0.44,0.0,110000,58.7,158
357000,2021-02-18,15:02:39,KAZAKHSTAN,-3.1,-6.3,1025.3,1023.0,16.4,18.9,0.01,0.4,111000,50.2,171
471010,2021-02-18,15:02:39,KOREASOUTH,-5.3,-12.1,1017.9,1023.5,18.2,5.0,0.04,0.6,111000,59.1,309
471020,2021-02-18,15:02:39,KOREASOUTH,-0.2,-5.7,1004.1,1023.8,12.0,17.6,0.00,0.0,100000,49.9,16
518480,2021-02-18,15:02:39,CHINA,-4.7,-20.5,923.6,1027.2,15.3,7.0,0.00,0.0,100000,49.7,277
474230,2021-02-18,15:02:39,JAPAN,-4.9,-9.1,1009.6,1015.0,15.2,21.8,0.19,0.0,110000,92.4,13
474120,2021-02-18,15:02:39,JAPAN,-7.8,-12.5,1016.7,1016.1,9.4,8.0,0.19,17.8,111000,72.8,176
471360,2021-02-18,15:02:39,KOREASOUTH,-3.5,-10.9,1010.7,1024.1,18.0,7.1,0.06,0.0,110000,89.7,27
471370,2021-02-18,15:02:39,KOREASOUTH,-1.0,-10.9,1010.5,1023.0,15.5,6.8,0.03,0.0,110000,50.2,67
365350,2021-02-18,15:02:39,KAZAKHSTAN,-12.2,-15.9,1069.5,1040.1,45.4,7.0,0.00,0.0,100000,87.2,139
474280,2021-02-18,15:02:39,JAPAN,-3.3,-8.7,1012.0,1015.8,19.3,25.2,0.15,0.0,110000,50.4,124
517470,2021-02-18,15:02:39,CHINA,-6.5,-18.0,893.8,1025.7,19.3,3.8,0.00,0.0,100000,35.6,53
351730,2021-02-18,15:02:39,KAZAKHSTAN,-11.1,-13.9,1025.6,1033.9,29.6,13.4,0.00,6.0,101000,81.8,5
470460,2021-02-18,15:02:39,KOREANORTH,-4.4,-8.6,1024.0,1020.4,15.7,5.2,0.01,0.0,110000,62.3,246
347980,2021-02-18,15:02:39,KAZAKHSTAN,-3.3,-6.3,1018.8,1020.3,10.5,21.3,0.00,0.6,101000,74.8,42
350670,2021-02-18,15:02:39,KAZAKHSTAN,-8.2,-13.0,1043.2,1033.9,10.5,9.5,0.00,5.2,101000,50.9,313
524950,2021-02-18,15:02:39,CHINA,-11.4,-25.1,903.3,1031.0,26.1,12.3,0.00,0.0,100000,88.0,134
527130,2021-02-18,15:02:39,CHINA,-14.3,-30.8,698.8,699.1,29.0,8.8,0.00,0.0,100000,11.2,259
474410,2021-02-18,15:02:39,JAPAN,-6.7,-11.0,1004.0,1006.2,9.2,24.8,0.00,0.0,100000,82.6,97
526810,2021-02-18,15:02:39,CHINA,-9.7,-21.5,898.2,1029.7,29.9,10.7,0.00,0.0,100000,3.2,314
380620,2021-02-18,15:02:39,KAZAKHSTAN,-5.0,-9.3,1026.6,1024.5,19.8,14.4,0.01,0.7,111000,93.7,349
474760,2021-02-18,15:02:39,JAPAN,-11.3,-14.9,1001.9,1003.9,8.5,11.7,0.00,0.0,100000,43.3,169
474050,2021-02-18,15:02:39,JAPAN,-11.7,-16.0,1018.4,1019.1,39.9,10.1,0.06,0.0,110000,50.3,146
470690,2021-02-18,15:02:39,KOREANORTH,-4.3,-11.6,1021.8,1024.8,15.2,9.7,0.00,0.0,100000,90.9,179
517090,2021-02-18,15:02:39,CHINA,-1.5,-9.5,912.0,1026.9,15.3,5.8,0.01,0.0,110000,50.0,277
470700,2021-02-18,15:02:39,KOREANORTH,-4.3,-11.2,1028.4,1022.8,17.7,8.0,0.05,0.0,110000,88.7,106
570460,2021-02-18,15:02:39,CHINA,-6.7,-15.0,817.5,831.5,18.3,15.9,0.03,0.0,110000,52.5,238
540120,2021-02-18,15:02:39,CHINA,-19.5,-23.6,935.8,1030.0,25.0,12.9,0.01,0.0,110000,50.3,176
527870,2021-02-18,15:02:39,CHINA,-14.0,-24.2,746.8,750.7,26.8,18.5,0.01,0.0,110000,72.9,25
540960,2021-02-18,15:02:39,CHINA,-15.5,-22.7,1022.9,1023.1,17.5,12.4,0.03,0.0,110000,50.3,13
443170,2021-02-18,15:02:39,MONGOLIA,-10.9,-17.2,890.0,1017.6,21.2,13.5,0.00,4.5,101000,50.7,289
354260,2021-02-18,15:02:39,KAZAKHSTAN,-7.6,-11.7,1003.9,1025.2,38.7,11.8,0.00,4.8,101000,80.8,8
471100,2021-02-18,15:02:39,KOREASOUTH,-4.1,-9.2,1007.6,1010.5,9.5,10.3,0.00,0.0,100000,63.4,279
547140,2021-02-18,15:02:39,CHINA,-3.5,-12.3,1029.5,1026.2,15.6,10.2,0.03,0.0,110000,50.0,228
471540,2021-02-18,15:02:39,KOREASOUTH,-0.1,-10.1,1012.8,1034.7,11.9,11.2,0.00,0.0,100000,6.8,284
471060,2021-02-18,15:02:39,KOREASOUTH,-3.8,-10.8,1017.0,1022.1,13.9,6.5,0.11,0.4,111000,50.2,319
476380,2021-02-18,15:02:39,JAPAN,-0.9,-8.1,996.5,1017.1,17.7,9.7,0.16,0.1,111000,53.4,49
475530,2021-02-18,15:02:39,JAPAN,-2.3,-6.1,997.0,999.4,8.8,10.9,0.00,0.0,100000,25.7,326
476000,2021-02-18,15:02:39,JAPAN,-0.1,-5.0,1018.4,1019.6,15.9,13.8,0.29,5.1,111000,50.3,354
538450,2021-02-18,15:02:39,CHINA,-6.1,-16.7,933.5,1028.8,12.2,6.5,0.01,0.0,110000,68.9,3
289520,2021-02-18,15:02:39,KAZAKHSTAN,-13.6,-18.1,1038.2,1033.1,7.8,13.6,0.04,0.0,110000,52.0,295
353940,2021-02-18,15:02:39,KAZAKHSTAN,-10.1,-14.4,1006.2,1032.3,17.0,13.4,0.04,3.5,111000,50.5,193
474110,2021-02-18,15:02:39,JAPAN,-6.1,-11.4,1012.9,1016.1,19.4,12.3,0.21,0.0,110000,50.0,199
474090,2021-02-18,15:02:39,JAPAN,-10.2,-13.8,1013.7,1016.1,22.6,9.6,0.04,9.9,111000,50.4,154
474020,2021-02-18,15:02:39,JAPAN,-12.0,-15.8,1016.8,1017.9,21.6,10.2,0.11,0.0,110000,58.7,90
474010,2021-02-18,15:02:39,JAPAN,-7.3,-11.7,1011.3,1015.8,18.1,13.9,0.16,16.7,111000,90.5,199
504680,2021-02-18,15:02:39,CHINA,-21.6,-25.4,1011.5,1023.4,21.2,9.4,0.01,0.0,110000,86.8,327
541860,2021-02-18,15:02:39,CHINA,-16.0,-21.9,1013.4,1024.6,18.8,10.0,0.03,0.0,110000,50.2,142
524410,2021-02-18,15:02:39,CHINA,-14.2,-27.0,845.1,847.5,43.0,17.3,0.00,0.0,100000,78.4,354
516440,2021-02-18,15:02:39,CHINA,-2.7,-11.4,923.6,1028.1,22.8,7.5,0.01,0.0,110000,50.0,80
509780,2021-02-18,15:02:39,CHINA,-15.5,-21.7,1009.2,1022.3,26.5,12.7,0.01,0.0,110000,50.2,175
584450,2021-02-18,15:02:39,CHINA,-4.4,-11.3,875.3,946.9,15.6,20.1,0.19,0.0,110000,50.0,315
555910,2021-02-18,15:02:39,CHINA,-3.4,-24.2,676.7,675.6,29.7,9.5,0.00,0.0,100000,80.6,342
540490,2021-02-18,15:02:39,CHINA,-14.0,-22.0,1025.9,1024.1,19.4,11.7,0.01,0.0,110000,50.0,23
570710,2021-02-18,15:02:39,CHINA,-0.6,-9.2,1028.2,1027.9,13.3,10.9,0.06,0.0,110000,50.7,73
356990,2021-02-18,15:02:39,KAZAKHSTAN,-6.4,-14.0,958.4,1038.9,28.1,0.6,0.00,4.5,101000,50.9,128
476040,2021-02-18,15:02:39,JAPAN,-0.1,-4.6,1019.2,1018.8,14.7,15.3,0.21,6.1,111000,50.2,36
471920,2021-02-18,15:02:39,KOREASOUTH,-2.2,-9.2,1022.5,1022.5,21.4,6.8,0.06,0.0,110000,50.0,79
571930,2021-02-18,15:02:39,CHINA,-0.2,-8.6,1031.2,1026.3,14.4,8.8,0.02,0.0,110000,72.5,92
345810,2021-02-18,15:02:39,KAZAKHSTAN,-1.2,-7.1,1043.8,1027.4,50.9,18.4,0.00,0.0,100000,25.0,234
528660,2021-02-18,15:02:39,CHINA,-8.0,-21.3,772.2,771.4,16.2,7.4,0.00,0.0,100000,18.8,274
471571,2021-02-18,15:02:39,KOREASOUTH,-2.7,-13.2,988.4,960.8,10.8,11.7,0.00,0.0,100000,91.5,260
547510,2021-02-18,15:02:39,CHINA,-1.2,-7.6,1029.2,1027.2,16.9,20.9,0.06,0.0,110000,87.6,201
508880,2021-02-18,15:02:39,CHINA,-15.6,-23.6,1016.1,1022.1,23.4,12.6,0.01,0.0,110000,91.1,333
355420,2021-02-18,15:02:39,KAZAKHSTAN,-13.2,-16.6,1026.8,1029.0,12.4,14.8,0.48,2.1,111000,76.3,238
529960,2021-02-18,15:02:39,CHINA,-8.7,-13.9,778.7,779.3,15.1,15.8,0.01,0.0,110000,50.6,329
470200,2021-02-18,15:02:39,KOREANORTH,-11.4,-20.8,1016.0,1028.9,10.6,4.0,0.00,0.0,100000,47.9,347
476240,2021-02-18,15:02:39,JAPAN,-0.5,-8.6,1009.7,1017.8,27.1,13.2,0.08,0.2,111000,50.1,327
351080,2021-02-18,15:02:39,KAZAKHSTAN,-7.9,-9.9,1017.3,1024.3,8.2,18.3,0.04,11.3,111000,53.2,175
471190,2021-02-18,15:02:39,KOREASOUTH,-3.5,-9.4,1027.3,1024.1,15.3,7.4,0.05,0.1,111000,50.1,308
471180,2021-02-18,15:02:39,KOREASOUTH,-9.7,-18.9,1014.5,1029.9,10.8,8.1,0.00,0.0,100000,68.2,108
387130,2021-02-18,15:02:39,TAJIKISTAN,-3.6,-8.9,996.0,1020.3,42.9,6.6,0.00,5.0,101000,55.6,15
289780,2021-02-18,15:02:39,KAZAKHSTAN,-10.2,-12.6,969.2,1022.4,17.0,10.8,0.00,0.0,100000,31.2,275
508440,2021-02-18,15:02:39,CHINA,-15.3,-24.5,1026.3,1023.5,14.9,13.5,0.01,0.0,110000,50.2,32
509630,2021-02-18,15:02:39,CHINA,-19.5,-22.3,1019.7,1023.0,13.4,14.4,0.01,0.0,110000,50.4,126
543460,2021-02-18,15:02:39,CHINA,-8.6,-16.3,1019.2,1025.9,13.8,9.1,0.04,0.0,110000,53.2,208
363970,2021-02-18,15:02:39,KAZAKHSTAN,-4.6,-10.7,1044.6,1036.8,24.6,33.3,1.07,2.6,111000,91.6,282
560330,2021-02-18,15:02:39,CHINA,-5.6,-14.7,626.3,623.0,26.0,11.9,0.01,0.0,110000,50.3,225
548080,2021-02-18,15:02:39,CHINA,-2.4,-10.7,1030.3,1027.0,12.7,11.0,0.02,0.0,110000,50.1,103
476400,2021-02-18,15:02:39,JAPAN,-7.9,-16.1,920.4,914.5,30.6,5.3,0.00,0.0,100000,45.7,286
353020,2021-02-18,15:02:39,KAZAKHSTAN,-7.5,-10.8,1050.5,1035.0,19.9,18.4,0.00,0.0,100000,3.4,135
549290,2021-02-18,15:02:39,CHINA,-0.8,-10.7,1023.5,1026.6,17.6,6.8,0.01,0.0,110000,72.0,281
577070,2021-02-18,15:02:39,CHINA,-0.4,-2.4,852.3,854.6,9.3,3.0,0.03,0.0,110000,80.4,45
505270,2021-02-18,15:02:39,CHINA,-24.1,-28.1,992.5,1028.1,17.2,9.0,0.01,0.0,110000,50.2,192
475120,2021-02-18,15:02:39,JAPAN,-3.4,-12.5,1018.7,1023.4,39.5,8.4,0.00,0.0,100000,24.0,264
563740,2021-02-18,15:02:39,CHINA,-2.9,-9.2,748.5,747.8,30.4,17.5,0.04,0.0,110000,91.7,307
541610,2021-02-18,15:02:39,CHINA,-12.3,-21.1,1014.6,1023.9,12.5,13.3,0.02,0.0,110000,50.6,134
541611,2021-02-18,15:02:39,CHINA,-12.5,-26.3,1008.9,1008.0,9.8,17.4,0.00,0.0,100000,18.6,287
541570,2021-02-18,15:02:39,CHINA,-12.3,-19.2,1021.2,1024.3,14.7,10.7,0.04,0.0,110000,50.3,325
471170,2021-02-18,15:02:39,KOREASOUTH,-0.9,-7.3,1000.1,985.9,8.6,5.2,0.01,0.0,110000,50.3,72
539590,2021-02-18,15:02:39,CHINA,-1.4,-11.8,1011.0,1027.1,16.3,9.2,0.01,0.0,110000,50.3,50
354970,2021-02-18,15:02:39,KAZAKHSTAN,-2.7,-13.6,983.2,1035.3,31.3,11.8,0.02,7.5,111000,50.6,202
471064,2021-02-18,15:02:39,KOREASOUTH,-10.4,-15.4,1001.5,1011.1,10.7,10.0,0.00,0.0,100000,52.1,83
471066,2021-02-18,15:02:39,KOREASOUTH,-4.9,-12.1,1007.9,1002.3,8.9,5.7,0.00,0.0,100000,99.1,52
471050,2021-02-18,15:02:39,KOREASOUTH,-0.9,-9.6,1016.6,1021.8,20.6,12.0,0.18,1.4,111000,92.3,249
523130,2021-02-18,15:02:39,CHINA,-12.6,-22.3,924.6,894.9,59.2,2.9,0.00,0.0,100000,9.3,188
442840,2021-02-18,15:02:39,MONGOLIA,-28.1,-30.0,787.5,1046.5,49.9,2.3,0.00,4.5,101000,67.8,104
581500,2021-02-18,15:02:39,CHINA,-0.7,-5.9,1028.2,1026.6,13.9,10.9,0.12,0.0,110000,56.3,315
555780,2021-02-18,15:02:39,CHINA,-7.7,-31.3,635.7,635.5,29.2,7.1,0.00,0.0,100000,66.9,233
364420,2021-02-18,15:02:39,KAZAKHSTAN,-19.0,-28.2,1017.3,1008.7,38.5,27.2,0.00,2.6,101000,80.8,295
544710,2021-02-18,15:02:39,CHINA,-8.3,-15.5,1026.6,1025.4,13.4,13.7,0.04,0.0,110000,50.5,256
287850,2021-02-18,15:02:39,KAZAKHSTAN,-8.9,-9.6,1031.4,1021.0,16.6,4.1,0.00,13.2,101000,77.3,168
470520,2021-02-18,15:02:39,KOREANORTH,-7.9,-11.7,1034.0,1028.5,13.8,4.7,0.00,0.0,100000,78.3,106
386090,2021-02-18,15:02:39,TAJIKISTAN,-2.3,-7.0,925.0,1028.1,17.0,10.0,0.00,0.0,100000,82.9,120
561370,2021-02-18,15:02:39,CHINA,-5.1,-21.8,715.8,711.9,25.5,4.9,0.01,0.0,110000,50.0,108
381960,2021-02-18,15:02:39,KAZAKHSTAN,-2.4,-9.4,925.1,1024.5,17.9,4.2,0.00,9.0,101000,50.3,351
536140,2021-02-18,15:02:39,CHINA,-7.7,-17.3,928.6,1029.1,20.6,7.3,0.01,0.0,110000,50.2,316
564440,2021-02-18,15:02:39,CHINA,-3.8,-10.0,734.6,734.8,23.3,10.9,0.04,0.0,110000,50.8,309
353760,2021-02-18,15:02:39,KAZAKHSTAN,-10.7,-14.0,991.0,1030.5,19.9,14.4,0.01,7.4,111000,69.8,178
475700,2021-02-18,15:02:39,JAPAN,-2.8,-6.5,1008.8,1019.3,14.9,7.2,0.15,9.5,111000,50.1,199
542920,2021-02-18,15:02:39,CHINA,-11.8,-21.8,1007.8,1025.4,21.1,11.3,0.00,0.0,100000,84.0,253
527370,2021-02-18,15:02:39,CHINA,-9.4,-26.9,725.3,726.7,25.4,7.2,0.00,0.0,100000,88.7,63
528180,2021-02-18,15:02:39,CHINA,-9.7,-29.1,753.9,752.8,26.7,9.0,0.00,0.0,100000,70.3,87
475420,2021-02-18,15:02:39,JAPAN,-4.0,-8.0,999.6,1001.8,8.3,17.5,0.00,0.0,100000,53.5,233
545270,2021-02-18,15:02:39,CHINA,-3.6,-13.7,1026.8,1026.3,10.5,8.7,0.03,0.0,110000,50.1,1
545273,2021-02-18,15:02:39,CHINA,-1.6,-10.0,1000.4,998.5,6.8,12.0,0.00,0.0,100000,8.4,211
544830,2021-02-18,15:02:39,CHINA,-15.0,-23.9,1025.9,1024.4,16.0,7.5,0.01,0.0,110000,55.0,182
570230,2021-02-18,15:02:39,CHINA,-0.3,-11.9,872.7,1009.7,11.1,5.3,0.00,0.0,100000,47.1,95
357460,2021-02-18,15:02:39,KAZAKHSTAN,-8.6,-12.3,1025.4,1027.7,16.4,18.8,0.01,1.1,111000,99.2,124
170880,2021-02-18,15:02:39,TURKEY,-2.1,-4.3,876.6,878.7,16.4,11.8,0.05,16.2,111000,50.3,293
360010,2021-02-18,15:02:39,KAZAKHSTAN,-6.1,-8.6,1011.0,1026.6,4.1,33.7,0.02,3.2,111000,59.8,277
471460,2021-02-18,15:02:39,KOREASOUTH,-1.9,-6.9,1020.2,1023.8,18.4,5.8,0.06,0.1,111000,50.1,291
470390,2021-02-18,15:02:39,KOREANORTH,-8.4,-11.3,1022.2,1024.1,8.1,3.3,0.00,0.0,100000,89.8,98
561440,2021-02-18,15:02:39,CHINA,-4.6,-20.6,683.3,684.3,35.3,4.8,0.00,0.0,100000,73.3,217
521120,2021-02-18,15:02:39,CHINA,-8.0,-19.1,1029.8,1026.4,29.5,12.5,0.00,0.0,100000,49.9,184
476490,2021-02-18,15:02:39,JAPAN,-0.1,-5.3,999.6,1019.6,18.6,12.4,0.28,0.0,110000,50.9,22
529080,2021-02-18,15:02:39,CHINA,-20.3,-30.0,999.9,1006.4,27.4,21.3,0.00,0.0,100000,93.5,196
474790,2021-02-18,15:02:39,JAPAN,-8.5,-12.5,1000.8,1000.7,8.1,13.8,0.00,0.0,100000,77.6,78
533910,2021-02-18,15:02:39,CHINA,-14.8,-23.0,884.0,1027.2,29.0,18.1,0.01,0.0,110000,50.3,291
540270,2021-02-18,15:02:39,CHINA,-12.7,-24.7,993.9,1025.4,29.5,12.3,0.01,0.0,110000,50.1,49
350850,2021-02-18,15:02:39,KAZAKHSTAN,-13.6,-18.9,1017.6,1033.3,28.7,15.8,0.02,3.4,111000,74.9,336
544970,2021-02-18,15:02:39,CHINA,-1.8,-15.3,1025.1,1024.4,15.1,11.3,0.06,0.0,110000,50.3,350
549060,2021-02-18,15:02:39,CHINA,-2.0,-10.5,1022.6,1026.4,17.9,8.3,0.02,0.0,110000,62.7,287
474830,2021-02-18,15:02:39,JAPAN,-6.6,-14.0,1002.4,1004.2,10.8,15.5,0.00,0.0,100000,86.1,320
474210,2021-02-18,15:02:39,JAPAN,-4.6,-9.7,1015.3,1016.4,18.8,18.8,0.14,14.5,111000,50.5,323
544930,2021-02-18,15:02:39,CHINA,-11.6,-17.9,1023.3,1025.5,20.0,4.6,0.03,0.0,110000,50.2,170
545110,2021-02-18,15:02:39,CHINA,-3.7,-15.6,1022.7,1026.0,14.9,12.7,0.03,0.0,110000,73.4,122
355490,2021-02-18,15:02:39,KAZAKHSTAN,-7.9,-11.5,1034.1,1030.5,22.2,10.3,0.00,4.8,101000,50.4,174
383340,2021-02-18,15:02:39,KAZAKHSTAN,-1.9,-6.0,927.1,1024.4,12.1,10.4,0.00,4.7,101000,73.1,151
511560,2021-02-18,15:02:39,CHINA,-13.6,-20.6,928.5,1033.3,36.2,7.3,0.01,0.0,110000,50.7,199
542360,2021-02-18,15:02:39,CHINA,-11.4,-21.4,1020.5,1024.8,19.5,14.1,0.02,0.0,110000,51.0,78
470580,2021-02-18,15:02:39,KOREANORTH,-6.5,-12.0,1017.3,1024.5,13.2,8.4,0.03,0.3,111000,50.5,41
586530,2021-02-18,15:02:39,CHINA,-2.6,-5.7,916.2,1023.9,9.1,22.8,0.15,0.0,110000,50.7,241
380190,2021-02-18,15:02:39,KAZAKHSTAN,-10.8,-17.3,1042.7,1032.6,29.4,12.1,0.02,9.4,111000,92.6,61
544490,2021-02-18,15:02:39,CHINA,-0.2,-19.4,1031.1,1016.8,32.0,24.6,0.00,0.0,100000,47.7,298
471074,2021-02-18,15:02:39,KOREASOUTH,-2.8,-7.1,1008.1,1026.3,9.4,19.0,0.00,0.0,100000,99.1,331
471087,2021-02-18,15:02:39,KOREASOUTH,-4.5,-15.3,1006.6,984.2,11.1,11.1,0.00,0.0,100000,32.9,321
471080,2021-02-18,15:02:39,KOREASOUTH,-3.2,-10.1,1019.3,1023.7,11.2,9.0,0.03,0.1,111000,85.3,294
471120,2021-02-18,15:02:39,KOREASOUTH,-2.7,-9.0,1018.4,1023.5,15.8,12.3,0.04,0.0,110000,51.1,44
506320,2021-02-18,15:02:39,CHINA,-19.6,-23.9,983.0,1024.4,27.6,10.2,0.02,0.0,110000,50.3,166
563850,2021-02-18,15:02:39,CHINA,-7.2,-10.1,745.9,745.2,10.4,10.4,0.04,0.0,110000,50.7,97
505570,2021-02-18,15:02:39,CHINA,-23.3,-27.1,1009.7,1023.8,14.5,7.9,0.01,0.0,110000,50.3,318
288790,2021-02-18,15:02:39,KAZAKHSTAN,-11.4,-15.7,1033.5,1031.1,9.9,17.2,0.00,0.9,101000,50.2,218
288770,2021-02-18,15:02:39,KAZAKHSTAN,-6.1,-10.8,1025.0,1022.8,14.7,12.2,0.03,1.9,111000,78.6,35
552990,2021-02-18,15:02:39,CHINA,-15.5,-29.0,1003.3,1004.5,27.2,12.2,0.03,0.0,110000,99.2,332
546180,2021-02-18,15:02:39,CHINA,-1.5,-11.1,1024.2,1026.1,11.0,9.9,0.08,0.0,110000,70.0,22
474400,2021-02-18,15:02:39,JAPAN,-7.7,-13.2,1012.4,1016.8,23.4,11.1,0.38,0.0,110000,53.0,129
534870,2021-02-18,15:02:39,CHINA,-11.6,-21.7,973.3,1029.3,16.8,11.7,0.01,0.0,110000,65.4,274
475690,2021-02-18,15:02:39,JAPAN,-0.7,-8.2,997.1,997.5,9.6,15.5,0.00,0.0,100000,45.1,279
478920,2021-02-18,15:02:39,JAPAN,-0.1,-8.0,1026.1,1028.5,27.2,9.3,0.00,0.0,100000,94.8,326
513790,2021-02-18,15:02:39,CHINA,-18.4,-21.6,1018.0,1036.0,26.3,9.9,0.01,0.0,110000,52.9,117
505640,2021-02-18,15:02:39,CHINA,-23.4,-29.8,1018.7,1024.1,18.3,7.1,0.01,0.0,110000,50.1,306
474810,2021-02-18,15:02:39,JAPAN,-3.1,-14.3,1000.5,992.0,9.2,11.8,0.00,0.0,100000,39.7,357
442190,2021-02-18,15:02:39,MONGOLIA,-11.0,-23.2,850.9,1015.1,19.1,6.4,0.00,0.0,100000,27.3,215
475450,2021-02-18,15:02:39,JAPAN,-1.8,-6.1,1006.9,1004.3,8.7,15.1,0.00,0.0,100000,39.6,248
552280,2021-02-18,15:02:39,CHINA,-4.7,-18.5,603.4,600.5,30.3,12.0,0.01,0.0,110000,79.7,99
354060,2021-02-18,15:02:39,KAZAKHSTAN,-7.2,-12.1,1032.0,1028.9,24.0,21.6,0.01,0.0,110000,50.0,96
442370,2021-02-18,15:02:39,MONGOLIA,-14.7,-21.5,843.9,1022.9,49.1,11.1,0.01,0.3,111000,50.4,27
531920,2021-02-18,15:02:39,CHINA,-19.7,-24.9,918.0,1033.1,31.0,10.2,0.01,0.0,110000,63.4,238
560180,2021-02-18,15:02:39,CHINA,-12.1,-22.9,627.0,632.9,26.2,8.6,0.02,0.0,110000,85.9,170
560340,2021-02-18,15:02:39,CHINA,-21.8,-32.2,600.9,595.9,22.6,17.2,0.02,0.0,110000,50.1,215
478210,2021-02-18,15:02:39,JAPAN,-5.2,-9.9,892.3,899.2,29.2,12.6,0.00,0.0,100000,14.8,174
542730,2021-02-18,15:02:39,CHINA,-16.8,-23.6,1017.3,1025.2,15.7,8.1,0.06,0.0,110000,67.5,343
576220,2021-02-18,15:02:39,CHINA,-3.4,-4.3,842.1,837.9,3.0,10.5,0.15,0.0,110000,50.2,168
560670,2021-02-18,15:02:39,CHINA,-13.0,-21.9,650.5,646.4,20.1,12.7,0.00,0.0,100000,25.8,102
354590,2021-02-18,15:02:39,KAZAKHSTAN,-7.6,-13.9,1031.6,1029.9,48.2,23.9,0.00,4.5,101000,50.2,213
366390,2021-02-18,15:02:39,KAZAKHSTAN,-10.3,-14.2,1056.1,1038.5,49.1,2.7,1.83,0.0,110000,71.0,343
475750,2021-02-18,15:02:39,JAPAN,-3.3,-7.8,1020.5,1017.6,14.6,13.4,0.19,22.8,111000,61.0,222
510870,2021-02-18,15:02:39,CHINA,-9.4,-16.3,931.3,1032.2,23.5,6.1,0.00,0.0,100000,56.9,19
543110,2021-02-18,15:02:39,CHINA,-11.4,-23.0,970.7,1028.1,28.3,6.6,0.01,0.0,110000,54.1,78
470080,2021-02-18,15:02:39,KOREANORTH,-7.1,-13.2,1015.8,1022.0,12.1,8.2,0.01,0.0,110000,72.9,241
360030,2021-02-18,15:02:39,KAZAKHSTAN,-5.6,-9.1,1023.2,1030.2,23.4,16.5,0.01,5.0,111000,90.9,41
474040,2021-02-18,15:02:39,JAPAN,-7.9,-12.1,1015.5,1016.7,26.2,14.9,0.24,0.0,110000,54.8,263
354160,2021-02-18,15:02:39,KAZAKHSTAN,-7.5,-10.3,1024.7,1027.3,7.7,17.2,0.03,5.6,111000,54.6,71
535020,2021-02-18,15:02:39,CHINA,-10.4,-23.5,979.9,1029.4,22.7,11.5,0.00,0.0,100000,46.5,177
518550,2021-02-18,15:02:39,CHINA,-7.6,-21.7,933.0,1025.4,17.5,7.5,0.00,0.0,100000,93.8,253
543860,2021-02-18,15:02:39,CHINA,-16.5,-21.9,965.9,1026.2,18.3,10.4,0.04,0.0,110000,73.5,276
363350,2021-02-18,15:02:39,KAZAKHSTAN,-9.9,-13.6,1031.4,1033.1,43.3,18.5,0.04,7.6,111000,50.6,15
353610,2021-02-18,15:02:39,KAZAKHSTAN,-9.2,-13.2,991.6,1021.0,26.8,7.8,0.00,0.0,100000,34.0,321
475980,2021-02-18,15:02:39,JAPAN,-0.1,-7.9,1021.9,1017.8,23.1,9.7,0.17,0.3,111000,50.2,103
570360,2021-02-18,15:02:39,CHINA,-0.9,-7.6,1011.4,1025.3,8.7,7.0,0.04,0.0,110000,50.5,271
172480,2021-02-18,15:02:39,TURKEY,-4.0,-5.7,894.4,885.7,15.3,8.7,0.36,8.8,111000,87.1,46
528360,2021-02-18,15:02:39,CHINA,-9.9,-26.4,687.5,687.0,27.8,9.8,0.06,0.0,110000,50.4,116
357910,2021-02-18,15:02:39,KAZAKHSTAN,-13.3,-16.5,1035.2,1036.5,40.3,6.3,0.03,2.4,111000,79.3,141
561720,2021-02-18,15:02:39,CHINA,-2.6,-14.6,778.4,781.1,32.4,3.6,0.04,0.0,110000,50.1,40
561730,2021-02-18,15:02:39,CHINA,-12.5,-24.4,660.3,670.4,29.5,10.6,0.00,0.0,100000,81.5,195
560650,2021-02-18,15:02:39,CHINA,-15.0,-26.6,661.0,659.9,26.5,9.6,0.01,0.0,110000,64.3,29
475910,2021-02-18,15:02:39,JAPAN,-1.4,-6.5,1002.4,998.2,12.3,14.1,0.05,0.5,111000,50.0,333
383280,2021-02-18,15:02:39,KAZAKHSTAN,-1.0,-5.5,952.1,1025.8,10.0,11.1,0.00,2.4,101000,50.8,178
474340,2021-02-18,15:02:39,JAPAN,-10.9,-15.0,1002.7,1010.8,11.0,11.2,0.01,6.3,111000,54.7,271
474350,2021-02-18,15:02:39,JAPAN,-7.7,-12.4,1017.3,1019.4,38.3,12.0,0.16,0.0,110000,50.1,89
545870,2021-02-18,15:02:39,CHINA,-3.5,-10.5,1029.0,1024.9,27.7,22.4,0.26,0.0,110000,95.6,98
171400,2021-02-18,15:02:39,TURKEY,-8.1,-8.3,865.0,853.2,8.3,9.6,0.45,22.6,111000,50.1,107
470900,2021-02-18,15:02:39,KOREASOUTH,-1.0,-8.5,1020.0,1021.3,20.1,11.0,0.17,0.5,111000,96.8,113
560290,2021-02-18,15:02:39,CHINA,-8.2,-23.0,645.7,645.7,29.3,4.2,0.01,0.0,110000,71.4,302
477690,2021-02-18,15:02:39,JAPAN,-0.5,-7.6,1022.5,1027.9,27.7,8.6,0.00,0.0,100000,29.7,155
471750,2021-02-18,15:02:39,KOREASOUTH,-0.8,-7.5,965.7,1024.1,13.6,21.4,0.06,0.0,110000,94.9,276
470250,2021-02-18,15:02:39,KOREANORTH,-4.8,-9.4,1015.1,1021.3,10.5,8.3,0.27,0.0,110000,50.5,13
359250,2021-02-18,15:02:39,KAZAKHSTAN,-4.3,-9.4,1017.9,1028.7,21.8,21.9,0.00,0.0,100000,11.1,82
356050,2021-02-18,15:02:39,KAZAKHSTAN,-0.3,-1.0,1036.4,1014.5,22.2,18.7,0.19,0.0,110000,50.3,160
527070,2021-02-18,15:02:39,CHINA,-13.4,-30.2,725.5,721.6,21.3,11.5,0.00,0.0,100000,44.5,244
541150,2021-02-18,15:02:39,CHINA,-14.2,-26.4,973.4,1027.1,24.6,11.0,0.01,0.0,110000,50.1,240
549380,2021-02-18,15:02:39,CHINA,-2.4,-11.3,1033.5,1027.6,15.1,10.1,0.02,0.0,110000,50.3,155
358840,2021-02-18,15:02:39,KAZAKHSTAN,-7.9,-11.8,977.5,994.1,19.6,12.6,0.03,12.6,111000,50.8,313
381780,2021-02-18,15:02:39,UZBEKISTAN,-0.8,-7.7,1010.5,1025.1,14.6,10.6,0.00,0.0,100000,6.3,168
537640,2021-02-18,15:02:39,CHINA,-7.5,-16.4,974.0,1029.5,19.1,8.3,0.12,0.0,110000,80.3,196
471430,2021-02-18,15:02:39,KOREASOUTH,-0.7,-9.2,1016.1,1023.0,18.3,10.2,0.06,0.1,111000,50.0,20
471330,2021-02-18,15:02:39,KOREASOUTH,-2.6,-9.9,1019.8,1024.1,17.3,6.6,0.04,0.0,110000,79.4,329
471340,2021-02-18,15:02:39,KOREASOUTH,-3.1,-8.5,1001.1,997.0,10.2,6.9,0.01,0.0,110000,95.5,217
506030,2021-02-18,15:02:39,CHINA,-19.9,-24.7,982.8,1028.0,29.5,10.8,0.01,0.0,110000,72.1,111
471350,2021-02-18,15:02:39,KOREASOUTH,-3.0,-10.6,1011.8,1023.3,19.7,14.4,0.08,0.0,110000,55.0,131
548230,2021-02-18,15:02:39,CHINA,-0.9,-12.8,1022.8,1026.4,11.6,11.7,0.05,0.0,110000,50.0,215
509830,2021-02-18,15:02:39,CHINA,-16.9,-21.2,1017.8,1022.3,16.5,10.8,0.01,0.0,110000,50.1,256
286790,2021-02-18,15:02:39,KAZAKHSTAN,-11.1,-13.8,1024.7,1029.6,11.1,18.8,0.02,7.1,111000,50.2,188
538630,2021-02-18,15:02:39,CHINA,-5.3,-15.1,1016.6,1028.0,13.3,8.5,0.02,0.0,110000,50.2,128
538870,2021-02-18,15:02:39,CHINA,-10.7,-27.0,915.3,1028.0,28.7,6.7,0.00,0.0,100000,49.5,332
471140,2021-02-18,15:02:39,KOREASOUTH,-4.8,-11.8,1008.0,1023.9,14.7,4.6,0.08,0.0,110000,97.0,257
547150,2021-02-18,15:02:39,CHINA,-2.8,-12.6,1025.4,1027.6,17.1,12.4,0.08,0.0,110000,63.4,147
474880,2021-02-18,15:02:39,JAPAN,-3.7,-9.3,995.5,998.2,9.1,16.1,0.00,0.0,100000,44.0,230
476290,2021-02-18,15:02:39,JAPAN,-1.9,-8.1,1012.6,1016.4,33.1,10.0,0.03,0.0,110000,50.3,106
366220,2021-02-18,15:02:39,KAZAKHSTAN,-7.3,-12.7,1034.1,1037.3,42.9,13.8,0.02,6.3,111000,51.9,127
546160,2021-02-18,15:02:39,CHINA,-3.8,-13.2,1027.4,1026.5,12.2,13.4,0.03,0.0,110000,64.7,341
515730,2021-02-18,15:02:39,CHINA,-3.7,-17.6,1023.0,1028.8,23.3,4.8,0.04,0.0,110000,65.0,219
356710,2021-02-18,15:02:39,KAZAKHSTAN,-3.6,-13.7,997.8,1029.6,20.4,17.0,0.00,5.0,101000,50.2,297
560210,2021-02-18,15:02:39,CHINA,-16.7,-28.2,616.6,616.3,29.1,9.4,0.01,0.0,110000,85.2,49
540940,2021-02-18,15:02:39,CHINA,-15.8,-22.7,1009.1,1023.0,7.7,8.0,0.03,0.0,110000,50.0,302
476170,2021-02-18,15:02:39,JAPAN,-6.4,-10.4,957.5,1027.9,24.1,4.3,0.00,0.0,100000,14.7,35
542370,2021-02-18,15:02:39,CHINA,-17.2,-27.8,1006.2,1031.3,13.9,13.0,0.00,0.0,100000,39.3,21
470550,2021-02-18,15:02:39,KOREANORTH,-3.1,-10.4,1021.9,1023.0,16.2,8.8,0.46,0.3,111000,50.0,190
522670,2021-02-18,15:02:39,CHINA,-11.3,-25.7,931.3,1030.8,28.0,12.3,0.00,0.0,100000,26.4,139
561520,2021-02-18,15:02:39,CHINA,-12.2,-20.4,663.1,663.9,32.2,4.9,0.02,0.0,110000,50.0,145
530680,2021-02-18,15:02:39,CHINA,-17.0,-23.6,934.1,1030.4,27.9,13.2,0.01,0.0,110000,50.2,212
548630,2021-02-18,15:02:39,CHINA,-3.1,-11.0,1026.5,1026.4,19.7,13.9,0.03,0.0,110000,50.3,341
507450,2021-02-18,15:02:39,CHINA,-17.1,-22.8,1015.0,1023.0,11.4,10.9,0.01,0.0,110000,51.0,221
442770,2021-02-18,15:02:39,MONGOLIA,-24.0,-28.6,996.7,1028.4,49.1,17.9,0.00,0.0,100000,27.5,123
471400,2021-02-18,15:02:39,KOREASOUTH,-1.3,-6.5,1019.4,1023.9,17.2,14.7,0.04,0.0,110000,92.2,359
471410,2021-02-18,15:02:39,KOREASOUTH,-1.4,-5.7,1013.4,1013.8,10.7,14.1,0.04,0.1,111000,51.4,211
471420,2021-02-18,15:02:39,KOREASOUTH,-2.5,-9.8,1015.0,1015.0,12.0,11.0,0.01,0.0,110000,50.2,46
546620,2021-02-18,15:02:39,CHINA,-3.7,-12.0,1022.3,1025.7,13.8,17.7,0.02,0.0,110000,64.5,243
475920,2021-02-18,15:02:39,JAPAN,-1.4,-6.6,1015.3,1018.1,19.5,12.6,0.17,0.9,111000,87.2,75
535430,2021-02-18,15:02:39,CHINA,-10.3,-21.6,883.3,1029.8,22.8,11.9,0.01,0.0,110000,62.2,213
471300,2021-02-18,15:02:39,KOREASOUTH,-0.8,-9.1,1020.3,1022.0,20.8,13.2,0.18,0.0,110000,50.6,27
471310,2021-02-18,15:02:39,KOREASOUTH,-3.3,-9.9,1021.2,1024.1,17.8,6.0,0.04,0.0,110000,64.0,118
369820,2021-02-18,15:02:39,KYRGYZSTAN,-21.7,-25.6,646.3,646.4,42.9,9.8,0.00,0.0,100000,63.9,265
549090,2021-02-18,15:02:39,CHINA,-1.0,-8.9,1021.1,1027.7,15.4,10.8,0.06,0.0,110000,50.2,144
443850,2021-02-18,15:02:39,MONGOLIA,-8.5,-20.8,896.4,1029.6,50.8,16.8,0.00,0.0,100000,14.6,38
570830,2021-02-18,15:02:39,CHINA,-1.0,-10.8,1020.6,1027.1,9.9,8.6,0.04,0.0,110000,51.1,98
585060,2021-02-18,15:02:39,CHINA,-1.0,-4.8,977.7,1026.8,12.3,14.8,0.19,0.0,110000,94.1,221
544010,2021-02-18,15:02:39,CHINA,-8.3,-21.8,986.6,1028.2,20.7,10.6,0.01,0.0,110000,50.1,286
518390,2021-02-18,15:02:39,CHINA,-2.5,-14.9,889.9,1029.3,13.4,6.7,0.00,0.0,100000,93.2,200
509490,2021-02-18,15:02:39,CHINA,-14.4,-23.0,1016.1,1023.2,14.1,9.1,0.01,0.0,110000,97.8,141
443140,2021-02-18,15:02:39,MONGOLIA,-15.3,-20.9,935.4,1022.1,17.3,18.9,0.01,1.8,111000,50.1,194
546020,2021-02-18,15:02:39,CHINA,-3.5,-14.2,1022.0,1026.4,11.0,7.8,0.03,0.0,110000,64.9,212
474200,2021-02-18,15:02:39,JAPAN,-7.8,-11.1,1012.3,1015.2,20.6,14.8,0.06,3.8,111000,50.5,282
351910,2021-02-18,15:02:39,KAZAKHSTAN,-11.1,-18.2,1060.9,1042.6,37.0,12.3,0.00,0.0,100000,8.5,62
382200,2021-02-18,15:02:39,KYRGYZSTAN,-7.6,-9.3,951.2,1031.1,7.2,6.8,0.00,6.8,101000,50.3,12
546560,2021-02-18,15:02:39,CHINA,-2.7,-8.4,1022.5,1024.8,20.1,25.3,0.00,0.0,100000,60.1,86
368590,2021-02-18,15:02:39,KAZAKHSTAN,-5.6,-10.5,1007.2,1027.6,39.7,7.5,0.02,1.6,111000,50.3,257
471110,2021-02-18,15:02:39,KOREASOUTH,-2.0,-9.6,989.3,990.4,9.3,7.6,0.00,0.0,100000,36.3,256
547050,2021-02-18,15:02:39,CHINA,-15.6,-19.0,1024.2,1034.0,7.8,3.6,0.00,0.0,100000,51.4,264
443290,2021-02-18,15:02:39,MONGOLIA,-14.9,-18.4,779.6,1033.0,19.4,13.9,0.00,3.2,101000,50.0,225
515670,2021-02-18,15:02:39,CHINA,-7.1,-13.2,1004.5,1032.5,18.5,7.6,0.00,0.0,100000,26.4,249
536980,2021-02-18,15:02:39,CHINA,-2.0,-12.3,1029.0,1026.5,13.2,6.7,0.04,0.0,110000,50.5,357
289840,2021-02-18,15:02:39,KAZAKHSTAN,-6.1,-8.8,1011.1,1024.4,38.8,11.4,0.00,0.0,100000,76.0,167
170672,2021-02-18,15:02:39,TURKEY,-1.8,-4.8,993.4,1016.8,6.7,9.6,0.00,0.0,100000,2.9,163
170674,2021-02-18,15:02:39,TURKEY,-0.7,-4.8,1003.2,1017.5,8.0,19.3,0.00,0.0,100000,52.9,279
570670,2021-02-18,15:02:39,CHINA,-2.4,-8.3,993.4,1028.8,14.0,5.1,0.02,0.0,110000,58.1,275
540260,2021-02-18,15:02:39,CHINA,-10.7,-22.8,1013.2,1024.6,25.9,12.1,0.01,0.0,110000,84.8,10
533520,2021-02-18,15:02:39,CHINA,-15.8,-25.7,959.2,1031.4,29.0,16.8,0.02,0.0,110000,50.2,278
475880,2021-02-18,15:02:39,JAPAN,-3.6,-6.5,998.2,1017.2,10.9,6.8,0.07,0.0,110000,50.7,257
562570,2021-02-18,15:02:39,CHINA,-8.9,-22.5,684.5,683.3,37.6,8.0,0.00,0.0,100000,63.9,262
529550,2021-02-18,15:02:39,CHINA,-10.7,-26.6,694.8,691.1,30.7,7.5,0.00,0.0,100000,15.5,161
350780,2021-02-18,15:02:39,KAZAKHSTAN,-10.4,-14.0,1034.3,1033.0,11.0,14.2,0.01,9.2,111000,50.0,65
470670,2021-02-18,15:02:39,KOREANORTH,-6.8,-10.5,1045.0,1024.9,15.5,7.4,0.00,0.0,100000,97.8,53
542260,2021-02-18,15:02:39,CHINA,-11.0,-23.6,1022.5,1025.9,25.5,15.1,0.01,0.0,110000,87.8,130
470680,2021-02-18,15:02:39,KOREANORTH,-4.4,-10.1,1030.9,1024.8,16.0,11.4,0.01,0.0,110000,50.0,171
561460,2021-02-18,15:02:39,CHINA,-6.2,-19.3,680.6,677.7,31.5,7.4,0.02,0.0,110000,50.3,182
367440,2021-02-18,15:02:39,KAZAKHSTAN,-5.6,-8.6,1034.0,1034.0,43.9,10.6,0.08,1.0,111000,50.7,349
474900,2021-02-18,15:02:39,JAPAN,-10.9,-16.3,992.7,995.9,10.0,8.7,0.00,0.0,100000,32.8,144
474890,2021-02-18,15:02:39,JAPAN,-8.3,-14.7,1002.5,1001.6,10.3,10.8,0.00,0.0,100000,65.3,252
505480,2021-02-18,15:02:39,CHINA,-21.3,-24.1,998.8,1010.4,30.5,3.5,0.00,0.0,100000,61.9,228
537050,2021-02-18,15:02:39,CHINA,-6.9,-19.6,974.7,1028.6,19.1,11.4,0.01,0.0,110000,50.2,251
508540,2021-02-18,15:02:39,CHINA,-16.7,-24.7,1022.6,1023.1,16.9,10.7,0.01,0.0,110000,95.0,300
171890,2021-02-18,15:02:39,TURKEY,-6.7,-9.9,901.4,926.7,15.4,12.7,0.24,9.4,111000,75.4,359
356330,2021-02-18,15:02:39,KAZAKHSTAN,-11.3,-13.7,1026.0,1023.8,21.6,16.5,0.00,5.2,101000,70.3,158
541020,2021-02-18,15:02:39,CHINA,-18.5,-25.1,936.5,1030.5,28.4,12.4,0.01,0.0,110000,50.3,227
517300,2021-02-18,15:02:39,CHINA,-3.8,-12.9,987.2,1028.6,19.9,4.5,0.01,0.0,110000,50.5,72
564620,2021-02-18,15:02:39,CHINA,-1.9,-16.5,754.5,754.1,33.9,12.0,0.01,0.0,110000,50.2,83
170980,2021-02-18,15:02:39,TURKEY,-4.9,-8.4,815.6,815.6,9.2,9.9,0.06,12.5,111000,50.1,321
518110,2021-02-18,15:02:39,CHINA,-2.5,-9.6,919.7,1025.0,14.2,4.7,0.00,0.0,100000,45.1,247
526020,2021-02-18,15:02:39,CHINA,-15.5,-31.4,726.2,726.5,26.8,15.1,0.00,0.0,100000,53.0,188
361770,2021-02-18,15:02:39,KAZAKHSTAN,-6.9,-11.9,1020.5,1026.9,10.3,9.0,0.00,0.0,100000,53.6,26
343980,2021-02-18,15:02:39,KAZAKHSTAN,-8.0,-11.6,1016.2,1015.7,17.6,16.1,0.00,5.6,101000,82.7,170
516280,2021-02-18,15:02:39,CHINA,-1.7,-8.5,998.8,1030.7,19.3,4.2,0.00,0.0,100000,53.2,159
470500,2021-02-18,15:02:39,KOREANORTH,-7.2,-13.5,1027.3,1023.9,14.8,7.3,0.08,0.0,110000,91.1,208
475490,2021-02-18,15:02:39,JAPAN,-2.2,-8.9,998.4,999.5,8.8,9.1,0.00,0.0,100000,87.5,237
548360,2021-02-18,15:02:39,CHINA,-4.0,-13.4,1030.8,1027.7,14.7,9.9,0.04,0.0,110000,50.3,31
523230,2021-02-18,15:02:39,CHINA,-15.4,-25.3,819.2,814.8,31.5,15.0,0.00,0.0,100000,33.7,15
544360,2021-02-18,15:02:39,CHINA,-8.8,-20.8,1018.4,1026.0,26.7,6.0,0.02,0.0,110000,78.2,337
514950,2021-02-18,15:02:39,CHINA,-8.0,-22.1,990.2,1032.5,35.1,26.7,0.01,0.0,110000,50.6,334
357390,2021-02-18,15:02:39,KAZAKHSTAN,-4.7,-10.7,1041.8,1029.5,46.4,14.9,0.00,1.3,101000,50.3,38
556640,2021-02-18,15:02:39,CHINA,-11.7,-33.4,601.9,600.7,28.4,12.4,0.00,0.0,100000,44.4,351
541350,2021-02-18,15:02:39,CHINA,-11.8,-24.4,1018.4,1024.7,25.6,15.0,0.01,0.0,110000,51.7,186
361860,2021-02-18,15:02:39,KAZAKHSTAN,-4.7,-8.3,1023.1,1025.7,12.1,2.8,0.00,0.0,100000,32.7,202
530830,2021-02-18,15:02:39,CHINA,-18.4,-23.4,965.2,1031.2,29.3,12.7,0.01,0.0,110000,64.8,223
561250,2021-02-18,15:02:39,CHINA,-9.6,-22.3,650.0,654.9,23.5,7.5,0.03,0.0,110000,94.8,43
524360,2021-02-18,15:02:39,CHINA,-10.5,-22.9,863.3,1029.2,30.1,12.9,0.00,0.0,100000,77.7,28
470050,2021-02-18,15:02:39,KOREANORTH,-18.4,-20.9,900.1,898.5,19.7,6.3,0.06,6.7,111000,50.6,68
534800,2021-02-18,15:02:39,CHINA,-14.4,-24.6,958.0,1030.3,26.2,11.7,0.03,0.0,110000,50.5,235
475570,2021-02-18,15:02:39,JAPAN,-0.7,-7.4,993.1,995.7,9.8,16.6,0.00,0.0,100000,73.3,345
442870,2021-02-18,15:02:39,MONGOLIA,-19.2,-23.3,813.9,1035.1,50.3,12.8,0.00,2.6,101000,50.4,61
475160,2021-02-18,15:02:39,JAPAN,-3.0,-7.7,997.8,993.6,10.0,16.7,0.00,0.0,100000,0.1,3
475760,2021-02-18,15:02:39,JAPAN,-4.6,-8.9,1016.9,1017.5,21.2,10.8,0.11,0.0,110000,76.9,286
560460,2021-02-18,15:02:39,CHINA,-15.0,-23.2,671.4,671.8,25.3,8.2,0.01,0.0,110000,50.0,183
471070,2021-02-18,15:02:39,KOREASOUTH,-2.1,-7.4,1013.3,1014.2,12.4,11.6,0.00,0.3,101000,61.0,123
471065,2021-02-18,15:02:39,KOREASOUTH,-1.7,-6.0,1015.7,983.3,11.0,9.8,0.00,3.2,101000,76.2,202
537230,2021-02-18,15:02:39,CHINA,-9.5,-21.6,908.0,1029.7,20.0,8.5,0.02,0.0,110000,80.8,75
471610,2021-02-18,15:02:39,KOREASOUTH,-2.0,-9.5,999.2,994.6,10.6,7.2,0.03,0.0,110000,50.0,55
442820,2021-02-18,15:02:39,MONGOLIA,-8.4,-26.2,816.1,1009.5,49.1,7.3,0.00,0.0,100000,21.7,32
543240,2021-02-18,15:02:39,CHINA,-11.0,-26.3,1022.2,1025.4,21.0,11.8,0.01,0.0,110000,54.4,184
514635,2021-02-18,15:02:39,CHINA,-12.4,-14.9,989.6,987.9,3.7,4.8,0.00,0.0,100000,71.1,314
561160,2021-02-18,15:02:39,CHINA,-7.9,-20.2,684.3,685.0,26.7,4.2,0.00,0.0,100000,34.5,300
548430,2021-02-18,15:02:39,CHINA,-4.5,-13.1,1023.9,1026.6,17.0,12.3,0.04,0.0,110000,50.8,23
561930,2021-02-18,15:02:39,CHINA,-1.3,-5.7,1033.5,1031.2,14.3,2.6,0.11,0.0,110000,50.4,34
509530,2021-02-18,15:02:39,CHINA,-15.7,-22.4,1015.9,1023.0,13.5,12.1,0.02,0.0,110000,92.8,218
521180,2021-02-18,15:02:39,CHINA,-13.5,-24.9,828.9,831.5,31.0,10.3,0.01,0.0,110000,79.4,86
470990,2021-02-18,15:02:39,KOREASOUTH,-6.5,-12.8,1020.6,1024.6,11.6,5.7,0.01,0.0,110000,50.5,2
471030,2021-02-18,15:02:39,KOREASOUTH,-2.4,-6.3,1014.4,1022.6,12.1,21.2,0.00,0.0,100000,65.3,338
471025,2021-02-18,15:02:39,KOREASOUTH,-2.8,-7.6,1013.2,1022.3,11.6,4.3,0.00,0.0,100000,64.1,199
501360,2021-02-18,15:02:39,CHINA,-26.6,-33.9,968.2,1025.9,20.3,8.1,0.00,0.0,100000,10.4,0
533360,2021-02-18,15:02:39,CHINA,-13.7,-22.3,910.1,1030.8,27.0,10.1,0.04,0.0,110000,78.7,14
560930,2021-02-18,15:02:39,CHINA,-9.4,-14.9,1006.4,1018.4,15.9,12.2,0.00,0.0,100000,29.1,311
536460,2021-02-18,15:02:39,CHINA,-9.0,-19.5,928.0,1029.2,17.8,9.8,0.01,0.0,110000,50.7,19
583211,2021-02-18,15:02:39,CHINA,-0.3,-4.8,1006.2,999.5,9.5,9.6,0.00,0.0,100000,96.5,230
510530,2021-02-18,15:02:39,CHINA,-16.8,-21.9,1025.3,1035.8,25.7,14.6,0.01,0.0,110000,98.3,20
380810,2021-02-18,15:02:39,KAZAKHSTAN,-5.0,-9.6,1030.6,1029.7,23.5,14.4,0.01,0.3,111000,69.8,135
526510,2021-02-18,15:02:39,CHINA,-2.9,-24.9,985.2,1001.5,69.9,6.0,0.00,0.0,100000,48.1,209
517110,2021-02-18,15:02:39,CHINA,-6.1,-14.6,801.1,805.3,24.9,8.9,0.02,0.0,110000,50.7,129
560040,2021-02-18,15:02:39,CHINA,-20.0,-32.4,1001.3,1001.2,30.2,19.6,0.00,0.0,100000,77.5,136
470600,2021-02-18,15:02:39,KOREANORTH,-4.3,-8.9,1028.3,1024.4,9.9,12.9,0.04,0.0,110000,50.3,204
525330,2021-02-18,15:02:39,CHINA,-9.5,-21.5,894.1,1029.3,29.8,7.3,0.01,0.0,110000,50.5,164
525331,2021-02-18,15:02:39,CHINA,-10.9,-14.7,1000.6,988.1,4.6,5.6,0.00,0.0,100000,49.1,187
364390,2021-02-18,15:02:39,KAZAKHSTAN,-16.2,-20.6,997.0,1002.3,37.4,15.5,0.81,2.3,111000,97.8,267
477090,2021-02-18,15:02:39,JAPAN,-1.4,-9.6,998.9,1002.4,9.4,10.5,0.00,0.0,100000,71.5,128
512880,2021-02-18,15:02:39,CHINA,-15.9,-24.6,836.1,838.6,35.2,7.6,0.01,0.0,110000,50.2,188
545340,2021-02-18,15:02:39,CHINA,-5.2,-15.5,1022.3,1026.3,14.6,10.4,0.01,0.0,110000,71.2,91
443730,2021-02-18,15:02:39,MONGOLIA,-11.0,-22.5,854.3,1027.8,45.0,9.3,0.00,0.2,101000,50.5,346
443740,2021-02-18,15:02:39,MONGOLIA,-13.0,-22.0,830.7,1030.6,49.5,14.4,0.00,1.3,101000,69.6,342
508620,2021-02-18,15:02:39,CHINA,-23.9,-28.8,989.0,1009.9,16.9,8.8,0.00,0.0,100000,21.1,350
368700,2021-02-18,15:02:39,KAZAKHSTAN,-2.3,-6.7,978.3,1022.2,8.2,3.7,0.29,2.9,111000,89.4,271
532760,2021-02-18,15:02:39,CHINA,-13.3,-23.9,919.4,1030.2,28.3,19.7,0.01,0.0,110000,76.5,90
353450,2021-02-18,15:02:39,KAZAKHSTAN,-7.4,-10.2,1062.0,1040.2,22.9,11.8,0.00,0.0,100000,42.5,118
475810,2021-02-18,15:02:39,JAPAN,-3.2,-8.4,1016.2,1017.0,19.0,15.5,0.12,6.2,111000,50.6,166
535290,2021-02-18,15:02:39,CHINA,-10.8,-21.0,893.4,1029.7,25.3,10.7,0.21,0.0,110000,50.4,66
475740,2021-02-18,15:02:39,JAPAN,-1.3,-7.9,1014.5,1024.1,30.0,13.7,0.16,0.0,110000,50.4,293
554720,2021-02-18,15:02:39,CHINA,-13.2,-32.6,996.4,993.6,26.2,26.4,0.01,0.0,110000,84.5,314
526740,2021-02-18,15:02:39,CHINA,-11.8,-23.5,801.4,797.0,28.7,10.9,0.01,0.0,110000,50.1,211
518280,2021-02-18,15:02:39,CHINA,-1.3,-12.9,897.8,1024.3,9.7,5.4,0.01,0.0,110000,50.3,249
593530,2021-02-18,15:02:39,TAIWAN,-2.9,-2.7,763.2,1022.0,7.4,5.4,0.00,0.0,100000,96.7,17
471320,2021-02-18,15:02:39,KOREASOUTH,-8.0,-16.6,1003.9,995.6,10.5,1.0,0.00,0.0,100000,46.0,39
538980,2021-02-18,15:02:39,CHINA,-1.8,-11.5,1023.5,1027.2,13.0,7.8,0.03,0.0,110000,50.2,92
25105,2021-02-18,15:02:39,SINGAPORE,-1.0,-3.0,1010.7,998.9,10.7,6.2,0.00,0.0,100000,75.9,270
289570,2021-02-18,15:02:39,KAZAKHSTAN,-7.9,-11.5,1035.5,1028.2,10.3,11.5,0.00,6.8,101000,75.5,213
513340,2021-02-18,15:02:39,CHINA,-8.4,-12.3,1030.5,1032.8,25.8,5.1,0.01,0.0,110000,50.2,166
471290,2021-02-18,15:02:39,KOREASOUTH,-3.2,-8.2,1021.3,1024.0,19.1,8.6,0.03,0.0,110000,58.1,307
526610,2021-02-18,15:02:39,CHINA,-10.3,-26.7,929.3,954.2,69.4,7.9,0.00,0.0,100000,22.4,244
544230,2021-02-18,15:02:39,CHINA,-10.0,-22.0,975.9,1024.6,24.1,5.1,0.00,0.0,100000,22.5,326
527540,2021-02-18,15:02:39,CHINA,-14.3,-27.1,676.2,676.4,24.1,10.6,0.00,0.0,100000,39.0,184
477470,2021-02-18,15:02:39,JAPAN,-1.0,-2.4,1026.8,1027.6,14.8,4.3,0.19,0.0,110000,50.4,280
442320,2021-02-18,15:02:39,MONGOLIA,-27.6,-35.0,1068.6,1049.0,44.8,4.6,0.00,0.0,100000,92.4,327
524180,2021-02-18,15:02:39,CHINA,-7.8,-23.0,917.5,1027.6,27.9,6.2,0.00,0.0,100000,81.3,244
470350,2021-02-18,15:02:39,KOREANORTH,-6.3,-13.4,1034.0,1024.8,16.2,11.6,0.05,0.0,110000,98.5,343
542180,2021-02-18,15:02:39,CHINA,-11.2,-23.5,992.1,1026.4,21.8,9.5,0.01,0.0,110000,50.0,182
470312,2021-02-18,15:02:39,CHINA,-2.1,-10.7,985.4,965.3,5.4,8.2,0.00,0.0,100000,29.3,91
543740,2021-02-18,15:02:39,CHINA,-14.7,-19.2,1005.3,1024.4,15.5,3.6,0.05,0.0,110000,95.6,269
472185,2021-02-18,15:02:39,JAPAN,-4.8,-12.6,985.4,975.1,9.6,19.9,0.00,0.0,100000,74.1,317
543424,2021-02-18,15:02:39,CHINA,-7.2,-15.4,998.6,1001.5,9.5,12.2,0.00,0.0,100000,51.3,234
443520,2021-02-18,15:02:39,MONGOLIA,-15.7,-24.2,1020.3,1029.0,50.0,14.5,0.00,0.0,100000,27.3,201
475200,2021-02-18,15:02:39,JAPAN,-3.2,-7.1,1005.5,1018.6,16.2,11.2,0.15,0.0,110000,50.1,172
353860,2021-02-18,15:02:39,KAZAKHSTAN,-16.4,-19.0,986.9,989.7,17.4,9.4,0.00,0.0,100000,6.2,152
545390,2021-02-18,15:02:39,CHINA,-5.4,-13.5,1024.6,1027.2,18.4,10.8,0.03,0.0,110000,,101
557730,2021-02-18,15:02:39,CHINA,-12.3,-21.8,620.3,621.2,20.0,11.6,0.00,0.0,100000,57.8,139
503530,2021-02-18,15:02:39,CHINA,-13.2,-21.0,998.5,1021.5,19.4,8.4,0.00,0.0,100000,7.6,227
529570,2021-02-18,15:02:39,CHINA,-15.3,-30.8,723.5,726.8,27.1,14.1,0.00,0.0,100000,95.1,31
512320,2021-02-18,15:02:39,CHINA,-8.3,-13.1,1029.2,1032.4,16.1,18.0,0.01,0.0,110000,57.3,116
359530,2021-02-18,15:02:39,KAZAKHSTAN,-7.1,-9.6,1023.5,1029.6,31.5,16.3,0.02,0.0,110000,71.4,225
475840,2021-02-18,15:02:39,JAPAN,-4.3,-9.8,1007.1,1017.5,15.4,10.5,0.13,3.9,111000,50.1,122
535130,2021-02-18,15:02:39,CHINA,-9.7,-20.3,926.6,1029.6,21.3,7.3,0.00,0.0,100000,25.2,358
475900,2021-02-18,15:02:39,JAPAN,-1.1,-6.8,1014.7,1017.7,23.1,12.1,0.25,0.3,111000,50.2,203
475870,2021-02-18,15:02:39,JAPAN,-1.4,-5.6,1013.5,1017.9,15.0,24.1,0.34,4.2,111000,50.4,29
475850,2021-02-18,15:02:39,JAPAN,-3.6,-9.4,1010.6,1017.0,23.8,9.2,0.12,2.8,111000,50.1,331
539150,2021-02-18,15:02:39,CHINA,-5.6,-13.9,907.8,1027.7,22.1,7.4,0.02,0.0,110000,56.3,62
570250,2021-02-18,15:02:39,CHINA,-1.4,-4.3,1037.9,1034.5,6.4,6.9,0.00,0.0,100000,47.0,339
442120,2021-02-18,15:02:39,MONGOLIA,-31.9,-35.9,914.5,1040.7,46.4,2.5,0.00,11.3,101000,79.7,329
544050,2021-02-18,15:02:39,CHINA,-8.0,-21.7,1023.7,1028.0,21.3,12.5,0.01,0.0,110000,55.5,68
442140,2021-02-18,15:02:39,MONGOLIA,-14.6,-24.9,827.1,1027.9,9.2,15.3,0.00,0.0,100000,91.7,237
358490,2021-02-18,15:02:39,KAZAKHSTAN,-5.2,-8.8,1017.1,1024.3,18.1,12.0,0.02,1.1,111000,50.0,91
517650,2021-02-18,15:02:39,CHINA,-8.2,-19.1,939.6,1027.3,28.0,6.0,0.00,0.0,100000,47.2,25
560800,2021-02-18,15:02:39,CHINA,-11.4,-22.0,734.5,733.2,25.3,6.6,0.01,0.0,110000,95.5,158
560790,2021-02-18,15:02:39,CHINA,-12.2,-22.5,665.4,664.9,31.3,8.7,0.02,0.0,110000,50.4,232
476370,2021-02-18,15:02:39,JAPAN,-3.6,-10.6,958.4,1018.2,27.0,9.6,0.18,0.0,110000,93.0,266
581440,2021-02-18,15:02:39,CHINA,-0.4,-7.3,1026.9,1026.4,16.6,9.6,0.08,0.0,110000,50.2,12
524460,2021-02-18,15:02:39,CHINA,-11.1,-25.1,940.0,1033.7,43.3,13.3,0.00,0.0,100000,79.2,107
470610,2021-02-18,15:02:39,KOREANORTH,-2.3,-9.3,1016.1,1020.7,21.1,8.1,0.18,1.2,111000,88.9,244
470650,2021-02-18,15:02:39,KOREANORTH,-5.5,-11.2,1031.6,1024.9,11.7,8.4,0.02,0.0,110000,79.8,251
442410,2021-02-18,15:02:39,MONGOLIA,-21.4,-26.6,1029.9,1033.6,45.7,9.3,0.00,1.9,101000,65.2,158
353630,2021-02-18,15:02:39,KAZAKHSTAN,-8.2,-11.3,1041.7,1040.3,14.1,17.1,0.00,0.0,100000,54.7,275
471270,2021-02-18,15:02:39,KOREASOUTH,-3.7,-8.8,1007.7,1014.4,9.2,8.3,0.01,0.1,111000,50.4,21
172410,2021-02-18,15:02:39,TURKEY,-5.0,-9.4,1012.9,1047.1,10.8,15.3,0.00,0.0,100000,94.8,133
477150,2021-02-18,15:02:39,JAPAN,-0.8,-6.7,1000.6,1003.7,9.3,10.1,0.09,0.6,111000,50.3,303
548570,2021-02-18,15:02:39,CHINA,-1.7,-7.9,1023.7,1026.6,12.3,20.2,0.03,0.0,110000,50.2,31
525760,2021-02-18,15:02:39,CHINA,-9.1,-23.3,852.6,855.3,30.5,17.5,0.00,0.0,100000,24.0,268
443540,2021-02-18,15:02:39,MONGOLIA,-14.1,-21.1,1058.4,1029.3,49.6,17.0,0.00,0.0,100000,46.8,285
547760,2021-02-18,15:02:39,CHINA,-1.0,-7.3,1020.5,1025.8,19.7,23.8,0.07,0.0,110000,76.8,21
539290,2021-02-18,15:02:39,CHINA,-4.0,-6.3,883.8,880.2,7.8,11.7,0.00,0.0,100000,71.6,8
476180,2021-02-18,15:02:39,JAPAN,-4.0,-10.2,976.3,1019.1,13.6,6.7,0.14,1.3,111000,81.8,113
513460,2021-02-18,15:02:39,CHINA,-18.3,-21.8,1068.1,1038.5,57.0,5.4,0.00,0.0,100000,56.6,299
470950,2021-02-18,15:02:39,KOREASOUTH,-6.5,-12.2,1007.6,1024.0,16.2,6.4,0.05,0.0,110000,50.1,94
476120,2021-02-18,15:02:39,JAPAN,-0.6,-4.7,1017.4,1019.3,15.6,10.1,0.57,12.3,111000,50.0,357
509680,2021-02-18,15:02:39,CHINA,-19.0,-24.8,1025.1,1023.8,14.9,10.1,0.03,0.0,110000,51.9,54
476900,2021-02-18,15:02:39,JAPAN,-7.5,-12.8,866.7,866.9,25.3,13.9,0.14,0.0,110000,50.1,215
547250,2021-02-18,15:02:39,CHINA,-3.7,-13.8,1026.5,1026.5,14.3,12.4,0.08,0.0,110000,70.8,180
518860,2021-02-18,15:02:39,CHINA,-12.5,-30.4,701.4,700.8,27.2,12.8,0.00,0.0,100000,42.1,220
471131,2021-02-18,15:02:39,KOREASOUTH,-1.6,-10.6,977.4,985.9,9.0,11.8,0.00,,100000,36.5,81
471130,2021-02-18,15:02:39,KOREASOUTH,-1.5,-8.3,1020.0,1022.4,10.9,7.8,0.00,0.0,100000,58.9,272
531490,2021-02-18,15:02:39,CHINA,-13.2,-23.7,906.0,1030.0,29.0,16.1,0.01,0.0,110000,62.6,296
514310,2021-02-18,15:02:39,CHINA,-4.5,-7.9,976.8,1028.2,31.6,5.6,0.03,0.0,110000,50.5,147
529830,2021-02-18,15:02:39,CHINA,-10.9,-15.4,818.7,835.6,20.7,6.4,0.02,0.0,110000,67.0,324
353210,2021-02-18,15:02:39,KAZAKHSTAN,-14.9,-20.5,1046.8,1037.0,9.1,9.8,0.00,0.0,100000,53.2,69
549160,2021-02-18,15:02:39,CHINA,-2.6,-12.1,1029.1,1026.9,14.7,9.4,0.03,0.0,110000,50.0,136
170671,2021-02-18,15:02:39,TURKEY,-2.2,-4.2,1009.1,997.5,11.7,9.7,0.00,0.0,100000,6.9,318
581020,2021-02-18,15:02:39,CHINA,-0.4,-7.2,1021.5,1026.7,18.3,8.6,0.08,0.0,110000,69.4,231
474300,2021-02-18,15:02:39,JAPAN,-5.7,-10.4,1016.5,1016.6,13.2,12.7,0.09,8.8,111000,97.1,127
474180,2021-02-18,15:02:39,JAPAN,-10.3,-15.4,1011.4,1015.7,20.7,15.4,0.06,5.1,111000,86.7,265
351880,2021-02-18,15:02:39,KAZAKHSTAN,-11.6,-13.8,1028.0,1028.9,16.3,16.5,0.22,1.9,111000,89.8,85
528420,2021-02-18,15:02:39,CHINA,-2.0,-20.6,696.7,692.1,16.9,15.1,0.00,0.0,100000,83.5,28
357960,2021-02-18,15:02:39,KAZAKHSTAN,-8.5,-11.6,1018.5,1033.4,30.3,19.1,0.01,1.6,111000,67.7,295
475150,2021-02-18,15:02:39,JAPAN,-2.4,-7.3,997.3,998.7,10.1,16.4,0.00,0.0,100000,99.5,33
355320,2021-02-18,15:02:39,KAZAKHSTAN,-2.6,-4.6,1013.1,1027.9,15.6,18.7,0.06,15.6,111000,75.6,4
386150,2021-02-18,15:02:39,KYRGYZSTAN,-2.0,-10.2,925.5,1033.6,9.0,7.9,0.00,11.3,101000,50.9,121
355820,2021-02-18,15:02:39,KAZAKHSTAN,-10.8,-13.9,1036.7,1034.9,34.5,15.5,0.02,2.5,111000,67.3,127
478180,2021-02-18,15:02:39,JAPAN,-2.7,-9.1,946.3,1029.3,26.3,13.8,0.00,0.0,100000,50.1,317
538210,2021-02-18,15:02:39,CHINA,-7.6,-18.4,931.5,1029.0,18.4,8.7,0.00,0.0,100000,0.3,93
443470,2021-02-18,15:02:39,MONGOLIA,-7.7,-27.4,861.4,1013.1,37.3,26.6,0.00,0.0,100000,23.8,3
442880,2021-02-18,15:02:39,MONGOLIA,-8.2,-15.2,917.4,1028.6,47.3,12.6,0.02,0.1,111000,50.1,316
537720,2021-02-18,15:02:39,CHINA,-5.9,-18.2,981.9,1028.1,11.2,10.1,0.01,0.0,110000,70.0,149
577760,2021-02-18,15:02:39,CHINA,-0.6,-2.5,977.1,1024.0,8.3,18.8,0.21,0.0,110000,50.8,105
368215,2021-02-18,15:02:39,KAZAKHSTAN,-7.9,-11.5,1020.9,1045.2,9.0,17.2,0.00,0.0,100000,29.2,217
543370,2021-02-18,15:02:39,CHINA,-7.3,-19.0,1024.0,1025.5,12.4,13.7,0.01,0.0,110000,50.5,226
517770,2021-02-18,15:02:39,CHINA,-5.8,-20.3,939.7,1027.2,22.0,8.2,0.00,0.0,100000,50.7,72
471223,2021-02-18,15:02:39,KOREASOUTH,-0.5,-2.5,1010.2,1018.3,4.4,11.8,1.07,0.0,110000,50.1,154
471220,2021-02-18,15:02:39,KOREASOUTH,-4.7,-10.6,1017.1,1018.1,9.8,8.1,0.03,0.3,111000,50.0,13
383530,2021-02-18,15:02:39,KYRGYZSTAN,-2.6,-5.2,995.3,1027.6,5.5,8.1,0.04,0.6,111000,61.0,37
383531,2021-02-18,15:02:39,KYRGYZSTAN,-1.6,-5.4,988.4,975.5,2.0,13.6,0.00,0.0,100000,7.4,133
518180,2021-02-18,15:02:39,CHINA,-2.0,-12.9,976.6,1023.7,15.7,4.8,0.01,0.0,110000,50.7,46
507740,2021-02-18,15:02:39,CHINA,-21.5,-27.5,1013.2,1023.1,10.4,7.0,0.01,0.0,110000,50.0,328
534630,2021-02-18,15:02:39,CHINA,-11.7,-20.6,929.9,1030.4,16.8,7.0,0.01,0.0,110000,50.6,326
561060,2021-02-18,15:02:39,CHINA,-10.7,-22.7,619.1,618.0,27.5,9.2,0.04,0.0,110000,95.8,333
442590,2021-02-18,15:02:39,MONGOLIA,-18.1,-20.6,950.1,1027.6,20.8,10.0,0.02,1.9,111000,50.0,350
470030,2021-02-18,15:02:39,KOREANORTH,-9.8,-16.6,1018.9,1021.9,21.9,10.1,0.06,0.0,110000,67.7,94
474070,2021-02-18,15:02:39,JAPAN,-10.8,-14.0,1007.3,1016.5,9.5,6.6,0.11,20.4,111000,50.5,36
474060,2021-02-18,15:02:39,JAPAN,-8.0,-12.0,1011.2,1015.6,17.7,20.7,0.11,19.6,111000,50.8,73
534460,2021-02-18,15:02:39,CHINA,-12.2,-27.8,995.0,1031.1,13.6,12.6,0.00,0.0,100000,58.8,124
350420,2021-02-18,15:02:39,KAZAKHSTAN,-7.0,-10.2,1025.8,1025.5,16.6,17.7,0.00,6.3,101000,50.1,88
522030,2021-02-18,15:02:39,CHINA,-7.5,-18.1,989.1,1027.9,37.4,7.3,0.00,0.0,100000,80.7,147
504340,2021-02-18,15:02:39,CHINA,-30.5,-33.2,967.4,1027.4,27.3,7.9,0.01,0.0,110000,50.3,351
350530,2021-02-18,15:02:39,KAZAKHSTAN,-7.5,-10.2,1035.1,1033.8,18.8,11.7,0.01,2.5,111000,50.3,290
580270,2021-02-18,15:02:39,CHINA,-0.6,-7.6,1021.3,1026.7,13.9,9.1,0.05,0.0,110000,52.5,300
362080,2021-02-18,15:02:39,KAZAKHSTAN,-24.0,-27.5,1013.6,1026.8,26.7,3.9,0.38,22.6,111000,50.2,228
346910,2021-02-18,15:02:39,KAZAKHSTAN,-3.6,-8.0,1022.2,1023.4,20.5,16.8,0.00,1.4,101000,68.0,24
517160,2021-02-18,15:02:39,CHINA,-2.3,-11.3,910.9,1025.5,18.9,7.2,0.00,0.0,100000,73.6,180
442920,2021-02-18,15:02:39,MONGOLIA,-20.8,-25.8,887.4,1031.3,17.4,5.2,0.00,3.7,101000,61.0,75
583430,2021-02-18,15:02:39,CHINA,-0.2,-5.9,1013.2,1025.8,16.4,10.6,0.00,0.0,100000,97.8,18
475800,2021-02-18,15:02:39,JAPAN,-2.8,-7.5,1004.7,1005.2,11.4,14.0,0.00,1.7,101000,51.8,62
470750,2021-02-18,15:02:39,KOREANORTH,-6.3,-9.5,1027.8,1023.0,23.7,7.7,0.11,0.0,110000,50.6,259
514670,2021-02-18,15:02:39,CHINA,-9.4,-21.7,829.6,831.0,27.7,9.2,0.00,0.0,100000,4.7,115
539470,2021-02-18,15:02:39,CHINA,-2.8,-12.3,949.9,1027.2,12.5,8.5,0.01,0.0,110000,57.5,203
570060,2021-02-18,15:02:39,CHINA,-2.2,-10.7,946.9,1025.4,11.2,5.5,0.01,0.0,110000,50.3,107
549450,2021-02-18,15:02:39,CHINA,-1.4,-8.9,1024.7,1027.0,16.9,12.8,0.09,0.0,110000,50.2,32
507560,2021-02-18,15:02:39,CHINA,-18.7,-23.2,1010.9,1023.2,12.7,9.8,0.00,0.0,100000,23.2,291
561820,2021-02-18,15:02:39,CHINA,-7.2,-16.9,778.5,822.0,28.4,6.6,0.06,0.0,110000,50.5,226
170960,2021-02-18,15:02:39,TURKEY,-3.0,-6.4,890.8,899.4,9.9,9.9,0.04,8.5,111000,66.2,73
534800,2021-02-18,15:02:40,CHINA,-14.4,-24.6,958.0,1030.3,26.1,11.8,0.03,0.0,110000,50.6,235
475570,2021-02-18,15:02:40,JAPAN,-0.7,-7.4,993.0,995.7,9.8,16.5,0.00,0.0,100000,73.3,346
545270,2021-02-18,15:02:40,CHINA,-3.5,-12.6,1026.8,1026.4,10.6,8.6,0.03,0.0,110000,50.0,2
545273,2021-02-18,15:02:40,CHINA,-1.7,-10.9,1000.4,998.4,6.8,11.9,0.00,0.0,100000,8.4,211
530830,2021-02-18,15:02:40,CHINA,-19.8,-24.7,965.1,1031.2,29.2,12.8,0.01,0.0,110000,64.7,222
561250,2021-02-18,15:02:40,CHINA,-9.1,-23.8,650.0,654.8,23.5,7.6,0.03,0.0,110000,94.8,43
471131,2021-02-18,15:02:40,KOREASOUTH,-1.7,-11.3,977.4,985.6,9.0,11.7,0.00,0.0,100000,36.5,81
471130,2021-02-18,15:02:40,KOREASOUTH,-1.5,-8.3,1020.0,1022.4,11.0,7.8,0.00,0.0,100000,58.9,273
531490,2021-02-18,15:02:40,CHINA,-13.2,-25.1,905.9,1030.0,29.0,16.1,0.01,0.0,110000,62.7,297
289780,2021-02-18,15:02:40,KAZAKHSTAN,-11.4,-12.5,969.2,1022.4,17.0,10.8,0.00,0.0,100000,31.2,275
529080,2021-02-18,15:02:40,CHINA,-20.3,-31.6,999.9,1006.5,27.3,21.2,0.00,0.0,100000,93.4,196
474790,2021-02-18,15:02:40,JAPAN,-8.5,-13.3,1000.8,1000.7,8.1,13.7,0.00,0.0,100000,77.6,78
443730,2021-02-18,15:02:40,MONGOLIA,-11.5,-22.5,854.3,1027.8,45.1,9.4,0.00,0.2,101000,50.6,345
443740,2021-02-18,15:02:40,MONGOLIA,-13.7,-22.0,830.7,1030.6,49.5,14.3,0.00,1.3,101000,69.6,341
561370,2021-02-18,15:02:40,CHINA,-5.5,-21.8,715.8,711.9,25.4,4.8,0.01,0.0,110000,50.0,109
543110,2021-02-18,15:02:40,CHINA,-12.2,-24.5,970.7,1028.1,28.2,6.6,0.01,0.0,110000,54.1,77
471610,2021-02-18,15:02:40,KOREASOUTH,-2.0,-9.5,999.2,994.7,10.7,7.3,0.03,0.0,110000,50.1,55
552790,2021-02-18,15:02:40,CHINA,-12.0,-29.7,996.5,997.7,27.7,18.6,0.01,0.0,110000,50.1,291
381411,2021-02-18,15:02:40,KAZAKHSTAN,-7.5,-8.8,1006.2,987.3,6.4,17.4,0.00,0.0,100000,90.7,87
381410,2021-02-18,15:02:40,UZBEKISTAN,-1.1,-4.8,1004.6,1020.9,18.6,13.0,0.00,0.0,100000,30.6,357
561060,2021-02-18,15:02:40,CHINA,-10.7,-21.3,619.1,618.0,27.5,9.1,0.04,0.0,110000,95.9,333
528360,2021-02-18,15:02:40,CHINA,-9.9,-25.1,687.5,687.0,27.7,9.8,0.06,0.0,110000,50.5,116
381780,2021-02-18,15:02:40,UZBEKISTAN,-1.3,-6.4,1010.5,1025.1,14.5,10.5,0.00,0.0,100000,6.2,168
529830,2021-02-18,15:02:40,CHINA,-10.4,-15.4,818.7,835.6,20.8,6.4,0.02,0.0,110000,67.0,324
287850,2021-02-18,15:02:40,KAZAKHSTAN,-8.5,-9.6,1031.0,1021.0,16.5,4.2,0.00,13.2,101000,77.4,168
471430,2021-02-18,15:02:40,KOREASOUTH,-0.7,-9.2,1016.1,1023.0,18.4,10.1,0.06,0.1,111000,50.0,20
471140,2021-02-18,15:02:40,KOREASOUTH,-4.7,-11.8,1008.0,1023.9,14.7,4.7,0.08,0.0,110000,97.0,257
514950,2021-02-18,15:02:40,CHINA,-8.3,-20.9,990.2,1032.5,35.0,26.5,0.01,0.0,110000,50.6,333
357390,2021-02-18,15:02:40,KAZAKHSTAN,-4.9,-9.5,1041.8,1029.5,46.3,14.8,0.00,1.3,101000,50.3,38
556640,2021-02-18,15:02:40,CHINA,-12.3,-31.6,601.9,600.7,28.5,12.3,0.00,0.0,100000,44.3,351
365350,2021-02-18,15:02:40,KAZAKHSTAN,-4.9,-17.8,1069.6,1040.1,45.5,7.0,0.00,0.0,100000,87.2,140
474280,2021-02-18,15:02:40,JAPAN,-3.3,-8.7,1012.1,1015.8,19.2,25.4,0.15,0.0,110000,50.5,123
477420,2021-02-18,15:02:40,JAPAN,-1.2,-3.6,1026.9,1027.7,17.2,3.3,0.00,0.0,100000,56.2,354
386090,2021-02-18,15:02:40,TAJIKISTAN,-2.3,-7.7,925.0,1028.1,16.9,10.0,0.00,0.0,100000,82.9,120
475760,2021-02-18,15:02:40,JAPAN,-4.6,-8.9,1016.9,1017.5,21.1,10.7,0.11,0.0,110000,76.9,285
577760,2021-02-18,15:02:40,CHINA,-0.5,-2.5,977.1,1024.0,8.2,18.7,0.21,0.0,110000,50.8,104
368215,2021-02-18,15:02:40,KAZAKHSTAN,-7.9,-11.5,1020.8,1045.1,9.0,17.1,0.00,0.0,100000,29.3,217
542590,2021-02-18,15:02:40,CHINA,-13.2,-19.8,1025.0,1025.8,15.7,7.4,0.04,0.0,110000,91.0,251
471000,2021-02-18,15:02:40,KOREASOUTH,-7.9,-13.8,922.8,1024.3,13.6,15.3,0.19,13.0,111000,50.3,296
470980,2021-02-18,15:02:40,KOREASOUTH,-5.2,-14.4,1010.5,1024.6,13.0,6.8,0.00,0.0,100000,82.3,64
471010,2021-02-18,15:02:40,KOREASOUTH,-5.3,-11.0,1017.9,1023.5,18.3,5.1,0.04,0.6,111000,59.1,309
471020,2021-02-18,15:02:40,KOREASOUTH,-0.2,-6.4,1004.1,1023.8,12.0,17.5,0.00,0.0,100000,49.9,17
470030,2021-02-18,15:02:40,KOREANORTH,-9.8,-16.6,1018.9,1021.9,22.0,10.2,0.06,0.0,110000,67.7,94
350420,2021-02-18,15:02:40,KAZAKHSTAN,-7.7,-11.4,1025.8,1025.6,16.7,17.6,0.00,6.3,101000,50.1,89
522030,2021-02-18,15:02:40,CHINA,-7.5,-18.1,989.1,1027.9,37.5,7.3,0.00,0.0,100000,80.7,148
477150,2021-02-18,15:02:40,JAPAN,-0.8,-5.7,1000.5,1003.7,9.4,10.2,0.09,0.6,111000,50.3,303
476040,2021-02-18,15:02:40,JAPAN,-0.1,-4.6,1019.2,1018.8,14.8,15.2,0.21,6.1,111000,50.2,36
517110,2021-02-18,15:02:40,CHINA,-6.7,-14.6,801.1,805.2,24.8,8.8,0.02,0.0,110000,50.7,129
560040,2021-02-18,15:02:40,CHINA,-20.0,-32.4,1001.3,1001.2,30.1,19.7,0.00,0.0,100000,77.4,136
470600,2021-02-18,15:02:40,KOREANORTH,-4.3,-9.6,1028.4,1024.4,9.9,12.9,0.04,0.0,110000,50.3,205
524240,2021-02-18,15:02:40,CHINA,-10.5,-23.7,900.0,1030.2,25.4,14.5,0.01,0.0,110000,50.6,53
383450,2021-02-18,15:02:40,KYRGYZSTAN,-2.1,-5.4,895.5,896.0,20.2,3.9,0.00,1.8,101000,70.9,9
383430,2021-02-18,15:02:40,KAZAKHSTAN,-0.9,-2.6,939.9,1025.5,9.9,4.1,0.00,2.6,101000,93.2,16
749347,2021-02-18,15:02:40,CHINA,-3.4,-7.5,1035.2,1037.9,10.9,9.7,0.00,0.0,100000,69.0,323
749348,2021-02-18,15:02:40,CHINA,-6.8,-21.5,1032.4,1037.1,63.2,2.6,0.00,0.0,100000,75.9,197
442770,2021-02-18,15:02:40,MONGOLIA,-25.3,-30.0,996.6,1028.4,49.1,17.8,0.00,0.0,100000,27.5,124
471170,2021-02-18,15:02:40,KOREASOUTH,-1.0,-7.3,1000.2,986.0,8.6,5.2,0.01,0.0,110000,50.4,71
564620,2021-02-18,15:02:40,CHINA,-1.9,-14.7,754.5,754.1,33.9,12.0,0.01,0.0,110000,50.1,83
474340,2021-02-18,15:02:40,JAPAN,-10.9,-13.8,1002.8,1010.8,11.0,11.3,0.01,6.3,111000,54.7,271
474350,2021-02-18,15:02:40,JAPAN,-7.1,-11.8,1017.3,1019.5,38.2,12.0,0.16,0.0,110000,50.0,90
545870,2021-02-18,15:02:40,CHINA,-3.5,-10.5,1029.0,1024.9,27.8,22.5,0.26,0.0,110000,95.6,98
548630,2021-02-18,15:02:40,CHINA,-3.1,-11.9,1026.5,1026.4,19.7,14.0,0.03,0.0,110000,50.3,342
507450,2021-02-18,15:02:40,CHINA,-16.7,-24.1,1015.0,1023.0,11.3,10.8,0.01,0.0,110000,51.0,221
475920,2021-02-18,15:02:40,JAPAN,-1.4,-6.6,1015.3,1018.1,19.6,12.7,0.17,0.9,111000,87.1,75
535430,2021-02-18,15:02:40,CHINA,-10.1,-20.5,883.3,1029.8,22.9,11.9,0.01,0.0,110000,62.3,213
527070,2021-02-18,15:02:40,CHINA,-13.7,-30.2,725.5,721.6,21.3,11.4,0.00,0.0,100000,44.5,244
554720,2021-02-18,15:02:40,CHINA,-13.5,-31.1,996.3,993.7,26.3,26.2,0.01,0.0,110000,84.5,314
531920,2021-02-18,15:02:40,CHINA,-18.9,-24.9,918.0,1033.1,31.1,10.2,0.01,0.0,110000,63.4,239
546020,2021-02-18,15:02:40,CHINA,-3.5,-13.1,1022.0,1026.4,11.0,7.7,0.03,0.0,110000,64.9,213
474200,2021-02-18,15:02:40,JAPAN,-7.2,-11.9,1012.2,1015.2,20.7,14.9,0.06,3.8,111000,50.5,283
351910,2021-02-18,15:02:40,KAZAKHSTAN,-11.1,-18.9,1060.9,1042.6,36.8,12.4,0.00,0.0,100000,8.5,61
516560,2021-02-18,15:02:40,CHINA,-3.9,-17.2,932.8,1027.0,18.5,9.1,0.00,0.0,100000,11.8,126
353450,2021-02-18,15:02:40,KAZAKHSTAN,-7.4,-10.2,1062.1,1040.3,22.9,11.8,0.00,0.0,100000,42.5,118
475810,2021-02-18,15:02:40,JAPAN,-3.4,-8.4,1016.2,1017.0,19.0,15.4,0.12,6.2,111000,50.6,166
535290,2021-02-18,15:02:40,CHINA,-10.8,-21.0,893.4,1029.7,25.4,10.8,0.21,0.0,110000,50.5,66
475740,2021-02-18,15:02:40,JAPAN,-1.3,-7.9,1014.4,1024.1,29.9,13.6,0.16,0.0,110000,50.5,292
547760,2021-02-18,15:02:40,CHINA,-1.0,-6.8,1020.5,1025.8,19.6,24.0,0.07,0.0,110000,76.8,22
381980,2021-02-18,15:02:40,KAZAKHSTAN,-2.4,-5.9,1030.4,1026.3,21.5,8.3,0.32,0.4,111000,62.7,171
504340,2021-02-18,15:02:40,CHINA,-29.8,-35.5,967.4,1027.4,27.2,7.8,0.01,0.0,110000,50.3,350
350530,2021-02-18,15:02:40,KAZAKHSTAN,-7.5,-11.5,1035.2,1033.8,18.8,11.6,0.01,2.5,111000,50.3,290
580270,2021-02-18,15:02:40,CHINA,-0.5,-7.6,1021.3,1026.7,13.9,9.0,0.05,0.0,110000,52.5,300
471064,2021-02-18,15:02:40,KOREASOUTH,-10.4,-14.0,1001.3,1011.1,10.7,9.9,0.00,0.0,100000,52.1,83
471066,2021-02-18,15:02:40,KOREASOUTH,-4.9,-11.0,1007.9,1002.4,8.9,5.7,0.00,0.0,100000,99.1,51
471050,2021-02-18,15:02:40,KOREASOUTH,-0.9,-9.6,1016.6,1021.8,20.5,11.9,0.18,1.4,111000,92.3,249
540960,2021-02-18,15:02:40,CHINA,-15.5,-22.7,1022.9,1023.1,17.5,12.3,0.03,0.0,110000,50.2,13
514310,2021-02-18,15:02:40,CHINA,-5.0,-7.9,976.8,1028.2,31.5,5.5,0.03,0.0,110000,50.5,147
474110,2021-02-18,15:02:40,JAPAN,-1.7,-10.8,1012.9,1016.1,19.3,12.4,0.21,0.0,110000,50.0,199
474090,2021-02-18,15:02:40,JAPAN,-10.2,-13.8,1013.7,1016.1,22.6,9.5,0.04,9.9,111000,50.5,155
353630,2021-02-18,15:02:40,KAZAKHSTAN,-9.0,-11.3,1041.5,1040.3,14.2,17.2,0.00,0.0,100000,54.8,275
474130,2021-02-18,15:02:40,JAPAN,-6.9,-10.1,1008.2,1014.6,17.0,9.6,0.03,0.0,110000,50.1,280
474170,2021-02-18,15:02:40,JAPAN,-15.4,-18.8,1009.8,1015.1,10.3,5.8,0.04,0.0,110000,51.1,263
442840,2021-02-18,15:02:40,MONGOLIA,-28.1,-31.6,787.4,1046.4,49.9,2.3,0.00,4.5,101000,67.8,103
387130,2021-02-18,15:02:40,TAJIKISTAN,-3.6,-8.9,996.0,1020.2,42.9,6.6,0.00,5.0,101000,55.6,15
560180,2021-02-18,15:02:40,CHINA,-12.1,-22.9,627.0,632.9,26.3,8.5,0.02,0.0,110000,85.9,170
560340,2021-02-18,15:02:40,CHINA,-21.8,-32.2,600.9,595.9,22.6,17.3,0.02,0.0,110000,50.1,215
471223,2021-02-18,15:02:40,KOREASOUTH,-0.5,-2.5,1010.4,1018.2,4.3,11.7,1.07,0.0,110000,50.1,155
471220,2021-02-18,15:02:40,KOREASOUTH,-4.6,-10.6,1017.1,1018.2,9.8,8.2,0.03,0.3,111000,50.0,12
509150,2021-02-18,15:02:40,CHINA,-19.9,-26.2,945.3,1029.6,29.3,,0.02,0.0,110000,52.6,150
504680,2021-02-18,15:02:40,CHINA,-21.6,-25.4,1011.4,1023.4,21.2,9.3,0.01,0.0,110000,86.8,326
524950,2021-02-18,15:02:40,CHINA,-12.2,-25.1,903.3,1030.9,26.2,12.4,0.00,0.0,100000,88.1,134
475870,2021-02-18,15:02:40,JAPAN,-1.4,-6.2,1013.4,1017.9,15.0,24.2,0.34,4.2,111000,50.4,29
475850,2021-02-18,15:02:40,JAPAN,-3.6,-10.3,1010.6,1017.0,23.9,9.3,0.12,2.8,111000,50.0,331
442920,2021-02-18,15:02:40,MONGOLIA,-20.8,-23.9,887.4,1031.3,17.3,5.3,0.00,3.7,101000,61.0,75
477560,2021-02-18,15:02:40,JAPAN,-0.7,-5.3,1001.3,1019.8,12.7,5.0,0.44,0.0,110000,58.7,157
170671,2021-02-18,15:02:40,TURKEY,-2.2,-4.2,1009.2,997.3,11.6,9.6,0.00,0.0,100000,7.0,317
555910,2021-02-18,15:02:40,CHINA,-3.3,-25.7,676.7,675.6,29.8,9.5,0.00,0.0,100000,80.6,342
540490,2021-02-18,15:02:40,CHINA,-14.0,-23.3,1025.9,1024.1,19.3,11.8,0.01,0.0,110000,50.0,23
560290,2021-02-18,15:02:40,CHINA,-8.4,-21.4,645.7,645.7,29.3,4.2,0.01,0.0,110000,71.4,301
549450,2021-02-18,15:02:40,CHINA,-1.4,-9.7,1024.7,1027.0,16.9,12.7,0.09,0.0,110000,50.1,32
478920,2021-02-18,15:02:40,JAPAN,-0.1,-9.2,1026.1,1028.5,27.1,9.4,0.00,0.0,100000,94.8,326
366220,2021-02-18,15:02:40,KAZAKHSTAN,-7.3,-11.3,1034.1,1037.4,42.8,13.8,0.02,6.3,111000,51.8,127
523130,2021-02-18,15:02:40,CHINA,-12.6,-24.3,924.6,894.9,59.2,2.9,0.00,0.0,100000,9.3,188
357960,2021-02-18,15:02:40,KAZAKHSTAN,-8.4,-12.7,1018.5,1033.4,30.4,19.1,0.01,1.6,111000,67.7,295
570140,2021-02-18,15:02:40,CHINA,-5.9,-9.8,1015.2,1034.8,11.7,6.5,0.00,0.0,100000,73.9,191
386150,2021-02-18,15:02:40,KYRGYZSTAN,-2.0,-10.2,925.5,1033.6,8.9,7.9,0.00,11.3,101000,51.0,121
355820,2021-02-18,15:02:40,KAZAKHSTAN,-10.7,-13.9,1036.7,1035.0,34.5,15.4,0.02,2.5,111000,67.3,127
478180,2021-02-18,15:02:40,JAPAN,-2.6,-10.3,946.3,1029.3,26.4,13.8,0.00,0.0,100000,50.1,318
508880,2021-02-18,15:02:40,CHINA,-15.6,-22.3,1016.1,1022.1,23.4,12.5,0.01,0.0,110000,91.0,333
355420,2021-02-18,15:02:40,KAZAKHSTAN,-13.5,-15.5,1026.9,1029.0,12.4,14.8,0.48,2.1,111000,76.4,238
476240,2021-02-18,15:02:40,JAPAN,-0.5,-8.6,1009.6,1017.8,27.0,13.1,0.08,0.2,111000,50.1,327
585060,2021-02-18,15:02:40,CHINA,-1.0,-4.8,977.8,1026.8,12.2,14.7,0.19,0.0,110000,94.1,222
541350,2021-02-18,15:02:40,CHINA,-12.7,-23.0,1018.4,1024.7,25.6,14.9,0.01,0.0,110000,51.7,186
361860,2021-02-18,15:02:40,KAZAKHSTAN,-5.0,-7.2,1023.0,1025.7,12.0,2.8,0.00,0.0,100000,32.6,202
539150,2021-02-18,15:02:40,CHINA,-5.5,-15.1,907.8,1027.7,22.1,7.3,0.02,0.0,110000,56.3,62
570250,2021-02-18,15:02:40,CHINA,-1.4,-4.9,1038.1,1034.5,6.3,6.9,0.00,0.0,100000,47.0,339
518180,2021-02-18,15:02:40,CHINA,-1.2,-11.8,976.6,1023.7,15.7,4.8,0.01,0.0,110000,50.6,45
443850,2021-02-18,15:02:40,MONGOLIA,-8.5,-19.6,896.4,1029.6,50.8,16.7,0.00,0.0,100000,14.7,38
287660,2021-02-18,15:02:40,KAZAKHSTAN,-6.8,-9.6,1016.8,1025.5,11.3,14.2,0.01,4.5,111000,85.4,278
513340,2021-02-18,15:02:40,CHINA,-8.4,-12.3,1030.5,1032.8,25.8,5.1,0.01,0.0,110000,50.2,166
475200,2021-02-18,15:02:40,JAPAN,-3.0,-7.1,1005.6,1018.6,16.3,11.3,0.15,0.0,110000,50.1,172
353860,2021-02-18,15:02:40,KAZAKHSTAN,-16.4,-19.8,986.7,989.5,17.5,9.5,0.00,0.0,100000,6.2,153
477470,2021-02-18,15:02:40,JAPAN,-1.0,-3.0,1026.7,1027.6,14.9,4.3,0.19,0.0,110000,50.5,281
470080,2021-02-18,15:02:40,KOREANORTH,-7.1,-12.4,1015.8,1022.0,12.0,8.3,0.01,0.0,110000,72.9,242
517160,2021-02-18,15:02:40,CHINA,-2.3,-10.0,910.9,1025.5,18.8,7.2,0.00,0.0,100000,73.5,179
359530,2021-02-18,15:02:40,KAZAKHSTAN,-6.9,-9.6,1023.6,1029.6,31.4,16.2,0.02,0.0,110000,71.4,225
514670,2021-02-18,15:02:40,CHINA,-9.1,-23.0,829.6,831.0,27.7,9.2,0.00,0.0,100000,4.6,114
539470,2021-02-18,15:02:40,CHINA,-3.0,-12.3,949.9,1027.2,12.6,8.6,0.01,0.0,110000,57.5,203
570060,2021-02-18,15:02:40,CHINA,-2.2,-10.7,946.9,1025.4,11.2,5.5,0.01,0.0,110000,50.2,107
581500,2021-02-18,15:02:40,CHINA,-0.7,-5.0,1028.2,1026.6,13.9,11.0,0.12,0.0,110000,56.3,316
528250,2021-02-18,15:02:40,CHINA,-10.3,-27.9,724.2,719.1,23.4,11.5,0.00,0.0,100000,78.0,131
474020,2021-02-18,15:02:40,JAPAN,-12.3,-14.9,1016.8,1017.9,21.5,10.1,0.11,0.0,110000,58.7,90
474010,2021-02-18,15:02:40,JAPAN,-7.3,-11.7,1011.3,1015.8,18.1,13.8,0.16,16.7,111000,90.5,199
478140,2021-02-18,15:02:40,JAPAN,-0.1,-5.4,1011.4,1021.9,15.0,5.7,0.24,0.0,110000,50.0,226
355760,2021-02-18,15:02:40,KAZAKHSTAN,-11.5,-14.7,1014.2,1035.4,21.5,11.3,0.00,6.2,101000,52.1,255
25105,2021-02-18,15:02:40,SINGAPORE,-1.0,-3.9,1010.8,998.7,10.7,6.3,0.00,0.0,100000,75.8,270
289570,2021-02-18,15:02:40,KAZAKHSTAN,-7.9,-11.5,1035.4,1028.1,10.2,11.6,0.00,6.8,101000,75.5,213
383340,2021-02-18,15:02:40,KAZAKHSTAN,-1.9,-6.0,927.1,1024.4,12.0,10.4,0.00,4.7,101000,73.2,151
555780,2021-02-18,15:02:40,CHINA,-7.7,-29.6,635.7,635.5,29.2,7.2,0.00,0.0,100000,66.9,233
535640,2021-02-18,15:02:40,CHINA,-10.8,-21.7,936.4,1030.3,18.7,6.3,0.00,0.0,100000,7.7,81
476410,2021-02-18,15:02:40,JAPAN,-1.1,-7.8,989.4,1018.1,21.0,6.6,0.08,0.0,110000,50.4,284
476390,2021-02-18,15:02:40,JAPAN,-21.1,-27.0,1001.8,997.7,48.9,82.3,0.00,0.0,100000,5.8,237
511330,2021-02-18,15:02:40,CHINA,-3.0,-9.0,992.6,1033.3,32.1,7.4,0.04,0.0,110000,59.8,174
475750,2021-02-18,15:02:40,JAPAN,-3.3,-7.8,1020.6,1017.6,14.6,13.5,0.19,22.8,111000,60.9,221
510870,2021-02-18,15:02:40,CHINA,-9.1,-16.3,931.2,1032.3,23.4,6.2,0.00,0.0,100000,56.9,19
354970,2021-02-18,15:02:40,KAZAKHSTAN,-7.2,-12.5,983.2,1035.3,31.4,11.8,0.02,7.5,111000,50.6,202
383530,2021-02-18,15:02:40,KYRGYZSTAN,-2.3,-5.2,995.4,1027.6,5.5,8.0,0.04,0.6,111000,61.1,37
383531,2021-02-18,15:02:40,KYRGYZSTAN,-0.4,-5.4,988.3,975.0,2.0,13.5,0.00,0.0,100000,7.4,134
354160,2021-02-18,15:02:40,KAZAKHSTAN,-7.4,-10.3,1024.7,1027.4,7.6,17.3,0.03,5.6,111000,54.7,71
535020,2021-02-18,15:02:40,CHINA,-10.4,-21.9,979.9,1029.4,22.6,11.4,0.00,0.0,100000,46.4,177
442190,2021-02-18,15:02:40,MONGOLIA,-10.6,-21.5,850.8,1015.0,19.1,6.3,0.00,0.0,100000,27.2,215
357910,2021-02-18,15:02:40,KAZAKHSTAN,-13.1,-16.5,1035.1,1036.5,40.4,6.3,0.03,2.4,111000,79.3,140
343980,2021-02-18,15:02:40,KAZAKHSTAN,-8.1,-10.7,1016.2,1015.7,17.6,16.0,0.00,5.6,101000,82.8,170
541860,2021-02-18,15:02:40,CHINA,-16.0,-23.3,1013.5,1024.6,18.8,10.1,0.03,0.0,110000,50.1,142
524410,2021-02-18,15:02:40,CHINA,-14.2,-27.0,845.1,847.5,43.0,17.2,0.00,0.0,100000,78.4,354
516440,2021-02-18,15:02:40,CHINA,-2.7,-11.4,923.6,1028.1,22.8,7.4,0.01,0.0,110000,50.0,80
475150,2021-02-18,15:02:40,JAPAN,-2.6,-6.7,997.3,998.7,10.0,16.3,0.00,0.0,100000,99.5,33
475970,2021-02-18,15:02:40,JAPAN,-2.8,-10.2,974.2,1018.3,23.8,14.8,0.11,0.0,110000,69.5,290
471920,2021-02-18,15:02:40,KOREASOUTH,-2.2,-10.4,1022.5,1022.5,21.3,6.8,0.06,0.0,110000,50.0,79
576220,2021-02-18,15:02:40,CHINA,-3.3,-4.3,842.1,837.9,3.1,10.6,0.15,0.0,110000,50.2,168
560670,2021-02-18,15:02:40,CHINA,-13.0,-23.9,650.5,646.5,20.0,12.5,0.00,0.0,100000,25.7,102
527540,2021-02-18,15:02:40,CHINA,-13.8,-28.6,676.2,676.3,24.0,10.5,0.00,0.0,100000,39.0,184
541610,2021-02-18,15:02:40,CHINA,-13.3,-21.1,1014.6,1024.0,12.4,13.4,0.02,0.0,110000,50.6,134
541611,2021-02-18,15:02:40,CHINA,-4.2,-26.3,1008.8,1007.6,9.8,17.4,0.00,0.0,100000,18.6,287
541570,2021-02-18,15:02:40,CHINA,-12.3,-19.2,1021.2,1024.3,14.6,10.7,0.04,0.0,110000,50.2,325
561440,2021-02-18,15:02:40,CHINA,-4.7,-22.3,683.3,684.3,35.2,4.7,0.00,0.0,100000,73.3,217
548570,2021-02-18,15:02:40,CHINA,-1.7,-7.9,1023.7,1026.6,12.4,20.1,0.03,0.0,110000,50.2,31
557730,2021-02-18,15:02:40,CHINA,-12.3,-21.8,620.3,621.2,19.9,11.7,0.00,0.0,100000,57.8,139
503530,2021-02-18,15:02:40,CHINA,-14.3,-23.4,998.6,1021.5,19.4,8.4,0.00,0.0,100000,7.6,226
536460,2021-02-18,15:02:40,CHINA,-3.2,-19.5,928.0,1029.2,17.8,9.7,0.01,0.0,110000,50.7,20
475880,2021-02-18,15:02:40,JAPAN,-3.6,-6.5,998.2,1017.2,11.0,6.8,0.07,0.0,110000,50.7,258
470990,2021-02-18,15:02:40,KOREASOUTH,-6.5,-14.3,1020.6,1024.6,11.6,5.6,0.01,0.0,110000,50.5,2
471030,2021-02-18,15:02:40,KOREASOUTH,-2.5,-6.3,1014.4,1022.6,12.1,21.1,0.00,0.0,100000,65.3,339
471025,2021-02-18,15:02:40,KOREASOUTH,-2.7,-8.6,1013.2,1022.3,11.6,4.3,0.00,0.0,100000,64.2,199
501360,2021-02-18,15:02:40,CHINA,-26.6,-33.9,968.2,1025.9,20.3,8.1,0.00,0.0,100000,10.4,0
507880,2021-02-18,15:02:40,CHINA,-17.1,-23.7,1023.1,1020.5,20.5,13.1,0.01,0.0,110000,50.4,268
470350,2021-02-18,15:02:40,KOREANORTH,-6.3,-14.4,1034.0,1024.8,16.1,11.7,0.05,0.0,110000,98.6,343
542180,2021-02-18,15:02:40,CHINA,-12.0,-23.5,992.0,1026.4,21.7,9.6,0.01,0.0,110000,50.0,182
357000,2021-02-18,15:02:40,KAZAKHSTAN,-3.1,-7.2,1025.2,1023.0,16.4,18.8,0.01,0.4,111000,50.2,171
288790,2021-02-18,15:02:40,KAZAKHSTAN,-11.7,-15.7,1033.6,1031.1,9.9,17.3,0.00,0.9,101000,50.2,218
288770,2021-02-18,15:02:40,KAZAKHSTAN,-5.5,-10.8,1025.0,1022.8,14.7,12.3,0.03,1.9,111000,78.7,35
478210,2021-02-18,15:02:40,JAPAN,-5.4,-9.9,892.3,899.3,29.3,12.7,0.00,0.0,100000,14.8,175
509780,2021-02-18,15:02:40,CHINA,-15.2,-22.9,1009.2,1022.3,26.6,12.6,0.01,0.0,110000,50.2,175
584450,2021-02-18,15:02:40,CHINA,-4.4,-11.3,875.3,947.0,15.6,20.3,0.19,0.0,110000,50.1,316
474740,2021-02-18,15:02:40,JAPAN,-11.4,-20.0,1004.2,1012.2,10.3,9.7,0.00,0.0,100000,63.3,70
476400,2021-02-18,15:02:40,JAPAN,-7.9,-17.5,920.4,914.7,30.5,5.4,0.00,0.0,100000,45.7,287
353020,2021-02-18,15:02:40,KAZAKHSTAN,-7.3,-11.6,1050.8,1035.0,19.9,18.4,0.00,0.0,100000,3.4,135
470670,2021-02-18,15:02:40,KOREANORTH,-6.8,-11.6,1044.9,1024.9,15.6,7.5,0.00,0.0,100000,97.9,54
542260,2021-02-18,15:02:40,CHINA,-10.4,-23.6,1022.6,1026.0,25.5,15.0,0.01,0.0,110000,87.7,130
470680,2021-02-18,15:02:40,KOREANORTH,-4.7,-10.1,1030.9,1024.8,16.0,11.5,0.01,0.0,110000,50.0,172
369820,2021-02-18,15:02:40,KYRGYZSTAN,-21.3,-25.6,646.3,646.5,43.0,9.7,0.00,0.0,100000,64.0,266
562570,2021-02-18,15:02:40,CHINA,-3.1,-20.9,684.5,683.3,37.5,7.9,0.00,0.0,100000,64.0,262
355320,2021-02-18,15:02:40,KAZAKHSTAN,-2.5,-4.1,1013.4,1027.9,15.7,18.6,0.06,15.6,111000,75.6,4
471750,2021-02-18,15:02:40,KOREASOUTH,-0.8,-7.5,965.7,1024.1,13.7,21.5,0.06,0.0,110000,94.9,276
470250,2021-02-18,15:02:40,KOREANORTH,-4.8,-9.4,1015.1,1021.3,10.5,8.4,0.27,0.0,110000,50.5,13
570710,2021-02-18,15:02:40,CHINA,-0.6,-10.1,1028.2,1027.9,13.4,10.9,0.06,0.0,110000,50.6,73
356990,2021-02-18,15:02:40,KAZAKHSTAN,-6.4,-15.4,958.4,1039.0,28.0,0.6,0.00,4.5,101000,50.9,128
477090,2021-02-18,15:02:40,JAPAN,-1.5,-9.6,998.9,1002.4,9.3,10.6,0.00,0.0,100000,71.6,127
471270,2021-02-18,15:02:40,KOREASOUTH,-3.4,-9.9,1007.7,1014.4,9.2,8.2,0.01,0.1,111000,50.3,21
172410,2021-02-18,15:02:40,TURKEY,-4.7,-8.8,1012.9,1047.1,10.9,15.2,0.00,0.0,100000,94.9,133
471074,2021-02-18,15:02:40,KOREASOUTH,-2.8,-6.3,1008.0,1025.9,9.5,18.9,0.00,0.0,100000,99.2,331
471087,2021-02-18,15:02:40,KOREASOUTH,-4.5,-15.3,1006.9,984.6,11.1,11.2,0.00,0.0,100000,32.9,321
471080,2021-02-18,15:02:40,KOREASOUTH,-3.1,-9.2,1019.3,1023.7,11.3,9.0,0.03,0.1,111000,85.4,294
471120,2021-02-18,15:02:40,KOREASOUTH,-2.7,-9.0,1018.4,1023.5,15.8,12.2,0.04,0.0,110000,51.2,44
506320,2021-02-18,15:02:40,CHINA,-19.6,-25.1,983.0,1024.4,27.7,10.3,0.02,0.0,110000,50.3,166
577070,2021-02-18,15:02:40,CHINA,-0.4,-2.4,852.3,854.3,9.3,3.0,0.03,0.0,110000,80.4,45
516280,2021-02-18,15:02:40,CHINA,-1.7,-7.0,998.8,1030.7,19.3,4.2,0.00,0.0,100000,53.2,159
470500,2021-02-18,15:02:40,KOREANORTH,-7.5,-12.5,1027.3,1023.9,14.8,7.2,0.08,0.0,110000,91.1,208
288670,2021-02-18,15:02:40,KAZAKHSTAN,-15.3,-20.1,997.3,1033.5,20.6,8.2,0.00,26.3,101000,85.6,72
470200,2021-02-18,15:02:40,KOREANORTH,-11.4,-19.1,1016.0,1028.8,10.6,3.9,0.00,0.0,100000,47.9,347
517470,2021-02-18,15:02:40,CHINA,-7.5,-18.0,893.8,1025.7,19.3,3.7,0.00,0.0,100000,35.6,53
470520,2021-02-18,15:02:40,KOREANORTH,-7.9,-11.7,1034.1,1028.5,13.7,4.6,0.00,0.0,100000,78.3,106
564440,2021-02-18,15:02:40,CHINA,-3.8,-11.1,734.6,734.9,23.3,10.8,0.04,0.0,110000,50.8,309
514635,2021-02-18,15:02:40,CHINA,-12.4,-14.9,989.6,987.9,3.6,4.8,0.00,0.0,100000,71.1,315
362080,2021-02-18,15:02:40,KAZAKHSTAN,-23.4,-25.7,1013.8,1026.7,26.6,3.8,0.38,22.6,111000,50.2,229
346910,2021-02-18,15:02:40,KAZAKHSTAN,-3.6,-7.1,1022.2,1023.4,20.6,16.9,0.00,1.4,101000,68.1,25
476490,2021-02-18,15:02:40,JAPAN,-0.2,-5.3,999.6,1019.6,18.6,12.5,0.28,0.0,110000,50.9,22
470950,2021-02-18,15:02:40,KOREASOUTH,-6.5,-12.2,1007.6,1024.0,16.2,6.4,0.05,0.0,110000,50.1,94
474230,2021-02-18,15:02:40,JAPAN,-4.8,-9.6,1009.6,1015.0,15.1,21.7,0.19,0.0,110000,92.5,13
474120,2021-02-18,15:02:40,JAPAN,-7.8,-12.5,1016.7,1016.1,9.3,8.0,0.19,17.8,111000,72.8,177
541150,2021-02-18,15:02:40,CHINA,-13.8,-26.4,973.5,1027.1,24.6,11.1,0.01,0.0,110000,50.2,240
545340,2021-02-18,15:02:40,CHINA,-5.2,-15.5,1022.3,1026.3,14.6,10.3,0.01,0.0,110000,71.2,91
470610,2021-02-18,15:02:40,KOREANORTH,-2.4,-8.6,1016.2,1020.7,21.2,8.2,0.18,1.2,111000,88.9,245
470650,2021-02-18,15:02:40,KOREANORTH,-5.5,-11.2,1031.6,1024.9,11.6,8.5,0.02,0.0,110000,79.9,251
286790,2021-02-18,15:02:40,KAZAKHSTAN,-11.2,-14.7,1024.6,1029.6,11.2,18.8,0.02,7.1,111000,50.2,188
509630,2021-02-18,15:02:40,CHINA,-18.0,-23.9,1019.8,1023.0,13.3,14.3,0.01,0.0,110000,50.4,127
546160,2021-02-18,15:02:40,CHINA,-3.8,-14.3,1027.4,1026.5,12.2,13.4,0.03,0.0,110000,64.7,341
547250,2021-02-18,15:02:40,CHINA,-3.7,-13.8,1026.5,1026.6,14.2,12.3,0.08,0.0,110000,70.8,180
471330,2021-02-18,15:02:40,KOREASOUTH,-2.8,-9.9,1019.8,1024.1,17.2,6.5,0.04,0.0,110000,79.4,328
471340,2021-02-18,15:02:40,KOREASOUTH,-3.2,-8.5,1001.1,997.0,10.2,6.8,0.01,0.0,110000,95.5,217
506030,2021-02-18,15:02:40,CHINA,-18.9,-23.3,982.8,1028.0,29.4,10.9,0.01,0.0,110000,72.1,111
471350,2021-02-18,15:02:40,KOREASOUTH,-3.1,-9.6,1011.8,1023.3,19.7,14.3,0.08,0.0,110000,55.0,130
549090,2021-02-18,15:02:40,CHINA,-1.0,-7.8,1021.1,1027.7,15.4,10.7,0.06,0.0,110000,50.2,144
515730,2021-02-18,15:02:40,CHINA,-3.6,-16.5,1023.0,1028.8,23.2,4.8,0.04,0.0,110000,65.0,219
356710,2021-02-18,15:02:40,KAZAKHSTAN,-10.8,-14.6,997.8,1029.6,20.4,17.0,0.00,5.0,101000,50.3,297
547150,2021-02-18,15:02:40,CHINA,-2.6,-11.5,1025.4,1027.6,17.1,12.5,0.08,0.0,110000,63.4,147
537230,2021-02-18,15:02:40,CHINA,-9.5,-20.1,908.0,1029.7,19.9,8.5,0.02,0.0,110000,80.7,75
476170,2021-02-18,15:02:40,JAPAN,-6.0,-9.4,957.4,1027.9,24.0,4.3,0.00,0.0,100000,14.7,35
474210,2021-02-18,15:02:40,JAPAN,-4.3,-9.2,1015.3,1016.4,18.8,18.7,0.14,14.5,111000,50.5,323
442880,2021-02-18,15:02:40,MONGOLIA,-8.2,-14.1,917.4,1028.6,47.3,12.7,0.02,0.1,111000,50.1,316
508540,2021-02-18,15:02:40,CHINA,-17.5,-24.7,1022.6,1023.1,17.0,10.7,0.01,0.0,110000,95.0,301
442590,2021-02-18,15:02:40,MONGOLIA,-6.9,-22.0,950.1,1027.6,20.9,10.0,0.02,1.9,111000,50.0,350
538450,2021-02-18,15:02:40,CHINA,-6.5,-16.7,933.5,1028.8,12.1,6.5,0.01,0.0,110000,68.9,3
289520,2021-02-18,15:02:40,KAZAKHSTAN,-13.6,-18.1,1038.3,1033.1,7.8,13.5,0.04,0.0,110000,52.0,295
353940,2021-02-18,15:02:40,KAZAKHSTAN,-10.1,-14.4,1006.2,1032.3,17.0,13.5,0.04,3.5,111000,50.5,193
475690,2021-02-18,15:02:40,JAPAN,-0.7,-7.5,997.1,997.5,9.5,15.6,0.00,0.0,100000,45.2,279
544710,2021-02-18,15:02:40,CHINA,-8.6,-16.6,1026.6,1025.4,13.4,13.8,0.04,0.0,110000,50.5,256
470460,2021-02-18,15:02:40,KOREANORTH,-4.4,-8.6,1024.0,1020.4,15.7,5.1,0.01,0.0,110000,62.3,246
347980,2021-02-18,15:02:40,KAZAKHSTAN,-3.3,-7.0,1018.8,1020.3,10.6,21.4,0.00,0.6,101000,74.7,43
542730,2021-02-18,15:02:40,CHINA,-16.5,-21.9,1017.3,1025.2,15.6,8.2,0.06,0.0,110000,67.5,344
507560,2021-02-18,15:02:40,CHINA,-18.7,-24.4,1010.9,1023.2,12.6,9.7,0.00,0.0,100000,23.2,291
442410,2021-02-18,15:02:40,MONGOLIA,-21.4,-24.7,1029.8,1033.6,45.6,9.2,0.00,1.9,101000,65.2,158
470390,2021-02-18,15:02:40,KOREANORTH,-8.4,-11.3,1022.5,1024.0,8.1,3.4,0.00,0.0,100000,89.7,98
475450,2021-02-18,15:02:40,JAPAN,-2.0,-6.1,1007.0,1004.2,8.6,15.2,0.00,0.0,100000,39.6,249
552280,2021-02-18,15:02:40,CHINA,-4.5,-18.5,603.4,600.4,30.4,12.1,0.01,0.0,110000,79.8,99
354060,2021-02-18,15:02:40,KAZAKHSTAN,-7.2,-12.1,1032.0,1028.9,24.1,21.5,0.01,0.0,110000,50.0,97
358490,2021-02-18,15:02:40,KAZAKHSTAN,-5.2,-9.9,1017.1,1024.3,18.0,12.0,0.02,1.1,111000,50.0,92
471100,2021-02-18,15:02:40,KOREASOUTH,-4.1,-9.2,1007.6,1010.5,9.4,10.4,0.00,0.0,100000,63.4,279
471400,2021-02-18,15:02:40,KOREASOUTH,-1.3,-5.8,1019.4,1023.9,17.2,14.8,0.04,0.0,110000,92.2,359
471410,2021-02-18,15:02:40,KOREASOUTH,-1.4,-5.7,1013.4,1013.8,10.6,14.0,0.04,0.1,111000,51.3,210
471420,2021-02-18,15:02:40,KOREASOUTH,-2.4,-10.9,1015.0,1015.0,12.0,10.9,0.01,0.0,110000,50.2,46
509490,2021-02-18,15:02:40,CHINA,-14.4,-21.6,1016.1,1023.2,14.1,9.2,0.01,0.0,110000,97.9,140
505270,2021-02-18,15:02:40,CHINA,-24.1,-26.7,992.5,1028.1,17.2,9.1,0.01,0.0,110000,50.1,192
475120,2021-02-18,15:02:40,JAPAN,-3.3,-12.5,1018.7,1023.4,39.6,8.3,0.00,0.0,100000,24.0,264
563740,2021-02-18,15:02:40,CHINA,-2.9,-8.3,748.5,747.8,30.5,17.4,0.04,0.0,110000,91.7,307
442370,2021-02-18,15:02:40,MONGOLIA,-15.7,-19.8,844.0,1022.9,49.1,11.0,0.01,0.3,111000,50.4,27
513790,2021-02-18,15:02:40,CHINA,-18.4,-21.6,1018.1,1036.0,26.4,9.8,0.01,0.0,110000,52.9,118
476200,2021-02-18,15:02:40,JAPAN,-3.0,-6.8,926.7,1018.5,27.1,12.7,0.18,0.0,110000,50.0,124
581020,2021-02-18,15:02:40,CHINA,-0.1,-8.3,1021.5,1026.7,18.4,8.6,0.08,0.0,110000,69.3,232
474300,2021-02-18,15:02:40,JAPAN,-5.7,-9.6,1016.4,1016.6,13.3,12.6,0.09,8.8,111000,97.1,126
474180,2021-02-18,15:02:40,JAPAN,-10.3,-14.2,1011.3,1015.7,20.8,15.5,0.06,5.1,111000,86.7,265
351880,2021-02-18,15:02:40,KAZAKHSTAN,-11.6,-13.8,1028.0,1028.9,16.3,16.4,0.22,1.9,111000,89.8,85
528420,2021-02-18,15:02:40,CHINA,-2.0,-20.6,696.7,692.0,16.9,15.2,0.00,0.0,100000,83.5,28
560330,2021-02-18,15:02:40,CHINA,-5.6,-16.3,626.3,622.9,26.0,12.0,0.01,0.0,110000,50.3,225
570670,2021-02-18,15:02:40,CHINA,-2.3,-8.3,993.4,1028.8,14.0,5.1,0.02,0.0,110000,58.1,275
474760,2021-02-18,15:02:40,JAPAN,-11.3,-14.9,1001.9,1003.9,8.5,11.6,0.00,0.0,100000,43.3,168
547140,2021-02-18,15:02:40,CHINA,-3.5,-13.5,1029.4,1026.2,15.7,10.2,0.03,0.0,110000,50.0,229
471540,2021-02-18,15:02:40,KOREASOUTH,-0.1,-11.1,1012.8,1034.7,11.9,11.2,0.00,0.0,100000,6.8,283
471060,2021-02-18,15:02:40,KOREASOUTH,-4.1,-10.8,1017.0,1022.1,14.0,6.5,0.11,0.4,111000,50.2,319
380810,2021-02-18,15:02:40,KAZAKHSTAN,-4.9,-9.6,1030.6,1029.7,23.4,14.5,0.01,0.3,111000,69.7,135
526510,2021-02-18,15:02:40,CHINA,-2.6,-24.9,985.0,1001.4,69.8,5.9,0.00,0.0,100000,48.1,209
475840,2021-02-18,15:02:40,JAPAN,-4.6,-9.8,1007.1,1017.5,15.4,10.6,0.13,3.9,111000,50.1,123
535130,2021-02-18,15:02:40,CHINA,-9.7,-21.6,926.6,1029.6,21.3,7.4,0.00,0.0,100000,25.2,358
475900,2021-02-18,15:02:40,JAPAN,-1.1,-7.5,1014.7,1017.7,23.0,12.2,0.25,0.3,111000,50.3,203
570360,2021-02-18,15:02:40,CHINA,-0.9,-7.6,1011.3,1025.3,8.7,7.1,0.04,0.0,110000,50.6,271
526810,2021-02-18,15:02:40,CHINA,-9.4,-23.0,898.2,1029.7,30.0,10.7,0.00,0.0,100000,3.2,315
380620,2021-02-18,15:02:40,KAZAKHSTAN,-4.6,-9.3,1026.6,1024.5,19.9,14.5,0.01,0.7,111000,93.7,349
529550,2021-02-18,15:02:40,CHINA,-10.3,-26.6,694.8,691.2,30.6,7.5,0.00,0.0,100000,15.5,161
350780,2021-02-18,15:02:40,KAZAKHSTAN,-10.4,-13.0,1034.4,1033.0,11.0,14.1,0.01,9.2,111000,50.0,65
476180,2021-02-18,15:02:40,JAPAN,-4.0,-10.2,976.3,1019.1,13.6,6.8,0.14,1.3,111000,81.8,113
513460,2021-02-18,15:02:40,CHINA,-18.3,-20.6,1068.0,1038.6,57.1,5.4,0.00,0.0,100000,56.6,299
561460,2021-02-18,15:02:40,CHINA,-6.0,-19.3,680.6,677.7,31.5,7.3,0.02,0.0,110000,50.3,181
367440,2021-02-18,15:02:40,KAZAKHSTAN,-5.6,-8.6,1034.0,1034.0,44.0,10.7,0.08,1.0,111000,50.7,349
523780,2021-02-18,15:02:40,CHINA,-9.8,-26.6,986.5,1008.0,29.7,15.8,0.00,0.0,100000,23.3,40
506580,2021-02-18,15:02:40,CHINA,-19.6,-25.6,1025.3,1023.7,15.1,7.5,0.01,0.0,110000,75.5,352
471300,2021-02-18,15:02:40,KOREASOUTH,-0.8,-9.1,1020.3,1022.0,20.8,13.1,0.18,0.0,110000,50.6,27
471310,2021-02-18,15:02:40,KOREASOUTH,-1.3,-9.9,1021.2,1024.1,17.9,6.1,0.04,0.0,110000,64.0,118
355490,2021-02-18,15:02:40,KAZAKHSTAN,-8.3,-12.7,1034.0,1030.4,22.3,10.2,0.00,4.8,101000,50.5,174
523910,2021-02-18,15:02:40,CHINA,-26.2,-37.4,1002.2,1046.0,36.5,6.8,0.00,0.0,100000,62.9,101
474830,2021-02-18,15:02:40,JAPAN,-6.2,-14.0,1002.4,1004.2,10.8,15.6,0.00,0.0,100000,86.1,319
171890,2021-02-18,15:02:40,TURKEY,-6.5,-9.9,901.4,926.8,15.5,12.8,0.24,9.4,111000,75.3,359
356330,2021-02-18,15:02:40,KAZAKHSTAN,-11.3,-15.0,1026.0,1023.8,21.6,16.4,0.00,5.2,101000,70.3,158
515670,2021-02-18,15:02:40,CHINA,-7.3,-13.2,1004.5,1032.5,18.4,7.6,0.00,0.0,100000,26.4,249
476900,2021-02-18,15:02:40,JAPAN,-7.5,-11.9,866.7,867.0,25.3,13.9,0.14,0.0,110000,50.1,216
470750,2021-02-18,15:02:40,KOREANORTH,-5.9,-10.5,1027.8,1023.0,23.7,7.8,0.11,0.0,110000,50.6,260
508620,2021-02-18,15:02:40,CHINA,-23.9,-28.8,989.1,1009.9,17.0,8.8,0.00,0.0,100000,21.1,350
368700,2021-02-18,15:02:40,KAZAKHSTAN,-2.5,-6.7,978.3,1022.2,8.3,3.7,0.29,2.9,111000,89.4,271
507740,2021-02-18,15:02:40,CHINA,-21.0,-27.5,1013.2,1023.1,10.4,7.0,0.01,0.0,110000,50.1,328
364420,2021-02-18,15:02:40,KAZAKHSTAN,-19.0,-28.2,1017.2,1008.7,38.3,27.1,0.00,2.6,101000,80.9,295
544010,2021-02-18,15:02:40,CHINA,-8.3,-20.5,986.6,1028.2,20.7,10.6,0.01,0.0,110000,50.1,286
518390,2021-02-18,15:02:40,CHINA,-1.8,-16.4,889.9,1029.3,13.5,6.7,0.00,0.0,100000,93.1,200
509680,2021-02-18,15:02:40,CHINA,-19.7,-23.1,1025.2,1023.8,14.8,10.1,0.03,0.0,110000,51.8,54
544830,2021-02-18,15:02:40,CHINA,-15.0,-22.3,1025.9,1024.4,16.0,7.4,0.01,0.0,110000,54.9,182
586530,2021-02-18,15:02:40,CHINA,-2.7,-5.7,916.2,1023.9,9.2,23.0,0.15,0.0,110000,50.8,240
549290,2021-02-18,15:02:40,CHINA,-0.8,-10.7,1023.5,1026.6,17.7,6.7,0.01,0.0,110000,72.0,280
474880,2021-02-18,15:02:40,JAPAN,-3.9,-8.6,995.6,998.2,9.1,16.2,0.00,0.0,100000,44.0,231
529570,2021-02-18,15:02:40,CHINA,-16.0,-33.0,723.5,726.8,27.0,14.0,0.00,0.0,100000,95.1,32
517770,2021-02-18,15:02:40,CHINA,-5.9,-19.0,939.7,1027.1,22.0,8.2,0.00,0.0,100000,50.8,72
350850,2021-02-18,15:02:40,KAZAKHSTAN,-13.6,-18.9,1017.7,1033.3,28.6,15.9,0.02,3.4,111000,74.9,336
544970,2021-02-18,15:02:40,CHINA,-6.6,-15.3,1025.1,1024.4,15.1,11.4,0.06,0.0,110000,50.3,350
470312,2021-02-18,15:02:40,CHINA,-2.1,-10.7,985.3,965.1,5.5,8.2,0.00,0.0,100000,29.3,90
563850,2021-02-18,15:02:40,CHINA,-7.6,-11.0,745.9,745.2,10.3,10.5,0.04,0.0,110000,50.7,96
505570,2021-02-18,15:02:40,CHINA,-23.3,-28.8,1009.7,1023.8,14.5,7.8,0.01,0.0,110000,50.2,317
526610,2021-02-18,15:02:40,CHINA,-10.3,-24.2,929.2,954.0,69.4,7.9,0.00,0.0,100000,22.4,244
544230,2021-02-18,15:02:40,CHINA,-10.2,-23.7,975.9,1024.6,24.0,5.2,0.00,0.0,100000,22.5,326
475490,2021-02-18,15:02:40,JAPAN,-2.3,-8.3,998.3,999.4,8.8,9.2,0.00,0.0,100000,87.5,237
511560,2021-02-18,15:02:40,CHINA,-14.4,-20.6,928.6,1033.3,36.3,7.3,0.01,0.0,110000,50.7,198
443520,2021-02-18,15:02:40,MONGOLIA,-15.1,-22.8,1020.5,1029.0,50.0,14.6,0.00,0.0,100000,27.3,202
368590,2021-02-18,15:02:40,KAZAKHSTAN,-4.9,-9.3,1007.2,1027.6,39.8,7.5,0.02,1.6,111000,50.2,258
471110,2021-02-18,15:02:40,KOREASOUTH,-2.0,-8.5,989.3,,9.4,7.6,0.00,0.0,100000,36.3,257
547050,2021-02-18,15:02:40,CHINA,-15.6,-19.0,1024.3,1034.0,7.9,3.7,0.00,0.0,100000,51.4,264
560930,2021-02-18,15:02:40,CHINA,-9.8,-15.8,1006.3,1018.6,15.8,12.3,0.00,0.0,100000,29.1,311
539590,2021-02-18,15:02:40,CHINA,-1.4,-10.6,1011.0,1027.1,16.4,9.1,0.01,0.0,110000,50.3,50
442320,2021-02-18,15:02:40,MONGOLIA,-27.1,-32.8,1068.8,1049.0,44.7,4.6,0.00,0.0,100000,92.3,328
533520,2021-02-18,15:02:40,CHINA,-15.8,-24.1,959.2,1031.4,28.9,16.7,0.02,0.0,110000,50.2,278
474900,2021-02-18,15:02:40,JAPAN,-10.9,-17.2,992.7,995.9,10.0,8.7,0.00,0.0,100000,32.8,144
474890,2021-02-18,15:02:40,JAPAN,-8.3,-14.0,1002.5,1001.7,10.4,10.7,0.00,0.0,100000,65.3,251
505480,2021-02-18,15:02:40,CHINA,-19.8,-26.0,998.9,1010.4,30.5,3.5,0.00,0.0,100000,61.9,228
521120,2021-02-18,15:02:40,CHINA,-7.6,-19.1,1029.7,1026.4,29.5,12.5,0.00,0.0,100000,49.8,183
170980,2021-02-18,15:02:40,TURKEY,-4.9,-7.2,815.6,815.6,9.3,9.8,0.06,12.5,111000,50.1,321
534870,2021-02-18,15:02:40,CHINA,-10.8,-23.1,973.2,1029.3,16.7,11.7,0.01,0.0,110000,65.4,274
570830,2021-02-18,15:02:40,CHINA,-1.0,-9.7,1020.6,1027.1,10.0,8.7,0.04,0.0,110000,51.0,98
561160,2021-02-18,15:02:40,CHINA,-7.9,-21.6,684.3,685.0,26.6,4.2,0.00,0.0,100000,34.5,301
570460,2021-02-18,15:02:40,CHINA,-6.7,-14.3,817.5,831.4,18.3,15.8,0.03,0.0,110000,52.5,238
540120,2021-02-18,15:02:40,CHINA,-18.2,-24.9,935.8,1030.0,24.9,13.0,0.01,0.0,110000,50.2,176
535930,2021-02-18,15:02:40,CHINA,-11.0,-21.3,980.5,1029.0,24.0,7.1,0.01,0.0,110000,90.9,201
583211,2021-02-18,15:02:40,CHINA,-0.3,-4.8,1006.0,999.0,9.6,9.6,0.00,0.0,100000,96.5,231
510530,2021-02-18,15:02:40,CHINA,-17.6,-20.9,1025.3,1035.8,25.8,14.7,0.01,0.0,110000,98.3,20
527650,2021-02-18,15:02:40,CHINA,-14.1,-28.5,715.2,717.4,20.6,8.6,0.00,0.0,100000,57.1,83
548080,2021-02-18,15:02:40,CHINA,-2.3,-10.7,1030.2,1027.0,12.7,10.9,0.02,0.0,110000,50.2,104
471360,2021-02-18,15:02:40,KOREASOUTH,-3.5,-10.9,1010.7,1024.1,18.0,7.1,0.06,0.0,110000,89.7,27
471370,2021-02-18,15:02:40,KOREASOUTH,-2.7,-10.9,1010.5,1023.0,15.5,6.8,0.03,0.0,110000,50.2,66
367780,2021-02-18,15:02:40,KAZAKHSTAN,-11.7,-17.6,1060.9,1037.0,21.7,6.3,0.00,0.0,100000,91.0,203
532310,2021-02-18,15:02:40,CHINA,-13.2,-23.7,850.5,852.3,25.8,20.7,0.01,0.0,110000,72.9,51
546620,2021-02-18,15:02:40,CHINA,-3.7,-12.0,1022.3,1025.7,13.8,17.8,0.02,0.0,110000,64.6,243
170672,2021-02-18,15:02:40,TURKEY,-1.8,-4.8,993.2,1017.1,6.7,9.7,0.00,0.0,100000,2.9,163
170674,2021-02-18,15:02:40,TURKEY,-0.9,-4.8,1003.0,1017.2,8.0,19.4,0.00,0.0,100000,52.9,279
533360,2021-02-18,15:02:40,CHINA,-13.7,-23.7,910.1,1030.8,27.1,10.0,0.04,0.0,110000,78.6,13
507270,2021-02-18,15:02:40,CHINA,-23.4,-27.5,914.8,1028.2,25.8,7.6,0.01,0.0,110000,50.2,349
364390,2021-02-18,15:02:40,KAZAKHSTAN,-16.2,-20.6,997.0,1002.3,37.3,15.6,0.81,2.3,111000,97.8,267
366390,2021-02-18,15:02:40,KAZAKHSTAN,-10.3,-12.8,1056.3,1038.5,49.2,2.7,1.83,0.0,110000,71.0,343
512320,2021-02-18,15:02:40,CHINA,-8.0,-12.2,1029.3,1032.3,16.0,18.1,0.01,0.0,110000,57.3,117
476120,2021-02-18,15:02:40,JAPAN,-0.6,-4.7,1017.4,1019.3,15.6,10.1,0.57,12.3,111000,50.1,357
548230,2021-02-18,15:02:40,CHINA,-0.9,-11.8,1022.8,1026.4,11.5,11.8,0.05,0.0,110000,50.1,214
548260,2021-02-18,15:02:40,CHINA,-8.5,-19.3,871.4,874.0,27.3,26.5,0.08,0.0,110000,50.8,358
350670,2021-02-18,15:02:40,KAZAKHSTAN,-8.6,-13.0,1043.3,1033.9,10.4,9.4,0.00,5.2,101000,50.9,313
476290,2021-02-18,15:02:40,JAPAN,-1.9,-9.3,1012.6,1016.4,33.0,9.9,0.03,0.0,110000,50.3,106
538630,2021-02-18,15:02:40,CHINA,-5.0,-13.8,1016.6,1028.0,13.4,8.5,0.02,0.0,,50.2,128
538870,2021-02-18,15:02:40,CHINA,-10.0,-27.0,915.3,1027.9,28.8,6.7,0.00,0.0,100000,49.5,332
543424,2021-02-18,15:02:40,CHINA,-7.2,-15.4,998.5,1001.6,9.6,12.1,0.00,0.0,100000,51.2,234
524460,2021-02-18,15:02:40,CHINA,-11.1,-25.1,940.0,1033.7,43.2,13.4,0.00,0.0,100000,79.2,107
442820,2021-02-18,15:02:40,MONGOLIA,-8.4,-26.2,816.1,1009.5,49.1,7.4,0.00,0.0,100000,21.6,32
540270,2021-02-18,15:02:40,CHINA,-12.7,-24.7,993.9,1025.4,29.5,12.2,0.01,0.0,110000,50.1,49
543740,2021-02-18,15:02:40,CHINA,-14.7,-19.2,1005.3,1024.4,15.4,3.6,0.05,0.0,110000,95.6,269
521180,2021-02-18,15:02:40,CHINA,-13.5,-24.9,828.9,831.5,31.0,10.4,0.01,0.0,110000,79.5,86
360030,2021-02-18,15:02:40,KAZAKHSTAN,-5.0,-9.1,1023.2,1030.2,23.4,16.6,0.01,5.0,111000,90.9,42
537720,2021-02-18,15:02:40,CHINA,-6.3,-16.8,981.9,1028.1,11.2,10.0,0.01,0.0,110000,70.0,149
527870,2021-02-18,15:02:40,CHINA,-14.0,-24.2,746.8,750.7,26.8,18.6,0.01,0.0,110000,73.0,25
442870,2021-02-18,15:02:40,MONGOLIA,-19.2,-24.5,813.8,1035.2,50.2,12.9,0.00,2.6,101000,50.4,60
532760,2021-02-18,15:02:40,CHINA,-13.3,-23.9,919.4,1030.2,28.4,19.6,0.01,0.0,110000,76.5,90
512880,2021-02-18,15:02:40,CHINA,-15.5,-23.5,836.1,838.7,35.2,7.5,0.01,0.0,110000,50.1,188
383280,2021-02-18,15:02:40,KAZAKHSTAN,-1.8,-4.3,952.1,1025.8,10.1,11.0,0.00,2.4,101000,50.8,178
477690,2021-02-18,15:02:40,JAPAN,-0.4,-6.5,1022.5,1027.9,27.6,8.7,0.00,0.0,100000,29.7,155
583430,2021-02-18,15:02:40,CHINA,-0.2,-6.8,1013.1,1025.8,16.3,10.6,0.00,0.0,100000,97.8,19
475800,2021-02-18,15:02:40,JAPAN,-2.8,-7.5,1004.7,1005.2,11.5,13.9,0.00,1.7,101000,51.8,62
543460,2021-02-18,15:02:40,CHINA,-8.6,-17.4,1019.2,1025.8,13.9,9.2,0.04,0.0,110000,53.1,208
363970,2021-02-18,15:02:40,KAZAKHSTAN,-4.6,-10.7,1044.8,1036.7,24.5,33.5,1.07,2.6,111000,91.6,281
470690,2021-02-18,15:02:40,KOREANORTH,-4.3,-11.6,1021.8,1024.8,15.1,9.6,0.00,0.0,100000,90.9,179
517090,2021-02-18,15:02:40,CHINA,-1.5,-8.4,912.0,1026.9,15.2,5.8,0.01,0.0,110000,50.0,278
470700,2021-02-18,15:02:40,KOREANORTH,-4.3,-11.2,1028.4,1022.8,17.7,7.9,0.05,0.0,110000,88.7,107
533910,2021-02-18,15:02:40,CHINA,-14.8,-21.9,884.0,1027.2,28.9,18.0,0.01,0.0,110000,50.3,291
560210,2021-02-18,15:02:40,CHINA,-16.2,-29.9,616.6,616.4,29.0,9.3,0.01,0.0,110000,85.2,50
540940,2021-02-18,15:02:40,CHINA,-15.8,-22.7,1009.2,1023.0,7.7,8.0,0.03,0.0,110000,50.1,301
356050,2021-02-18,15:02:40,KAZAKHSTAN,-0.8,-1.0,1036.3,1014.5,22.3,18.5,0.19,0.0,110000,50.4,161
525760,2021-02-18,15:02:40,CHINA,-9.1,-22.1,852.6,855.5,30.4,17.4,0.00,0.0,100000,24.1,268
525330,2021-02-18,15:02:40,CHINA,-9.5,-21.5,894.0,1029.3,29.8,7.3,0.01,0.0,110000,50.5,164
525331,2021-02-18,15:02:40,CHINA,-10.6,-13.5,1000.5,988.0,4.7,5.5,0.00,0.0,100000,49.1,187
518860,2021-02-18,15:02:40,CHINA,-12.0,-30.4,701.4,700.8,27.2,12.7,0.00,0.0,100000,42.1,220
359250,2021-02-18,15:02:40,KAZAKHSTAN,-4.3,-10.7,1018.0,1028.7,21.8,22.0,0.00,0.0,100000,11.0,82
542920,2021-02-18,15:02:40,CHINA,-12.6,-21.8,1007.8,1025.5,21.0,11.4,0.00,0.0,100000,84.0,252
527370,2021-02-18,15:02:40,CHINA,-10.0,-26.9,725.3,726.7,25.5,7.1,0.00,0.0,100000,88.7,63
475160,2021-02-18,15:02:40,JAPAN,-2.9,-7.2,997.8,993.5,10.1,16.9,0.00,0.0,100000,0.0,3
570230,2021-02-18,15:02:40,CHINA,-0.3,-13.8,872.7,1009.7,11.2,5.4,0.00,0.0,100000,47.0,95
357460,2021-02-18,15:02:40,KAZAKHSTAN,-8.6,-12.3,1025.5,1027.7,16.4,18.9,0.01,1.1,111000,99.2,123
534630,2021-02-18,15:02:40,CHINA,-11.5,-20.6,929.9,1030.4,16.9,6.9,0.01,0.0,110000,50.6,327
561820,2021-02-18,15:02:40,CHINA,-7.2,-15.4,778.5,821.9,28.5,6.6,0.06,0.0,110000,50.5,225
549380,2021-02-18,15:02:40,CHINA,-2.4,-11.3,1033.5,1027.6,15.2,10.0,0.02,0.0,110000,50.3,155
537640,2021-02-18,15:02:40,CHINA,-7.5,-17.8,974.0,1029.5,19.0,8.2,0.12,0.0,110000,80.3,196
538210,2021-02-18,15:02:40,CHINA,-7.2,-20.0,931.6,1029.0,18.5,8.9,0.00,0.0,100000,0.3,93
443470,2021-02-18,15:02:40,MONGOLIA,-7.6,-27.4,861.4,1013.1,37.3,26.5,0.00,0.0,100000,23.8,3
476370,2021-02-18,15:02:40,JAPAN,-3.6,-9.5,958.3,1018.2,27.1,9.7,0.18,0.0,110000,93.1,265
470410,2021-02-18,15:02:40,KOREANORTH,-6.5,-12.0,1021.5,1021.7,13.4,9.9,0.03,0.0,110000,50.0,126
536980,2021-02-18,15:02:40,CHINA,-2.0,-12.3,1029.0,1026.5,13.1,6.6,0.04,0.0,110000,50.5,357
289840,2021-02-18,15:02:40,KAZAKHSTAN,-6.0,-9.4,1011.3,1024.4,38.9,11.3,0.00,0.0,100000,76.0,167
581440,2021-02-18,15:02:40,CHINA,-0.4,-6.4,1026.9,1026.4,16.6,9.7,0.08,0.0,110000,50.2,12
443540,2021-02-18,15:02:40,MONGOLIA,-14.8,-21.1,1058.2,1029.4,49.7,17.1,0.00,0.0,100000,46.7,286
560460,2021-02-18,15:02:40,CHINA,-14.5,-23.2,671.4,671.8,25.2,8.3,0.01,0.0,110000,50.1,184
517650,2021-02-18,15:02:40,CHINA,-8.2,-20.8,939.6,1027.3,28.0,6.0,0.00,0.0,100000,,25
560800,2021-02-18,15:02:40,CHINA,-12.2,-20.3,734.5,733.3,25.3,6.5,0.01,0.0,110000,95.5,158
560790,2021-02-18,15:02:40,CHINA,-12.2,-20.6,665.4,664.8,31.4,8.7,0.02,0.0,110000,50.3,232
509830,2021-02-18,15:02:40,CHINA,-15.9,-22.4,1017.8,1022.3,16.4,10.8,0.01,0.0,110000,50.1,256
545110,2021-02-18,15:02:40,CHINA,-3.9,-16.8,1022.7,1026.0,14.8,12.8,0.03,0.0,110000,73.4,122
443170,2021-02-18,15:02:40,MONGOLIA,-11.5,-16.2,890.0,1017.7,21.1,13.4,0.00,4.5,101000,50.8,289
471571,2021-02-18,15:02:40,KOREASOUTH,-3.0,-13.2,988.4,960.8,10.8,11.6,0.00,0.0,100000,91.4,260
547510,2021-02-18,15:02:40,CHINA,-1.2,-7.6,1029.3,1027.2,16.9,21.0,0.06,0.0,110000,87.6,202
474410,2021-02-18,15:02:40,JAPAN,-6.5,-11.0,1004.0,1006.1,9.3,24.9,0.00,0.0,100000,82.7,98
505640,2021-02-18,15:02:40,CHINA,-24.6,-28.0,1018.7,1024.1,18.3,7.0,0.01,0.0,110000,50.2,307
474810,2021-02-18,15:02:40,JAPAN,-10.7,-14.3,1000.4,992.1,9.2,11.8,0.00,0.0,100000,39.7,357
528660,2021-02-18,15:02:40,CHINA,-8.0,-21.3,772.2,771.4,16.2,7.5,0.00,0.0,100000,18.8,274
443290,2021-02-18,15:02:40,MONGOLIA,-14.9,-17.1,779.6,1033.1,19.4,13.8,0.00,3.2,101000,50.1,226
549060,2021-02-18,15:02:40,CHINA,-1.9,-9.4,1022.6,1026.4,17.9,8.2,0.02,0.0,110000,62.8,287
522670,2021-02-18,15:02:40,CHINA,-10.8,-27.3,931.2,1030.8,27.9,12.2,0.00,0.0,100000,26.4,139
561520,2021-02-18,15:02:40,CHINA,-12.2,-22.2,663.1,663.9,32.2,5.0,0.02,0.0,110000,50.0,145
530680,2021-02-18,15:02:40,CHINA,-17.0,-25.2,934.1,1030.4,27.9,13.3,0.01,0.0,110000,50.3,212
548360,2021-02-18,15:02:40,CHINA,-4.0,-14.6,1030.9,1027.7,14.6,9.9,0.04,0.0,110000,50.2,30
523230,2021-02-18,15:02:40,CHINA,-5.6,-25.3,819.2,814.8,31.4,14.9,0.00,0.0,100000,33.6,15
545390,2021-02-18,15:02:40,CHINA,-5.4,-14.7,1024.7,1027.2,18.4,10.8,0.03,0.0,110000,95.2,101
345810,2021-02-18,15:02:40,KAZAKHSTAN,-1.2,-6.2,1043.9,1027.3,50.9,18.3,0.00,0.0,100000,25.0,233
534460,2021-02-18,15:02:40,CHINA,-12.2,-27.8,994.9,1031.1,13.5,12.6,0.00,0.0,100000,58.8,125
518480,2021-02-18,15:02:40,CHINA,-4.7,-18.9,923.6,1027.2,15.4,7.0,0.00,0.0,100000,49.6,278
526740,2021-02-18,15:02:40,CHINA,-11.8,-24.9,801.4,797.0,28.8,11.0,0.01,0.0,110000,50.1,210
518280,2021-02-18,15:02:40,CHINA,-1.3,-12.9,897.8,1024.3,9.8,5.4,0.01,,110000,50.3,248
381960,2021-02-18,15:02:40,KAZAKHSTAN,-2.1,-10.3,925.1,1024.5,17.8,4.3,0.00,9.0,101000,50.2,351
471240,2021-02-18,15:02:40,KOREASOUTH,-3.5,-11.5,1016.6,1042.8,11.5,10.9,0.00,0.0,100000,95.9,359
581410,2021-02-18,15:02:40,CHINA,-0.8,-10.6,1031.8,1034.4,15.8,7.2,0.00,0.0,100000,30.8,296
353760,2021-02-18,15:02:40,KAZAKHSTAN,-10.8,-15.1,991.1,1030.5,19.9,14.5,0.01,7.4,111000,69.9,178
476000,2021-02-18,15:02:40,JAPAN,-0.1,-4.4,1018.5,1019.6,16.0,13.9,0.29,5.1,111000,50.3,355
549160,2021-02-18,15:02:40,CHINA,-2.7,-10.9,1029.1,1026.9,14.7,9.3,0.03,0.0,110000,50.0,136
353210,2021-02-18,15:02:40,KAZAKHSTAN,-14.7,-21.1,1047.0,1037.0,9.0,9.8,0.00,0.0,100000,53.1,69
354260,2021-02-18,15:02:40,KAZAKHSTAN,-7.6,-11.7,1003.9,1025.2,38.7,11.7,0.00,4.8,101000,80.9,8
475700,2021-02-18,15:02:40,JAPAN,-2.8,-5.8,1008.8,1019.3,14.8,7.2,0.15,9.5,111000,50.1,200
548430,2021-02-18,15:02:40,CHINA,-4.4,-12.0,1024.0,1026.6,16.9,12.2,0.04,0.0,110000,50.9,23
561930,2021-02-18,15:02:40,CHINA,-1.3,-6.4,1033.7,1031.2,14.4,2.6,0.11,0.0,110000,50.4,35
443140,2021-02-18,15:02:40,MONGOLIA,-14.5,-22.1,935.4,1022.1,17.3,19.0,0.01,1.8,111000,50.1,194
475530,2021-02-18,15:02:40,JAPAN,-2.3,-6.1,997.0,999.4,8.8,11.0,0.00,0.0,100000,25.7,326
529960,2021-02-18,15:02:40,CHINA,-9.2,-14.7,778.7,779.3,15.1,15.9,0.01,0.0,110000,50.5,329
542360,2021-02-18,15:02:40,CHINA,-11.4,-22.8,1020.5,1024.8,19.5,14.2,0.02,0.0,110000,51.0,78
470580,2021-02-18,15:02:40,KOREANORTH,-6.3,-12.0,1017.3,1024.5,13.2,8.4,0.03,0.3,111000,50.5,42
524180,2021-02-18,15:02:40,CHINA,-8.1,-23.0,917.5,1027.6,27.9,6.2,0.00,0.0,100000,81.3,244
474040,2021-02-18,15:02:40,JAPAN,-7.9,-12.1,1015.5,1016.7,26.2,14.8,0.24,0.0,110000,54.9,263
552990,2021-02-18,15:02:40,CHINA,-16.2,-30.7,1003.3,1004.6,27.2,12.0,0.03,0.0,110000,99.2,333
471190,2021-02-18,15:02:40,KOREASOUTH,-3.5,-10.4,1027.3,1024.1,15.2,7.5,0.05,0.1,111000,50.0,308
471180,2021-02-18,15:02:40,KOREASOUTH,-9.7,-17.5,1014.5,1029.9,10.7,8.2,0.00,0.0,100000,68.2,108
475420,2021-02-18,15:02:40,JAPAN,-3.7,-7.5,999.6,1001.8,8.4,17.4,0.00,0.0,100000,53.6,233
546180,2021-02-18,15:02:40,CHINA,-1.5,-11.1,1024.2,1026.1,11.1,9.9,0.08,0.0,110000,70.0,22
474400,2021-02-18,15:02:40,JAPAN,-7.7,-13.2,1012.4,1016.8,23.4,11.1,0.38,0.0,110000,53.0,129
508440,2021-02-18,15:02:40,CHINA,-14.8,-24.5,1026.4,1023.5,15.0,13.5,0.01,0.0,110000,50.1,32
528180,2021-02-18,15:02:40,CHINA,-10.0,-27.6,753.9,752.8,26.8,9.1,0.00,0.0,100000,70.3,87
475910,2021-02-18,15:02:40,JAPAN,-1.4,-6.5,1002.4,998.2,12.4,14.2,0.05,0.5,111000,50.0,333
170880,2021-02-18,15:02:40,TURKEY,-2.1,-4.3,876.6,878.9,16.5,11.8,0.05,16.2,111000,50.2,293
518110,2021-02-18,15:02:40,CHINA,-2.5,-10.7,919.7,1025.0,14.3,4.7,0.00,0.0,100000,45.1,247
526020,2021-02-18,15:02:40,CHINA,-15.0,-31.4,726.2,726.5,26.7,15.0,0.00,0.0,100000,53.1,189
361770,2021-02-18,15:02:40,KAZAKHSTAN,-7.2,-10.6,1020.4,1027.0,10.3,9.1,0.00,0.0,100000,53.5,26
537050,2021-02-18,15:02:40,CHINA,-7.2,-19.6,974.7,1028.7,19.1,11.5,0.01,0.0,110000,50.2,251
351080,2021-02-18,15:02:40,KAZAKHSTAN,-7.9,-11.0,1017.3,1024.3,8.1,18.4,0.04,11.3,111000,53.1,176
515420,2021-02-18,15:02:40,CHINA,-20.5,-23.3,755.0,752.7,31.5,6.7,0.01,0.0,110000,88.2,71
539750,2021-02-18,15:02:40,CHINA,-4.1,-13.5,1018.9,1028.8,14.5,7.3,0.02,0.0,110000,50.5,220
380190,2021-02-18,15:02:40,KAZAKHSTAN,-10.8,-17.3,1043.1,1032.7,29.3,12.1,0.02,9.4,111000,92.6,61
544490,2021-02-18,15:02:40,CHINA,-0.2,-21.2,1031.0,1016.7,31.9,24.7,0.00,0.0,100000,47.8,298
524360,2021-02-18,15:02:40,CHINA,-10.7,-22.9,863.3,1029.2,30.1,13.0,0.00,0.0,100000,77.7,28
470050,2021-02-18,15:02:40,KOREANORTH,-18.4,-20.9,900.1,898.5,19.7,6.3,0.06,6.7,111000,50.7,68
544930,2021-02-18,15:02:40,CHINA,-11.6,-19.5,1023.4,1025.5,19.9,4.6,0.03,0.0,110000,50.2,170
471460,2021-02-18,15:02:40,KOREASOUTH,-1.9,-7.9,1020.2,1023.8,18.5,5.8,0.06,0.1,111000,50.2,291
359970,2021-02-18,15:02:40,KAZAKHSTAN,-6.6,-11.4,1032.0,1034.0,25.1,10.0,0.01,0.8,111000,58.5,69
443050,2021-02-18,15:02:40,MONGOLIA,-17.9,-20.4,950.4,1028.7,46.2,10.1,0.00,2.3,101000,97.6,99
536730,2021-02-18,15:02:40,CHINA,-8.1,-17.9,974.2,1028.2,17.7,9.1,0.01,0.0,110000,91.8,38
541020,2021-02-18,15:02:40,CHINA,-18.5,-25.1,936.5,1030.5,28.4,12.3,0.01,0.0,110000,50.3,227
517300,2021-02-18,15:02:40,CHINA,-3.1,-12.9,987.1,1028.6,20.0,4.5,0.01,0.0,110000,50.5,72
536140,2021-02-18,15:02:40,CHINA,-7.7,-17.3,928.6,1029.1,20.7,7.2,0.01,0.0,110000,50.2,316
542370,2021-02-18,15:02:40,CHINA,-17.2,-29.4,1006.2,1031.3,14.0,12.9,0.00,0.0,100000,39.3,22
470550,2021-02-18,15:02:40,KOREANORTH,-3.1,-10.4,1021.9,1023.0,16.2,8.7,0.46,0.3,111000,50.0,190
509530,2021-02-18,15:02:40,CHINA,-15.7,-22.4,1016.0,1023.1,13.5,12.2,0.02,0.0,110000,92.7,218
476380,2021-02-18,15:02:40,JAPAN,-0.9,-8.1,996.5,1017.1,17.8,9.7,0.16,0.1,111000,53.4,49
442120,2021-02-18,15:02:40,MONGOLIA,-33.1,-35.9,914.5,1040.7,46.5,2.6,0.00,11.3,101000,79.6,329
544050,2021-02-18,15:02:40,CHINA,-8.0,-20.4,1023.7,1028.0,21.3,12.6,0.01,0.0,110000,55.4,68
442140,2021-02-18,15:02:40,MONGOLIA,-15.6,-24.9,827.1,1027.8,9.1,15.4,0.00,0.0,100000,91.7,237
382200,2021-02-18,15:02:40,KYRGYZSTAN,-8.0,-9.3,951.3,1031.1,7.1,6.8,0.00,6.8,101000,50.3,12
546560,2021-02-18,15:02:40,CHINA,-2.8,-8.4,1022.5,1024.8,20.1,25.5,0.00,0.0,100000,60.2,86
353610,2021-02-18,15:02:40,KAZAKHSTAN,-10.1,-13.2,991.6,1021.0,26.8,7.9,0.00,0.0,100000,34.0,321
475980,2021-02-18,15:02:40,JAPAN,-0.1,-7.0,1021.9,1017.8,23.1,9.6,0.17,0.3,111000,50.2,103
527130,2021-02-18,15:02:40,CHINA,-13.4,-30.8,698.8,699.1,29.1,8.8,0.00,0.0,100000,11.2,259
354590,2021-02-18,15:02:40,KAZAKHSTAN,-8.2,-14.7,1031.5,1029.9,48.2,24.0,0.00,4.5,101000,50.1,213
518550,2021-02-18,15:02:40,CHINA,-7.6,-20.4,933.0,1025.4,17.5,7.4,0.00,0.0,100000,93.8,253
543860,2021-02-18,15:02:40,CHINA,-15.6,-21.9,965.9,1026.2,18.2,10.4,0.04,0.0,110000,73.6,276
363350,2021-02-18,15:02:40,KAZAKHSTAN,-9.6,-13.6,1031.4,1033.1,43.2,18.6,0.04,7.6,111000,50.6,15
360010,2021-02-18,15:02:40,KAZAKHSTAN,-6.1,-9.6,1011.0,1026.7,4.2,33.6,0.02,3.2,111000,59.8,277
540260,2021-02-18,15:02:40,CHINA,-11.4,-22.8,1013.1,1024.6,25.9,12.2,0.01,0.0,110000,84.8,10
543370,2021-02-18,15:02:40,CHINA,-7.6,-17.8,1024.0,1025.5,12.3,13.8,0.01,0.0,110000,50.5,225
593530,2021-02-18,15:02:40,TAIWAN,-2.9,-2.7,763.2,1022.0,7.5,5.3,0.00,0.0,100000,96.7,16
471320,2021-02-18,15:02:40,KOREASOUTH,-8.3,-16.6,1003.8,995.7,10.5,1.1,0.00,0.0,100000,46.1,38
172480,2021-02-18,15:02:40,TURKEY,-3.9,-5.3,894.4,885.5,15.4,8.6,0.36,8.8,111000,87.1,45
544360,2021-02-18,15:02:40,CHINA,-8.3,-19.3,1018.4,1026.0,26.7,6.0,0.02,0.0,110000,78.2,337
471070,2021-02-18,15:02:40,KOREASOUTH,-2.1,-7.4,1013.3,1014.1,12.4,11.7,0.00,0.3,101000,60.9,123
471065,2021-02-18,15:02:40,KOREASOUTH,-1.7,-6.0,1015.7,983.2,11.0,9.9,0.00,3.2,101000,76.2,201
474050,2021-02-18,15:02:40,JAPAN,-11.3,-14.9,1018.4,1019.2,39.9,10.0,0.06,0.0,110000,50.3,147
560650,2021-02-18,15:02:40,CHINA,-15.4,-26.6,661.0,659.9,26.5,9.7,0.01,0.0,110000,64.2,29
471290,2021-02-18,15:02:40,KOREASOUTH,-3.2,-8.2,1021.3,1024.0,19.0,8.6,0.03,0.0,110000,58.1,307
538980,2021-02-18,15:02:40,CHINA,-1.8,-10.3,1023.5,1027.2,12.9,7.7,0.03,0.0,110000,50.1,93
351730,2021-02-18,15:02:40,KAZAKHSTAN,-11.1,-14.9,1025.6,1033.9,29.6,13.4,0.00,6.0,101000,81.7,5
561720,2021-02-18,15:02:40,CHINA,-2.6,-14.6,778.4,781.2,32.5,3.6,0.04,0.0,110000,50.0,40
561730,2021-02-18,15:02:40,CHINA,-13.1,-26.6,660.3,670.4,29.5,10.7,0.00,0.0,100000,81.4,195
472185,2021-02-18,15:02:40,JAPAN,-5.2,-12.4,985.5,975.4,9.6,19.9,0.00,0.0,100000,74.1,317
571930,2021-02-18,15:02:40,CHINA,-0.2,-7.5,1031.1,1026.3,14.4,8.8,0.02,0.0,110000,72.5,92
358840,2021-02-18,15:02:40,KAZAKHSTAN,-8.6,-10.4,977.5,993.8,19.6,12.6,0.03,12.6,111000,50.9,313
474070,2021-02-18,15:02:40,JAPAN,-10.8,-15.2,1007.3,1016.5,9.5,6.5,0.11,20.4,111000,50.5,35
474060,2021-02-18,15:02:40,JAPAN,-7.4,-11.1,1011.2,1015.6,17.7,20.6,0.11,19.6,111000,50.8,74
171400,2021-02-18,15:02:40,TURKEY,-7.7,-8.3,865.0,853.1,8.4,9.6,0.45,22.6,111000,50.1,107
170960,2021-02-18,15:02:40,TURKEY,-2.6,-5.2,890.7,899.4,9.9,9.8,0.04,8.5,111000,66.2,72
543240,2021-02-18,15:02:40,CHINA,-11.9,-26.3,1022.2,1025.3,21.0,11.7,0.01,0.0,110000,54.5,184
470900,2021-02-18,15:02:40,KOREASOUTH,-1.0,-8.5,1020.0,1021.3,20.2,11.1,0.17,0.5,111000,96.9,112
442290,2021-02-18,15:02:40,MONGOLIA,-15.8,-24.5,780.6,1014.0,50.2,6.7,0.00,0.0,100000,63.9,156
543420,2021-02-18,15:02:40,CHINA,-10.5,-18.8,1022.1,1024.7,7.1,12.5,0.03,0.0,110000,50.3,193
539290,2021-02-18,15:02:40,CHINA,-4.0,-5.9,883.8,880.2,7.8,11.8,0.00,0.0,100000,71.6,8
471010,2021-02-18,15:02:41,KOREASOUTH,-5.3,-11.0,1017.9,1023.5,18.2,5.0,0.04,0.6,111000,59.1,309
471020,2021-02-18,15:02:41,KOREASOUTH,-0.2,-6.4,1004.1,1023.8,11.9,17.6,0.00,0.0,100000,50.0,17
534460,2021-02-18,15:02:41,CHINA,-11.6,-27.8,995.0,1031.1,13.5,12.6,0.00,0.0,100000,58.8,124
564440,2021-02-18,15:02:41,CHINA,-4.1,-10.0,734.6,734.8,23.4,10.9,0.04,0.0,110000,50.8,309
367780,2021-02-18,15:02:41,KAZAKHSTAN,-11.7,-16.9,1060.9,1037.1,21.5,6.3,0.00,0.0,100000,91.0,204
532310,2021-02-18,15:02:41,CHINA,-13.2,-25.0,850.5,852.3,25.9,20.8,0.01,0.0,110000,72.8,51
521180,2021-02-18,15:02:41,CHINA,-13.5,-24.9,828.9,831.5,31.0,10.3,0.01,0.0,110000,79.5,86
442290,2021-02-18,15:02:41,MONGOLIA,-14.9,-24.5,780.6,1014.1,50.2,6.7,0.00,0.0,100000,63.9,156
383280,2021-02-18,15:02:41,KAZAKHSTAN,-1.8,-5.5,952.1,1025.7,10.0,11.1,0.00,2.4,101000,50.8,177
476120,2021-02-18,15:02:41,JAPAN,-0.6,-4.7,1017.3,1019.3,15.5,10.0,0.57,12.3,111000,50.1,357
286790,2021-02-18,15:02:41,KAZAKHSTAN,-11.2,-13.8,1024.6,1029.6,11.3,18.9,0.02,7.1,111000,50.3,188
170671,2021-02-18,15:02:41,TURKEY,-2.2,-4.2,1009.3,997.2,11.6,9.5,0.00,0.0,100000,6.9,317
517160,2021-02-18,15:02:41,CHINA,-1.5,-10.0,910.9,1025.5,18.8,7.2,0.00,0.0,100000,73.5,180
478920,2021-02-18,15:02:41,JAPAN,-0.1,-8.0,1026.1,1028.5,27.1,9.3,0.00,0.0,100000,94.8,326
442820,2021-02-18,15:02:41,MONGOLIA,-8.5,-24.7,816.0,1009.5,49.0,7.3,0.00,0.0,100000,21.7,32
471571,2021-02-18,15:02:41,KOREASOUTH,-2.7,-12.3,988.4,960.8,10.9,11.7,0.00,0.0,100000,91.4,260
547510,2021-02-18,15:02:41,CHINA,-1.2,-7.6,1029.3,1027.2,16.9,20.9,0.06,0.0,110000,87.7,202
476400,2021-02-18,15:02:41,JAPAN,-7.9,-17.5,920.4,914.8,30.4,5.3,0.00,0.0,100000,45.7,286
353020,2021-02-18,15:02:41,KAZAKHSTAN,-7.5,-11.6,1051.2,1035.0,19.8,18.5,0.00,0.0,100000,3.4,135
474900,2021-02-18,15:02:41,JAPAN,-11.1,-17.2,992.7,995.9,10.0,8.7,0.00,0.0,100000,32.8,144
474890,2021-02-18,15:02:41,JAPAN,-8.3,-14.0,1002.6,1001.7,10.3,10.8,0.00,0.0,100000,65.3,252
505480,2021-02-18,15:02:41,CHINA,-21.3,-26.0,999.1,1010.4,30.6,3.5,0.00,0.0,100000,61.9,228
287660,2021-02-18,15:02:41,KAZAKHSTAN,-6.8,-9.6,1016.8,1025.5,11.3,14.2,0.01,4.5,111000,85.4,278
561370,2021-02-18,15:02:41,CHINA,-5.5,-21.8,715.8,711.9,25.5,4.9,0.01,0.0,110000,50.0,108
533360,2021-02-18,15:02:41,CHINA,-13.7,-23.7,910.1,1030.8,27.1,10.1,0.04,0.0,110000,78.6,14
560210,2021-02-18,15:02:41,CHINA,-16.2,-29.9,616.6,616.3,29.0,9.1,0.01,0.0,110000,85.2,49
540940,2021-02-18,15:02:41,CHINA,-15.8,-21.3,1009.1,1023.0,7.7,8.0,0.03,0.0,110000,50.0,301
471170,2021-02-18,15:02:41,KOREASOUTH,-1.0,-6.4,1000.2,986.2,8.7,5.2,0.01,0.0,110000,50.4,72
542730,2021-02-18,15:02:41,CHINA,-16.8,-23.6,1017.3,1025.2,15.7,8.3,0.06,0.0,110000,67.5,344
474210,2021-02-18,15:02:41,JAPAN,-4.6,-9.7,1015.3,1016.4,18.8,18.6,0.14,14.5,111000,50.5,323
561160,2021-02-18,15:02:41,CHINA,-7.9,-20.2,684.3,685.0,26.6,4.2,0.00,0.0,100000,34.5,301
570360,2021-02-18,15:02:41,CHINA,-0.9,-8.6,1011.4,1025.3,8.6,7.0,0.04,0.0,110000,50.6,270
171400,2021-02-18,15:02:41,TURKEY,-7.7,-8.6,865.0,853.0,8.5,9.6,0.45,22.6,111000,50.1,108
529550,2021-02-18,15:02:41,CHINA,-10.3,-24.7,694.8,691.1,30.7,7.5,0.00,0.0,100000,15.5,161
350780,2021-02-18,15:02:41,KAZAKHSTAN,-10.8,-13.0,1034.4,1033.0,11.0,14.0,0.01,9.2,111000,50.1,65
547760,2021-02-18,15:02:41,CHINA,-1.1,-6.8,1020.5,1025.8,19.6,23.8,0.07,0.0,110000,76.8,21
514635,2021-02-18,15:02:41,CHINA,-13.2,-14.9,989.6,987.9,3.7,4.8,0.00,0.0,100000,71.1,314
538980,2021-02-18,15:02:41,CHINA,-1.8,-11.5,1023.5,1027.2,13.0,7.8,0.03,0.0,110000,50.2,92
381960,2021-02-18,15:02:41,KAZAKHSTAN,-2.1,-9.4,925.1,1024.5,17.9,4.3,0.00,9.0,101000,50.3,351
537640,2021-02-18,15:02:41,CHINA,-7.5,-16.4,974.0,1029.5,19.0,8.1,0.12,0.0,110000,80.3,196
535640,2021-02-18,15:02:41,CHINA,-10.8,-21.7,936.4,1030.3,18.8,6.3,0.00,0.0,100000,7.6,81
476410,2021-02-18,15:02:41,JAPAN,-1.1,-7.8,989.4,1018.1,20.9,6.7,0.08,0.0,110000,50.4,284
476390,2021-02-18,15:02:41,JAPAN,-20.2,-27.0,1001.8,997.7,48.9,82.1,0.00,0.0,100000,5.9,237
511330,2021-02-18,15:02:41,CHINA,-3.0,-7.8,992.6,1033.3,32.2,7.5,0.04,0.0,110000,59.9,175
513460,2021-02-18,15:02:41,CHINA,-19.1,-21.8,1068.0,1038.6,57.1,5.5,0.00,0.0,100000,56.6,299
527650,2021-02-18,15:02:41,CHINA,-14.1,-28.5,715.2,717.3,20.5,8.5,0.00,0.0,100000,57.2,83
513790,2021-02-18,15:02:41,CHINA,-18.4,-21.6,1018.0,1036.0,26.4,9.9,0.01,0.0,110000,52.9,118
475450,2021-02-18,15:02:41,JAPAN,-1.8,-6.7,1006.9,1004.3,8.6,15.3,0.00,0.0,100000,39.6,249
552280,2021-02-18,15:02:41,CHINA,-4.7,-19.8,603.4,600.5,30.3,12.2,0.01,0.0,110000,79.8,99
354060,2021-02-18,15:02:41,KAZAKHSTAN,-2.9,-11.2,1031.9,1028.9,24.1,21.4,0.01,0.0,110000,50.0,97
476170,2021-02-18,15:02:41,JAPAN,-6.4,-9.4,957.5,1027.9,24.1,4.4,0.00,0.0,100000,14.7,34
515670,2021-02-18,15:02:41,CHINA,-7.1,-15.0,1004.5,1032.5,18.5,7.6,0.00,0.0,100000,26.5,249
507880,2021-02-18,15:02:41,CHINA,-18.2,-22.4,1023.1,1020.5,20.6,13.1,0.01,0.0,110000,50.5,268
512880,2021-02-18,15:02:41,CHINA,-15.9,-24.6,836.1,838.6,35.2,7.5,0.01,0.0,110000,50.1,187
540270,2021-02-18,15:02:41,CHINA,-12.7,-24.7,993.9,1025.5,29.5,12.3,0.01,0.0,110000,50.1,49
521120,2021-02-18,15:02:41,CHINA,-7.6,-19.1,1029.8,1026.4,29.4,12.5,0.00,0.0,100000,49.8,183
470610,2021-02-18,15:02:41,KOREANORTH,-2.4,-9.3,1016.1,1020.7,21.1,8.3,0.18,1.2,111000,88.9,245
470650,2021-02-18,15:02:41,KOREANORTH,-5.8,-11.2,1031.6,1024.9,11.7,8.5,0.02,0.0,110000,79.8,250
517110,2021-02-18,15:02:41,CHINA,-6.7,-14.6,801.1,805.2,24.8,8.8,0.02,0.0,110000,50.7,129
560040,2021-02-18,15:02:41,CHINA,-19.6,-30.6,1001.3,1001.2,30.1,19.9,0.00,0.0,100000,77.5,136
470600,2021-02-18,15:02:41,KOREANORTH,-4.3,-8.9,1028.3,1024.4,9.9,12.9,0.04,0.0,110000,50.4,204
471330,2021-02-18,15:02:41,KOREASOUTH,-2.8,-9.9,1019.8,1024.1,17.2,6.4,0.04,0.0,110000,79.4,328
471340,2021-02-18,15:02:41,KOREASOUTH,-3.2,-9.6,1001.1,996.9,10.1,6.8,0.01,0.0,110000,95.5,217
506030,2021-02-18,15:02:41,CHINA,-18.9,-23.3,982.8,1028.0,29.5,10.8,0.01,0.0,110000,72.1,111
471350,2021-02-18,15:02:41,KOREASOUTH,-3.0,-9.6,1011.8,1023.3,19.8,14.3,0.08,0.0,110000,55.0,130
554720,2021-02-18,15:02:41,CHINA,-13.5,-31.1,996.3,993.6,26.3,26.1,0.01,0.0,110000,84.5,314
509830,2021-02-18,15:02:41,CHINA,-16.9,-22.4,1017.8,1022.3,16.4,10.7,0.01,0.0,110000,50.1,257
475920,2021-02-18,15:02:41,JAPAN,-1.3,-5.9,1015.3,1018.1,19.5,12.6,0.17,0.9,111000,87.1,76
535430,2021-02-18,15:02:41,CHINA,-10.3,-20.5,883.3,1029.8,22.8,11.9,0.01,0.0,110000,62.2,213
533910,2021-02-18,15:02:41,CHINA,-15.3,-21.9,884.0,1027.2,28.9,17.9,0.01,0.0,110000,50.4,291
514950,2021-02-18,15:02:41,CHINA,-8.0,-20.9,990.2,1032.5,35.0,26.4,0.01,0.0,110000,50.6,334
357390,2021-02-18,15:02:41,KAZAKHSTAN,-4.7,-9.5,1041.8,1029.5,46.4,14.7,0.00,1.3,101000,50.4,38
556640,2021-02-18,15:02:41,CHINA,-11.7,-33.4,601.9,600.7,28.5,12.2,0.00,0.0,100000,44.4,352
543110,2021-02-18,15:02:41,CHINA,-12.2,-24.5,970.7,1028.1,28.2,6.6,0.01,0.0,110000,54.1,77
515730,2021-02-18,15:02:41,CHINA,-3.6,-16.5,1023.0,1028.8,23.3,4.8,0.04,0.0,110000,65.0,219
356710,2021-02-18,15:02:41,KAZAKHSTAN,-10.8,-13.7,997.7,1029.6,20.4,16.9,0.00,5.0,101000,50.2,297
524360,2021-02-18,15:02:41,CHINA,-10.7,-22.9,863.3,1029.2,30.1,13.0,0.00,0.0,100000,77.7,28
470050,2021-02-18,15:02:41,KOREANORTH,-18.4,-20.9,900.1,898.5,19.7,6.4,0.06,6.7,111000,50.6,68
549090,2021-02-18,15:02:41,CHINA,-1.0,-7.8,1021.1,1027.7,15.4,10.6,0.06,0.0,110000,50.2,144
382200,2021-02-18,15:02:41,KYRGYZSTAN,-7.6,-9.4,951.2,1031.1,7.2,6.9,0.00,6.8,101000,50.4,11
546560,2021-02-18,15:02:41,CHINA,-2.8,-8.4,1022.5,1024.8,20.2,25.6,0.00,0.0,100000,60.1,86
513340,2021-02-18,15:02:41,CHINA,-8.6,-11.3,1030.6,1032.8,25.7,5.2,0.01,0.0,110000,50.2,166
518550,2021-02-18,15:02:41,CHINA,-7.9,-21.7,933.0,1025.4,17.4,7.5,0.00,0.0,100000,93.8,252
543860,2021-02-18,15:02:41,CHINA,-16.5,-23.4,965.9,1026.2,18.3,10.5,0.04,0.0,110000,73.5,276
363350,2021-02-18,15:02:41,KAZAKHSTAN,-9.6,-13.6,1031.3,1033.1,43.1,18.5,0.04,7.6,111000,50.6,15
524460,2021-02-18,15:02:41,CHINA,-11.7,-23.5,940.0,1033.7,43.3,13.3,0.00,0.0,100000,79.2,107
470460,2021-02-18,15:02:41,KOREANORTH,-4.4,-8.6,1023.9,1020.5,15.7,5.2,0.01,0.0,110000,62.4,246
347980,2021-02-18,15:02:41,KAZAKHSTAN,-3.2,-7.0,1018.8,1020.3,10.5,21.5,0.00,0.6,101000,74.7,43
362080,2021-02-18,15:02:41,KAZAKHSTAN,-23.4,-27.5,1013.6,1026.8,26.7,3.7,0.38,22.6,111000,50.2,228
346910,2021-02-18,15:02:41,KAZAKHSTAN,-3.7,-7.1,1022.1,1023.4,20.6,17.0,0.00,1.4,101000,68.1,24
537720,2021-02-18,15:02:41,CHINA,-5.9,-18.2,981.9,1028.1,11.2,10.0,0.01,0.0,110000,70.0,148
548430,2021-02-18,15:02:41,CHINA,-4.5,-12.0,1024.0,1026.6,17.0,12.3,0.04,0.0,110000,50.8,23
561930,2021-02-18,15:02:41,CHINA,-1.3,-6.4,1033.5,1031.2,14.3,2.6,0.11,0.0,110000,50.4,34
549060,2021-02-18,15:02:41,CHINA,-1.9,-9.4,1022.6,1026.4,17.9,8.3,0.02,0.0,110000,62.7,287
505270,2021-02-18,15:02:41,CHINA,-24.7,-28.1,992.5,1028.1,17.2,9.0,0.01,0.0,110000,50.1,192
475120,2021-02-18,15:02:41,JAPAN,-3.3,-11.5,1018.7,1023.4,39.5,8.3,0.00,0.0,100000,24.0,264
563740,2021-02-18,15:02:41,CHINA,-2.9,-9.2,748.5,747.8,30.5,17.5,0.04,0.0,110000,91.7,307
383340,2021-02-18,15:02:41,KAZAKHSTAN,-1.4,-5.1,927.1,1024.4,12.1,10.4,0.00,4.7,101000,73.1,152
586530,2021-02-18,15:02:41,CHINA,-2.6,-4.9,916.2,1023.9,9.1,23.1,0.15,0.0,110000,50.7,240
536980,2021-02-18,15:02:41,CHINA,-2.0,-12.3,1029.0,1026.5,13.2,6.6,0.04,0.0,110000,50.5,357
289840,2021-02-18,15:02:41,KAZAKHSTAN,-6.1,-9.4,1011.1,1024.4,38.9,11.4,0.00,0.0,100000,76.0,167
562570,2021-02-18,15:02:41,CHINA,-8.6,-22.5,684.5,683.3,37.6,8.0,0.00,0.0,100000,63.9,262
443140,2021-02-18,15:02:41,MONGOLIA,-15.3,-22.1,935.4,1022.1,17.4,19.1,0.01,1.8,111000,50.1,194
475880,2021-02-18,15:02:41,JAPAN,-3.6,-7.3,998.2,1017.2,10.9,6.9,0.07,0.0,110000,50.7,258
561440,2021-02-18,15:02:41,CHINA,-4.6,-20.6,683.3,684.3,35.3,4.7,0.00,0.0,100000,73.3,217
539150,2021-02-18,15:02:41,CHINA,-5.6,-15.1,907.8,1027.7,22.1,7.4,0.02,0.0,110000,56.3,62
570250,2021-02-18,15:02:41,CHINA,-1.4,-4.3,1038.3,1034.4,6.3,6.9,0.00,0.0,100000,47.0,339
345810,2021-02-18,15:02:41,KAZAKHSTAN,-1.8,-7.1,1044.1,1027.3,51.0,18.2,0.00,0.0,100000,25.0,234
475970,2021-02-18,15:02:41,JAPAN,-2.8,-10.2,974.2,1018.3,23.9,14.9,0.11,0.0,110000,69.6,290
172480,2021-02-18,15:02:41,TURKEY,-3.9,-5.3,894.4,885.7,15.5,8.6,0.36,8.8,111000,87.2,46
534870,2021-02-18,15:02:41,CHINA,-11.6,-21.7,973.2,1029.3,16.8,11.7,0.01,0.0,110000,65.5,273
476900,2021-02-18,15:02:41,JAPAN,-7.6,-11.9,866.7,866.9,25.4,13.8,0.14,0.0,110000,50.1,216
360030,2021-02-18,15:02:41,KAZAKHSTAN,-5.6,-8.0,1023.2,1030.2,23.5,16.6,0.01,5.0,111000,90.9,41
353210,2021-02-18,15:02:41,KAZAKHSTAN,-14.7,-21.1,1047.1,1037.1,9.0,9.8,0.00,0.0,100000,53.1,69
509630,2021-02-18,15:02:41,CHINA,-19.5,-22.3,1019.7,1023.0,13.4,14.2,0.01,0.0,110000,50.5,126
353610,2021-02-18,15:02:41,KAZAKHSTAN,-10.1,-12.2,991.5,1021.0,26.8,8.0,0.00,0.0,100000,33.9,320
475980,2021-02-18,15:02:41,JAPAN,-0.1,-7.0,1021.9,1017.8,23.0,9.7,0.17,0.3,111000,50.2,103
369820,2021-02-18,15:02:41,KYRGYZSTAN,-21.3,-25.6,646.3,646.6,42.9,9.6,0.00,0.0,100000,63.9,266
541020,2021-02-18,15:02:41,CHINA,-18.5,-23.7,936.5,1030.5,28.4,12.4,0.01,0.0,110000,50.3,228
517300,2021-02-18,15:02:41,CHINA,-3.1,-12.9,987.2,1028.6,20.0,4.5,0.01,0.0,110000,50.5,72
528660,2021-02-18,15:02:41,CHINA,-8.0,-21.3,772.3,771.4,16.2,7.6,0.00,0.0,100000,18.9,274
443170,2021-02-18,15:02:41,MONGOLIA,-10.9,-16.2,890.0,1017.7,21.2,13.5,0.00,4.5,101000,50.7,289
538630,2021-02-18,15:02:41,CHINA,-5.0,-15.1,1016.6,1028.0,13.3,8.4,0.02,0.0,110000,50.1,128
538870,2021-02-18,15:02:41,CHINA,-10.7,-27.0,915.3,1027.9,28.9,6.6,0.00,0.0,100000,49.5,332
540960,2021-02-18,15:02:41,CHINA,-15.5,-22.7,1022.9,1023.1,17.4,12.4,0.03,0.0,110000,50.2,13
382320,2021-02-18,15:02:41,KAZAKHSTAN,-0.4,-5.7,1020.9,1023.7,33.5,13.6,0.02,0.4,111000,50.3,66
548570,2021-02-18,15:02:41,CHINA,-1.6,-7.9,1023.7,1026.6,12.4,20.0,0.03,0.0,110000,50.2,31
442770,2021-02-18,15:02:41,MONGOLIA,-24.0,-28.6,996.5,1028.4,49.1,17.7,0.00,0.0,100000,27.5,124
583211,2021-02-18,15:02:41,CHINA,-0.3,-4.8,1005.7,999.5,9.6,9.7,0.00,0.0,100000,96.4,230
510530,2021-02-18,15:02:41,CHINA,-17.6,-20.9,1025.3,1035.8,25.7,14.8,0.01,0.0,110000,98.2,20
537230,2021-02-18,15:02:41,CHINA,-9.9,-21.6,908.0,1029.7,19.9,8.6,0.02,0.0,110000,80.8,75
359250,2021-02-18,15:02:41,KAZAKHSTAN,-4.6,-9.4,1017.9,1028.7,21.9,21.9,0.00,0.0,100000,11.0,82
509780,2021-02-18,15:02:41,CHINA,-15.2,-21.7,1009.2,1022.3,26.6,12.7,0.01,0.0,110000,50.2,176
584450,2021-02-18,15:02:41,CHINA,-4.4,-10.5,875.3,947.0,15.6,20.1,0.19,0.0,110000,50.0,316
523780,2021-02-18,15:02:41,CHINA,-9.8,-26.6,986.5,1007.9,29.8,15.9,0.00,0.0,100000,23.3,40
506580,2021-02-18,15:02:41,CHINA,-19.6,-24.3,1025.3,1023.7,15.2,7.5,0.01,0.0,110000,75.5,351
525330,2021-02-18,15:02:41,CHINA,-9.5,-21.5,894.1,1029.3,29.8,7.4,0.01,0.0,110000,50.5,165
525331,2021-02-18,15:02:41,CHINA,-10.6,-13.5,1000.6,988.1,4.6,5.6,0.00,0.0,100000,49.1,187
583430,2021-02-18,15:02:41,CHINA,-0.2,-6.8,1013.2,1025.8,16.4,10.7,0.00,0.0,100000,97.8,19
475800,2021-02-18,15:02:41,JAPAN,-3.0,-6.9,1004.7,1005.2,11.4,13.8,0.00,1.7,101000,51.9,62
343980,2021-02-18,15:02:41,KAZAKHSTAN,-8.1,-11.6,1016.2,1015.7,17.7,16.0,0.00,5.6,101000,82.7,170
170880,2021-02-18,15:02:41,TURKEY,-2.7,-4.3,876.6,879.2,16.5,11.8,0.05,16.2,111000,50.3,293
442920,2021-02-18,15:02:41,MONGOLIA,-21.3,-25.8,887.4,1031.3,17.4,5.2,0.00,3.7,101000,61.0,75
471270,2021-02-18,15:02:41,KOREASOUTH,-3.7,-9.9,1007.7,1014.4,9.3,8.3,0.01,0.1,111000,50.3,21
172410,2021-02-18,15:02:41,TURKEY,-5.0,-8.8,1012.9,1047.2,10.8,15.3,0.00,0.0,100000,94.8,133
25105,2021-02-18,15:02:41,SINGAPORE,-1.0,-3.9,1010.7,998.9,10.8,6.4,0.00,0.0,100000,75.8,270
289570,2021-02-18,15:02:41,KAZAKHSTAN,-7.9,-11.5,1035.3,1028.2,10.3,11.5,0.00,6.8,101000,75.5,213
475870,2021-02-18,15:02:41,JAPAN,-1.4,-5.6,1013.4,1017.9,15.1,24.3,0.34,4.2,111000,50.4,29
475850,2021-02-18,15:02:41,JAPAN,-3.5,-10.3,1010.6,1017.0,23.8,9.4,0.12,2.8,111000,50.0,331
527540,2021-02-18,15:02:41,CHINA,-13.8,-27.1,676.2,676.3,24.0,10.6,0.00,0.0,100000,38.9,185
560290,2021-02-18,15:02:41,CHINA,-8.2,-21.4,645.7,645.7,29.2,4.3,0.01,0.0,110000,71.4,302
471100,2021-02-18,15:02:41,KOREASOUTH,-4.1,-9.2,1007.6,1010.5,9.3,10.5,0.00,0.0,100000,63.4,279
544010,2021-02-18,15:02:41,CHINA,-8.0,-20.5,986.6,1028.2,20.7,10.5,0.01,0.0,110000,50.2,286
518390,2021-02-18,15:02:41,CHINA,-2.5,-14.9,889.9,1029.4,13.6,6.7,0.00,0.0,100000,93.2,200
529080,2021-02-18,15:02:41,CHINA,-19.3,-30.0,999.9,1006.4,27.3,21.0,0.00,0.0,100000,93.5,196
474790,2021-02-18,15:02:41,JAPAN,-8.9,-13.3,1000.8,1000.7,8.1,13.8,0.00,0.0,100000,77.5,78
353630,2021-02-18,15:02:41,KAZAKHSTAN,-9.0,-12.1,1041.2,1040.3,14.2,17.1,0.00,0.0,100000,54.7,275
442410,2021-02-18,15:02:41,MONGOLIA,-21.4,-26.6,1029.9,1033.7,45.6,9.1,0.00,1.9,101000,65.2,159
524240,2021-02-18,15:02:41,CHINA,-10.5,-23.7,900.0,1030.2,25.3,14.6,0.01,0.0,110000,50.6,54
383450,2021-02-18,15:02:41,KYRGYZSTAN,-2.1,-6.5,895.5,896.0,20.2,3.9,0.00,1.8,101000,70.9,9
383430,2021-02-18,15:02:41,KAZAKHSTAN,-0.9,-3.3,940.0,1025.5,10.0,4.1,0.00,2.6,101000,93.1,16
749347,2021-02-18,15:02:41,CHINA,-3.5,-7.5,1035.2,1037.9,10.8,9.6,0.00,0.0,100000,69.0,323
749348,2021-02-18,15:02:41,CHINA,-18.3,-21.8,1032.4,1037.1,63.1,2.5,0.00,0.0,100000,75.9,196
287850,2021-02-18,15:02:41,KAZAKHSTAN,-8.9,-9.6,1030.6,1021.0,16.4,4.2,0.00,13.2,101000,77.3,168
530830,2021-02-18,15:02:41,CHINA,-18.4,-23.4,965.2,1031.2,29.3,12.7,0.01,0.0,110000,64.8,222
561250,2021-02-18,15:02:41,CHINA,-9.6,-22.3,650.0,654.8,23.6,7.5,0.03,0.0,110000,94.8,43
476180,2021-02-18,15:02:41,JAPAN,-3.8,-9.1,976.3,1019.1,13.5,6.8,0.14,1.3,111000,81.8,113
470520,2021-02-18,15:02:41,KOREANORTH,-7.6,-10.5,1034.2,1028.5,13.7,4.7,0.00,0.0,100000,78.4,106
507270,2021-02-18,15:02:41,CHINA,-23.4,-29.1,914.8,1028.3,25.8,7.5,0.01,0.0,110000,50.2,349
475750,2021-02-18,15:02:41,JAPAN,-3.3,-7.8,1020.6,1017.6,14.7,13.6,0.19,22.8,111000,60.9,222
510870,2021-02-18,15:02:41,CHINA,-9.1,-16.3,931.2,1032.3,23.5,6.1,0.00,0.0,100000,56.9,19
353760,2021-02-18,15:02:41,KAZAKHSTAN,-10.7,-15.1,991.1,1030.5,19.9,14.4,0.01,7.4,111000,69.9,178
380810,2021-02-18,15:02:41,KAZAKHSTAN,-5.0,-8.5,1030.6,1029.7,23.5,14.6,0.01,0.3,111000,69.7,135
526510,2021-02-18,15:02:41,CHINA,-2.9,-24.9,984.8,1001.5,69.9,5.8,0.00,0.0,100000,48.1,210
353940,2021-02-18,15:02:41,KAZAKHSTAN,-10.1,-13.4,1006.2,1032.3,17.0,13.6,0.04,3.5,111000,50.5,194
517770,2021-02-18,15:02:41,CHINA,-5.9,-20.3,939.7,1027.2,21.9,8.2,0.00,0.0,100000,50.8,72
570710,2021-02-18,15:02:41,CHINA,-0.6,-10.1,1028.2,1027.9,13.3,10.8,0.06,0.0,110000,50.6,73
356990,2021-02-18,15:02:41,KAZAKHSTAN,-6.4,-15.4,958.4,1039.0,27.9,0.6,0.00,4.5,101000,50.9,128
442370,2021-02-18,15:02:41,MONGOLIA,-15.7,-19.8,844.0,1022.9,49.2,11.1,0.01,0.3,111000,50.4,27
470080,2021-02-18,15:02:41,KOREANORTH,-6.9,-13.2,1015.8,1022.0,12.1,8.2,0.01,0.0,110000,73.0,241
507560,2021-02-18,15:02:41,CHINA,-19.7,-24.4,1010.9,1023.2,12.7,9.8,0.00,0.0,100000,23.2,292
507740,2021-02-18,15:02:41,CHINA,-21.5,-25.8,1013.2,1023.1,10.4,6.9,0.01,0.0,110000,50.0,327
543460,2021-02-18,15:02:41,CHINA,-8.6,-17.4,1019.2,1025.8,13.8,9.1,0.04,0.0,110000,53.1,208
363970,2021-02-18,15:02:41,KAZAKHSTAN,-4.9,-10.7,1044.6,1036.7,24.6,33.6,1.07,2.6,111000,91.6,281
442880,2021-02-18,15:02:41,MONGOLIA,-7.7,-15.2,917.4,1028.6,47.4,12.8,0.02,0.1,111000,50.2,316
474340,2021-02-18,15:02:41,JAPAN,-10.9,-13.8,1002.8,1010.8,11.1,11.2,0.01,6.3,111000,54.8,271
474350,2021-02-18,15:02:41,JAPAN,-7.7,-11.8,1017.2,1019.5,38.3,12.0,0.16,0.0,110000,50.0,90
545870,2021-02-18,15:02:41,CHINA,-3.3,-9.7,1029.0,1024.9,27.8,22.7,0.26,0.0,110000,95.6,98
570230,2021-02-18,15:02:41,CHINA,-0.3,-13.8,872.7,1009.7,11.2,5.4,0.00,0.0,100000,47.1,96
357460,2021-02-18,15:02:41,KAZAKHSTAN,-8.6,-12.3,1025.5,1027.7,16.4,18.8,0.01,1.1,111000,99.1,123
541150,2021-02-18,15:02:41,CHINA,-14.2,-25.0,973.5,1027.1,24.5,11.2,0.01,0.0,110000,50.1,240
471920,2021-02-18,15:02:41,KOREASOUTH,-2.2,-10.4,1022.5,1022.5,21.4,6.8,0.06,0.0,110000,50.0,80
581440,2021-02-18,15:02:41,CHINA,-0.4,-6.4,1026.9,1026.4,16.6,9.6,0.08,0.0,110000,50.1,12
544360,2021-02-18,15:02:41,CHINA,-8.3,-20.8,1018.5,1026.0,26.8,6.0,0.02,0.0,110000,78.2,337
564620,2021-02-18,15:02:41,CHINA,-1.9,-16.5,754.5,754.1,34.0,12.0,0.01,0.0,110000,50.1,83
359530,2021-02-18,15:02:41,KAZAKHSTAN,-6.9,-9.6,1023.7,1029.6,31.5,16.3,0.02,0.0,110000,71.4,225
359970,2021-02-18,15:02:41,KAZAKHSTAN,-6.7,-11.4,1031.9,1034.0,25.1,10.1,0.01,0.8,111000,58.5,68
443050,2021-02-18,15:02:41,MONGOLIA,-17.9,-20.4,950.4,1028.7,46.2,10.0,0.00,2.3,101000,97.5,99
536730,2021-02-18,15:02:41,CHINA,-7.5,-17.9,974.2,1028.2,17.6,9.1,0.01,0.0,110000,91.8,38
526810,2021-02-18,15:02:41,CHINA,-9.7,-21.5,898.2,1029.7,29.9,10.7,0.00,0.0,100000,3.2,315
380620,2021-02-18,15:02:41,KAZAKHSTAN,-4.6,-8.3,1026.6,1024.5,19.9,14.4,0.01,0.7,111000,93.7,349
548630,2021-02-18,15:02:41,CHINA,-3.0,-11.0,1026.6,1026.4,19.7,14.1,0.03,0.0,110000,50.3,342
507450,2021-02-18,15:02:41,CHINA,-16.7,-24.1,1015.0,1023.0,11.4,10.9,0.01,0.0,110000,51.1,221
547140,2021-02-18,15:02:41,CHINA,-3.7,-13.5,1029.4,1026.2,15.6,10.3,0.03,0.0,110000,50.0,228
471540,2021-02-18,15:02:41,KOREASOUTH,-0.1,-10.1,1012.8,1034.6,11.8,11.3,0.00,0.0,100000,6.9,283
471060,2021-02-18,15:02:41,KOREASOUTH,-4.1,-10.8,1017.0,1022.1,14.1,6.4,0.11,0.4,111000,50.2,319
547150,2021-02-18,15:02:41,CHINA,-2.6,-11.5,1025.4,1027.6,17.2,12.4,0.08,0.0,110000,63.4,148
289780,2021-02-18,15:02:41,KAZAKHSTAN,-10.2,-12.5,969.2,1022.4,17.1,10.9,0.00,0.0,100000,31.1,275
474050,2021-02-18,15:02:41,JAPAN,-11.7,-16.0,1018.4,1019.2,39.8,9.9,0.06,0.0,110000,50.3,147
366220,2021-02-18,15:02:41,KAZAKHSTAN,-7.3,-12.7,1034.1,1037.4,42.9,13.7,0.02,6.3,111000,51.9,127
478140,2021-02-18,15:02:41,JAPAN,-0.1,-6.5,1011.3,1021.9,15.0,5.7,0.24,0.0,110000,50.0,227
355760,2021-02-18,15:02:41,KAZAKHSTAN,-11.4,-14.7,1014.2,1035.4,21.6,11.4,0.00,6.2,101000,52.0,255
547250,2021-02-18,15:02:41,CHINA,-3.7,-13.8,1026.5,1026.6,14.3,12.4,0.08,0.0,110000,70.8,180
357910,2021-02-18,15:02:41,KAZAKHSTAN,-13.1,-16.5,1035.2,1036.5,40.3,6.4,0.03,2.4,111000,79.2,140
570830,2021-02-18,15:02:41,CHINA,-1.0,-9.7,1020.6,1027.1,9.9,8.7,0.04,0.0,110000,51.0,97
364390,2021-02-18,15:02:41,KAZAKHSTAN,-16.2,-20.6,997.0,1002.3,37.2,15.7,0.81,2.3,111000,97.8,268
544710,2021-02-18,15:02:41,CHINA,-8.3,-16.6,1026.6,1025.4,13.4,13.8,0.04,0.0,110000,50.5,257
511560,2021-02-18,15:02:41,CHINA,-13.6,-19.4,928.5,1033.3,36.2,7.3,0.01,0.0,110000,50.6,198
471400,2021-02-18,15:02:41,KOREASOUTH,-1.4,-6.5,1019.4,1023.9,17.3,14.7,0.04,0.0,110000,92.2,359
471410,2021-02-18,15:02:41,KOREASOUTH,-1.4,-6.4,1013.4,1013.8,10.6,14.1,0.04,0.1,111000,51.3,211
471420,2021-02-18,15:02:41,KOREASOUTH,-2.4,-10.9,1015.0,1015.0,12.0,11.0,0.01,0.0,110000,50.2,46
544930,2021-02-18,15:02:41,CHINA,-11.6,-19.5,1023.4,1025.5,19.9,4.7,0.03,0.0,110000,50.1,171
170980,2021-02-18,15:02:41,TURKEY,-4.9,-7.2,815.6,815.6,9.2,9.7,0.06,12.5,111000,50.1,321
475530,2021-02-18,15:02:41,JAPAN,-2.4,-6.6,997.0,999.4,8.8,10.9,0.00,0.0,100000,25.7,326
471300,2021-02-18,15:02:41,KOREASOUTH,-0.8,-9.1,1020.3,1022.0,20.8,13.2,0.18,0.0,110000,50.6,26
471310,2021-02-18,15:02:41,KOREASOUTH,-3.4,-8.9,1021.2,1024.1,17.8,6.0,0.04,0.0,110000,64.0,119
504340,2021-02-18,15:02:41,CHINA,-30.5,-35.5,967.4,1027.4,27.2,7.8,0.01,0.0,110000,50.3,351
350530,2021-02-18,15:02:41,KAZAKHSTAN,-7.5,-10.2,1035.2,1033.8,18.8,11.7,0.01,2.5,111000,50.3,290
580270,2021-02-18,15:02:41,CHINA,-0.5,-8.7,1021.3,1026.7,13.8,9.1,0.05,0.0,110000,52.5,300
560930,2021-02-18,15:02:41,CHINA,-9.4,-14.9,1006.4,1018.8,15.9,12.3,0.00,0.0,100000,29.1,310
581500,2021-02-18,15:02:41,CHINA,-0.7,-5.9,1028.2,1026.6,14.0,10.9,0.12,0.0,110000,56.3,315
350850,2021-02-18,15:02:41,KAZAKHSTAN,-13.6,-17.7,1017.6,1033.3,28.5,16.0,0.02,3.4,111000,74.9,336
544970,2021-02-18,15:02:41,CHINA,-6.9,-15.3,1025.1,1024.4,15.0,11.3,0.06,0.0,110000,50.3,350
528250,2021-02-18,15:02:41,CHINA,-9.8,-27.9,724.2,719.1,23.5,11.6,0.00,0.0,100000,78.0,131
354260,2021-02-18,15:02:41,KAZAKHSTAN,-7.9,-11.7,1003.9,1025.2,38.6,11.8,0.00,4.8,101000,80.9,8
477560,2021-02-18,15:02:41,JAPAN,-0.2,-5.3,1001.3,1019.8,12.7,5.0,0.44,0.0,110000,58.7,157
546180,2021-02-18,15:02:41,CHINA,-1.5,-11.1,1024.2,1026.1,11.0,9.8,0.08,0.0,110000,70.0,22
474400,2021-02-18,15:02:41,JAPAN,-7.7,-13.9,1012.4,1016.8,23.4,11.2,0.38,0.0,110000,52.9,128
364420,2021-02-18,15:02:41,KAZAKHSTAN,-18.3,-28.2,1017.3,1008.7,38.2,27.0,0.00,2.6,101000,80.9,295
552990,2021-02-18,15:02:41,CHINA,-15.5,-29.0,1003.2,1004.6,27.2,11.9,0.03,0.0,110000,99.1,332
527130,2021-02-18,15:02:41,CHINA,-14.3,-29.1,698.8,699.1,29.0,8.8,0.00,0.0,100000,11.2,259
474040,2021-02-18,15:02:41,JAPAN,-7.5,-11.1,1015.5,1016.7,26.2,14.7,0.24,0.0,110000,54.9,262
529830,2021-02-18,15:02:41,CHINA,-10.9,-14.3,818.8,835.6,20.9,6.4,0.02,0.0,110000,67.0,324
471070,2021-02-18,15:02:41,KOREASOUTH,-2.1,-8.2,1013.3,1014.2,12.4,11.6,0.00,0.3,101000,61.0,123
471065,2021-02-18,15:02:41,KOREASOUTH,-1.7,-5.1,1015.8,983.3,11.0,9.9,0.00,3.2,101000,76.1,202
585060,2021-02-18,15:02:41,CHINA,-1.0,-5.5,977.7,1026.8,12.2,14.6,0.19,0.0,110000,94.1,222
442840,2021-02-18,15:02:41,MONGOLIA,-28.1,-30.0,787.5,1046.5,49.9,2.3,0.00,4.5,101000,67.8,104
354590,2021-02-18,15:02:41,KAZAKHSTAN,-7.6,-14.7,1031.6,1029.9,48.2,23.9,0.00,4.5,101000,50.2,213
471240,2021-02-18,15:02:41,KOREASOUTH,-3.4,-11.5,1016.7,1042.7,11.5,10.8,0.00,0.0,100000,96.0,359
351080,2021-02-18,15:02:41,KAZAKHSTAN,-7.9,-11.0,1017.3,1024.3,8.1,18.3,0.04,11.3,111000,53.1,175
560330,2021-02-18,15:02:41,CHINA,-5.6,-14.7,626.3,623.0,25.9,11.9,0.01,0.0,110000,50.3,226
534630,2021-02-18,15:02:41,CHINA,-11.7,-20.6,929.9,1030.4,16.8,7.0,0.01,0.0,110000,50.6,326
509150,2021-02-18,15:02:41,CHINA,-20.8,-26.2,945.3,1029.6,29.4,10.8,0.02,0.0,110000,52.7,151
523130,2021-02-18,15:02:41,CHINA,-12.0,-24.3,924.6,894.9,59.2,3.0,0.00,0.0,100000,9.3,188
474020,2021-02-18,15:02:41,JAPAN,-12.0,-14.9,1016.8,1017.9,21.6,10.0,0.11,0.0,110000,58.7,90
474010,2021-02-18,15:02:41,JAPAN,-7.3,-12.3,1011.3,1015.8,18.1,13.7,0.16,16.7,111000,90.5,200
560460,2021-02-18,15:02:41,CHINA,-14.5,-24.9,671.4,671.8,25.3,8.4,0.01,0.0,110000,50.1,183
350670,2021-02-18,15:02:41,KAZAKHSTAN,-8.6,-11.8,1043.2,1033.9,10.4,9.5,0.00,5.2,101000,50.9,313
508880,2021-02-18,15:02:41,CHINA,-16.1,-23.6,1016.2,1022.1,23.3,12.5,0.01,0.0,110000,91.1,333
355420,2021-02-18,15:02:41,KAZAKHSTAN,-13.5,-15.5,1027.0,1029.0,12.5,14.8,0.48,2.1,111000,76.4,238
543240,2021-02-18,15:02:41,CHINA,-11.0,-24.6,1022.2,1025.4,21.0,11.8,0.01,0.0,110000,54.4,183
474740,2021-02-18,15:02:41,JAPAN,-11.4,-19.8,1004.2,1011.9,10.3,9.8,0.00,0.0,100000,63.3,70
476380,2021-02-18,15:02:41,JAPAN,-0.9,-8.1,996.5,1017.1,17.8,9.7,0.16,0.1,111000,53.4,50
357000,2021-02-18,15:02:41,KAZAKHSTAN,-3.2,-7.2,1025.3,1023.0,16.4,18.7,0.01,0.4,111000,50.2,171
563850,2021-02-18,15:02:41,CHINA,-7.6,-10.1,745.9,745.2,10.2,10.4,0.04,0.0,110000,50.7,97
505570,2021-02-18,15:02:41,CHINA,-23.3,-27.1,1009.7,1023.8,14.5,7.9,0.01,0.0,110000,50.2,318
442870,2021-02-18,15:02:41,MONGOLIA,-20.0,-24.5,813.9,1035.2,50.2,12.9,0.00,2.6,101000,50.4,60
577070,2021-02-18,15:02:41,CHINA,-0.4,-2.4,852.3,854.0,9.2,3.0,0.03,0.0,110000,80.4,45
527870,2021-02-18,15:02:41,CHINA,-13.4,-23.0,746.8,750.7,26.7,18.5,0.01,0.0,110000,73.0,25
471360,2021-02-18,15:02:41,KOREASOUTH,-3.5,-9.8,1010.7,1024.1,18.0,7.1,0.06,0.0,110000,89.7,27
471370,2021-02-18,15:02:41,KOREASOUTH,-2.8,-12.1,1010.5,1023.0,15.5,6.8,0.03,0.0,110000,50.3,66
545390,2021-02-18,15:02:41,CHINA,-5.6,-13.5,1024.6,1027.2,18.5,10.8,0.03,0.0,110000,95.2,101
475150,2021-02-18,15:02:41,JAPAN,-2.6,-6.7,997.3,998.7,10.1,16.4,0.00,0.0,100000,99.6,33
542370,2021-02-18,15:02:41,CHINA,-17.2,-29.4,1006.2,1031.3,13.9,12.9,0.00,0.0,100000,39.3,21
470550,2021-02-18,15:02:41,KOREANORTH,-3.3,-10.4,1021.8,1023.0,16.1,8.7,0.46,0.3,111000,50.1,191
383530,2021-02-18,15:02:41,KYRGYZSTAN,-2.6,-5.2,995.3,1027.6,5.4,8.1,0.04,0.6,111000,61.0,37
383531,2021-02-18,15:02:41,KYRGYZSTAN,-0.4,-6.3,988.2,975.5,2.0,13.4,0.00,0.0,100000,7.4,133
443730,2021-02-18,15:02:41,MONGOLIA,-11.0,-21.2,854.3,1027.8,45.1,9.5,0.00,0.2,101000,50.5,346
443740,2021-02-18,15:02:41,MONGOLIA,-13.0,-20.7,830.7,1030.5,49.4,14.3,0.00,1.3,101000,69.6,341
537050,2021-02-18,15:02:41,CHINA,-7.2,-18.1,974.7,1028.7,19.0,11.4,0.01,0.0,110000,50.2,251
577760,2021-02-18,15:02:41,CHINA,-0.5,-2.5,977.1,1024.0,8.3,18.6,0.21,0.0,110000,50.9,104
368215,2021-02-18,15:02:41,KAZAKHSTAN,-7.9,-11.5,1020.8,1045.0,8.9,17.2,0.00,0.0,100000,29.3,217
470410,2021-02-18,15:02:41,KOREANORTH,-6.3,-13.2,1021.5,1021.7,13.3,9.9,0.03,0.0,110000,50.0,126
548260,2021-02-18,15:02:41,CHINA,-7.9,-19.3,871.4,874.0,27.2,26.6,0.08,0.0,110000,50.8,358
543370,2021-02-18,15:02:41,CHINA,-7.3,-19.0,1024.0,1025.5,12.3,13.7,0.01,0.0,110000,50.5,226
545340,2021-02-18,15:02:41,CHINA,-5.2,-15.5,1022.3,1026.3,14.7,10.4,0.01,0.0,110000,71.2,91
470350,2021-02-18,15:02:41,KOREANORTH,-6.3,-14.4,1034.0,1024.8,16.1,11.6,0.05,0.0,110000,98.6,343
542180,2021-02-18,15:02:41,CHINA,-12.0,-23.5,992.0,1026.4,21.7,9.6,0.01,0.0,110000,50.0,182
555780,2021-02-18,15:02:41,CHINA,-7.7,-31.3,635.7,635.5,29.3,7.1,0.00,0.0,100000,66.9,233
477090,2021-02-18,15:02:41,JAPAN,-1.4,-10.3,998.9,1002.3,9.3,10.5,0.00,0.0,100000,71.5,127
543740,2021-02-18,15:02:41,CHINA,-14.7,-19.2,1005.3,1024.4,15.3,3.7,0.05,0.0,110000,95.6,269
515420,2021-02-18,15:02:41,CHINA,-20.5,-24.7,755.0,752.7,31.5,6.8,0.01,0.0,110000,88.2,71
539750,2021-02-18,15:02:41,CHINA,-4.1,-12.4,1018.8,1028.8,14.4,7.3,0.02,0.0,110000,50.5,220
544830,2021-02-18,15:02:41,CHINA,-15.0,-23.9,1026.0,1024.4,16.0,7.4,0.01,0.0,110000,54.9,182
555910,2021-02-18,15:02:41,CHINA,-3.3,-25.7,676.7,675.6,29.7,9.5,0.00,0.0,100000,80.7,342
540490,2021-02-18,15:02:41,CHINA,-13.4,-23.3,1025.9,1024.1,19.4,11.9,0.01,0.0,110000,50.0,22
533520,2021-02-18,15:02:41,CHINA,-15.8,-24.1,959.2,1031.4,28.9,16.8,0.02,0.0,110000,50.2,278
355320,2021-02-18,15:02:41,KAZAKHSTAN,-2.5,-4.6,1013.1,1027.9,15.8,18.7,0.06,15.6,111000,75.6,5
570140,2021-02-18,15:02:41,CHINA,-5.9,-10.8,1015.0,1034.8,11.7,6.5,0.00,0.0,100000,73.8,191
368590,2021-02-18,15:02:41,KAZAKHSTAN,-5.6,-9.3,1007.2,1027.6,39.7,7.5,0.02,1.6,111000,50.3,257
471110,2021-02-18,15:02:41,KOREASOUTH,-2.0,-8.5,989.4,990.4,9.3,7.7,0.00,0.0,100000,36.3,256
547050,2021-02-18,15:02:41,CHINA,-15.6,-19.0,1024.2,1034.0,7.8,3.6,0.00,0.0,100000,51.3,264
561060,2021-02-18,15:02:41,CHINA,-10.7,-21.3,619.1,618.0,27.6,9.0,0.04,0.0,110000,95.8,332
381980,2021-02-18,15:02:41,KAZAKHSTAN,-1.6,-7.1,1030.4,1026.3,21.6,8.3,0.32,0.4,111000,62.7,170
380190,2021-02-18,15:02:41,KAZAKHSTAN,-11.2,-15.3,1042.7,1032.6,29.4,12.1,0.02,9.4,111000,92.6,60
544490,2021-02-18,15:02:41,CHINA,-0.3,-19.4,1030.9,1016.8,31.8,24.6,0.00,0.0,100000,47.8,298
477150,2021-02-18,15:02:41,JAPAN,-0.8,-5.7,1000.5,1003.7,9.3,10.1,0.09,0.6,111000,50.3,303
542920,2021-02-18,15:02:41,CHINA,-12.6,-21.8,1007.8,1025.5,21.0,11.5,0.00,0.0,100000,84.0,253
527370,2021-02-18,15:02:41,CHINA,-9.4,-26.9,725.3,726.7,25.6,7.2,0.00,0.0,100000,88.6,63
477420,2021-02-18,15:02:41,JAPAN,-1.2,-4.2,1026.9,1027.7,17.3,3.3,0.00,0.0,100000,56.1,353
366390,2021-02-18,15:02:41,KAZAKHSTAN,-10.3,-14.2,1056.6,1038.4,49.3,2.7,1.83,0.0,110000,71.0,343
442320,2021-02-18,15:02:41,MONGOLIA,-27.6,-35.0,1068.9,1049.0,44.8,4.6,0.00,0.0,100000,92.4,327
474110,2021-02-18,15:02:41,JAPAN,-6.5,-11.4,1012.9,1016.1,19.4,12.3,0.21,0.0,110000,50.0,199
474090,2021-02-18,15:02:41,JAPAN,-10.2,-13.8,1013.8,1016.1,22.6,9.6,0.04,9.9,111000,50.4,154
528180,2021-02-18,15:02:41,CHINA,-10.0,-27.6,753.9,752.8,26.8,9.0,0.00,0.0,100000,70.4,87
365350,2021-02-18,15:02:41,KAZAKHSTAN,-12.2,-17.8,1069.7,1040.1,45.5,7.0,0.00,0.0,100000,87.2,139
474280,2021-02-18,15:02:41,JAPAN,-3.4,-8.1,1012.0,1015.8,19.3,25.5,0.15,0.0,110000,50.5,124
514670,2021-02-18,15:02:41,CHINA,-9.1,-21.7,829.6,831.0,27.7,9.2,0.00,0.0,100000,4.7,115
539470,2021-02-18,15:02:41,CHINA,-2.8,-11.3,949.8,1027.2,12.6,8.5,0.01,0.0,110000,57.5,203
570060,2021-02-18,15:02:41,CHINA,-2.2,-9.6,946.9,1025.4,11.2,5.5,0.01,0.0,110000,50.3,108
442590,2021-02-18,15:02:41,MONGOLIA,-18.1,-22.0,950.2,1027.6,20.9,10.0,0.02,1.9,111000,50.1,350
470750,2021-02-18,15:02:41,KOREANORTH,-5.9,-10.5,1027.7,1023.0,23.6,7.7,0.11,0.0,110000,50.6,259
549380,2021-02-18,15:02:41,CHINA,-2.4,-11.3,1033.5,1027.6,15.1,9.9,0.02,0.0,110000,50.3,155
476240,2021-02-18,15:02:41,JAPAN,-0.5,-9.6,,1017.8,27.0,13.0,0.08,0.2,111000,50.1,327
474230,2021-02-18,15:02:41,JAPAN,-4.9,-9.6,1009.6,1015.0,15.1,21.8,0.19,0.0,110000,92.4,12
474120,2021-02-18,15:02:41,JAPAN,-7.8,-12.5,1016.7,1016.1,9.2,8.1,0.19,17.8,111000,72.8,176
475690,2021-02-18,15:02:41,JAPAN,-0.7,-7.5,997.1,997.5,9.6,15.5,0.00,0.0,100000,45.2,279
358840,2021-02-18,15:02:41,KAZAKHSTAN,-7.9,-11.8,977.4,994.1,19.6,12.5,0.03,12.6,111000,50.8,313
477690,2021-02-18,15:02:41,JAPAN,-0.5,-6.5,1022.4,1027.9,27.7,8.8,0.00,0.0,100000,29.7,155
518480,2021-02-18,15:02:41,CHINA,-4.7,-20.5,923.6,1027.2,15.5,7.0,0.00,0.0,100000,49.7,278
470312,2021-02-18,15:02:41,CHINA,-2.1,-10.7,985.1,965.3,5.6,8.2,0.00,0.0,100000,29.3,91
170960,2021-02-18,15:02:41,TURKEY,-2.6,-5.2,890.8,899.4,9.9,9.9,0.04,8.5,111000,66.2,73
442120,2021-02-18,15:02:41,MONGOLIA,-31.9,-35.9,914.5,1040.7,46.6,2.5,0.00,11.3,101000,79.6,329
544050,2021-02-18,15:02:41,CHINA,-8.0,-21.7,1023.7,1028.0,21.2,12.7,0.01,0.0,110000,55.5,68
442140,2021-02-18,15:02:41,MONGOLIA,-15.6,-23.3,827.1,1027.9,9.1,15.5,0.00,0.0,100000,91.7,237
538450,2021-02-18,15:02:41,CHINA,-6.1,-16.7,933.5,1028.9,12.2,6.6,0.01,0.0,110000,68.9,3
289520,2021-02-18,15:02:41,KAZAKHSTAN,-13.7,-17.0,1038.4,1033.1,7.9,13.4,0.04,0.0,110000,52.0,294
525760,2021-02-18,15:02:41,CHINA,-9.7,-22.1,852.6,855.3,30.4,17.5,0.00,0.0,100000,24.1,268
470390,2021-02-18,15:02:41,KOREANORTH,-8.4,-11.3,1022.2,1024.1,8.1,3.3,0.00,0.0,100000,89.8,97
529960,2021-02-18,15:02:41,CHINA,-8.7,-13.9,778.7,779.3,15.1,16.0,0.01,0.0,110000,50.5,329
475160,2021-02-18,15:02:41,JAPAN,-3.0,-7.2,997.8,993.5,10.0,17.0,0.00,0.0,100000,0.1,3
545270,2021-02-18,15:02:41,CHINA,-3.6,-13.7,1026.9,1026.4,10.6,8.7,0.03,0.0,110000,50.0,1
545273,2021-02-18,15:02:41,CHINA,-1.6,-10.9,1000.5,998.5,6.8,12.0,0.00,0.0,100000,8.4,211
539290,2021-02-18,15:02:41,CHINA,-4.0,-6.3,883.8,880.2,7.7,11.8,0.00,0.0,100000,71.6,8
517650,2021-02-18,15:02:41,CHINA,-7.7,-20.8,939.6,1027.3,28.0,6.1,0.00,0.0,100000,47.3,25
560800,2021-02-18,15:02:41,CHINA,-12.2,-22.0,734.5,733.2,25.4,6.6,0.01,0.0,110000,95.4,158
560790,2021-02-18,15:02:41,CHINA,-12.2,-20.6,665.4,664.8,31.5,8.8,0.02,0.0,110000,50.3,232
476200,2021-02-18,15:02:41,JAPAN,-3.0,-6.8,926.7,1018.6,27.2,12.6,0.18,0.0,110000,50.0,123
549160,2021-02-18,15:02:41,CHINA,-2.7,-12.1,1029.1,1026.9,14.7,9.3,0.03,0.0,110000,50.1,135
508440,2021-02-18,15:02:41,CHINA,-14.8,-24.5,1026.5,1023.5,14.9,13.5,0.01,0.0,110000,50.1,32
471140,2021-02-18,15:02:41,KOREASOUTH,-4.8,-11.8,1008.0,1023.9,14.6,4.7,0.08,0.0,110000,96.9,257
546160,2021-02-18,15:02:41,CHINA,-4.0,-14.3,1027.4,1026.5,12.1,13.4,0.03,0.0,110000,64.7,340
527070,2021-02-18,15:02:41,CHINA,-13.7,-32.1,725.5,721.6,21.3,11.3,0.00,0.0,100000,44.6,244
552790,2021-02-18,15:02:41,CHINA,-12.0,-29.7,996.5,997.6,27.8,18.5,0.01,0.0,110000,50.1,291
581020,2021-02-18,15:02:41,CHINA,-0.4,-7.2,1021.5,1026.7,18.4,8.6,0.08,0.0,110000,69.4,231
474300,2021-02-18,15:02:41,JAPAN,-5.9,-9.6,1016.4,1016.6,13.3,12.5,0.09,8.8,111000,97.1,126
474180,2021-02-18,15:02:41,JAPAN,-9.7,-14.2,1011.4,1015.8,20.8,15.6,0.06,5.1,111000,86.7,265
351880,2021-02-18,15:02:41,KAZAKHSTAN,-11.6,-13.8,1028.0,1029.0,16.3,16.5,0.22,1.9,111000,89.9,84
528420,2021-02-18,15:02:41,CHINA,-2.0,-18.8,696.7,692.1,17.0,15.1,0.00,0.0,100000,83.6,28
549290,2021-02-18,15:02:41,CHINA,-0.8,-9.5,1023.5,1026.6,17.6,6.7,0.01,0.0,110000,72.0,281
561820,2021-02-18,15:02:41,CHINA,-7.2,-16.9,778.5,821.9,28.4,6.7,0.06,0.0,110000,50.5,225
561460,2021-02-18,15:02:41,CHINA,-6.2,-19.3,680.6,677.7,31.5,7.4,0.02,0.0,110000,50.3,182
367440,2021-02-18,15:02:41,KAZAKHSTAN,-5.6,-9.9,1034.0,1034.0,43.9,10.8,0.08,1.0,111000,50.8,349
288790,2021-02-18,15:02:41,KAZAKHSTAN,-11.7,-15.7,1033.6,1031.1,9.9,17.4,0.00,0.9,101000,50.2,218
288770,2021-02-18,15:02:41,KAZAKHSTAN,-6.1,-10.8,1025.0,1022.8,14.8,12.2,0.03,1.9,111000,78.6,36
523910,2021-02-18,15:02:41,CHINA,-26.2,-37.4,1002.2,1046.0,36.6,6.7,0.00,0.0,100000,62.8,100
471190,2021-02-18,15:02:41,KOREASOUTH,-3.5,-10.4,1027.3,1024.1,15.3,7.5,0.05,0.1,111000,50.0,308
471180,2021-02-18,15:02:41,KOREASOUTH,-10.3,-17.5,1014.6,1030.0,10.7,8.1,0.00,0.0,100000,68.2,108
509490,2021-02-18,15:02:41,CHINA,-14.4,-23.0,1016.1,1023.2,14.0,9.2,0.01,0.0,110000,97.9,141
357960,2021-02-18,15:02:41,KAZAKHSTAN,-8.4,-12.7,1018.5,1033.4,30.3,19.2,0.01,1.6,111000,67.7,295
474830,2021-02-18,15:02:41,JAPAN,-6.2,-13.6,1002.4,1004.2,10.8,15.6,0.00,0.0,100000,86.1,319
470030,2021-02-18,15:02:41,KOREANORTH,-9.8,-16.6,1018.9,1021.9,22.0,10.1,0.06,0.0,110000,67.7,93
509530,2021-02-18,15:02:41,CHINA,-15.7,-21.0,1015.9,1023.1,13.4,12.2,0.02,0.0,110000,92.8,218
386150,2021-02-18,15:02:41,KYRGYZSTAN,-2.7,-8.9,925.4,1033.6,9.0,7.9,0.00,11.3,101000,50.9,121
355820,2021-02-18,15:02:41,KAZAKHSTAN,-10.7,-13.9,1036.7,1034.9,34.5,15.3,0.02,2.5,111000,67.3,127
478180,2021-02-18,15:02:41,JAPAN,-2.7,-9.1,946.3,1029.3,26.3,13.8,0.00,0.0,100000,50.0,318
171890,2021-02-18,15:02:41,TURKEY,-6.5,-9.9,901.4,926.7,15.5,12.9,0.24,9.4,111000,75.4,359
356330,2021-02-18,15:02:41,KAZAKHSTAN,-11.3,-13.7,1026.0,1023.8,21.6,16.4,0.00,5.2,101000,70.3,158
475760,2021-02-18,15:02:41,JAPAN,-4.6,-9.8,1016.9,1017.5,21.0,10.8,0.11,0.0,110000,76.8,286
387130,2021-02-18,15:02:41,TAJIKISTAN,-3.6,-7.5,995.9,1020.2,43.0,6.6,0.00,5.0,101000,55.7,15
557730,2021-02-18,15:02:41,CHINA,-12.3,-20.1,620.3,621.2,19.9,11.6,0.00,0.0,100000,57.8,139
503530,2021-02-18,15:02:41,CHINA,-14.3,-21.0,998.6,1021.4,19.3,8.4,0.00,0.0,100000,7.6,227
539590,2021-02-18,15:02:41,CHINA,-1.4,-11.8,1011.1,1027.1,16.4,9.2,0.01,0.0,110000,50.3,50
524180,2021-02-18,15:02:41,CHINA,-7.8,-21.4,917.5,1027.6,27.9,6.2,0.00,0.0,100000,81.4,244
478210,2021-02-18,15:02:41,JAPAN,-5.2,-9.9,892.3,899.2,29.4,12.6,0.00,0.0,100000,14.8,174
570670,2021-02-18,15:02:41,CHINA,-2.3,-8.3,993.4,1028.8,13.9,5.1,0.02,0.0,110000,58.2,275
548360,2021-02-18,15:02:41,CHINA,-4.0,-13.4,1030.9,1027.7,14.7,9.9,0.04,0.0,110000,50.3,31
523230,2021-02-18,15:02:41,CHINA,-14.3,-25.3,819.2,814.7,31.5,15.0,0.00,0.0,100000,33.6,16
474880,2021-02-18,15:02:41,JAPAN,-3.9,-9.3,995.5,998.1,9.1,16.1,0.00,0.0,100000,44.0,231
477470,2021-02-18,15:02:41,JAPAN,-1.0,-3.0,1026.8,1027.5,14.8,4.3,0.19,0.0,110000,50.5,280
541350,2021-02-18,15:02:41,CHINA,-12.7,-24.4,1018.5,1024.7,25.6,15.0,0.01,0.0,110000,51.7,186
361860,2021-02-18,15:02:41,KAZAKHSTAN,-5.0,-8.3,1022.9,1025.7,11.9,2.8,0.00,0.0,100000,32.7,202
531920,2021-02-18,15:02:41,CHINA,-19.7,-24.9,918.0,1033.1,31.1,10.1,0.01,0.0,110000,63.4,239
470950,2021-02-18,15:02:41,KOREASOUTH,-6.5,-12.2,1007.6,1024.0,16.2,6.5,0.05,0.0,110000,50.1,93
471064,2021-02-18,15:02:41,KOREASOUTH,-10.4,-15.4,1001.5,1011.1,10.7,9.8,0.00,0.0,100000,52.1,83
471066,2021-02-18,15:02:41,KOREASOUTH,-4.9,-11.0,1007.9,1002.4,8.8,5.8,0.00,0.0,100000,99.0,51
471050,2021-02-18,15:02:41,KOREASOUTH,-0.9,-9.6,1016.6,1021.8,20.5,12.0,0.18,1.4,111000,92.2,249
474070,2021-02-18,15:02:41,JAPAN,-10.8,-15.2,1007.3,1016.5,9.4,6.6,0.11,20.4,111000,50.5,36
474060,2021-02-18,15:02:41,JAPAN,-8.0,-11.1,1011.2,1015.6,17.6,20.7,0.11,19.6,111000,50.9,74
570460,2021-02-18,15:02:41,CHINA,-6.7,-15.0,817.5,831.4,18.3,15.9,0.03,0.0,110000,52.5,238
540120,2021-02-18,15:02:41,CHINA,-19.5,-24.9,935.8,1030.0,25.0,12.9,0.01,0.0,110000,50.3,176
546020,2021-02-18,15:02:41,CHINA,-3.5,-14.2,1022.0,1026.4,11.0,7.7,0.03,0.0,110000,64.9,213
474200,2021-02-18,15:02:41,JAPAN,-7.2,-11.1,1012.3,1015.2,20.8,14.8,0.06,3.8,111000,50.5,283
351910,2021-02-18,15:02:41,KAZAKHSTAN,-11.3,-18.9,1061.0,1042.6,37.0,12.5,0.00,0.0,100000,8.5,61
512320,2021-02-18,15:02:41,CHINA,-8.3,-12.2,1029.3,1032.3,16.0,18.0,0.01,0.0,110000,57.3,116
443290,2021-02-18,15:02:41,MONGOLIA,-15.8,-17.1,779.6,1033.1,19.4,13.9,0.00,3.2,101000,50.1,225
508620,2021-02-18,15:02:41,CHINA,-23.9,-28.8,989.2,1009.9,17.0,8.8,0.00,0.0,100000,21.1,350
368700,2021-02-18,15:02:41,KAZAKHSTAN,-2.5,-5.6,978.3,1022.2,8.2,3.7,0.29,2.9,111000,89.4,270
516280,2021-02-18,15:02:41,CHINA,-1.7,-7.0,998.8,1030.7,19.3,4.2,0.00,0.0,100000,53.2,159
470500,2021-02-18,15:02:41,KOREANORTH,-7.2,-12.5,1027.3,1023.9,14.9,7.1,0.08,0.0,110000,91.1,208
543420,2021-02-18,15:02:41,CHINA,-10.5,-20.1,1022.1,1024.7,7.2,12.5,0.03,0.0,110000,50.3,193
542590,2021-02-18,15:02:41,CHINA,-13.2,-21.4,1025.0,1025.8,15.7,7.5,0.04,0.0,110000,91.0,251
471000,2021-02-18,15:02:41,KOREASOUTH,-8.5,-13.8,922.8,1024.3,13.7,15.4,0.19,13.0,111000,50.3,296
470980,2021-02-18,15:02:41,KOREASOUTH,-5.1,-13.0,1010.5,1024.6,12.9,6.9,0.00,0.0,100000,82.3,64
560650,2021-02-18,15:02:41,CHINA,-15.4,-24.6,661.0,659.8,26.4,9.6,0.01,0.0,110000,64.3,29
356050,2021-02-18,15:02:41,KAZAKHSTAN,-0.3,-1.6,1036.2,1014.5,22.2,18.4,0.19,0.0,110000,50.3,161
471074,2021-02-18,15:02:41,KOREASOUTH,-2.8,-7.1,1007.8,1026.3,9.4,18.8,0.00,0.0,100000,99.2,331
471087,2021-02-18,15:02:41,KOREASOUTH,-4.5,-15.3,1007.2,984.9,11.1,11.1,0.00,0.0,100000,32.9,320
471080,2021-02-18,15:02:41,KOREASOUTH,-3.1,-9.2,1019.3,1023.7,11.2,9.0,0.03,0.1,111000,85.3,294
471120,2021-02-18,15:02:41,KOREASOUTH,-2.7,-9.0,1018.4,1023.5,15.8,12.3,0.04,0.0,110000,51.2,44
506320,2021-02-18,15:02:41,CHINA,-19.6,-25.1,983.0,1024.4,27.6,10.4,0.02,0.0,110000,50.4,166
560180,2021-02-18,15:02:41,CHINA,-13.0,-24.4,627.0,632.9,26.4,8.4,0.02,0.0,110000,85.9,171
560340,2021-02-18,15:02:41,CHINA,-22.8,-30.3,600.9,595.9,22.7,17.2,0.02,0.0,110000,50.0,214
546620,2021-02-18,15:02:41,CHINA,-3.9,-12.0,1022.3,1025.7,13.8,17.7,0.02,0.0,110000,64.6,244
524950,2021-02-18,15:02:41,CHINA,-12.2,-25.1,903.3,1030.9,26.1,12.3,0.00,0.0,100000,88.1,134
535930,2021-02-18,15:02:41,CHINA,-11.8,-22.8,980.5,1029.0,23.9,7.1,0.01,0.0,110000,90.9,202
528360,2021-02-18,15:02:41,CHINA,-9.4,-26.4,687.5,687.0,27.6,9.9,0.06,0.0,110000,50.5,116
581410,2021-02-18,15:02:41,CHINA,-0.8,-10.6,1031.8,1034.4,15.7,7.1,0.00,0.0,100000,30.8,296
549450,2021-02-18,15:02:41,CHINA,-1.4,-9.7,1024.7,1027.0,16.9,12.8,0.09,0.0,110000,50.2,31
504680,2021-02-18,15:02:41,CHINA,-20.5,-25.4,1011.4,1023.4,21.1,9.4,0.01,0.0,110000,86.7,326
536140,2021-02-18,15:02:41,CHINA,-7.7,-18.7,928.6,1029.1,20.6,7.2,0.01,0.0,110000,50.1,317
548230,2021-02-18,15:02:41,CHINA,-0.9,-11.8,1022.8,1026.4,11.5,11.9,0.05,0.0,110000,50.1,215
536460,2021-02-18,15:02:41,CHINA,-8.5,-18.1,928.0,1029.2,17.8,9.6,0.01,0.0,110000,50.7,19
509680,2021-02-18,15:02:41,CHINA,-19.0,-24.8,1025.1,1023.8,14.8,10.1,0.03,0.0,110000,51.8,54
543424,2021-02-18,15:02:41,CHINA,-6.7,-16.5,998.5,1001.7,9.6,12.2,0.00,0.0,100000,51.3,234
353450,2021-02-18,15:02:41,KAZAKHSTAN,-7.4,-11.9,1062.0,1040.3,22.8,11.7,0.00,0.0,100000,42.6,118
475810,2021-02-18,15:02:41,JAPAN,-3.2,-8.4,1016.2,1017.0,19.0,15.4,0.12,6.2,111000,50.6,166
535290,2021-02-18,15:02:41,CHINA,-10.8,-21.0,893.4,1029.7,25.3,10.7,0.21,0.0,110000,50.4,67
475740,2021-02-18,15:02:41,JAPAN,-1.3,-7.9,1014.5,1024.1,30.0,13.5,0.16,0.0,110000,50.4,293
354160,2021-02-18,15:02:41,KAZAKHSTAN,-7.5,-10.3,1024.6,1027.4,7.7,17.2,0.03,5.6,111000,54.7,72
535020,2021-02-18,15:02:41,CHINA,-10.2,-21.9,979.9,1029.4,22.7,11.5,0.00,0.0,100000,46.4,177
518110,2021-02-18,15:02:41,CHINA,-1.8,-10.7,919.7,1025.0,14.3,4.7,0.00,0.0,100000,45.2,247
526020,2021-02-18,15:02:41,CHINA,-15.0,-31.4,726.2,726.5,26.7,14.9,0.00,0.0,100000,53.1,188
361770,2021-02-18,15:02:41,KAZAKHSTAN,-6.9,-11.9,1020.3,1027.1,10.3,9.1,0.00,0.0,100000,53.5,26
475200,2021-02-18,15:02:41,JAPAN,-3.2,-6.3,1005.5,1018.6,16.3,11.4,0.15,0.0,110000,50.1,172
353860,2021-02-18,15:02:41,KAZAKHSTAN,-16.5,-19.0,986.5,989.7,17.5,9.5,0.00,0.0,100000,6.3,153
474130,2021-02-18,15:02:41,JAPAN,-7.0,-10.1,1008.2,1014.6,17.1,9.6,0.03,0.0,110000,50.1,280
474170,2021-02-18,15:02:41,JAPAN,-14.6,-18.8,1009.8,1015.0,10.2,5.8,0.04,0.0,110000,51.1,264
350420,2021-02-18,15:02:41,KAZAKHSTAN,-7.7,-11.4,1025.8,1025.6,16.8,17.7,0.00,6.3,101000,50.2,89
522030,2021-02-18,15:02:41,CHINA,-7.7,-18.1,989.1,1027.9,37.5,7.4,0.00,0.0,100000,80.7,148
518180,2021-02-18,15:02:41,CHINA,-1.2,-12.9,976.6,1023.7,15.6,4.9,0.01,0.0,110000,50.7,45
529570,2021-02-18,15:02:41,CHINA,-16.0,-30.8,723.5,726.8,27.1,14.1,0.00,0.0,100000,95.1,32
508540,2021-02-18,15:02:41,CHINA,-17.5,-24.7,1022.5,1023.1,16.9,10.7,0.01,0.0,110000,95.0,301
476040,2021-02-18,15:02:41,JAPAN,-0.2,-4.6,1019.2,1018.8,14.7,15.3,0.21,6.1,111000,50.1,36
518860,2021-02-18,15:02:41,CHINA,-12.5,-30.4,701.4,700.8,27.1,12.8,0.00,0.0,100000,42.1,221
443520,2021-02-18,15:02:41,MONGOLIA,-15.1,-24.2,1020.7,1029.0,50.0,14.5,0.00,0.0,100000,27.3,201
475910,2021-02-18,15:02:41,JAPAN,-1.3,-5.8,1002.4,998.2,12.4,14.1,0.05,0.5,111000,50.0,333
442190,2021-02-18,15:02:41,MONGOLIA,-11.0,,850.8,1015.1,19.0,6.4,0.00,0.0,100000,27.2,214
470900,2021-02-18,15:02:41,KOREASOUTH,-1.0,-8.5,1020.0,1021.3,20.2,11.2,0.17,0.5,111000,96.9,112
514310,2021-02-18,15:02:41,CHINA,-4.5,-7.9,976.8,1028.2,31.5,5.6,0.03,0.0,110000,50.6,147
471460,2021-02-18,15:02:41,KOREASOUTH,-1.9,-6.9,1020.2,1023.8,18.4,5.9,0.06,0.1,111000,50.2,291
516560,2021-02-18,15:02:41,CHINA,-4.2,-17.2,932.8,1027.0,18.6,9.1,0.00,0.0,100000,11.8,125
576220,2021-02-18,15:02:41,CHINA,-3.3,-4.3,842.1,837.9,3.0,10.6,0.15,0.0,110000,50.2,167
560670,2021-02-18,15:02:41,CHINA,-13.2,-23.9,650.5,646.5,19.9,12.7,0.00,0.0,100000,25.8,101
288670,2021-02-18,15:02:41,KAZAKHSTAN,-15.3,-20.1,997.3,1033.5,20.7,8.2,0.00,26.3,101000,85.6,72
472185,2021-02-18,15:02:41,JAPAN,-4.8,-12.4,985.6,975.6,9.6,19.9,0.00,0.0,100000,74.2,317
476490,2021-02-18,15:02:41,JAPAN,-0.1,-5.3,999.6,1019.6,18.5,12.6,0.28,0.0,110000,50.8,22
475840,2021-02-18,15:02:41,JAPAN,-4.6,-9.8,1007.1,1017.5,15.4,10.7,0.13,3.9,111000,50.1,122
535130,2021-02-18,15:02:41,CHINA,-9.7,-21.6,926.6,1029.6,21.3,7.4,0.00,0.0,100000,25.2,358
475900,2021-02-18,15:02:41,JAPAN,-1.1,-7.5,1014.7,1017.8,23.1,12.1,0.25,0.3,111000,50.3,203
381411,2021-02-18,15:02:41,KAZAKHSTAN,-7.5,-8.0,1006.3,987.3,6.5,17.3,0.00,0.0,100000,90.8,86
381410,2021-02-18,15:02:41,UZBEKISTAN,-0.7,-4.8,1004.6,1020.9,18.5,12.7,0.00,0.0,100000,30.6,358
443540,2021-02-18,15:02:41,MONGOLIA,-14.8,-21.1,1058.1,1029.4,49.6,17.0,0.00,0.0,100000,46.7,286
526610,2021-02-18,15:02:41,CHINA,-11.0,-24.2,929.2,953.9,69.5,,0.00,0.0,100000,22.5,244
544230,2021-02-18,15:02:41,CHINA,-10.2,-23.7,975.9,1024.6,24.1,5.1,0.00,0.0,100000,22.4,326
534800,2021-02-18,15:02:41,CHINA,-14.4,-23.3,958.0,1030.3,26.2,11.7,0.03,0.0,110000,50.6,235
475570,2021-02-18,15:02:41,JAPAN,-0.7,-7.4,993.0,995.8,9.9,16.5,0.00,0.0,100000,73.3,346
517470,2021-02-18,15:02:41,CHINA,-6.5,-18.0,893.8,1025.7,19.3,3.8,0.00,0.0,100000,35.6,52
381780,2021-02-18,15:02:41,UZBEKISTAN,-0.8,-7.7,1010.5,1025.1,14.6,10.6,0.00,0.0,100000,6.3,168
542360,2021-02-18,15:02:41,CHINA,-11.6,-21.4,1020.5,1024.8,19.6,14.3,0.02,0.0,110000,50.9,78
470580,2021-02-18,15:02:41,KOREANORTH,-6.3,-13.0,1017.3,1024.5,13.1,8.3,0.03,0.3,111000,50.5,42
351730,2021-02-18,15:02:41,KAZAKHSTAN,-11.4,-13.9,1025.6,1033.9,29.7,13.5,0.00,6.0,101000,81.7,5
471610,2021-02-18,15:02:41,KOREASOUTH,-2.0,-9.5,999.2,994.6,10.7,7.4,0.03,0.0,110000,50.1,55
476370,2021-02-18,15:02:41,JAPAN,-3.5,-9.5,958.3,1018.2,27.2,9.8,0.18,0.0,110000,93.1,265
561720,2021-02-18,15:02:41,CHINA,-2.6,-14.6,778.4,781.2,32.4,3.5,0.04,0.0,110000,50.1,39
561730,2021-02-18,15:02:41,CHINA,-12.5,-24.4,660.3,670.4,29.4,10.6,0.00,0.0,100000,81.4,195
470200,2021-02-18,15:02:41,KOREANORTH,-12.0,-19.1,1016.0,1028.9,10.6,4.0,0.00,0.0,100000,47.9,347
170672,2021-02-18,15:02:41,TURKEY,-1.8,-4.8,993.4,1017.3,6.8,9.8,0.00,0.0,100000,2.9,164
170674,2021-02-18,15:02:41,TURKEY,-0.7,-3.8,1003.2,1017.5,8.1,19.3,0.00,0.0,100000,52.9,279
471750,2021-02-18,15:02:41,KOREASOUTH,-0.8,-8.6,965.7,1024.1,13.6,21.4,0.06,0.0,110000,94.9,276
470250,2021-02-18,15:02:41,KOREANORTH,-4.8,-9.4,,1021.3,10.6,8.5,0.27,0.0,110000,50.4,12
475420,2021-02-18,15:02:41,JAPAN,-4.0,-8.0,999.6,1001.7,8.4,17.3,0.00,0.0,100000,53.6,234
471290,2021-02-18,15:02:41,KOREASOUTH,-3.3,-8.2,1021.3,1024.0,19.1,8.6,0.03,0.0,110000,58.1,307
571930,2021-02-18,15:02:41,CHINA,-0.2,-7.5,1031.2,1026.3,14.4,8.7,0.02,0.0,110000,72.5,92
538210,2021-02-18,15:02:41,CHINA,-7.2,-20.0,931.5,1029.0,18.6,9.0,0.00,0.0,100000,0.3,94
443470,2021-02-18,15:02:41,MONGOLIA,-2.7,-25.9,861.4,1013.1,37.2,26.4,0.00,0.0,100000,23.8,3
470670,2021-02-18,15:02:41,KOREANORTH,-6.4,-10.5,1044.9,1024.9,15.7,7.4,0.00,0.0,100000,97.9,53
542260,2021-02-18,15:02:41,CHINA,-11.0,-23.6,1022.6,1025.9,25.5,14.9,0.01,0.0,110000,87.8,130
470680,2021-02-18,15:02:41,KOREANORTH,-4.7,-9.1,1030.9,1024.8,16.1,11.4,0.01,0.0,110000,50.0,171
471131,2021-02-18,15:02:41,KOREASOUTH,-1.7,-11.3,977.4,985.9,9.0,11.8,0.00,0.0,100000,36.5,82
471130,2021-02-18,15:02:41,KOREASOUTH,-1.5,-7.6,1020.0,1022.4,10.9,7.8,0.00,0.0,100000,58.9,272
531490,2021-02-18,15:02:41,CHINA,-14.0,-23.7,905.9,1030.0,29.0,16.1,0.01,0.0,110000,62.6,296
358490,2021-02-18,15:02:41,KAZAKHSTAN,-5.2,-9.9,1017.0,1024.3,17.9,12.1,0.02,1.1,111000,50.0,92
522670,2021-02-18,15:02:41,CHINA,-10.8,-25.7,931.2,1030.8,27.9,12.3,0.00,0.0,100000,26.4,139
561520,2021-02-18,15:02:41,CHINA,-12.2,-20.4,663.1,663.9,32.1,5.1,0.02,0.0,110000,50.0,145
530680,2021-02-18,15:02:41,CHINA,-15.9,-23.6,934.1,1030.4,27.9,13.4,0.01,,110000,50.2,211
355490,2021-02-18,15:02:41,KAZAKHSTAN,-7.9,-11.5,1033.8,1030.5,22.2,10.1,0.00,4.8,101000,50.4,174
474410,2021-02-18,15:02:41,JAPAN,-6.5,-11.6,1004.0,1006.1,9.2,24.8,0.00,0.0,100000,82.6,97
532760,2021-02-18,15:02:41,CHINA,-14.2,-22.6,919.4,1030.2,28.4,19.7,0.01,0.0,110000,76.5,90
475700,2021-02-18,15:02:41,JAPAN,-2.8,-5.8,1008.8,1019.3,14.9,7.2,0.15,9.5,111000,50.1,199
471430,2021-02-18,15:02:41,KOREASOUTH,-0.7,-9.2,1016.1,1023.0,18.4,10.2,0.06,0.1,111000,50.0,20
443850,2021-02-18,15:02:41,MONGOLIA,-8.5,-20.8,896.4,1029.6,50.9,16.8,0.00,0.0,100000,14.7,38
545110,2021-02-18,15:02:41,CHINA,-3.9,-15.6,1022.7,1026.0,14.9,12.7,0.03,0.0,110000,73.4,122
474760,2021-02-18,15:02:41,JAPAN,-11.3,-14.0,1001.9,1003.9,8.5,11.6,0.00,0.0,100000,43.3,169
470990,2021-02-18,15:02:41,KOREASOUTH,-6.5,-12.8,1020.6,1024.6,11.5,5.6,0.01,0.0,110000,50.5,2
471030,2021-02-18,15:02:41,KOREASOUTH,-2.5,-6.8,1014.4,1022.7,12.0,21.2,0.00,0.0,100000,65.3,339
471025,2021-02-18,15:02:41,KOREASOUTH,-2.7,-8.6,1013.2,1022.3,11.6,4.2,0.00,0.0,100000,64.1,199
501360,2021-02-18,15:02:41,CHINA,-27.9,-31.4,968.2,1026.0,20.3,8.0,0.00,0.0,100000,10.4,0
476000,2021-02-18,15:02:41,JAPAN,-0.1,-5.0,1018.4,1019.6,16.0,14.0,0.29,5.1,111000,50.2,355
475490,2021-02-18,15:02:41,JAPAN,-2.3,-8.9,998.4,999.5,8.8,9.3,0.00,0.0,100000,87.4,237
354970,2021-02-18,15:02:41,KAZAKHSTAN,-7.5,-12.5,983.2,1035.3,31.4,11.8,0.02,7.5,111000,50.6,202
548080,2021-02-18,15:02:41,CHINA,-2.3,-11.8,1030.2,1027.0,12.8,10.8,0.02,0.0,110000,50.1,104
541860,2021-02-18,15:02:41,CHINA,-16.0,-21.9,1013.4,1024.6,18.7,10.0,0.03,0.0,110000,50.1,143
524410,2021-02-18,15:02:41,CHINA,-14.2,-27.0,845.1,847.5,43.0,17.1,0.00,0.0,100000,78.4,354
516440,2021-02-18,15:02:41,CHINA,-2.7,-12.4,923.6,1028.1,22.7,7.5,0.01,0.0,110000,50.0,79
505640,2021-02-18,15:02:41,CHINA,-23.4,-29.8,1018.7,1024.1,18.3,7.0,0.01,0.0,110000,50.2,306
474810,2021-02-18,15:02:41,JAPAN,-10.7,-14.3,1000.5,992.0,9.2,11.8,0.00,0.0,100000,39.6,357
540260,2021-02-18,15:02:41,CHINA,-10.6,-24.1,1013.1,1024.6,26.0,12.1,0.01,0.0,110000,84.8,9
471223,2021-02-18,15:02:41,KOREASOUTH,-0.5,-2.5,1010.6,1018.1,4.3,11.8,1.07,0.0,110000,50.1,154
471220,2021-02-18,15:02:41,KOREASOUTH,-4.6,-10.6,1017.1,1018.2,9.9,8.3,0.03,0.3,111000,50.0,12
476290,2021-02-18,15:02:41,JAPAN,-1.9,-8.1,1012.6,1016.4,33.1,9.8,0.03,0.0,110000,50.4,106
386090,2021-02-18,15:02:41,TAJIKISTAN,-2.4,-7.7,925.0,1028.1,16.8,10.0,0.00,0.0,100000,82.8,120
470690,2021-02-18,15:02:41,KOREANORTH,-4.3,-10.6,1021.8,1024.8,15.2,9.7,0.00,0.0,100000,90.9,179
517090,2021-02-18,15:02:41,CHINA,-0.9,-9.5,912.1,1026.8,15.3,5.8,0.01,0.0,110000,50.1,277
470700,2021-02-18,15:02:41,KOREANORTH,-4.3,-11.2,1028.4,1022.8,17.7,7.8,0.05,0.0,110000,88.7,107
593530,2021-02-18,15:02:41,TAIWAN,-2.9,-3.0,763.2,1022.0,7.6,5.3,0.00,0.0,100000,96.7,16
471320,2021-02-18,15:02:41,KOREASOUTH,-8.3,-15.2,1003.9,995.6,10.6,1.0,0.00,0.0,100000,46.1,39
360010,2021-02-18,15:02:41,KAZAKHSTAN,-6.1,-9.6,1010.9,1026.7,4.1,33.7,0.02,3.2,111000,59.8,277
526740,2021-02-18,15:02:41,CHINA,-12.0,-23.5,801.4,797.0,28.8,11.1,0.01,0.0,110000,50.1,210
518280,2021-02-18,15:02:41,CHINA,-2.1,-13.9,897.8,1024.4,9.8,5.4,0.01,0.0,110000,50.2,248
541610,2021-02-18,15:02:41,CHINA,-13.3,-21.1,1014.6,1024.0,12.5,13.5,0.02,0.0,110000,50.6,134
541611,2021-02-18,15:02:41,CHINA,-12.5,-26.3,1008.9,1008.0,9.8,17.4,0.00,0.0,100000,18.6,287
541570,2021-02-18,15:02:41,CHINA,-12.0,-19.2,1021.2,1024.2,14.7,10.7,0.04,0.0,110000,50.2,325
364390,2021-02-18,15:02:42,KAZAKHSTAN,-16.2,-20.6,997.0,1002.3,37.3,15.6,0.81,2.3,111000,97.8,267
525760,2021-02-18,15:02:42,CHINA,-9.7,-22.1,852.6,855.2,30.4,17.6,0.00,0.0,100000,24.1,268
543110,2021-02-18,15:02:42,CHINA,-11.4,-23.0,970.7,1028.1,28.1,6.5,0.01,0.0,110000,54.0,77
522670,2021-02-18,15:02:42,CHINA,-11.3,-27.3,931.2,1030.8,27.8,12.4,0.00,0.0,100000,26.4,139
561520,2021-02-18,15:02:42,CHINA,-12.2,-22.2,663.1,663.9,32.2,5.1,0.02,0.0,110000,50.0,144
530680,2021-02-18,15:02:42,CHINA,-17.0,-25.2,934.1,1030.4,27.9,13.3,0.01,0.0,110000,50.2,212
354590,2021-02-18,15:02:42,KAZAKHSTAN,-8.2,-13.9,1031.7,1029.9,48.2,24.0,0.00,4.5,101000,50.1,213
471074,2021-02-18,15:02:42,KOREASOUTH,-2.8,-7.1,1007.7,1025.9,9.5,18.8,0.00,0.0,100000,99.2,331
471087,2021-02-18,15:02:42,KOREASOUTH,-4.5,-15.3,1006.9,985.3,11.0,11.2,0.00,0.0,100000,32.9,321
471080,2021-02-18,15:02:42,KOREASOUTH,-3.1,-9.2,1019.3,1023.7,11.3,8.9,0.03,0.1,111000,85.4,294
471120,2021-02-18,15:02:42,KOREASOUTH,-2.7,-9.0,1018.4,1023.5,15.9,12.4,0.04,0.0,110000,51.2,45
506320,2021-02-18,15:02:42,CHINA,-19.6,-23.9,983.0,1024.4,27.6,10.3,0.02,0.0,110000,50.3,166
549090,2021-02-18,15:02:42,CHINA,-1.0,-8.9,1021.1,1027.7,15.3,10.6,0.06,0.0,110000,50.2,143
552990,2021-02-18,15:02:42,CHINA,-15.5,-29.0,1003.2,1004.7,27.2,11.8,0.03,0.0,110000,99.1,332
350850,2021-02-18,15:02:42,KAZAKHSTAN,-13.6,-18.9,1017.7,1033.3,28.6,15.9,0.02,3.4,111000,74.8,335
544970,2021-02-18,15:02:42,CHINA,-6.6,-15.3,1025.1,1024.4,15.1,11.4,0.06,0.0,110000,50.3,350
538210,2021-02-18,15:02:42,CHINA,-7.6,-20.0,931.6,1029.0,18.5,8.9,0.00,0.0,100000,0.3,94
443470,2021-02-18,15:02:42,MONGOLIA,-7.6,-25.9,861.4,1013.1,37.3,26.2,0.00,0.0,100000,23.8,3
547140,2021-02-18,15:02:42,CHINA,-3.7,-12.3,1029.4,1026.2,15.7,10.4,0.03,0.0,110000,50.0,229
471540,2021-02-18,15:02:42,KOREASOUTH,-0.1,-11.1,1012.8,1034.7,11.8,11.3,0.00,0.0,100000,6.8,283
471060,2021-02-18,15:02:42,KOREASOUTH,-4.1,-10.8,1017.0,1022.1,14.1,6.5,0.11,0.4,111000,50.2,319
470990,2021-02-18,15:02:42,KOREASOUTH,-6.2,-12.8,1020.6,1024.6,11.6,5.5,0.01,0.0,110000,50.4,2
471030,2021-02-18,15:02:42,KOREASOUTH,-2.5,-6.3,1014.4,1022.6,12.1,21.3,0.00,0.0,100000,65.3,339
471025,2021-02-18,15:02:42,KOREASOUTH,-2.8,-8.6,1013.2,1022.3,11.6,4.2,0.00,0.0,100000,64.1,200
501360,2021-02-18,15:02:42,CHINA,-27.9,-33.9,968.2,1026.0,20.4,8.1,0.00,0.0,100000,10.4,0
471750,2021-02-18,15:02:42,KOREASOUTH,-0.8,-7.5,965.7,1024.1,13.7,21.5,0.06,0.0,110000,94.9,276
470250,2021-02-18,15:02:42,KOREANORTH,-4.9,-9.4,1015.1,1021.3,10.5,8.4,0.27,0.0,110000,50.4,12
518480,2021-02-18,15:02:42,CHINA,-5.7,-20.5,923.6,1027.2,15.5,6.9,0.00,0.0,100000,49.7,278
442840,2021-02-18,15:02:42,MONGOLIA,-28.1,-31.6,787.5,1046.5,49.9,2.3,0.00,4.5,101000,67.7,103
364420,2021-02-18,15:02:42,KAZAKHSTAN,-19.0,-28.2,1017.2,1008.7,38.3,27.1,0.00,2.6,101000,80.9,295
442820,2021-02-18,15:02:42,MONGOLIA,-8.4,-24.7,816.0,1009.5,49.1,7.4,0.00,0.0,100000,21.6,33
581440,2021-02-18,15:02:42,CHINA,-0.3,-6.4,1026.9,1026.4,16.5,9.5,0.08,0.0,110000,50.2,12
442290,2021-02-18,15:02:42,MONGOLIA,-14.9,-24.5,780.6,1014.0,50.1,6.7,0.00,0.0,100000,63.9,156
570830,2021-02-18,15:02:42,CHINA,-1.0,-9.7,1020.6,1027.1,10.0,8.7,0.04,0.0,110000,51.0,97
508540,2021-02-18,15:02:42,CHINA,-16.7,-24.7,1022.6,1023.1,17.0,10.8,0.01,0.0,110000,95.0,301
516560,2021-02-18,15:02:42,CHINA,-3.9,-16.1,932.8,1027.0,18.5,9.1,0.00,0.0,100000,11.8,126
476170,2021-02-18,15:02:42,JAPAN,-6.4,-9.4,957.5,1027.8,24.0,4.3,0.00,0.0,100000,14.7,34
529080,2021-02-18,15:02:42,CHINA,-19.3,-31.6,999.9,1006.4,27.2,20.8,0.00,0.0,100000,93.5,195
474790,2021-02-18,15:02:42,JAPAN,-8.9,-13.3,1000.8,1000.7,8.1,13.7,0.00,0.0,100000,77.5,79
523780,2021-02-18,15:02:42,CHINA,-9.8,-25.1,986.5,1008.0,29.8,16.1,0.00,0.0,100000,23.3,40
506580,2021-02-18,15:02:42,CHINA,-20.1,-25.6,1025.3,1023.7,15.1,7.5,0.01,0.0,110000,75.5,352
470390,2021-02-18,15:02:42,KOREANORTH,-8.4,-11.1,1022.0,1024.1,8.1,3.4,0.00,0.0,100000,89.8,98
526810,2021-02-18,15:02:42,CHINA,-9.7,-23.0,898.2,1029.7,30.0,10.7,0.00,0.0,100000,3.2,315
380620,2021-02-18,15:02:42,KAZAKHSTAN,-4.6,-9.3,1026.6,1024.5,20.0,14.5,0.01,0.7,111000,93.7,348
529830,2021-02-18,15:02:42,CHINA,-10.4,-15.4,818.7,835.6,21.0,6.4,0.02,0.0,110000,67.0,324
354970,2021-02-18,15:02:42,KAZAKHSTAN,-7.2,-13.6,983.2,1035.3,31.4,11.7,0.02,7.5,111000,50.6,202
471064,2021-02-18,15:02:42,KOREASOUTH,-10.0,-15.4,1001.3,1011.1,10.8,9.8,0.00,0.0,100000,52.1,83
471066,2021-02-18,15:02:42,KOREASOUTH,-4.9,-11.0,1007.9,1002.4,8.9,5.8,0.00,0.0,100000,99.0,51
471050,2021-02-18,15:02:42,KOREASOUTH,-1.0,-8.7,1016.6,1021.8,20.4,12.0,0.18,1.4,111000,92.2,249
534630,2021-02-18,15:02:42,CHINA,-11.5,-19.4,929.9,1030.4,16.8,7.1,0.01,0.0,110000,50.5,326
524950,2021-02-18,15:02:42,CHINA,-12.2,-23.7,903.3,1030.9,26.1,12.4,0.00,0.0,100000,88.1,133
545390,2021-02-18,15:02:42,CHINA,-5.6,-14.7,1024.6,1027.3,18.6,10.8,0.03,0.0,110000,95.2,101
560180,2021-02-18,15:02:42,CHINA,-13.0,-22.9,627.0,632.9,26.4,8.3,0.02,0.0,110000,85.9,170
560340,2021-02-18,15:02:42,CHINA,-22.8,-32.2,600.9,595.9,22.6,17.0,0.02,0.0,110000,50.0,214
350670,2021-02-18,15:02:42,KAZAKHSTAN,-8.6,-13.0,1043.2,1033.9,10.4,9.5,0.00,5.2,101000,51.0,312
541610,2021-02-18,15:02:42,CHINA,-12.3,-21.1,1014.6,1024.0,12.4,13.5,0.02,0.0,110000,50.6,133
541611,2021-02-18,15:02:42,CHINA,-13.1,-26.3,1009.1,1007.6,9.9,17.4,0.00,0.0,100000,18.6,288
541570,2021-02-18,15:02:42,CHINA,-12.3,-20.5,1021.2,1024.3,14.6,10.8,0.04,0.0,110000,50.2,325
380190,2021-02-18,15:02:42,KAZAKHSTAN,-10.8,-15.3,1043.1,1032.7,29.3,12.1,0.02,9.4,111000,92.6,60
544490,2021-02-18,15:02:42,CHINA,-0.3,-21.2,1031.0,1016.8,31.9,24.5,0.00,0.0,100000,47.8,298
356050,2021-02-18,15:02:42,KAZAKHSTAN,-0.8,-1.6,1036.1,1014.5,22.3,18.2,0.19,0.0,110000,50.3,161
528660,2021-02-18,15:02:42,CHINA,-8.0,-21.3,772.3,771.4,16.2,7.5,0.00,0.0,100000,18.8,273
546020,2021-02-18,15:02:42,CHINA,-3.5,-13.1,1022.0,1026.4,10.9,7.6,0.03,0.0,110000,64.9,213
474200,2021-02-18,15:02:42,JAPAN,-7.2,-11.9,1012.2,1015.2,20.8,14.7,0.06,3.8,111000,50.4,283
351910,2021-02-18,15:02:42,KAZAKHSTAN,-11.3,-18.9,1060.9,1042.6,37.1,12.4,0.00,0.0,100000,8.5,61
536140,2021-02-18,15:02:42,CHINA,-7.7,-17.3,928.6,1029.1,20.6,7.1,0.01,0.0,110000,50.2,317
514310,2021-02-18,15:02:42,CHINA,-5.0,-7.9,976.8,1028.2,31.4,5.5,0.03,0.0,110000,50.6,147
514950,2021-02-18,15:02:42,CHINA,-2.9,-20.9,990.2,1032.5,35.0,26.5,0.01,0.0,110000,50.6,333
357390,2021-02-18,15:02:42,KAZAKHSTAN,-4.7,-9.5,1041.8,1029.5,46.3,14.6,0.00,1.3,101000,50.4,38
556640,2021-02-18,15:02:42,CHINA,-12.3,-31.6,601.9,600.6,28.6,12.3,0.00,0.0,100000,44.4,352
507270,2021-02-18,15:02:42,CHINA,-24.9,-27.5,914.8,1028.3,25.7,7.6,0.01,0.0,110000,50.2,349
366220,2021-02-18,15:02:42,KAZAKHSTAN,-7.3,-11.3,1034.1,1037.4,42.8,13.6,0.02,6.3,111000,51.9,127
540960,2021-02-18,15:02:42,CHINA,-4.0,-21.4,1022.9,1023.1,17.4,12.3,0.03,0.0,110000,50.2,12
289780,2021-02-18,15:02:42,KAZAKHSTAN,-10.2,-12.5,969.2,1022.4,17.2,10.8,0.00,0.0,100000,31.1,275
357000,2021-02-18,15:02:42,KAZAKHSTAN,-3.1,-6.3,1025.2,1023.0,16.5,18.8,0.01,0.4,111000,50.3,171
513460,2021-02-18,15:02:42,CHINA,-18.3,-20.6,1068.0,1038.6,57.2,5.5,0.00,0.0,100000,56.6,299
537050,2021-02-18,15:02:42,CHINA,-6.9,-19.6,974.7,1028.7,19.1,11.3,0.01,0.0,110000,50.2,251
527130,2021-02-18,15:02:42,CHINA,-13.4,-30.8,698.8,699.1,29.1,8.8,0.00,0.0,100000,11.1,260
471360,2021-02-18,15:02:42,KOREASOUTH,-3.5,-10.9,1010.7,1024.1,18.0,7.2,0.06,0.0,110000,89.7,27
471370,2021-02-18,15:02:42,KOREASOUTH,-2.8,-12.1,1010.5,1023.0,15.5,6.8,0.03,0.0,110000,50.3,66
509680,2021-02-18,15:02:42,CHINA,-19.7,-23.1,1025.1,1023.8,14.7,10.2,0.03,0.0,110000,51.8,54
548430,2021-02-18,15:02:42,CHINA,-4.4,-12.0,1024.0,1026.6,16.9,12.4,0.04,0.0,110000,50.9,23
561930,2021-02-18,15:02:42,CHINA,-1.3,-5.7,1033.3,1031.2,14.2,2.6,0.11,0.0,110000,50.4,34
383340,2021-02-18,15:02:42,KAZAKHSTAN,-1.4,-6.0,927.1,1024.4,12.0,10.5,0.00,4.7,101000,73.2,152
476290,2021-02-18,15:02:42,JAPAN,-1.9,-8.1,1012.6,1016.4,33.0,9.7,0.03,0.0,110000,50.3,106
475840,2021-02-18,15:02:42,JAPAN,-4.6,-8.9,1007.1,1017.5,15.5,10.6,0.13,3.9,111000,50.1,122
535130,2021-02-18,15:02:42,CHINA,-9.1,-21.6,926.6,1029.6,21.4,7.4,0.00,0.0,100000,25.3,358
475900,2021-02-18,15:02:42,JAPAN,-1.1,-7.5,1014.7,1017.7,23.1,12.0,0.25,0.3,111000,50.3,203
548080,2021-02-18,15:02:42,CHINA,-2.4,-10.7,1030.1,1027.0,12.7,10.8,0.02,0.0,110000,50.2,104
474070,2021-02-18,15:02:42,JAPAN,-10.8,-14.0,1007.3,1016.5,9.5,6.6,0.11,20.4,111000,50.5,35
474060,2021-02-18,15:02:42,JAPAN,-7.4,-11.1,1011.2,1015.6,17.7,20.6,0.11,19.6,111000,50.9,74
25105,2021-02-18,15:02:42,SINGAPORE,-1.0,-3.9,1010.8,998.7,10.8,6.4,0.00,0.0,100000,75.8,270
289570,2021-02-18,15:02:42,KAZAKHSTAN,-7.4,-10.4,1035.4,1028.1,10.2,11.6,0.00,6.8,101000,75.5,213
350420,2021-02-18,15:02:42,KAZAKHSTAN,-7.0,-10.2,1025.8,1025.6,16.8,17.6,0.00,6.3,101000,50.1,89
522030,2021-02-18,15:02:42,CHINA,-7.7,-19.5,989.1,1027.9,37.6,7.3,0.00,0.0,100000,80.7,148
475880,2021-02-18,15:02:42,JAPAN,-3.3,-6.5,998.2,1017.1,11.0,6.8,0.07,0.0,110000,50.7,258
560650,2021-02-18,15:02:42,CHINA,-15.0,-24.6,661.0,659.9,26.5,9.5,0.01,0.0,110000,64.3,29
561820,2021-02-18,15:02:42,CHINA,-6.9,-16.9,778.5,821.9,28.3,6.7,0.06,0.0,110000,50.4,225
539590,2021-02-18,15:02:42,CHINA,-1.4,-11.8,1011.0,1027.1,16.5,9.3,0.01,0.0,110000,50.3,51
476400,2021-02-18,15:02:42,JAPAN,-7.9,-17.5,920.4,914.9,30.5,5.4,0.00,0.0,100000,45.7,286
353020,2021-02-18,15:02:42,KAZAKHSTAN,-7.5,-10.8,1051.5,1035.0,19.9,18.4,0.00,0.0,100000,3.4,136
476200,2021-02-18,15:02:42,JAPAN,-3.2,-6.8,926.7,1018.5,27.1,12.7,0.18,0.0,110000,50.0,124
471100,2021-02-18,15:02:42,KOREASOUTH,-4.1,-10.1,1007.6,1010.5,9.4,10.6,0.00,0.0,100000,63.4,278
471140,2021-02-18,15:02:42,KOREASOUTH,-4.7,-10.6,1008.0,1023.9,14.7,4.7,0.08,0.0,110000,97.0,258
505640,2021-02-18,15:02:42,CHINA,-24.6,-28.0,1018.7,1024.1,18.3,7.0,0.01,0.0,110000,50.2,307
474810,2021-02-18,15:02:42,JAPAN,-10.1,-14.3,1000.5,992.1,9.2,11.7,0.00,0.0,100000,39.6,357
585060,2021-02-18,15:02:42,CHINA,-1.0,-4.8,977.8,1026.8,12.2,14.7,0.19,0.0,110000,94.1,222
476900,2021-02-18,15:02:42,JAPAN,-7.5,-12.8,866.7,867.0,25.3,13.9,0.14,0.0,110000,50.0,216
355490,2021-02-18,15:02:42,KAZAKHSTAN,-7.8,-11.5,1033.7,1030.5,22.1,10.2,0.00,4.8,101000,50.5,174
442870,2021-02-18,15:02:42,MONGOLIA,-20.0,-24.5,813.9,1035.3,50.2,12.9,0.00,2.6,101000,50.3,60
470460,2021-02-18,15:02:42,KOREANORTH,-4.1,-9.5,1024.0,1020.5,15.8,5.1,0.01,0.0,110000,62.3,245
347980,2021-02-18,15:02:42,KAZAKHSTAN,-3.3,-7.0,1018.9,1020.3,10.4,21.4,0.00,0.6,101000,74.7,43
541020,2021-02-18,15:02:42,CHINA,-19.0,-25.1,936.5,1030.5,28.5,12.3,0.01,0.0,110000,50.4,228
517300,2021-02-18,15:02:42,CHINA,-3.1,-12.9,987.1,1028.6,20.0,4.5,0.01,0.0,110000,50.4,72
366390,2021-02-18,15:02:42,KAZAKHSTAN,-10.3,-14.2,1056.3,1038.5,49.2,2.7,1.83,0.0,110000,71.0,343
526610,2021-02-18,15:02:42,CHINA,-10.3,-24.2,929.2,954.0,69.4,8.0,0.00,0.0,100000,22.5,244
544230,2021-02-18,15:02:42,CHINA,-10.0,-23.7,975.9,1024.6,24.1,5.2,0.00,0.0,100000,22.4,326
474900,2021-02-18,15:02:42,JAPAN,-10.9,-16.3,992.7,995.9,10.1,8.8,0.00,0.0,100000,32.8,144
474890,2021-02-18,15:02:42,JAPAN,-8.0,-14.0,1002.6,1001.7,10.3,10.9,0.00,0.0,100000,65.3,252
505480,2021-02-18,15:02:42,CHINA,-21.3,-24.1,998.9,1010.3,30.6,3.5,0.00,0.0,100000,61.9,228
476040,2021-02-18,15:02:42,JAPAN,-0.2,-5.2,1019.2,1018.8,14.7,15.4,0.21,6.1,111000,50.2,36
537640,2021-02-18,15:02:42,CHINA,-7.5,-16.4,974.0,1029.5,18.9,8.2,0.12,0.0,110000,80.3,196
548230,2021-02-18,15:02:42,CHINA,-0.9,-12.8,1022.8,1026.4,11.4,11.9,0.05,0.0,110000,50.1,215
470750,2021-02-18,15:02:42,KOREANORTH,-6.3,-10.5,1027.8,1023.0,23.6,7.8,0.11,0.0,110000,50.6,260
542730,2021-02-18,15:02:42,CHINA,-16.8,-21.9,1017.4,1025.2,15.7,8.2,0.06,0.0,110000,67.5,344
470520,2021-02-18,15:02:42,KOREANORTH,-7.9,-11.7,1034.4,1028.5,13.7,4.8,0.00,0.0,100000,78.4,106
517650,2021-02-18,15:02:42,CHINA,-7.7,-19.1,939.6,1027.3,28.1,6.0,0.00,,100000,47.3,25
560800,2021-02-18,15:02:42,CHINA,-11.4,-22.0,734.5,733.3,25.3,6.5,0.01,0.0,110000,95.4,158
560790,2021-02-18,15:02:42,CHINA,-12.2,-22.5,665.4,664.8,31.4,8.7,0.02,0.0,110000,50.3,232
362080,2021-02-18,15:02:42,KAZAKHSTAN,-24.0,-25.7,1013.5,1026.8,26.8,3.8,0.38,22.6,111000,50.1,229
346910,2021-02-18,15:02:42,KAZAKHSTAN,-3.6,-7.1,1022.1,1023.4,20.6,16.9,0.00,1.4,101000,68.1,25
442370,2021-02-18,15:02:42,MONGOLIA,-15.7,-21.5,844.0,1022.9,49.1,11.0,0.01,0.3,111000,50.3,28
529960,2021-02-18,15:02:42,CHINA,-8.7,-13.9,778.7,779.3,15.1,15.9,0.01,0.0,110000,50.5,329
560930,2021-02-18,15:02:42,CHINA,-9.8,-15.8,1006.3,1019.0,16.0,12.3,0.00,0.0,100000,29.1,310
570230,2021-02-18,15:02:42,CHINA,-0.3,-11.9,872.7,1009.8,11.3,5.5,0.00,0.0,100000,47.0,95
357460,2021-02-18,15:02:42,KAZAKHSTAN,-8.6,-12.3,1025.5,1027.7,16.4,18.8,0.01,1.1,111000,99.2,123
357910,2021-02-18,15:02:42,KAZAKHSTAN,-13.3,-16.5,1035.2,1036.5,40.3,6.4,0.03,2.4,111000,79.3,140
543240,2021-02-18,15:02:42,CHINA,-11.0,-26.3,1022.2,1025.4,21.0,11.7,0.01,0.0,110000,54.5,184
536980,2021-02-18,15:02:42,CHINA,-2.0,-12.3,1029.0,1026.5,13.2,6.5,0.04,0.0,110000,50.5,357
289840,2021-02-18,15:02:42,KAZAKHSTAN,-6.0,-8.8,1011.0,1024.3,38.9,11.3,0.00,0.0,100000,76.0,167
540270,2021-02-18,15:02:42,CHINA,-13.3,-24.7,993.9,1025.5,29.5,12.2,0.01,0.0,110000,50.0,50
509490,2021-02-18,15:02:42,CHINA,-15.0,-23.0,1016.1,1023.2,14.1,9.3,0.01,0.0,110000,97.9,141
504680,2021-02-18,15:02:42,CHINA,-20.5,-26.8,1011.4,1023.4,21.1,9.5,0.01,0.0,110000,86.7,326
471270,2021-02-18,15:02:42,KOREASOUTH,-3.4,-9.9,1007.7,1014.3,9.3,8.4,0.01,0.1,111000,50.3,21
172410,2021-02-18,15:02:42,TURKEY,-4.7,-9.4,1012.9,1047.2,10.8,15.5,0.00,0.0,100000,94.8,133
471300,2021-02-18,15:02:42,KOREASOUTH,-0.8,-9.1,1020.3,1022.0,20.8,13.1,0.18,0.0,110000,50.6,27
471310,2021-02-18,15:02:42,KOREASOUTH,-3.4,-9.9,1021.2,1024.1,17.9,6.1,0.04,0.0,110000,64.1,118
351730,2021-02-18,15:02:42,KAZAKHSTAN,-11.4,-13.9,1025.6,1033.9,29.6,13.6,0.00,6.0,101000,81.7,5
477420,2021-02-18,15:02:42,JAPAN,-1.1,-4.2,1026.9,1027.7,17.4,3.3,0.00,0.0,100000,56.2,354
381780,2021-02-18,15:02:42,UZBEKISTAN,-1.3,-7.7,1010.5,1025.1,14.6,10.5,0.00,0.0,100000,6.3,168
477690,2021-02-18,15:02:42,JAPAN,-0.4,-6.5,1022.5,1027.9,27.8,8.9,0.00,0.0,100000,29.7,154
359250,2021-02-18,15:02:42,KAZAKHSTAN,-4.3,-9.4,1018.0,1028.7,21.8,22.0,0.00,0.0,100000,11.0,82
536460,2021-02-18,15:02:42,CHINA,-9.0,-19.5,928.0,1029.2,17.9,9.6,0.01,0.0,110000,50.7,19
533910,2021-02-18,15:02:42,CHINA,-15.3,-23.0,884.0,1027.2,28.8,17.9,0.01,0.0,110000,50.3,292
471240,2021-02-18,15:02:42,KOREASOUTH,-3.5,-11.5,1016.6,1042.5,11.4,10.8,0.00,0.0,100000,96.0,358
475910,2021-02-18,15:02:42,JAPAN,-1.4,-6.5,1002.4,998.3,12.5,14.2,0.05,0.5,111000,50.0,332
170960,2021-02-18,15:02:42,TURKEY,-2.6,-5.2,890.7,899.5,9.9,9.8,0.04,8.5,111000,66.1,72
358490,2021-02-18,15:02:42,KAZAKHSTAN,-5.2,-9.9,1017.1,1024.3,17.9,12.2,0.02,1.1,111000,50.0,92
359530,2021-02-18,15:02:42,KAZAKHSTAN,-6.9,-10.7,1023.8,1029.6,31.4,16.4,0.02,0.0,110000,71.4,225
443520,2021-02-18,15:02:42,MONGOLIA,-15.1,-24.2,1020.9,1029.0,50.0,14.6,0.00,0.0,100000,27.4,202
514635,2021-02-18,15:02:42,CHINA,-13.2,-15.7,989.6,988.0,3.6,4.8,0.00,0.0,100000,71.2,315
583211,2021-02-18,15:02:42,CHINA,-0.3,-5.4,1005.5,999.0,9.7,9.6,0.00,0.0,100000,96.5,231
510530,2021-02-18,15:02:42,CHINA,-16.8,-21.9,1025.3,1035.8,25.8,14.7,0.01,0.0,110000,98.2,20
351080,2021-02-18,15:02:42,KAZAKHSTAN,-7.9,-9.9,1017.3,1024.3,8.1,18.4,0.04,11.3,111000,53.1,176
549160,2021-02-18,15:02:42,CHINA,-2.7,-12.1,1029.1,1026.9,14.7,9.3,0.03,0.0,110000,50.1,136
547250,2021-02-18,15:02:42,CHINA,-3.9,-12.6,1026.5,1026.6,14.2,12.5,0.08,0.0,110000,70.8,180
357960,2021-02-18,15:02:42,KAZAKHSTAN,-8.4,-12.7,1018.5,1033.4,30.4,19.3,0.01,1.6,111000,67.8,295
511560,2021-02-18,15:02:42,CHINA,-13.6,-19.4,928.5,1033.3,36.3,7.3,0.01,0.0,110000,50.6,198
474760,2021-02-18,15:02:42,JAPAN,-10.6,-14.0,1001.9,1003.9,8.4,11.5,0.00,0.0,100000,43.3,168
367780,2021-02-18,15:02:42,KAZAKHSTAN,-12.0,-16.9,1060.9,1037.1,21.4,6.3,0.00,0.0,100000,91.0,204
532310,2021-02-18,15:02:42,CHINA,-13.2,-23.7,850.5,852.3,25.8,20.7,0.01,0.0,110000,72.9,51
471330,2021-02-18,15:02:42,KOREASOUTH,-2.8,-8.9,1019.8,1024.1,17.2,6.5,0.04,0.0,110000,79.4,328
471340,2021-02-18,15:02:42,KOREASOUTH,-3.2,-8.5,1001.0,997.0,10.2,6.8,0.01,0.0,110000,95.4,217
506030,2021-02-18,15:02:42,CHINA,-18.9,-24.7,982.8,1028.0,29.4,10.7,0.01,0.0,110000,72.1,111
471350,2021-02-18,15:02:42,KOREASOUTH,-3.1,-10.6,1011.8,1023.3,19.7,14.3,0.08,0.0,110000,55.0,130
360010,2021-02-18,15:02:42,KAZAKHSTAN,-5.4,-9.6,1010.9,1026.7,4.2,33.6,0.02,3.2,111000,59.9,277
509630,2021-02-18,15:02:42,CHINA,-19.5,-23.9,1019.7,1023.0,13.3,14.1,0.01,0.0,110000,50.4,126
530830,2021-02-18,15:02:42,CHINA,-19.8,-23.4,965.1,1031.2,29.2,12.8,0.01,0.0,110000,64.7,222
561250,2021-02-18,15:02:42,CHINA,-9.6,-23.8,650.0,654.8,23.5,7.4,0.03,0.0,110000,94.8,43
523910,2021-02-18,15:02:42,CHINA,-26.2,-37.4,1002.2,1046.0,36.7,6.7,0.00,0.0,100000,62.9,101
471571,2021-02-18,15:02:42,KOREASOUTH,-3.0,-13.2,988.5,960.8,10.8,11.8,0.00,0.0,100000,91.4,260
547510,2021-02-18,15:02:42,CHINA,-1.2,-7.6,1029.4,1027.2,16.9,21.0,0.06,0.0,110000,87.6,202
570670,2021-02-18,15:02:42,CHINA,-2.3,-9.5,993.4,1028.8,13.9,5.1,0.02,0.0,110000,58.1,275
515730,2021-02-18,15:02:42,CHINA,-3.7,-17.6,1023.0,1028.8,23.3,4.8,0.04,0.0,110000,65.0,218
356710,2021-02-18,15:02:42,KAZAKHSTAN,-3.8,-13.7,997.8,1029.5,20.4,16.8,0.00,5.0,101000,50.3,297
471223,2021-02-18,15:02:42,KOREASOUTH,-0.5,-2.3,1010.8,1018.2,4.2,11.8,1.07,0.0,110000,50.1,155
471220,2021-02-18,15:02:42,KOREASOUTH,-4.6,-10.6,1017.1,1018.2,9.9,8.2,0.03,0.3,111000,50.0,12
383530,2021-02-18,15:02:42,KYRGYZSTAN,-2.6,-5.2,995.4,1027.6,5.5,8.1,0.04,0.6,111000,61.1,38
383531,2021-02-18,15:02:42,KYRGYZSTAN,-1.6,-6.3,988.3,975.9,2.1,13.5,0.00,0.0,100000,7.4,134
476000,2021-02-18,15:02:42,JAPAN,-0.1,-5.0,1018.4,1019.6,16.0,14.0,0.29,5.1,111000,50.2,355
507560,2021-02-18,15:02:42,CHINA,-19.7,-24.4,1010.9,1023.3,12.7,9.8,0.00,0.0,100000,23.2,292
552790,2021-02-18,15:02:42,CHINA,-12.8,-29.7,996.4,997.6,27.7,18.4,0.01,0.0,110000,50.1,290
471010,2021-02-18,15:02:42,KOREASOUTH,-5.3,-11.0,1017.9,1023.5,18.3,5.1,0.04,0.6,111000,59.1,309
471020,2021-02-18,15:02:42,KOREASOUTH,-0.2,-6.4,1004.1,1023.8,11.8,17.7,0.00,0.0,100000,49.9,17
570460,2021-02-18,15:02:42,CHINA,-2.1,-15.0,817.5,831.4,18.3,16.0,0.03,0.0,110000,52.5,239
540120,2021-02-18,15:02:42,CHINA,-19.5,-23.6,935.8,1030.0,24.9,12.9,0.01,0.0,110000,50.3,176
545110,2021-02-18,15:02:42,CHINA,-3.7,-15.6,1022.7,1026.0,14.8,12.7,0.03,0.0,110000,73.5,122
533520,2021-02-18,15:02:42,CHINA,-15.8,-24.1,959.2,1031.4,28.9,16.9,0.02,0.0,110000,50.3,279
386090,2021-02-18,15:02:42,TAJIKISTAN,-2.3,-7.7,925.0,1028.1,16.7,10.0,0.00,0.0,100000,82.9,120
549290,2021-02-18,15:02:42,CHINA,-0.8,-9.5,1023.5,1026.6,17.7,6.7,0.01,0.0,110000,72.0,280
548630,2021-02-18,15:02:42,CHINA,-3.1,-11.0,1026.5,1026.4,19.7,14.0,0.03,0.0,110000,50.3,342
507450,2021-02-18,15:02:42,CHINA,-16.7,-24.1,1015.0,1023.0,11.3,10.8,0.01,0.0,110000,51.1,222
509830,2021-02-18,15:02:42,CHINA,-16.9,-21.2,1017.8,1022.3,16.4,10.6,0.01,0.0,110000,50.1,257
288670,2021-02-18,15:02:42,KAZAKHSTAN,-15.3,-20.1,997.3,1033.5,20.6,8.2,0.00,26.3,101000,85.6,72
542590,2021-02-18,15:02:42,CHINA,-14.2,-19.8,1025.0,1025.8,15.7,7.4,0.04,0.0,110000,91.0,251
471000,2021-02-18,15:02:42,KOREASOUTH,-7.9,-14.9,922.8,1024.3,13.6,15.5,0.19,13.0,111000,50.4,297
470980,2021-02-18,15:02:42,KOREASOUTH,-5.1,-13.0,1010.5,1024.6,13.0,6.9,0.00,0.0,100000,82.3,64
528250,2021-02-18,15:02:42,CHINA,-10.3,-26.3,724.3,719.1,23.5,11.5,0.00,0.0,100000,78.0,131
517160,2021-02-18,15:02:42,CHINA,-1.5,-10.0,910.9,1025.5,18.8,7.2,0.00,0.0,100000,73.5,179
533360,2021-02-18,15:02:42,CHINA,-13.3,-22.3,910.1,1030.8,27.1,10.0,0.04,0.0,110000,78.6,14
288790,2021-02-18,15:02:42,KAZAKHSTAN,-11.7,-16.8,1033.7,1031.1,9.8,17.5,0.00,0.9,101000,50.1,218
288770,2021-02-18,15:02:42,KAZAKHSTAN,-5.5,-10.8,1025.0,1022.8,14.9,12.3,0.03,1.9,111000,78.7,36
474040,2021-02-18,15:02:42,JAPAN,-7.5,-12.1,1015.5,1016.7,26.1,14.6,0.24,0.0,110000,54.9,262
476120,2021-02-18,15:02:42,JAPAN,-0.6,-4.7,1017.4,1019.3,15.6,10.1,0.57,12.3,111000,50.1,357
368590,2021-02-18,15:02:42,KAZAKHSTAN,-4.9,-9.3,1007.2,1027.6,39.6,7.5,0.02,1.6,111000,50.2,258
471110,2021-02-18,15:02:42,KOREASOUTH,-2.0,-9.6,989.4,990.4,9.3,7.6,0.00,0.0,100000,36.3,257
547050,2021-02-18,15:02:42,CHINA,-14.9,-19.0,1024.2,1034.0,7.8,3.7,0.00,0.0,100000,51.4,265
170980,2021-02-18,15:02:42,TURKEY,-4.9,-8.4,815.6,815.7,9.1,9.8,0.06,12.5,111000,50.1,321
523130,2021-02-18,15:02:42,CHINA,-12.6,-24.3,924.6,894.9,59.3,2.9,0.00,0.0,100000,9.3,189
524240,2021-02-18,15:02:42,CHINA,-10.5,-23.7,900.0,1030.2,25.4,14.5,0.01,0.0,110000,50.6,54
383450,2021-02-18,15:02:42,KYRGYZSTAN,-1.6,-5.4,895.5,896.0,20.2,3.8,0.00,1.8,101000,71.0,9
383430,2021-02-18,15:02:42,KAZAKHSTAN,-1.4,-3.3,940.0,1025.4,10.1,4.1,0.00,2.6,101000,93.2,17
749347,2021-02-18,15:02:42,CHINA,-3.5,-7.5,1035.2,1037.9,10.7,9.5,0.00,0.0,100000,69.0,322
749348,2021-02-18,15:02:42,CHINA,-17.8,-21.8,1032.4,1037.1,63.0,2.6,0.00,0.0,100000,75.9,196
561440,2021-02-18,15:02:42,CHINA,-4.7,-22.3,683.3,684.3,35.3,4.7,0.00,0.0,100000,73.4,217
549450,2021-02-18,15:02:42,CHINA,-1.4,-9.7,1024.7,1027.0,16.9,12.7,0.09,0.0,110000,50.2,32
537230,2021-02-18,15:02:42,CHINA,-9.9,-21.6,908.0,1029.7,19.8,8.7,0.02,0.0,110000,80.8,75
540260,2021-02-18,15:02:42,CHINA,-11.4,-24.1,1013.1,1024.6,26.0,12.2,0.01,0.0,110000,84.7,9
561460,2021-02-18,15:02:42,CHINA,-6.2,-19.3,680.6,677.7,31.5,7.5,0.02,0.0,110000,50.2,181
367440,2021-02-18,15:02:42,KAZAKHSTAN,-5.7,-9.9,1033.9,1034.0,43.9,10.8,0.08,1.0,111000,50.8,348
516280,2021-02-18,15:02:42,CHINA,-1.7,-7.0,998.8,1030.7,19.3,4.3,0.00,0.0,100000,53.3,159
470500,2021-02-18,15:02:42,KOREANORTH,-7.2,-12.5,1027.4,1023.9,14.8,7.2,0.08,0.0,110000,91.1,208
508440,2021-02-18,15:02:42,CHINA,-14.8,-24.5,1026.4,1023.5,14.9,13.5,0.01,0.0,110000,50.1,32
528180,2021-02-18,15:02:42,CHINA,-10.0,-27.6,753.9,752.8,26.8,8.9,0.00,0.0,100000,70.3,87
528360,2021-02-18,15:02:42,CHINA,-9.9,-26.4,687.5,687.0,27.7,10.0,0.06,0.0,110000,50.5,116
560460,2021-02-18,15:02:42,CHINA,-14.5,-23.2,671.4,671.8,25.4,8.5,0.01,0.0,110000,50.1,184
470900,2021-02-18,15:02:42,KOREASOUTH,-1.0,-9.2,1020.0,1021.3,20.2,11.1,0.17,0.5,111000,96.9,112
470200,2021-02-18,15:02:42,KOREANORTH,-11.4,-19.1,1016.0,1028.8,10.5,4.0,0.00,0.0,100000,47.9,347
287660,2021-02-18,15:02:42,KAZAKHSTAN,-6.1,-9.6,1016.7,1025.4,11.3,14.2,0.01,4.5,111000,85.4,278
534870,2021-02-18,15:02:42,CHINA,-10.8,-23.1,973.2,1029.3,16.7,11.7,0.01,0.0,110000,65.4,273
555910,2021-02-18,15:02:42,CHINA,-3.3,-24.2,676.7,675.6,29.8,9.4,0.00,0.0,100000,80.6,342
540490,2021-02-18,15:02:42,CHINA,-14.0,-23.3,1025.9,1024.1,19.5,11.8,0.01,0.0,110000,50.0,23
353760,2021-02-18,15:02:42,KAZAKHSTAN,-10.7,-15.1,991.1,1030.5,20.0,14.4,0.01,7.4,111000,69.9,178
443290,2021-02-18,15:02:42,MONGOLIA,-15.8,-18.4,779.6,1033.2,19.4,14.0,0.00,3.2,101000,50.1,225
474130,2021-02-18,15:02:42,JAPAN,-7.0,-10.1,1008.1,1014.6,17.0,9.7,0.03,0.0,110000,50.1,280
474170,2021-02-18,15:02:42,JAPAN,-15.4,-18.8,1009.8,1015.1,10.2,5.7,0.04,0.0,110000,51.1,264
543370,2021-02-18,15:02:42,CHINA,-7.3,-17.8,1024.0,1025.5,12.2,13.6,0.01,0.0,110000,50.5,226
443730,2021-02-18,15:02:42,MONGOLIA,-11.0,-21.2,854.3,1027.8,45.2,9.6,0.00,0.2,101000,50.6,345
443740,2021-02-18,15:02:42,MONGOLIA,-13.7,-22.0,830.7,1030.5,49.4,14.3,0.00,1.3,101000,69.6,341
478920,2021-02-18,15:02:42,JAPAN,-0.1,-8.0,1026.1,1028.5,27.0,9.4,0.00,0.0,100000,94.8,326
541350,2021-02-18,15:02:42,CHINA,-11.8,-23.0,1018.4,1024.7,25.5,14.9,0.01,0.0,110000,51.7,186
361860,2021-02-18,15:02:42,KAZAKHSTAN,-5.0,-8.3,1022.8,1025.6,12.0,2.8,0.00,0.0,100000,32.6,202
532760,2021-02-18,15:02:42,CHINA,-14.2,-22.6,919.4,1030.2,28.4,19.8,0.01,0.0,110000,76.4,90
471610,2021-02-18,15:02:42,KOREASOUTH,-2.0,-9.5,999.2,994.6,10.8,7.4,0.03,0.0,110000,50.1,54
475160,2021-02-18,15:02:42,JAPAN,-3.0,-7.2,997.8,993.4,10.1,17.1,0.00,0.0,100000,0.0,3
171400,2021-02-18,15:02:42,TURKEY,-8.1,-8.3,865.0,853.1,8.6,9.5,0.45,22.6,111000,50.2,107
442320,2021-02-18,15:02:42,MONGOLIA,-27.6,-32.7,1068.8,1049.0,44.7,,0.00,0.0,100000,92.3,327
353940,2021-02-18,15:02:42,KAZAKHSTAN,-10.1,-13.4,1006.2,1032.3,17.0,13.7,0.04,3.5,111000,50.5,193
517470,2021-02-18,15:02:42,CHINA,-7.5,-19.8,893.8,1025.7,19.3,3.8,0.00,0.0,100000,35.7,53
360030,2021-02-18,15:02:42,KAZAKHSTAN,-5.6,-8.0,1023.2,1030.2,23.5,16.7,0.01,5.0,111000,90.9,42
170672,2021-02-18,15:02:42,TURKEY,-1.8,-3.9,993.6,1017.5,6.8,9.9,0.00,0.0,100000,2.9,164
170674,2021-02-18,15:02:42,TURKEY,-0.9,-4.8,1003.0,1017.9,8.1,19.1,0.00,0.0,100000,52.9,278
475970,2021-02-18,15:02:42,JAPAN,-2.9,-10.2,974.2,1018.3,23.8,15.0,0.11,0.0,110000,69.6,289
571930,2021-02-18,15:02:42,CHINA,-0.2,-8.6,1031.2,1026.3,14.4,8.8,0.02,0.0,110000,72.5,91
561720,2021-02-18,15:02:42,CHINA,-2.5,-12.9,778.4,781.2,32.5,3.5,0.04,0.0,110000,50.1,40
561730,2021-02-18,15:02:42,CHINA,-12.5,-24.4,660.3,670.4,29.5,10.5,0.00,0.0,100000,81.4,195
365350,2021-02-18,15:02:42,KAZAKHSTAN,-12.5,-15.9,1069.6,1040.0,45.6,6.9,0.00,0.0,100000,87.1,139
474280,2021-02-18,15:02:42,JAPAN,-3.4,-8.7,1012.1,1015.8,19.3,25.7,0.15,0.0,110000,50.5,123
470030,2021-02-18,15:02:42,KOREANORTH,-9.8,-16.6,1018.8,1021.9,22.0,10.1,0.06,0.0,110000,67.7,93
554720,2021-02-18,15:02:42,CHINA,-13.2,-31.1,996.3,993.6,26.4,26.2,0.01,0.0,110000,84.5,313
476370,2021-02-18,15:02:42,JAPAN,-3.6,-10.6,958.3,1018.2,27.2,9.7,0.18,0.0,110000,93.1,265
548570,2021-02-18,15:02:42,CHINA,-1.6,-7.9,1023.7,1026.6,12.4,19.9,0.03,0.0,110000,50.2,32
442120,2021-02-18,15:02:42,MONGOLIA,-33.1,-34.7,914.5,1040.7,46.5,2.5,0.00,11.3,101000,79.6,329
544050,2021-02-18,15:02:42,CHINA,-8.0,-20.4,1023.7,1028.0,21.3,12.6,0.01,0.0,110000,55.4,68
442140,2021-02-18,15:02:42,MONGOLIA,-15.6,-24.9,827.1,1027.9,9.1,15.4,0.00,0.0,100000,91.7,237
524460,2021-02-18,15:02:42,CHINA,-11.1,-23.5,940.0,1033.7,43.2,13.4,0.00,0.0,100000,79.2,107
549380,2021-02-18,15:02:42,CHINA,-2.4,-11.3,1033.5,1027.6,15.2,9.9,0.02,0.0,110000,50.3,155
557730,2021-02-18,15:02:42,CHINA,-12.3,-21.8,620.3,621.2,19.9,11.5,0.00,0.0,100000,57.8,139
503530,2021-02-18,15:02:42,CHINA,-14.3,-23.4,998.6,1021.5,19.3,8.4,0.00,0.0,100000,7.6,226
470410,2021-02-18,15:02:42,KOREANORTH,-6.3,-12.0,1021.5,1021.7,13.3,9.8,0.03,0.0,110000,50.0,126
358840,2021-02-18,15:02:42,KAZAKHSTAN,-8.6,-11.8,977.4,993.8,19.6,12.4,0.03,12.6,111000,50.9,313
470610,2021-02-18,15:02:42,KOREANORTH,-2.4,-8.6,1016.2,1020.7,21.0,8.3,0.18,1.2,111000,89.0,245
470650,2021-02-18,15:02:42,KOREANORTH,-5.5,-11.2,1031.6,1024.9,11.7,8.5,0.02,0.0,110000,79.8,251
475530,2021-02-18,15:02:42,JAPAN,-2.3,-6.1,997.0,999.4,8.8,10.9,0.00,0.0,100000,25.7,326
474210,2021-02-18,15:02:42,JAPAN,-4.3,-9.2,1015.3,1016.4,18.7,18.5,0.14,14.5,111000,50.5,324
471430,2021-02-18,15:02:42,KOREASOUTH,-0.7,-8.3,1016.1,1023.0,18.5,10.1,0.06,0.1,111000,50.0,20
343980,2021-02-18,15:02:42,KAZAKHSTAN,-8.1,-11.6,1016.2,1015.7,17.6,15.9,0.00,5.6,101000,82.8,171
471190,2021-02-18,15:02:42,KOREASOUTH,-3.6,-10.4,1027.3,1024.1,15.2,7.6,0.05,0.1,111000,50.0,308
471180,2021-02-18,15:02:42,KOREASOUTH,-10.3,-17.5,1014.6,1029.9,10.6,8.0,0.00,0.0,100000,68.2,108
538980,2021-02-18,15:02:42,CHINA,-1.8,-11.5,1023.5,1027.2,12.9,7.7,0.03,0.0,110000,50.1,92
509530,2021-02-18,15:02:42,CHINA,-5.1,-21.0,1015.9,1023.1,13.4,12.2,0.02,0.0,110000,92.8,219
581020,2021-02-18,15:02:42,CHINA,-0.4,-8.3,1021.5,1026.7,18.5,8.5,0.08,0.0,110000,69.4,231
474300,2021-02-18,15:02:42,JAPAN,-5.9,-9.6,1016.4,1016.6,13.3,12.6,0.09,8.8,111000,97.1,126
474180,2021-02-18,15:02:42,JAPAN,-9.7,-15.4,1011.3,1015.7,20.9,15.5,0.06,5.1,111000,86.7,265
351880,2021-02-18,15:02:42,KAZAKHSTAN,-11.6,-13.8,1028.0,1028.9,16.2,16.6,0.22,1.9,111000,89.9,85
528420,2021-02-18,15:02:42,CHINA,-2.0,-20.6,696.7,692.0,17.0,15.0,0.00,0.0,100000,83.5,28
509150,2021-02-18,15:02:42,CHINA,-19.9,-24.7,945.3,1029.6,29.5,10.8,0.02,0.0,110000,52.6,150
475760,2021-02-18,15:02:42,JAPAN,-4.6,-9.8,1016.9,1017.5,21.0,10.9,0.11,0.0,110000,76.9,285
512320,2021-02-18,15:02:42,CHINA,-8.3,-12.2,1029.3,1032.3,16.0,17.9,0.01,0.0,110000,57.3,117
586530,2021-02-18,15:02:42,CHINA,-2.7,-4.9,916.2,1023.9,9.2,23.0,0.15,0.0,110000,50.7,240
286790,2021-02-18,15:02:42,KAZAKHSTAN,-11.2,-14.7,1024.6,1029.6,11.2,19.0,0.02,7.1,111000,50.2,188
509780,2021-02-18,15:02:42,CHINA,-15.2,-22.9,1009.2,1022.3,26.7,12.7,0.01,0.0,110000,50.2,175
584450,2021-02-18,15:02:42,CHINA,-4.1,-11.3,875.3,947.0,15.6,20.3,0.19,0.0,110000,50.0,316
544010,2021-02-18,15:02:42,CHINA,-8.0,-21.8,986.6,1028.2,20.6,10.5,0.01,0.0,110000,50.2,286
518390,2021-02-18,15:02:42,CHINA,-2.5,-14.9,889.9,1029.4,,6.6,0.00,0.0,100000,93.2,201
548360,2021-02-18,15:02:42,CHINA,-4.0,-14.6,1031.0,1027.7,14.7,9.9,0.04,0.0,110000,50.2,30
523230,2021-02-18,15:02:42,CHINA,-15.4,-25.3,819.2,814.7,31.5,15.1,0.00,0.0,100000,33.6,16
513790,2021-02-18,15:02:42,CHINA,-18.4,-21.6,1018.1,1036.0,26.5,9.8,0.01,0.0,110000,52.9,118
515420,2021-02-18,15:02:42,CHINA,-20.4,-24.7,755.0,752.7,31.5,6.7,0.01,0.0,110000,88.2,71
539750,2021-02-18,15:02:42,CHINA,-3.8,-13.5,1018.9,1028.8,14.5,7.3,0.02,0.0,110000,50.4,220
508880,2021-02-18,15:02:42,CHINA,-16.1,-22.3,1016.2,1022.1,23.4,12.5,0.01,0.0,110000,91.1,332
355420,2021-02-18,15:02:42,KAZAKHSTAN,-13.2,-16.6,1027.1,1029.0,12.5,14.8,0.48,2.1,111000,76.4,238
508620,2021-02-18,15:02:42,CHINA,-25.6,-30.7,989.3,1009.9,17.1,8.8,0.00,0.0,100000,21.1,351
368700,2021-02-18,15:02:42,KAZAKHSTAN,-2.3,-6.7,978.3,1022.2,8.2,3.7,0.29,2.9,111000,89.4,270
521180,2021-02-18,15:02:42,CHINA,-13.5,-26.1,828.9,831.5,31.0,10.4,0.01,0.0,110000,79.5,86
524360,2021-02-18,15:02:42,CHINA,-10.7,-24.3,863.3,1029.2,30.2,13.1,0.00,0.0,100000,77.7,28
470050,2021-02-18,15:02:42,KOREANORTH,-17.3,-22.2,,898.5,19.7,6.3,0.06,6.7,111000,50.7,68
477470,2021-02-18,15:02:42,JAPAN,-1.0,-3.0,1026.8,1027.5,14.8,4.3,0.19,0.0,110000,50.5,280
170671,2021-02-18,15:02:42,TURKEY,-2.2,-4.9,1009.2,997.0,11.5,9.4,0.00,0.0,100000,7.0,317
548260,2021-02-18,15:02:42,CHINA,-7.9,-19.3,871.4,874.0,27.3,26.7,0.08,0.0,110000,50.8,358
535930,2021-02-18,15:02:42,CHINA,-11.8,-21.3,980.5,1029.0,23.9,7.1,0.01,0.0,110000,90.9,201
475450,2021-02-18,15:02:42,JAPAN,-1.8,-6.1,1007.0,1004.2,8.5,15.3,0.00,0.0,100000,39.5,249
552280,2021-02-18,15:02:42,CHINA,-4.5,-18.5,603.4,600.5,30.3,12.1,0.01,0.0,110000,79.8,99
354060,2021-02-18,15:02:42,KAZAKHSTAN,-7.2,-12.1,1032.0,1028.9,24.1,21.5,0.01,0.0,110000,50.0,97
526740,2021-02-18,15:02:42,CHINA,-11.8,-24.9,801.4,797.0,28.9,11.0,0.01,0.0,110000,50.1,210
518280,2021-02-18,15:02:42,CHINA,-2.1,-13.9,897.8,1024.3,9.8,5.4,0.01,0.0,110000,50.2,248
474230,2021-02-18,15:02:42,JAPAN,-4.8,-9.6,1009.6,1015.0,15.1,21.7,0.19,0.0,110000,92.5,12
474120,2021-02-18,15:02:42,JAPAN,-7.7,-12.5,1016.7,1016.1,9.2,8.0,0.19,17.8,111000,72.8,176
534460,2021-02-18,15:02:42,CHINA,-11.6,-27.8,995.1,1031.1,13.5,12.6,0.00,0.0,100000,58.8,125
382200,2021-02-18,15:02:42,KYRGYZSTAN,-8.0,-9.4,951.2,1031.1,7.1,6.8,0.00,6.8,101000,50.4,12
546560,2021-02-18,15:02:42,CHINA,-0.9,-8.4,1022.5,1024.8,20.2,,0.00,0.0,100000,60.2,86
477150,2021-02-18,15:02:42,JAPAN,-0.8,-6.7,1000.5,1003.7,9.4,10.2,0.09,0.6,111000,50.3,303
537720,2021-02-18,15:02:42,CHINA,-6.3,-18.2,981.9,1028.1,11.2,10.0,0.01,0.0,110000,70.0,148
518110,2021-02-18,15:02:42,CHINA,-1.8,-9.6,919.7,1025.0,14.3,4.6,0.00,0.0,100000,45.2,246
526020,2021-02-18,15:02:42,CHINA,-15.0,-33.3,726.2,726.5,26.6,15.0,0.00,0.0,100000,53.1,189
361770,2021-02-18,15:02:42,KAZAKHSTAN,-6.9,-11.9,1020.4,1027.0,10.3,9.2,0.00,0.0,100000,53.5,27
381960,2021-02-18,15:02:42,KAZAKHSTAN,-2.1,-9.4,925.1,1024.5,17.8,4.4,0.00,9.0,101000,50.2,351
353610,2021-02-18,15:02:42,KAZAKHSTAN,-9.2,-12.2,991.6,1021.0,26.7,7.9,0.00,0.0,100000,33.9,321
475980,2021-02-18,15:02:42,JAPAN,-0.1,-7.0,1021.9,1017.8,23.1,9.6,0.17,0.3,111000,50.3,103
518860,2021-02-18,15:02:42,CHINA,-12.5,-30.4,701.4,700.8,27.2,12.7,0.00,0.0,100000,42.1,221
514670,2021-02-18,15:02:42,CHINA,-9.1,-23.0,829.6,831.0,27.8,9.1,0.00,0.0,100000,4.6,114
539470,2021-02-18,15:02:42,CHINA,-3.0,,949.8,1027.2,12.7,8.6,0.01,0.0,110000,57.5,204
570060,2021-02-18,15:02:42,CHINA,-2.2,-10.7,947.0,1025.4,11.2,5.5,0.01,0.0,110000,50.3,108
442410,2021-02-18,15:02:42,MONGOLIA,-22.3,-24.7,1029.9,1033.6,45.6,9.2,0.00,1.9,101000,65.3,158
442920,2021-02-18,15:02:42,MONGOLIA,-20.8,-25.8,887.4,1031.2,17.3,5.1,0.00,3.7,101000,61.1,75
542360,2021-02-18,15:02:42,CHINA,-11.4,-21.4,1020.5,1024.8,19.6,14.4,0.02,0.0,110000,51.0,78
470580,2021-02-18,15:02:42,KOREANORTH,-6.5,-12.0,1017.3,1024.6,13.1,8.3,0.03,0.3,111000,50.5,42
477090,2021-02-18,15:02:42,JAPAN,-1.5,-10.3,998.9,1002.3,9.2,10.4,0.00,0.0,100000,71.6,127
545270,2021-02-18,15:02:42,CHINA,-3.6,-13.7,1026.9,1026.4,10.7,8.7,0.03,0.0,110000,50.0,2
545273,2021-02-18,15:02:42,CHINA,-1.6,-10.9,1000.4,998.5,6.9,11.9,0.00,0.0,100000,8.4,211
442590,2021-02-18,15:02:42,MONGOLIA,-17.5,-20.6,950.2,1027.6,20.9,10.0,0.02,1.9,111000,50.1,350
474880,2021-02-18,15:02:42,JAPAN,-3.9,-8.6,995.5,998.2,9.1,16.2,0.00,0.0,100000,44.0,231
539290,2021-02-18,15:02:42,CHINA,-4.3,-5.9,883.8,880.2,7.6,11.8,0.00,0.0,100000,71.6,7
475920,2021-02-18,15:02:42,JAPAN,-1.3,-6.6,1015.3,1018.1,19.5,12.5,0.17,0.9,111000,87.1,76
535430,2021-02-18,15:02:42,CHINA,-10.3,-21.6,883.3,1029.8,22.9,11.9,0.01,0.0,110000,62.3,214
560290,2021-02-18,15:02:42,CHINA,-8.2,-21.4,645.7,645.7,29.3,4.4,0.01,0.0,110000,71.4,302
353210,2021-02-18,15:02:42,KAZAKHSTAN,-14.9,-21.1,1047.0,1037.0,8.9,9.9,0.00,0.0,100000,53.1,69
555780,2021-02-18,15:02:42,CHINA,-7.7,-29.6,635.7,635.5,29.4,7.2,0.00,0.0,100000,66.9,233
474830,2021-02-18,15:02:42,JAPAN,-6.6,-13.6,1002.4,1004.2,10.8,15.6,0.00,0.0,100000,86.1,319
369820,2021-02-18,15:02:42,KYRGYZSTAN,-21.7,-25.6,646.3,646.5,42.7,9.7,0.00,0.0,100000,63.9,266
170880,2021-02-18,15:02:42,TURKEY,-2.1,-3.7,876.6,878.9,16.5,11.8,0.05,16.2,111000,50.3,292
547150,2021-02-18,15:02:42,CHINA,-2.6,-11.5,1025.4,1027.6,17.3,12.5,0.08,0.0,110000,63.4,147
474110,2021-02-18,15:02:42,JAPAN,-6.5,-11.4,1012.9,1016.1,19.4,12.2,0.21,0.0,110000,50.0,199
474090,2021-02-18,15:02:42,JAPAN,-10.2,-13.8,1013.8,1016.1,22.7,9.5,0.04,9.9,111000,50.4,155
355760,2021-02-18,15:02:42,KAZAKHSTAN,-11.4,-14.7,1014.2,1035.4,21.6,11.3,0.00,6.2,101000,52.0,254
507880,2021-02-18,15:02:42,CHINA,-18.2,-22.4,1023.1,1020.5,20.5,13.2,0.01,0.0,110000,50.5,268
529550,2021-02-18,15:02:42,CHINA,-10.7,-24.7,694.8,691.2,30.7,7.5,0.00,0.0,100000,15.5,161
350780,2021-02-18,15:02:42,KAZAKHSTAN,-10.8,-14.0,1034.4,1032.9,11.1,13.9,0.01,9.2,111000,50.0,64
470350,2021-02-18,15:02:42,KOREANORTH,-5.9,-14.4,1034.0,1024.8,16.1,11.5,0.05,0.0,110000,98.6,343
542180,2021-02-18,15:02:42,CHINA,-11.2,-23.5,992.0,1026.4,21.7,9.7,0.01,0.0,110000,50.0,182
570140,2021-02-18,15:02:42,CHINA,-5.7,-10.8,1014.7,1034.8,11.8,6.6,0.00,0.0,100000,73.8,191
527070,2021-02-18,15:02:42,CHINA,-13.4,-32.1,725.5,721.6,21.3,11.3,0.00,0.0,100000,44.5,244
476180,2021-02-18,15:02:42,JAPAN,-4.0,-10.2,976.3,1019.1,13.5,6.9,0.14,1.3,111000,81.8,112
546160,2021-02-18,15:02:42,CHINA,-4.0,-13.2,1027.4,1026.5,12.1,13.4,0.03,0.0,110000,64.7,340
443170,2021-02-18,15:02:42,MONGOLIA,-11.5,-16.2,890.0,1017.7,21.2,13.4,0.00,4.5,101000,50.7,290
570360,2021-02-18,15:02:42,CHINA,-0.9,-7.6,1011.3,1025.3,8.7,7.1,0.04,0.0,110000,50.6,271
354260,2021-02-18,15:02:42,KAZAKHSTAN,-7.9,-11.0,1003.9,1025.2,38.5,11.7,0.00,4.8,101000,80.9,8
474410,2021-02-18,15:02:42,JAPAN,-6.7,-11.6,1004.0,1006.1,9.3,24.9,0.00,0.0,100000,82.7,98
471131,2021-02-18,15:02:42,KOREASOUTH,-1.7,-10.6,977.4,985.6,9.1,11.7,0.00,0.0,100000,36.6,82
471130,2021-02-18,15:02:42,KOREASOUTH,-1.5,-8.3,1020.0,1022.4,11.0,7.9,0.00,0.0,100000,58.9,272
531490,2021-02-18,15:02:42,CHINA,-14.0,-25.1,905.9,1030.0,29.1,16.1,0.01,0.0,110000,62.6,297
527540,2021-02-18,15:02:42,CHINA,-13.8,-28.6,676.2,676.3,24.0,10.7,0.00,0.0,100000,39.0,184
471400,2021-02-18,15:02:42,KOREASOUTH,-1.4,-5.8,1019.4,1023.9,17.3,14.6,0.04,0.0,110000,92.1,359
471410,2021-02-18,15:02:42,KOREASOUTH,-1.4,-5.7,1013.4,1013.9,10.5,14.0,0.04,0.1,111000,51.3,211
471420,2021-02-18,15:02:42,KOREASOUTH,-2.5,-9.8,1015.0,1015.0,12.1,10.9,0.01,0.0,110000,50.2,47
576220,2021-02-18,15:02:42,CHINA,-3.3,-3.9,842.1,837.9,2.9,10.7,0.15,0.0,110000,50.1,167
560670,2021-02-18,15:02:42,CHINA,-13.2,-23.9,650.5,646.5,19.9,12.5,0.00,0.0,100000,25.7,101
538630,2021-02-18,15:02:42,CHINA,-5.3,-13.8,1016.6,1028.0,13.3,8.5,0.02,0.0,110000,50.1,127
538870,2021-02-18,15:02:42,CHINA,-10.7,-27.0,915.2,1027.9,29.0,6.5,0.00,0.0,100000,49.5,332
443140,2021-02-18,15:02:42,MONGOLIA,-15.3,-20.9,935.4,1022.1,17.5,19.0,0.01,1.8,111000,50.2,194
535640,2021-02-18,15:02:42,CHINA,-10.8,-23.3,936.5,1030.3,18.8,6.2,0.00,0.0,100000,7.6,81
476410,2021-02-18,15:02:42,JAPAN,-1.1,-7.8,989.4,1018.2,21.0,6.6,0.08,0.0,110000,50.4,284
476390,2021-02-18,15:02:42,JAPAN,-21.1,-27.6,1001.8,997.7,48.8,81.8,0.00,0.0,100000,5.9,237
511330,2021-02-18,15:02:42,CHINA,-3.5,-7.8,992.6,1033.3,32.1,7.4,0.04,0.0,110000,59.9,175
386150,2021-02-18,15:02:42,KYRGYZSTAN,-2.7,-10.2,925.4,1033.6,8.9,7.8,0.00,11.3,101000,50.9,121
355820,2021-02-18,15:02:42,KAZAKHSTAN,-10.7,-13.9,1036.8,1034.9,34.5,15.2,0.02,2.5,111000,67.3,127
478180,2021-02-18,15:02:42,JAPAN,-2.7,-9.1,946.3,1029.3,26.2,13.8,0.00,0.0,100000,50.1,318
442770,2021-02-18,15:02:42,MONGOLIA,-25.3,-28.6,996.6,1028.3,49.2,17.6,0.00,0.0,100000,27.5,124
505270,2021-02-18,15:02:42,CHINA,-24.1,-26.7,992.5,1028.0,17.3,9.1,0.01,0.0,110000,50.1,192
475120,2021-02-18,15:02:42,JAPAN,-3.3,-12.5,1018.8,1023.5,39.6,8.3,0.00,0.0,100000,24.1,264
563740,2021-02-18,15:02:42,CHINA,-2.9,-9.2,748.4,747.8,30.6,17.4,0.04,0.0,110000,91.7,308
476380,2021-02-18,15:02:42,JAPAN,-0.9,-8.1,996.5,1017.1,17.9,9.7,0.16,0.1,111000,53.3,50
442190,2021-02-18,15:02:42,MONGOLIA,-10.6,-23.2,850.8,1015.0,19.0,6.3,0.00,0.0,100000,27.2,214
517770,2021-02-18,15:02:42,CHINA,-5.8,-20.3,939.7,1027.2,22.0,8.3,0.00,0.0,100000,50.8,72
542370,2021-02-18,15:02:42,CHINA,-17.2,-29.4,1006.2,1031.3,14.0,12.8,0.00,0.0,100000,39.3,22
470550,2021-02-18,15:02:42,KOREANORTH,-3.1,-11.2,1021.9,1023.0,16.2,8.7,0.46,0.3,111000,50.1,191
515670,2021-02-18,15:02:42,CHINA,-7.1,-15.0,1004.5,1032.5,18.4,7.6,0.00,0.0,100000,26.4,249
534800,2021-02-18,15:02:42,CHINA,-14.1,-24.6,958.0,1030.3,26.1,11.6,0.03,0.0,110000,50.6,235
475570,2021-02-18,15:02:42,JAPAN,-0.7,-7.4,993.0,995.7,9.9,16.5,0.00,0.0,100000,73.4,346
474020,2021-02-18,15:02:42,JAPAN,-12.3,-14.9,1016.8,1017.9,21.7,10.1,0.11,0.0,110000,58.7,91
474010,2021-02-18,15:02:42,JAPAN,-7.3,-12.3,1011.3,1015.8,18.0,13.8,0.16,16.7,111000,90.5,200
359970,2021-02-18,15:02:42,KAZAKHSTAN,-6.6,-10.1,1032.0,1034.0,25.2,10.0,0.01,0.8,111000,58.4,69
443050,2021-02-18,15:02:42,MONGOLIA,-17.3,-20.4,950.4,1028.7,46.2,10.1,0.00,2.3,101000,97.6,99
536730,2021-02-18,15:02:42,CHINA,-8.1,-19.3,974.2,1028.2,17.6,9.1,0.01,0.0,110000,91.8,38
563850,2021-02-18,15:02:42,CHINA,-7.6,-11.0,745.9,745.2,10.3,10.3,0.04,0.0,110000,50.7,96
505570,2021-02-18,15:02:42,CHINA,-23.3,-28.8,1009.7,1023.8,14.6,7.8,0.01,0.0,110000,50.2,318
387130,2021-02-18,15:02:42,TAJIKISTAN,-3.6,-8.9,996.0,1020.1,42.9,6.7,0.00,5.0,101000,55.6,15
470312,2021-02-18,15:02:42,CHINA,-2.1,-11.8,985.3,965.1,5.5,8.3,0.00,0.0,100000,29.3,90
531920,2021-02-18,15:02:42,CHINA,-18.9,-23.5,918.0,1033.1,31.1,10.2,0.01,0.0,110000,63.4,239
355320,2021-02-18,15:02:42,KAZAKHSTAN,-2.5,-4.1,1013.4,1027.9,15.9,18.6,0.06,15.6,111000,75.6,4
527650,2021-02-18,15:02:42,CHINA,-13.5,-26.4,715.2,717.4,20.6,8.6,0.00,0.0,100000,57.2,84
546180,2021-02-18,15:02:42,CHINA,-1.5,-9.9,1024.2,1026.1,11.1,9.9,0.08,0.0,110000,69.9,21
474400,2021-02-18,15:02:42,JAPAN,-7.7,-13.2,1012.4,1016.8,23.5,11.1,0.38,0.0,110000,52.9,129
549060,2021-02-18,15:02:42,CHINA,-1.9,-10.5,1022.6,1026.4,17.9,8.2,0.02,0.0,110000,62.7,287
475690,2021-02-18,15:02:42,JAPAN,-0.7,-8.2,997.2,997.5,9.6,15.6,0.00,0.0,100000,45.2,279
475750,2021-02-18,15:02:42,JAPAN,-3.5,-7.1,1020.6,1017.6,14.6,13.7,0.19,22.8,111000,60.9,221
510870,2021-02-18,15:02:42,CHINA,-9.1,-16.3,931.2,1032.3,23.4,6.2,0.00,0.0,100000,56.9,18
478210,2021-02-18,15:02:42,JAPAN,-5.2,-11.0,892.3,899.3,29.3,12.7,0.00,0.0,100000,14.8,175
476240,2021-02-18,15:02:42,JAPAN,-0.5,-8.6,1009.6,1017.8,27.0,12.9,0.08,0.2,111000,50.1,327
521120,2021-02-18,15:02:42,CHINA,-7.6,-20.7,1029.7,1026.4,29.4,12.4,0.00,0.0,100000,49.8,183
570710,2021-02-18,15:02:42,CHINA,-0.6,-9.2,1028.2,1027.9,13.4,10.9,0.06,0.0,110000,50.6,72
356990,2021-02-18,15:02:42,KAZAKHSTAN,-6.4,-15.4,958.4,1039.0,28.0,0.5,0.00,4.5,101000,50.9,128
470670,2021-02-18,15:02:42,KOREANORTH,-6.8,-11.6,1044.9,1024.9,15.8,7.5,0.00,0.0,100000,97.9,53
542260,2021-02-18,15:02:42,CHINA,-11.0,-24.8,1022.6,1025.9,25.5,15.0,0.01,0.0,110000,87.8,130
470680,2021-02-18,15:02:42,KOREANORTH,-4.4,-9.1,1030.9,1024.8,16.1,11.5,0.01,0.0,110000,50.1,172
560330,2021-02-18,15:02:42,CHINA,-5.6,-16.3,626.3,623.0,25.9,12.0,0.01,0.0,110000,50.3,225
546620,2021-02-18,15:02:42,CHINA,-3.7,-11.2,1022.3,1025.7,13.8,17.8,0.02,0.0,110000,64.6,244
475150,2021-02-18,15:02:42,JAPAN,-2.4,-6.7,997.3,998.6,10.0,16.5,0.00,0.0,100000,99.5,33
443850,2021-02-18,15:02:42,MONGOLIA,-7.9,-19.6,896.4,1029.6,50.8,16.9,0.00,0.0,100000,14.7,37
507740,2021-02-18,15:02:42,CHINA,-21.5,-27.5,1013.2,1023.1,10.5,7.0,0.01,0.0,110000,50.1,328
475490,2021-02-18,15:02:42,JAPAN,-2.2,-8.9,998.3,999.5,8.7,9.2,0.00,0.0,100000,87.4,237
471070,2021-02-18,15:02:42,KOREASOUTH,-2.1,-8.2,1013.3,1014.1,12.4,11.7,0.00,0.3,101000,61.0,124
471065,2021-02-18,15:02:42,KOREASOUTH,-1.7,-5.1,1015.8,983.2,11.1,10.0,0.00,3.2,101000,76.2,201
474340,2021-02-18,15:02:42,JAPAN,-10.9,-13.8,1002.8,1010.7,11.1,11.3,0.01,6.3,111000,54.8,271
474350,2021-02-18,15:02:42,JAPAN,-7.1,-11.8,1017.2,1019.5,38.4,11.9,0.16,0.0,110000,50.0,90
545870,2021-02-18,15:02:42,CHINA,-3.3,-9.7,1029.0,1024.9,27.8,22.8,0.26,0.0,110000,95.5,98
561370,2021-02-18,15:02:42,CHINA,-5.1,-20.1,715.8,711.9,25.4,5.0,0.01,0.0,110000,50.0,108
581500,2021-02-18,15:02:42,CHINA,-0.7,-5.9,1028.2,1026.6,13.9,10.8,0.12,0.0,110000,56.3,316
561160,2021-02-18,15:02:42,CHINA,-7.9,-20.2,684.3,685.0,26.5,4.2,0.00,0.0,100000,34.5,301
512880,2021-02-18,15:02:42,CHINA,-15.9,-24.6,836.1,838.6,35.2,7.4,0.01,0.0,110000,50.1,187
353450,2021-02-18,15:02:42,KAZAKHSTAN,-7.4,-11.9,1061.9,1040.3,22.9,11.8,0.00,0.0,100000,42.5,118
475810,2021-02-18,15:02:42,JAPAN,-3.4,-8.4,1016.2,1017.0,18.9,15.3,0.12,6.2,111000,50.6,165
535290,2021-02-18,15:02:42,CHINA,-10.8,-21.0,893.4,1029.7,25.3,10.8,0.21,0.0,110000,50.5,66
475740,2021-02-18,15:02:42,JAPAN,-1.3,-7.9,1014.4,1024.1,30.1,13.6,0.16,0.0,110000,50.4,292
474740,2021-02-18,15:02:42,JAPAN,-11.4,-19.8,1004.2,1012.2,10.2,9.8,0.00,0.0,100000,63.3,70
560210,2021-02-18,15:02:42,CHINA,-16.2,-29.9,616.6,616.4,28.9,9.3,0.01,0.0,110000,85.2,50
540940,2021-02-18,15:02:42,CHINA,-16.2,-22.7,1009.1,1023.0,7.7,8.1,0.03,0.0,110000,50.1,301
544930,2021-02-18,15:02:42,CHINA,-11.3,-17.9,1023.4,1025.5,19.9,4.6,0.03,0.0,110000,50.2,170
577070,2021-02-18,15:02:42,CHINA,-0.4,-2.4,852.3,854.3,9.1,3.0,0.03,0.0,110000,80.5,46
545340,2021-02-18,15:02:42,CHINA,-5.2,-15.5,1022.3,1026.3,14.7,10.3,0.01,0.0,110000,71.1,92
517110,2021-02-18,15:02:42,CHINA,-6.7,-14.6,801.1,805.2,24.7,8.7,0.02,0.0,110000,50.6,128
560040,2021-02-18,15:02:42,CHINA,-19.6,-32.4,1001.3,1001.2,30.0,20.1,0.00,0.0,100000,77.5,136
470600,2021-02-18,15:02:42,KOREANORTH,-4.3,-8.9,1028.3,1024.4,9.8,12.9,0.04,0.0,110000,50.4,204
525330,2021-02-18,15:02:42,CHINA,-9.7,-20.1,894.1,1029.3,29.7,7.4,0.01,0.0,110000,50.5,165
525331,2021-02-18,15:02:42,CHINA,-10.6,-13.5,1000.7,988.2,4.6,5.6,0.00,0.0,100000,49.1,188
518180,2021-02-18,15:02:42,CHINA,-1.2,-12.9,976.6,1023.7,15.6,4.9,0.01,0.0,110000,50.6,45
171890,2021-02-18,15:02:42,TURKEY,-6.5,-10.4,901.5,926.6,15.5,13.0,0.24,9.4,111000,75.4,359
356330,2021-02-18,15:02:42,KAZAKHSTAN,-11.3,-13.7,1026.0,1023.8,21.7,16.4,0.00,5.2,101000,70.2,158
593530,2021-02-18,15:02:42,TAIWAN,-3.0,-2.8,763.2,1022.0,7.7,5.3,0.00,0.0,100000,96.8,16
471320,2021-02-18,15:02:42,KOREASOUTH,-8.0,-15.2,1003.8,995.5,10.5,1.0,0.00,0.0,100000,46.1,39
477560,2021-02-18,15:02:42,JAPAN,-0.6,-5.3,1001.3,1019.8,12.8,5.0,0.44,0.0,110000,58.7,157
475700,2021-02-18,15:02:42,JAPAN,-2.9,-6.5,1008.8,1019.3,14.9,7.2,0.15,9.5,111000,50.1,199
380810,2021-02-18,15:02:42,KAZAKHSTAN,-5.0,-9.6,1030.6,1029.7,23.5,14.5,0.01,0.3,111000,69.7,135
526510,2021-02-18,15:02:42,CHINA,-2.9,-24.9,984.6,1001.6,69.9,5.8,0.00,0.0,100000,48.1,209
529570,2021-02-18,15:02:42,CHINA,-16.0,-33.0,723.5,726.8,27.2,14.2,0.00,0.0,100000,95.1,32
504340,2021-02-18,15:02:42,CHINA,-30.5,-33.2,967.3,1027.4,27.1,7.7,0.01,0.0,110000,50.3,351
350530,2021-02-18,15:02:42,KAZAKHSTAN,-8.2,-10.2,1035.2,1033.8,18.8,11.7,0.01,2.5,111000,50.3,289
580270,2021-02-18,15:02:42,CHINA,-0.5,-7.6,1021.3,1026.7,13.9,9.0,0.05,0.0,110000,52.4,300
475870,2021-02-18,15:02:42,JAPAN,-1.4,-5.6,1013.4,1017.9,15.1,24.2,0.34,4.2,111000,50.3,29
475850,2021-02-18,15:02:42,JAPAN,-3.5,-9.4,1010.6,1017.0,23.8,9.4,0.12,2.8,111000,50.0,331
470690,2021-02-18,15:02:42,KOREANORTH,-4.5,-10.6,1021.8,1024.8,15.2,9.6,0.00,0.0,100000,90.9,179
517090,2021-02-18,15:02:42,CHINA,-0.9,-9.5,912.0,1026.8,15.2,5.7,0.01,0.0,110000,50.1,278
470700,2021-02-18,15:02:42,KOREANORTH,-4.2,-10.1,1028.4,1022.8,17.6,7.9,0.05,0.0,110000,88.7,107
524180,2021-02-18,15:02:42,CHINA,-7.8,-21.4,917.5,1027.6,27.9,6.2,0.00,0.0,100000,81.4,244
583430,2021-02-18,15:02:42,CHINA,-0.2,-5.9,1013.2,1025.8,16.3,10.6,0.00,0.0,100000,97.8,19
475800,2021-02-18,15:02:42,JAPAN,-3.0,-6.9,1004.7,1005.2,11.4,13.7,0.00,1.7,101000,51.9,62
581410,2021-02-18,15:02:42,CHINA,-0.8,-9.7,1031.8,1034.4,15.6,7.1,0.00,0.0,100000,30.8,297
443540,2021-02-18,15:02:42,MONGOLIA,-14.8,-21.1,1058.2,1029.4,49.7,17.1,0.00,0.0,100000,46.7,286
474050,2021-02-18,15:02:42,JAPAN,-11.3,-14.9,1018.3,1019.2,39.8,10.0,0.06,0.0,110000,50.3,147
562570,2021-02-18,15:02:42,CHINA,-8.9,-22.5,684.5,683.3,37.6,8.1,0.00,0.0,100000,64.0,261
470950,2021-02-18,15:02:42,KOREASOUTH,-6.5,-12.2,1007.6,1024.0,16.1,6.4,0.05,0.0,110000,50.2,93
471290,2021-02-18,15:02:42,KOREASOUTH,-3.2,-8.2,1021.3,1024.0,19.1,8.6,0.03,0.0,110000,58.1,307
345810,2021-02-18,15:02:42,KAZAKHSTAN,-1.2,-6.2,1043.9,1027.3,51.0,18.1,0.00,0.0,100000,25.0,234
354160,2021-02-18,15:02:42,KAZAKHSTAN,-7.5,-10.3,1024.6,1027.4,7.6,17.3,0.03,5.6,111000,54.7,72
535020,2021-02-18,15:02:42,CHINA,-10.2,-21.9,979.9,1029.4,22.6,11.4,0.00,0.0,100000,46.4,178
381411,2021-02-18,15:02:42,KAZAKHSTAN,-8.2,-7.8,1006.4,987.3,6.6,17.2,0.00,0.0,100000,90.8,87
381410,2021-02-18,15:02:42,UZBEKISTAN,-1.1,-5.4,1004.5,1021.0,18.6,12.4,0.00,0.0,100000,30.6,358
544830,2021-02-18,15:02:42,CHINA,-15.4,-23.9,1026.0,1024.4,16.1,7.3,0.01,0.0,110000,54.9,182
527870,2021-02-18,15:02:42,CHINA,-14.0,-24.2,746.8,750.7,26.7,18.4,0.01,0.0,110000,73.0,25
513340,2021-02-18,15:02:42,CHINA,-8.4,-11.3,1030.6,1032.8,25.8,5.1,0.01,0.0,110000,50.2,166
471460,2021-02-18,15:02:42,KOREASOUTH,-1.9,-7.9,1020.2,1023.8,18.5,5.8,0.06,0.1,111000,50.2,290
518550,2021-02-18,15:02:42,CHINA,-7.9,-20.4,933.0,1025.4,17.3,7.5,0.00,0.0,100000,93.9,252
543860,2021-02-18,15:02:42,CHINA,-4.8,-21.9,965.9,1026.2,18.3,10.4,0.04,0.0,110000,73.6,277
363350,2021-02-18,15:02:42,KAZAKHSTAN,-9.9,-13.6,1031.4,1033.1,43.1,18.6,0.04,7.6,111000,50.5,16
287850,2021-02-18,15:02:42,KAZAKHSTAN,-8.5,-9.6,1031.0,1021.0,16.5,4.2,0.00,13.2,101000,77.3,169
564440,2021-02-18,15:02:42,CHINA,-4.1,-11.1,734.6,734.9,23.3,10.8,0.04,0.0,110000,50.8,308
577760,2021-02-18,15:02:42,CHINA,-0.5,-3.0,977.1,1024.0,8.4,18.5,0.21,0.0,110000,50.9,104
368215,2021-02-18,15:02:42,KAZAKHSTAN,-8.6,-11.5,1020.8,1045.1,8.8,17.1,0.00,0.0,100000,29.3,217
543460,2021-02-18,15:02:42,CHINA,-8.6,-16.3,1019.2,1025.8,13.9,9.2,0.04,0.0,110000,53.1,208
363970,2021-02-18,15:02:42,KAZAKHSTAN,-4.9,-8.7,1044.5,1036.6,24.5,33.5,1.07,2.6,111000,91.6,281
476490,2021-02-18,15:02:42,JAPAN,-0.1,-4.4,999.6,1019.5,,12.5,0.28,0.0,110000,50.8,22
542920,2021-02-18,15:02:42,CHINA,-12.6,-21.8,1007.8,1025.5,20.9,11.4,0.00,0.0,100000,84.0,253
527370,2021-02-18,15:02:42,CHINA,-10.0,-25.4,725.3,726.7,25.5,7.2,0.00,0.0,100000,88.7,63
541860,2021-02-18,15:02:42,CHINA,-16.0,-21.9,1013.5,1024.6,18.7,10.1,0.03,0.0,110000,50.1,143
524410,2021-02-18,15:02:42,CHINA,-14.2,-27.0,845.1,847.5,43.1,17.0,0.00,0.0,100000,78.4,355
516440,2021-02-18,15:02:42,CHINA,-2.7,-11.4,923.6,1028.1,22.8,7.4,0.01,0.0,110000,50.0,80
544710,2021-02-18,15:02:42,CHINA,-8.6,-16.6,1026.6,1025.4,13.3,13.9,0.04,0.0,110000,50.5,257
471920,2021-02-18,15:02:42,KOREASOUTH,-2.2,-10.4,1022.5,1022.5,21.4,6.8,0.06,0.0,110000,50.0,79
539150,2021-02-18,15:02:42,CHINA,-5.5,-13.9,907.8,1027.7,22.2,7.3,0.02,0.0,110000,56.4,61
570250,2021-02-18,15:02:42,CHINA,-1.4,-4.3,1038.1,1034.5,6.3,6.8,0.00,0.0,100000,47.0,340
353630,2021-02-18,15:02:42,KAZAKHSTAN,-8.2,-11.3,1041.0,1040.3,14.3,17.2,0.00,0.0,100000,54.7,275
564620,2021-02-18,15:02:42,CHINA,-1.9,-16.5,754.5,754.1,34.0,12.0,0.01,0.0,110000,50.1,83
543740,2021-02-18,15:02:42,CHINA,-13.9,-19.2,1005.3,1024.4,15.4,3.6,0.05,0.0,110000,95.7,268
561060,2021-02-18,15:02:42,CHINA,-10.7,-22.7,619.1,618.0,27.6,9.1,0.04,0.0,110000,95.8,333
543424,2021-02-18,15:02:42,CHINA,-6.7,-16.5,998.5,1001.7,9.6,12.1,0.00,0.0,100000,51.3,234
471170,2021-02-18,15:02:42,KOREASOUTH,-1.0,-6.4,1000.2,986.0,8.8,5.2,0.01,0.0,110000,50.4,71
475200,2021-02-18,15:02:42,JAPAN,-3.2,-6.3,1005.6,1018.6,16.4,11.3,0.15,0.0,110000,50.1,172
353860,2021-02-18,15:02:42,KAZAKHSTAN,-16.5,-19.8,986.3,989.5,17.6,9.5,0.00,0.0,100000,6.3,153
541150,2021-02-18,15:02:42,CHINA,-13.8,-25.0,973.5,1027.1,24.6,11.2,0.01,0.0,110000,50.1,239
472185,2021-02-18,15:02:42,JAPAN,-5.2,-12.6,985.7,975.4,9.5,19.8,0.00,0.0,100000,74.2,317
475420,2021-02-18,15:02:42,JAPAN,-4.0,-7.5,999.6,1001.7,8.4,17.3,0.00,0.0,100000,53.6,234
172480,2021-02-18,15:02:42,TURKEY,-4.0,-5.7,894.4,885.9,15.6,8.5,0.36,8.8,111000,87.1,45
543420,2021-02-18,15:02:42,CHINA,-10.5,-18.8,1022.0,1024.7,7.1,12.4,0.03,0.0,110000,50.4,193
381980,2021-02-18,15:02:42,KAZAKHSTAN,-1.6,-5.9,1030.4,1026.3,21.6,8.3,0.32,0.4,111000,62.7,171
538450,2021-02-18,15:02:42,CHINA,-6.1,-16.7,933.6,1028.8,12.2,6.5,0.01,0.0,110000,69.0,4
289520,2021-02-18,15:02:42,KAZAKHSTAN,-13.6,-18.1,1038.3,1033.1,7.8,13.4,0.04,0.0,110000,52.1,294
442880,2021-02-18,15:02:42,MONGOLIA,-7.7,-14.1,917.4,1028.6,47.3,12.9,0.02,0.1,111000,50.1,316
544360,2021-02-18,15:02:42,CHINA,-8.8,-20.8,1018.4,1026.0,26.7,6.0,0.02,0.0,110000,78.2,336
383280,2021-02-18,15:02:42,KAZAKHSTAN,-1.0,-5.5,952.1,1025.8,10.0,11.2,0.00,2.4,101000,50.8,177
470080,2021-02-18,15:02:42,KOREANORTH,-7.1,-12.4,1015.8,1022.0,12.0,8.3,0.01,0.0,110000,72.9,241
547760,2021-02-18,15:02:42,CHINA,-1.0,-7.3,1020.5,1025.8,19.6,23.7,0.07,0.0,110000,76.8,21
474070,2021-02-18,15:02:43,JAPAN,-11.6,-15.2,1007.3,1016.5,9.4,6.6,0.11,20.4,111000,50.5,35
474060,2021-02-18,15:02:43,JAPAN,-8.0,-11.1,1011.2,1015.6,17.6,20.5,0.11,19.6,111000,50.9,73
170980,2021-02-18,15:02:43,TURKEY,-4.9,-8.4,815.6,815.6,9.1,9.9,0.06,12.5,111000,50.1,321
475490,2021-02-18,15:02:43,JAPAN,-2.2,-8.9,998.3,999.5,8.7,9.3,0.00,0.0,100000,87.4,237
517650,2021-02-18,15:02:43,CHINA,-7.7,-20.8,939.6,1027.3,28.2,6.0,0.00,0.0,100000,47.4,25
560800,2021-02-18,15:02:43,CHINA,-12.2,-20.3,734.5,733.3,25.4,6.6,0.01,0.0,110000,95.4,158
560790,2021-02-18,15:02:43,CHINA,-12.6,-20.6,665.4,664.8,31.5,8.7,0.02,0.0,110000,50.4,232
570140,2021-02-18,15:02:43,CHINA,-5.9,-10.8,1014.5,1034.8,11.9,6.5,0.00,0.0,100000,73.8,191
507270,2021-02-18,15:02:43,CHINA,-23.3,-29.1,914.8,1028.3,25.8,7.5,0.01,0.0,110000,50.2,349
476000,2021-02-18,15:02:43,JAPAN,-0.1,-4.4,1018.4,1019.6,15.9,14.0,0.29,5.1,111000,50.2,354
353940,2021-02-18,15:02:43,KAZAKHSTAN,-10.1,-14.4,1006.2,1032.3,16.9,13.7,0.04,3.5,111000,50.5,194
547250,2021-02-18,15:02:43,CHINA,-3.7,-12.6,1026.5,1026.5,14.2,12.5,0.08,0.0,110000,70.8,180
356050,2021-02-18,15:02:43,KAZAKHSTAN,-0.3,-1.0,1036.2,1014.5,22.4,18.1,0.19,0.0,110000,50.3,161
527070,2021-02-18,15:02:43,CHINA,-13.7,-30.2,725.5,721.6,21.3,11.2,0.00,0.0,100000,44.6,244
542730,2021-02-18,15:02:43,CHINA,-16.8,-23.6,1017.3,1025.2,15.8,8.1,0.06,0.0,110000,67.5,345
543424,2021-02-18,15:02:43,CHINA,-6.7,-15.4,998.6,1001.7,9.6,12.0,0.00,0.0,100000,51.3,234
542370,2021-02-18,15:02:43,CHINA,-16.5,-29.4,1006.2,1031.3,14.0,12.7,0.00,0.0,100000,39.3,22
470550,2021-02-18,15:02:43,KOREANORTH,-3.1,-10.4,1021.9,1023.0,16.2,8.8,0.46,0.3,111000,50.1,191
539590,2021-02-18,15:02:43,CHINA,-1.4,-10.6,1011.1,1027.1,16.4,9.3,0.01,0.0,110000,50.3,50
543460,2021-02-18,15:02:43,CHINA,-3.2,-17.4,1019.2,1025.9,13.8,9.2,0.04,0.0,110000,53.1,208
363970,2021-02-18,15:02:43,KAZAKHSTAN,-4.9,-8.7,1044.3,1036.7,24.4,33.3,1.07,2.6,111000,91.7,282
351080,2021-02-18,15:02:43,KAZAKHSTAN,-7.9,-11.0,1017.3,1024.3,8.2,18.3,0.04,11.3,111000,53.1,175
537640,2021-02-18,15:02:43,CHINA,-8.0,-17.8,974.0,1029.5,19.0,8.3,0.12,0.0,110000,80.3,197
470750,2021-02-18,15:02:43,KOREANORTH,-5.9,-10.5,1027.7,1023.0,23.5,7.9,0.11,0.0,110000,50.6,259
555780,2021-02-18,15:02:43,CHINA,-7.7,-29.6,635.7,635.5,29.3,7.3,0.00,0.0,100000,66.9,233
505640,2021-02-18,15:02:43,CHINA,-24.6,-28.0,1018.7,1024.1,18.3,7.0,0.01,0.0,110000,50.1,306
474810,2021-02-18,15:02:43,JAPAN,-10.1,-15.1,1000.5,992.1,9.1,11.8,0.00,0.0,100000,39.6,356
525330,2021-02-18,15:02:43,CHINA,-9.5,-21.5,894.1,1029.3,29.8,7.5,0.01,0.0,110000,50.5,165
525331,2021-02-18,15:02:43,CHINA,-10.9,-13.5,1000.8,988.1,4.5,5.6,0.00,0.0,100000,49.1,187
548360,2021-02-18,15:02:43,CHINA,-4.0,-13.4,1031.0,1027.7,14.7,9.9,0.04,0.0,110000,50.2,31
523230,2021-02-18,15:02:43,CHINA,-15.4,-25.3,819.2,814.7,31.5,15.1,0.00,0.0,100000,33.5,16
442920,2021-02-18,15:02:43,MONGOLIA,-20.8,-25.8,887.4,1031.3,17.3,5.2,0.00,3.7,101000,61.0,76
443290,2021-02-18,15:02:43,MONGOLIA,-14.9,-17.1,779.6,1033.1,19.4,14.1,0.00,3.2,101000,50.1,225
471010,2021-02-18,15:02:43,KOREASOUTH,-5.3,-12.1,1017.9,1023.5,18.4,5.0,0.04,0.6,111000,59.1,309
471020,2021-02-18,15:02:43,KOREASOUTH,-0.2,-6.4,1004.1,1023.8,11.8,17.6,0.00,0.0,100000,49.9,16
548570,2021-02-18,15:02:43,CHINA,-1.7,-8.7,1023.7,1026.6,12.3,19.8,0.03,0.0,110000,50.1,32
470460,2021-02-18,15:02:43,KOREANORTH,-4.1,-8.6,1024.0,1020.5,15.8,5.2,0.01,0.0,110000,62.4,245
347980,2021-02-18,15:02:43,KAZAKHSTAN,-3.2,-7.0,1018.9,1020.3,10.5,21.3,0.00,0.6,101000,74.8,42
546160,2021-02-18,15:02:43,CHINA,-4.0,-14.3,1027.4,1026.5,12.0,13.4,0.03,0.0,110000,64.8,340
545340,2021-02-18,15:02:43,CHINA,-4.9,-14.3,1022.3,1026.3,14.8,10.2,0.01,0.0,110000,71.2,91
474210,2021-02-18,15:02:43,JAPAN,-4.3,-9.2,1015.3,1016.4,18.7,,0.14,14.5,111000,50.5,323
478920,2021-02-18,15:02:43,JAPAN,-0.1,-9.2,1026.1,1028.5,26.9,9.5,0.00,0.0,100000,94.8,326
528660,2021-02-18,15:02:43,CHINA,-8.0,-19.8,772.3,771.4,16.1,7.6,0.00,0.0,100000,18.9,274
508540,2021-02-18,15:02:43,CHINA,-17.5,-23.3,1022.5,1023.1,16.9,10.7,0.01,0.0,110000,95.0,301
476400,2021-02-18,15:02:43,JAPAN,-8.1,-17.5,920.4,914.8,30.4,5.5,0.00,0.0,100000,45.7,286
353020,2021-02-18,15:02:43,KAZAKHSTAN,-7.5,-10.8,1051.9,1035.0,19.8,18.5,0.00,0.0,100000,3.4,136
470080,2021-02-18,15:02:43,KOREANORTH,-6.9,-12.4,1015.8,1022.0,12.0,8.4,0.01,0.0,110000,72.9,241
548230,2021-02-18,15:02:43,CHINA,-0.9,-11.8,1022.8,1026.4,11.4,11.9,0.05,0.0,110000,50.0,215
442370,2021-02-18,15:02:43,MONGOLIA,-5.3,-19.8,844.0,1022.9,49.2,10.9,0.01,0.3,111000,50.4,28
287660,2021-02-18,15:02:43,KAZAKHSTAN,-6.1,-9.6,1016.8,1025.4,11.3,14.2,0.01,4.5,111000,85.4,278
549290,2021-02-18,15:02:43,CHINA,-0.2,-9.5,1023.5,1026.6,17.7,6.8,0.01,0.0,110000,72.0,281
350850,2021-02-18,15:02:43,KAZAKHSTAN,-13.6,-17.7,1017.6,1033.3,28.7,15.8,0.02,3.4,111000,74.8,335
544970,2021-02-18,15:02:43,CHINA,-6.6,-15.3,1025.1,1024.4,15.1,11.3,0.06,0.0,110000,50.3,351
548630,2021-02-18,15:02:43,CHINA,-3.0,-11.0,1026.6,1026.4,19.6,13.9,0.03,0.0,110000,50.3,343
507450,2021-02-18,15:02:43,CHINA,-17.1,-24.1,1015.0,1023.0,11.4,10.7,0.01,0.0,110000,51.1,221
442410,2021-02-18,15:02:43,MONGOLIA,-21.4,-26.6,1030.0,1033.6,45.7,9.1,0.00,1.9,101000,65.2,159
536140,2021-02-18,15:02:43,CHINA,-7.9,-18.7,928.6,1029.1,20.6,7.1,0.01,0.0,110000,50.2,317
513790,2021-02-18,15:02:43,CHINA,-18.4,-21.6,1018.0,1036.0,26.5,9.8,0.01,0.0,110000,52.9,119
581440,2021-02-18,15:02:43,CHINA,-0.3,-7.3,1026.9,1026.4,16.5,9.5,0.08,0.0,110000,50.2,12
583211,2021-02-18,15:02:43,CHINA,-0.3,-5.4,1005.2,999.5,9.6,9.7,0.00,0.0,100000,96.4,230
510530,2021-02-18,15:02:43,CHINA,-6.7,-20.9,1025.3,1035.8,25.7,14.8,0.01,0.0,110000,98.2,21
476490,2021-02-18,15:02:43,JAPAN,-0.2,-4.4,999.6,1019.6,18.6,12.6,0.28,0.0,110000,50.8,23
524360,2021-02-18,15:02:43,CHINA,-10.7,-24.3,863.3,1029.2,30.1,13.2,0.00,0.0,100000,77.7,29
470050,2021-02-18,15:02:43,KOREANORTH,-18.4,-22.2,900.1,898.5,19.7,6.3,0.06,6.7,111000,50.7,68
354260,2021-02-18,15:02:43,KAZAKHSTAN,-7.6,-11.7,1003.9,1025.2,38.6,11.6,0.00,4.8,101000,80.9,8
353210,2021-02-18,15:02:43,KAZAKHSTAN,-14.7,-20.5,1047.1,1037.0,9.0,9.9,0.00,0.0,100000,53.1,69
475760,2021-02-18,15:02:43,JAPAN,-4.3,-9.8,1016.9,1017.5,20.9,10.8,0.11,0.0,110000,76.8,286
536980,2021-02-18,15:02:43,CHINA,-2.0,-12.3,1029.0,1026.5,13.2,6.6,0.04,0.0,110000,50.5,358
289840,2021-02-18,15:02:43,KAZAKHSTAN,-6.0,-8.8,1011.1,1024.3,38.8,11.3,0.00,0.0,100000,76.0,167
476120,2021-02-18,15:02:43,JAPAN,-0.6,-4.7,1017.3,1019.3,15.6,10.1,0.57,12.3,111000,50.1,357
514670,2021-02-18,15:02:43,CHINA,-9.1,-23.0,829.6,831.0,27.8,9.2,0.00,0.0,100000,4.7,114
539470,2021-02-18,15:02:43,CHINA,-2.8,-11.3,949.8,1027.2,12.6,8.5,0.01,0.0,110000,57.5,204
570060,2021-02-18,15:02:43,CHINA,-2.1,-9.6,947.0,1025.4,11.3,5.5,0.01,0.0,110000,50.3,108
357910,2021-02-18,15:02:43,KAZAKHSTAN,-13.1,-17.8,1035.3,1036.4,40.2,6.5,0.03,2.4,111000,79.2,139
529570,2021-02-18,15:02:43,CHINA,-16.0,-33.0,723.5,726.8,27.1,14.1,0.00,0.0,100000,95.1,32
470610,2021-02-18,15:02:43,KOREANORTH,-2.3,-8.6,1016.2,1020.7,21.1,8.4,0.18,1.2,111000,88.9,245
470650,2021-02-18,15:02:43,KOREANORTH,-5.5,-11.2,1031.6,1024.9,11.7,8.5,0.02,0.0,110000,79.8,251
443540,2021-02-18,15:02:43,MONGOLIA,-14.1,-21.1,1058.4,1029.4,49.7,17.0,0.00,0.0,100000,46.8,287
470990,2021-02-18,15:02:43,KOREASOUTH,-6.2,-12.8,1020.6,1024.6,11.5,5.5,0.01,0.0,110000,50.5,2
471030,2021-02-18,15:02:43,KOREASOUTH,-2.4,-6.3,1014.4,1022.6,12.0,21.5,0.00,0.0,100000,65.4,338
471025,2021-02-18,15:02:43,KOREASOUTH,-2.7,-8.6,1013.2,1022.3,11.5,4.1,0.00,0.0,100000,64.1,200
501360,2021-02-18,15:02:43,CHINA,-26.6,-31.4,968.2,1026.0,20.5,8.0,0.00,0.0,100000,10.4,1
552790,2021-02-18,15:02:43,CHINA,-12.0,-29.7,996.5,997.6,27.7,18.5,0.01,0.0,110000,50.1,290
471300,2021-02-18,15:02:43,KOREASOUTH,-0.8,-9.1,1020.3,1022.0,20.9,13.0,0.18,0.0,110000,50.7,26
471310,2021-02-18,15:02:43,KOREASOUTH,-3.3,-8.9,1021.2,1024.1,17.9,6.1,0.04,0.0,110000,64.0,118
380190,2021-02-18,15:02:43,KAZAKHSTAN,-10.8,-15.3,1043.4,1032.6,29.4,12.1,0.02,9.4,111000,92.6,60
544490,2021-02-18,15:02:43,CHINA,-0.3,-21.2,1030.9,1016.8,31.8,24.6,0.00,0.0,100000,47.9,297
549380,2021-02-18,15:02:43,CHINA,-2.4,-12.4,1033.5,1027.6,15.1,9.9,0.02,0.0,110000,50.2,155
369820,2021-02-18,15:02:43,KYRGYZSTAN,-21.7,-25.6,646.3,646.6,42.9,9.6,0.00,0.0,100000,63.9,267
355490,2021-02-18,15:02:43,KAZAKHSTAN,-7.8,-11.4,1033.6,1030.5,22.2,10.1,0.00,4.8,101000,50.5,175
474740,2021-02-18,15:02:43,JAPAN,-11.4,-20.0,1004.2,1012.5,10.2,9.8,0.00,0.0,100000,63.3,69
513460,2021-02-18,15:02:43,CHINA,-18.3,-21.8,1068.1,1038.6,57.2,5.5,0.00,0.0,100000,56.6,299
442870,2021-02-18,15:02:43,MONGOLIA,-20.0,-24.5,813.9,1035.2,50.3,12.8,0.00,2.6,101000,50.4,59
443140,2021-02-18,15:02:43,MONGOLIA,-15.3,-20.9,935.4,1022.1,17.5,19.1,0.01,1.8,111000,50.1,194
577070,2021-02-18,15:02:43,CHINA,-0.4,-2.2,852.3,854.6,9.2,3.0,0.03,0.0,110000,80.5,46
549090,2021-02-18,15:02:43,CHINA,-1.0,-8.9,1021.1,1027.7,15.3,10.6,0.06,0.0,110000,50.2,144
386150,2021-02-18,15:02:43,KYRGYZSTAN,-2.7,-8.9,925.4,1033.6,9.0,7.9,0.00,11.3,101000,50.9,121
355820,2021-02-18,15:02:43,KAZAKHSTAN,-3.7,-15.0,1036.9,1034.9,34.4,15.3,0.02,2.5,111000,67.3,127
478180,2021-02-18,15:02:43,JAPAN,-2.6,-10.3,946.3,1029.3,26.1,13.7,0.00,0.0,100000,50.0,317
538630,2021-02-18,15:02:43,CHINA,-5.0,-15.1,1016.6,1028.0,13.3,8.4,0.02,0.0,110000,50.1,128
538870,2021-02-18,15:02:43,CHINA,-10.7,-29.0,915.3,1027.9,29.1,6.4,0.00,0.0,100000,49.5,332
474830,2021-02-18,15:02:43,JAPAN,-6.2,-14.0,1002.3,1004.2,10.7,15.6,0.00,0.0,100000,86.1,319
477690,2021-02-18,15:02:43,JAPAN,-0.4,-6.5,1022.5,1027.9,27.7,8.8,0.00,0.0,100000,29.7,155
170960,2021-02-18,15:02:43,TURKEY,-3.0,-6.4,890.7,899.4,9.9,9.7,0.04,8.5,111000,66.2,73
471270,2021-02-18,15:02:43,KOREASOUTH,-3.4,-8.8,1007.7,1014.3,9.4,8.3,0.01,0.1,111000,50.2,21
172410,2021-02-18,15:02:43,TURKEY,-4.7,-8.8,1012.9,1047.3,10.8,15.3,0.00,0.0,100000,94.8,133
521120,2021-02-18,15:02:43,CHINA,-8.0,-20.7,1029.6,1026.4,29.3,12.3,0.00,0.0,100000,49.7,183
561370,2021-02-18,15:02:43,CHINA,-5.5,-20.1,715.8,711.9,25.4,4.9,0.01,0.0,110000,50.1,108
508620,2021-02-18,15:02:43,CHINA,-25.6,-30.7,989.2,1010.0,17.2,8.8,0.00,0.0,100000,21.0,351
368700,2021-02-18,15:02:43,KAZAKHSTAN,-2.5,-5.6,978.3,1022.2,8.2,3.7,0.29,2.9,111000,89.4,270
476290,2021-02-18,15:02:43,JAPAN,-1.9,-8.1,1012.6,1016.4,33.1,9.8,0.03,0.0,110000,50.3,106
475970,2021-02-18,15:02:43,JAPAN,-2.9,-10.2,974.2,1018.3,23.8,15.1,0.11,0.0,110000,69.6,289
504340,2021-02-18,15:02:43,CHINA,-29.8,-33.2,967.4,1027.4,27.2,7.7,0.01,0.0,110000,50.3,351
350530,2021-02-18,15:02:43,KAZAKHSTAN,-7.5,-10.2,1035.2,1033.8,18.8,11.7,0.01,2.5,111000,50.3,290
580270,2021-02-18,15:02:43,CHINA,-0.5,-7.6,1021.3,1026.7,13.9,9.1,0.05,0.0,110000,52.4,299
517470,2021-02-18,15:02:43,CHINA,-7.5,-18.0,893.8,1025.7,19.3,3.8,0.00,0.0,100000,35.6,53
528180,2021-02-18,15:02:43,CHINA,-9.7,-27.6,754.0,752.8,26.8,9.0,0.00,0.0,100000,70.3,87
475690,2021-02-18,15:02:43,JAPAN,-0.7,-7.5,997.1,997.5,9.6,15.7,0.00,0.0,100000,45.2,279
518550,2021-02-18,15:02:43,CHINA,-7.6,-20.4,933.0,1025.4,17.4,7.5,0.00,0.0,100000,93.8,252
543860,2021-02-18,15:02:43,CHINA,-16.5,-23.4,965.9,1026.2,18.4,10.5,0.04,0.0,110000,73.6,276
363350,2021-02-18,15:02:43,KAZAKHSTAN,-9.9,-13.6,1031.4,1033.1,43.0,18.7,0.04,7.6,111000,50.6,15
547760,2021-02-18,15:02:43,CHINA,-1.0,-7.3,1020.5,1025.8,19.6,23.8,0.07,0.0,110000,76.8,21
471750,2021-02-18,15:02:43,KOREASOUTH,-0.7,-7.5,965.7,1024.1,13.7,21.4,0.06,0.0,110000,95.0,276
470250,2021-02-18,15:02:43,KOREANORTH,-4.8,-9.4,1015.1,1021.3,10.5,8.5,0.27,0.0,110000,50.4,12
543110,2021-02-18,15:02:43,CHINA,-4.7,-23.0,970.7,1028.1,28.1,6.5,0.01,0.0,110000,54.0,77
561160,2021-02-18,15:02:43,CHINA,-8.1,-21.6,684.3,685.0,26.6,4.2,0.00,0.0,100000,34.5,301
541350,2021-02-18,15:02:43,CHINA,-12.7,-24.4,1018.5,1024.7,25.5,14.8,0.01,0.0,110000,51.6,186
361860,2021-02-18,15:02:43,KAZAKHSTAN,-4.7,-7.2,1022.9,1025.6,11.9,2.8,0.00,0.0,100000,32.7,202
564440,2021-02-18,15:02:43,CHINA,-3.8,-10.0,734.6,734.8,23.4,10.7,0.04,0.0,110000,50.8,308
470670,2021-02-18,15:02:43,KOREANORTH,-6.8,-10.5,1044.9,1024.9,15.7,7.5,0.00,0.0,100000,97.8,53
542260,2021-02-18,15:02:43,CHINA,-11.0,-24.8,1022.7,1025.9,25.6,14.9,0.01,0.0,110000,87.8,130
470680,2021-02-18,15:02:43,KOREANORTH,-4.7,-9.1,1030.9,1024.8,16.2,11.6,0.01,0.0,110000,50.1,171
475700,2021-02-18,15:02:43,JAPAN,-2.9,-6.5,1008.8,1019.3,14.9,7.2,0.15,9.5,111000,50.1,199
367780,2021-02-18,15:02:43,KAZAKHSTAN,-12.0,-17.6,1060.9,1037.2,21.2,6.3,0.00,0.0,100000,90.9,204
532310,2021-02-18,15:02:43,CHINA,-13.8,-23.7,850.5,852.3,25.9,20.8,0.01,0.0,110000,72.8,51
472185,2021-02-18,15:02:43,JAPAN,-5.2,-12.4,985.6,975.1,9.6,19.7,0.00,0.0,100000,74.2,317
517110,2021-02-18,15:02:43,CHINA,-6.7,-14.6,801.1,805.3,24.7,8.7,0.02,0.0,110000,50.7,128
560040,2021-02-18,15:02:43,CHINA,-20.0,-32.4,1001.3,1001.2,30.1,19.9,0.00,0.0,100000,77.5,136
470600,2021-02-18,15:02:43,KOREANORTH,-4.3,-9.6,1028.3,1024.4,9.9,12.8,0.04,0.0,110000,50.4,204
564620,2021-02-18,15:02:43,CHINA,-1.9,-16.5,754.5,754.1,34.0,12.1,0.01,0.0,110000,50.2,83
343980,2021-02-18,15:02:43,KAZAKHSTAN,-8.0,-10.7,1016.2,1015.7,17.6,16.0,0.00,5.6,101000,82.7,171
357960,2021-02-18,15:02:43,KAZAKHSTAN,-8.5,-12.7,1018.5,1033.4,30.4,19.2,0.01,1.6,111000,67.8,295
546020,2021-02-18,15:02:43,CHINA,-3.5,-14.2,1022.0,1026.4,10.9,7.6,0.03,0.0,110000,64.9,212
474200,2021-02-18,15:02:43,JAPAN,-7.2,-11.1,1012.3,1015.2,20.8,14.8,0.06,3.8,111000,50.5,282
351910,2021-02-18,15:02:43,KAZAKHSTAN,-11.3,-18.2,1060.9,1042.7,37.0,12.3,0.00,0.0,100000,8.4,62
505270,2021-02-18,15:02:43,CHINA,-24.7,-26.7,992.5,1028.0,17.2,9.0,0.01,0.0,110000,50.1,192
475120,2021-02-18,15:02:43,JAPAN,-3.3,-12.5,1018.8,1023.4,39.8,8.4,0.00,0.0,100000,24.1,264
563740,2021-02-18,15:02:43,CHINA,-3.0,-8.3,748.5,747.8,30.5,17.5,0.04,0.0,110000,91.7,307
507880,2021-02-18,15:02:43,CHINA,-17.1,-22.4,1023.1,1020.5,20.6,13.3,0.01,0.0,110000,50.5,268
515730,2021-02-18,15:02:43,CHINA,-3.6,-16.5,1023.0,1028.8,23.4,4.8,0.04,0.0,110000,65.0,218
356710,2021-02-18,15:02:43,KAZAKHSTAN,-10.8,-14.6,997.8,1029.5,20.4,16.9,0.00,5.0,101000,50.2,297
474020,2021-02-18,15:02:43,JAPAN,-12.3,-15.8,1016.8,1017.9,21.7,10.0,0.11,0.0,110000,58.7,91
474010,2021-02-18,15:02:43,JAPAN,-7.3,-12.3,1011.3,1015.8,17.9,13.9,0.16,16.7,111000,90.5,200
581410,2021-02-18,15:02:43,CHINA,-0.8,-9.7,1031.8,1034.4,15.7,7.1,0.00,0.0,100000,30.8,297
581500,2021-02-18,15:02:43,CHINA,-0.7,-5.0,1028.2,1026.6,13.9,10.7,0.12,0.0,110000,56.2,316
530830,2021-02-18,15:02:43,CHINA,-18.4,-24.7,965.1,1031.2,29.2,12.7,0.01,0.0,110000,64.7,222
561250,2021-02-18,15:02:43,CHINA,-9.6,-22.3,650.0,654.7,23.6,7.5,0.03,0.0,110000,94.8,43
471131,2021-02-18,15:02:43,KOREASOUTH,-1.6,-11.3,977.4,985.3,9.2,11.6,0.00,0.0,100000,36.6,82
471130,2021-02-18,15:02:43,KOREASOUTH,-1.5,-8.3,1020.0,1022.4,11.0,8.0,0.00,0.0,100000,58.9,272
531490,2021-02-18,15:02:43,CHINA,-13.2,-23.7,905.9,1030.0,29.1,16.1,0.01,0.0,110000,62.6,296
508440,2021-02-18,15:02:43,CHINA,-14.8,-24.5,1026.3,1023.5,14.8,13.5,0.01,0.0,110000,50.1,32
555910,2021-02-18,15:02:43,CHINA,-3.3,-25.7,676.7,675.6,29.7,9.5,0.00,0.0,100000,80.6,342
540490,2021-02-18,15:02:43,CHINA,-13.4,-22.0,1025.9,1024.2,19.4,11.9,0.01,0.0,110000,50.0,23
471100,2021-02-18,15:02:43,KOREASOUTH,-4.1,-10.1,1007.6,1010.5,9.5,10.7,0.00,0.0,100000,63.4,279
523130,2021-02-18,15:02:43,CHINA,-12.6,-22.3,924.6,894.9,59.3,3.0,0.00,0.0,100000,9.3,188
507740,2021-02-18,15:02:43,CHINA,-21.0,-27.5,1013.2,1023.1,10.5,7.0,0.01,0.0,110000,50.0,327
515670,2021-02-18,15:02:43,CHINA,-7.1,-13.2,1004.5,1032.5,18.4,7.5,0.00,0.0,100000,26.5,249
534800,2021-02-18,15:02:43,CHINA,-14.4,-24.6,957.9,1030.3,26.2,11.6,0.03,0.0,110000,50.6,234
475570,2021-02-18,15:02:43,JAPAN,-0.7,-6.8,993.0,995.7,9.9,16.5,0.00,0.0,100000,73.4,346
509490,2021-02-18,15:02:43,CHINA,-14.4,-23.0,1016.1,1023.2,14.0,9.2,0.01,0.0,110000,97.8,141
529080,2021-02-18,15:02:43,CHINA,-20.3,-30.0,999.9,1006.4,27.2,21.0,0.00,0.0,100000,93.5,195
474790,2021-02-18,15:02:43,JAPAN,-8.9,-12.5,1000.8,1000.6,8.1,13.8,0.00,0.0,100000,77.5,79
514635,2021-02-18,15:02:43,CHINA,-12.4,-14.9,989.6,987.9,3.6,4.8,0.00,0.0,100000,71.1,314
474760,2021-02-18,15:02:43,JAPAN,-10.6,-14.0,1001.9,1004.0,8.5,11.6,0.00,0.0,100000,43.3,168
286790,2021-02-18,15:02:43,KAZAKHSTAN,-11.1,-13.8,1024.6,1029.6,11.3,18.9,0.02,7.1,111000,50.3,189
442770,2021-02-18,15:02:43,MONGOLIA,-24.0,-28.6,996.5,1028.3,49.2,17.5,0.00,0.0,100000,27.5,124
548430,2021-02-18,15:02:43,CHINA,-4.4,-13.1,1024.0,1026.6,17.0,12.5,0.04,0.0,110000,50.8,23
561930,2021-02-18,15:02:43,CHINA,-1.3,-5.7,1033.5,1031.2,14.3,2.6,0.11,0.0,110000,50.3,34
471064,2021-02-18,15:02:43,KOREASOUTH,-10.4,-15.4,1001.5,1011.1,10.7,9.7,0.00,0.0,100000,52.1,82
471066,2021-02-18,15:02:43,KOREASOUTH,-4.9,-12.1,1007.9,1002.3,8.9,5.9,0.00,0.0,100000,99.0,50
471050,2021-02-18,15:02:43,KOREASOUTH,-1.0,-8.7,1016.6,1021.8,20.5,12.0,0.18,1.4,111000,92.2,249
287850,2021-02-18,15:02:43,KAZAKHSTAN,-8.5,-9.6,1030.6,1021.0,16.4,4.3,0.00,13.2,101000,77.3,169
171890,2021-02-18,15:02:43,TURKEY,-6.5,-10.4,901.5,926.5,15.4,12.9,0.24,9.4,111000,75.4,359
356330,2021-02-18,15:02:43,KAZAKHSTAN,-11.1,-15.0,1026.0,1023.7,21.7,16.5,0.00,5.2,101000,70.2,158
570830,2021-02-18,15:02:43,CHINA,-1.0,-9.7,1020.6,1027.1,10.1,8.6,0.04,0.0,110000,50.9,97
475910,2021-02-18,15:02:43,JAPAN,-1.3,-6.5,1002.3,998.3,12.5,14.4,0.05,0.5,111000,50.1,333
528360,2021-02-18,15:02:43,CHINA,-9.9,-25.1,687.5,687.0,27.6,9.9,0.06,0.0,110000,50.5,117
170672,2021-02-18,15:02:43,TURKEY,-2.0,-3.9,993.4,1017.7,6.9,9.8,0.00,0.0,100000,2.8,164
170674,2021-02-18,15:02:43,TURKEY,-0.9,-3.8,1003.2,1018.2,8.2,19.0,0.00,0.0,100000,52.9,279
471240,2021-02-18,15:02:43,KOREASOUTH,-3.5,-11.5,1016.5,1042.3,11.4,10.8,0.00,0.0,100000,96.0,359
475530,2021-02-18,15:02:43,JAPAN,-2.3,-6.1,997.0,999.4,8.9,10.8,0.00,0.0,100000,25.7,326
585060,2021-02-18,15:02:43,CHINA,-1.0,-4.8,977.8,1026.8,12.2,14.6,0.19,0.0,110000,94.1,223
531920,2021-02-18,15:02:43,CHINA,-19.7,-23.5,918.0,1033.1,31.1,10.1,0.01,0.0,110000,63.4,240
475420,2021-02-18,15:02:43,JAPAN,-4.0,-7.5,999.7,1001.7,8.3,17.3,0.00,0.0,100000,53.6,234
471610,2021-02-18,15:02:43,KOREASOUTH,-2.0,-9.5,999.2,994.6,10.8,7.4,0.03,0.0,110000,50.1,55
554720,2021-02-18,15:02:43,CHINA,-13.5,-32.6,996.4,993.5,26.3,26.1,0.01,0.0,110000,84.5,313
475450,2021-02-18,15:02:43,JAPAN,-2.0,-6.1,1007.0,1004.3,8.6,15.3,0.00,0.0,100000,39.5,250
552280,2021-02-18,15:02:43,CHINA,-4.7,-18.5,603.4,600.5,30.2,12.0,0.01,0.0,110000,79.9,98
354060,2021-02-18,15:02:43,KAZAKHSTAN,-7.2,-11.2,1032.0,1028.9,24.1,21.4,0.01,0.0,110000,50.1,96
544830,2021-02-18,15:02:43,CHINA,-15.4,-22.3,1026.0,1024.4,16.0,7.2,0.01,0.0,110000,54.9,182
504680,2021-02-18,15:02:43,CHINA,-21.6,-26.8,1011.4,1023.4,21.1,9.4,0.01,0.0,110000,86.7,325
561460,2021-02-18,15:02:43,CHINA,-6.2,-19.3,680.6,677.7,31.5,7.6,0.02,0.0,110000,50.2,182
367440,2021-02-18,15:02:43,KAZAKHSTAN,-5.6,-9.9,1034.0,1034.0,43.9,10.8,0.08,1.0,111000,50.8,349
357000,2021-02-18,15:02:43,KAZAKHSTAN,-3.1,-6.3,1025.2,1023.0,16.5,18.7,0.01,0.4,111000,50.3,172
442190,2021-02-18,15:02:43,MONGOLIA,-11.0,-23.2,850.8,1015.0,18.9,6.2,0.00,0.0,100000,27.3,214
509680,2021-02-18,15:02:43,CHINA,-19.0,-23.1,1025.1,1023.8,14.8,10.3,0.03,0.0,110000,51.7,54
351730,2021-02-18,15:02:43,KAZAKHSTAN,-11.1,-14.9,1025.5,1033.9,29.6,13.5,0.00,6.0,101000,81.7,5
527130,2021-02-18,15:02:43,CHINA,-14.3,-29.1,698.8,699.1,29.2,8.7,0.00,0.0,100000,11.1,259
443850,2021-02-18,15:02:43,MONGOLIA,-8.5,-20.8,896.4,1029.5,50.8,16.8,0.00,0.0,100000,14.6,37
523910,2021-02-18,15:02:43,CHINA,-24.9,-37.4,1002.2,1046.0,36.8,6.7,0.00,0.0,100000,62.9,100
535640,2021-02-18,15:02:43,CHINA,-10.8,-21.7,936.5,1030.3,18.8,6.2,0.00,0.0,100000,7.6,80
476410,2021-02-18,15:02:43,JAPAN,-1.1,-6.6,989.5,1018.1,20.9,6.6,0.08,0.0,110000,50.4,284
476390,2021-02-18,15:02:43,JAPAN,-20.2,-27.0,1001.8,997.7,48.9,81.5,0.00,0.0,100000,5.9,238
511330,2021-02-18,15:02:43,CHINA,-3.5,-7.8,992.6,1033.3,32.1,7.5,0.04,0.0,110000,59.9,175
442120,2021-02-18,15:02:43,MONGOLIA,-31.9,-35.9,914.5,1040.6,46.6,2.4,0.00,11.3,101000,79.7,328
544050,2021-02-18,15:02:43,CHINA,-8.0,-20.4,1023.7,1028.0,21.2,12.5,0.01,0.0,110000,55.4,68
442140,2021-02-18,15:02:43,MONGOLIA,-5.7,-24.9,827.0,1027.9,9.1,15.5,0.00,0.0,100000,91.7,237
474040,2021-02-18,15:02:43,JAPAN,-7.9,-12.1,1015.5,1016.7,26.2,14.5,0.24,0.0,110000,55.0,262
362080,2021-02-18,15:02:43,KAZAKHSTAN,-23.4,-27.5,1013.6,1026.9,27.0,3.9,0.38,22.6,111000,50.2,229
346910,2021-02-18,15:02:43,KAZAKHSTAN,-3.6,-8.0,1022.1,1023.4,20.6,16.8,0.00,1.4,101000,68.2,25
577760,2021-02-18,15:02:43,CHINA,-0.5,-3.0,977.1,1024.0,8.3,18.6,0.21,0.0,110000,50.9,103
368215,2021-02-18,15:02:43,KAZAKHSTAN,-7.9,-11.5,1020.8,1045.2,8.9,17.1,0.00,0.0,100000,29.3,216
524460,2021-02-18,15:02:43,CHINA,-11.7,-25.1,940.0,1033.7,43.2,13.5,0.00,0.0,,79.1,106
470030,2021-02-18,15:02:43,KOREANORTH,-9.8,-15.7,1018.7,1021.9,22.0,10.0,0.06,0.0,110000,67.7,93
521180,2021-02-18,15:02:43,CHINA,-13.5,-24.9,828.9,831.5,30.9,10.3,0.01,0.0,110000,79.5,86
383530,2021-02-18,15:02:43,KYRGYZSTAN,-2.6,-5.2,995.4,1027.6,5.5,8.1,0.04,0.6,111000,61.0,37
383531,2021-02-18,15:02:43,KYRGYZSTAN,-1.6,-5.4,988.4,976.4,2.0,13.6,0.00,0.0,100000,7.4,133
514310,2021-02-18,15:02:43,CHINA,-5.0,-7.9,976.8,1028.2,31.4,5.6,0.03,0.0,110000,50.6,147
544930,2021-02-18,15:02:43,CHINA,-11.3,-17.9,1023.4,1025.5,19.9,4.6,0.03,0.0,110000,50.2,171
476040,2021-02-18,15:02:43,JAPAN,-0.1,-4.6,1019.2,1018.8,14.6,15.3,0.21,6.1,111000,50.1,37
509530,2021-02-18,15:02:43,CHINA,-15.7,-22.4,1015.9,1023.0,13.3,12.2,0.02,0.0,110000,92.8,219
560930,2021-02-18,15:02:43,CHINA,-9.4,-15.8,1006.1,1018.8,16.1,12.4,0.00,0.0,100000,29.0,310
532760,2021-02-18,15:02:43,CHINA,-13.3,-23.9,919.4,1030.2,28.4,19.7,0.01,0.0,110000,76.4,90
527870,2021-02-18,15:02:43,CHINA,-13.4,-24.2,746.8,750.7,26.6,18.5,0.01,0.0,110000,73.0,25
507560,2021-02-18,15:02:43,CHINA,-18.7,-24.4,1010.9,1023.2,12.8,9.9,0.00,0.0,100000,23.2,292
470900,2021-02-18,15:02:43,KOREASOUTH,-1.1,-8.5,1020.0,1021.3,20.1,11.2,0.17,0.5,111000,96.8,112
560180,2021-02-18,15:02:43,CHINA,-13.0,-24.4,627.0,632.9,26.5,8.4,0.02,0.0,110000,86.0,170
560340,2021-02-18,15:02:43,CHINA,-22.8,-30.3,600.9,595.9,22.6,16.9,0.02,0.0,110000,50.0,214
518110,2021-02-18,15:02:43,CHINA,-1.8,-9.6,919.7,1025.0,14.2,4.6,0.00,0.0,100000,45.2,246
526020,2021-02-18,15:02:43,CHINA,-15.5,-31.4,726.2,726.5,26.6,15.1,0.00,0.0,100000,53.0,188
361770,2021-02-18,15:02:43,KAZAKHSTAN,-7.2,-10.6,1020.5,1026.9,10.4,9.3,0.00,0.0,100000,53.6,27
518480,2021-02-18,15:02:43,CHINA,-1.3,-18.9,923.6,1027.2,15.5,7.0,0.00,0.0,100000,49.7,277
514950,2021-02-18,15:02:43,CHINA,-8.0,-22.1,990.1,1032.5,35.1,26.4,0.01,0.0,110000,50.6,334
357390,2021-02-18,15:02:43,KAZAKHSTAN,-4.7,-10.7,1041.7,1029.5,46.4,14.7,0.00,1.3,101000,50.4,38
556640,2021-02-18,15:02:43,CHINA,-11.7,-33.4,601.9,600.6,28.5,12.4,0.00,0.0,100000,44.4,352
526810,2021-02-18,15:02:43,CHINA,-9.7,-23.0,898.2,1029.7,29.9,10.7,0.00,0.0,100000,3.3,314
380620,2021-02-18,15:02:43,KAZAKHSTAN,-1.8,-8.3,1026.6,1024.5,20.1,14.5,0.01,0.7,111000,93.7,349
471070,2021-02-18,15:02:43,KOREASOUTH,-2.1,-8.2,1013.3,1014.1,12.4,11.8,0.00,0.3,101000,61.0,124
471065,2021-02-18,15:02:43,KOREASOUTH,-1.7,-5.1,1015.8,983.3,11.0,10.0,0.00,3.2,101000,76.1,201
475750,2021-02-18,15:02:43,JAPAN,-3.3,-7.1,1020.6,1017.6,14.7,13.7,0.19,22.8,111000,60.8,221
510870,2021-02-18,15:02:43,CHINA,-9.1,-18.1,931.2,1032.3,23.5,6.1,0.00,0.0,100000,56.9,19
382200,2021-02-18,15:02:43,KYRGYZSTAN,-7.6,-9.4,951.2,1031.1,7.2,6.9,0.00,6.8,101000,50.4,11
546560,2021-02-18,15:02:43,CHINA,-2.8,-8.9,1022.5,1024.8,20.3,25.8,0.00,0.0,100000,60.2,85
288670,2021-02-18,15:02:43,KAZAKHSTAN,-15.6,-18.9,997.4,1033.5,20.7,8.2,0.00,26.3,101000,85.6,71
562570,2021-02-18,15:02:43,CHINA,-8.6,-22.5,684.5,683.3,37.6,8.0,0.00,0.0,100000,63.9,261
471460,2021-02-18,15:02:43,KOREASOUTH,-1.9,-7.9,1020.2,1023.8,18.5,5.9,0.06,0.1,111000,50.1,291
477150,2021-02-18,15:02:43,JAPAN,-0.8,-5.7,1000.5,1003.7,9.3,10.3,0.09,0.6,111000,50.3,304
383280,2021-02-18,15:02:43,KAZAKHSTAN,-1.0,-4.3,952.1,1025.8,9.9,11.3,0.00,2.4,101000,50.8,177
561820,2021-02-18,15:02:43,CHINA,-6.9,-16.9,778.5,822.0,28.4,6.8,0.06,0.0,110000,50.4,225
543420,2021-02-18,15:02:43,CHINA,-10.5,-20.1,1022.0,1024.7,7.1,12.3,0.03,0.0,110000,50.3,192
524180,2021-02-18,15:02:43,CHINA,-7.8,-23.0,917.5,1027.6,27.8,6.2,0.00,0.0,100000,81.4,243
359530,2021-02-18,15:02:43,KAZAKHSTAN,-6.9,-9.6,1023.7,1029.6,31.4,16.5,0.02,0.0,110000,71.4,225
561060,2021-02-18,15:02:43,CHINA,-11.3,-21.3,619.1,618.0,27.6,9.2,0.04,0.0,110000,95.8,333
570360,2021-02-18,15:02:43,CHINA,-0.9,-8.6,1011.3,1025.3,8.6,7.2,0.04,0.0,110000,50.6,270
523780,2021-02-18,15:02:43,CHINA,-9.8,-26.6,986.5,1007.9,29.8,16.2,0.00,0.0,100000,23.3,41
506580,2021-02-18,15:02:43,CHINA,-20.1,-25.6,1025.3,1023.7,15.1,7.6,0.01,0.0,110000,75.5,351
539150,2021-02-18,15:02:43,CHINA,-5.6,-13.9,907.8,1027.7,22.1,7.2,0.02,0.0,110000,56.4,62
570250,2021-02-18,15:02:43,CHINA,-1.4,-4.3,1037.9,1034.4,6.4,6.8,0.00,0.0,100000,47.0,339
442880,2021-02-18,15:02:43,MONGOLIA,-8.2,-14.1,917.4,1028.6,47.4,13.0,0.02,0.1,111000,50.2,316
475880,2021-02-18,15:02:43,JAPAN,-3.6,-7.3,998.2,1017.1,11.0,6.9,0.07,0.0,110000,50.8,257
381960,2021-02-18,15:02:43,KAZAKHSTAN,-2.4,-9.4,925.1,1024.5,17.8,4.5,0.00,9.0,101000,50.3,351
170671,2021-02-18,15:02:43,TURKEY,-2.3,-4.9,1009.3,996.9,11.5,9.5,0.00,0.0,100000,6.9,317
25105,2021-02-18,15:02:43,SINGAPORE,-1.0,-3.9,1010.9,998.4,10.9,6.4,0.00,0.0,100000,75.9,270
289570,2021-02-18,15:02:43,KAZAKHSTAN,-7.4,-10.4,1035.5,1028.1,10.3,11.5,0.00,6.8,101000,75.5,213
474880,2021-02-18,15:02:43,JAPAN,-3.9,-9.3,995.4,998.1,9.1,16.1,0.00,0.0,100000,44.0,230
516560,2021-02-18,15:02:43,CHINA,-3.9,-17.2,932.8,1027.0,18.4,9.1,0.00,0.0,100000,11.8,126
477420,2021-02-18,15:02:43,JAPAN,-1.2,-4.2,1026.9,1027.7,17.4,3.3,0.00,0.0,100000,56.1,353
542360,2021-02-18,15:02:43,CHINA,-11.4,-22.8,1020.5,1024.8,19.6,14.3,0.02,0.0,110000,51.0,78
470580,2021-02-18,15:02:43,KOREANORTH,-6.5,-12.0,1017.3,1024.5,13.0,8.2,0.03,0.3,111000,50.5,43
538980,2021-02-18,15:02:43,CHINA,-1.8,-10.3,1023.5,1027.2,13.0,7.8,0.03,0.0,110000,50.1,92
353630,2021-02-18,15:02:43,KAZAKHSTAN,-9.0,-11.3,1040.7,1040.3,14.2,17.3,0.00,0.0,100000,54.7,274
526740,2021-02-18,15:02:43,CHINA,-12.0,-23.5,801.5,797.0,28.9,11.1,0.01,0.0,110000,50.1,210
518280,2021-02-18,15:02:43,CHINA,-1.3,-13.9,897.8,1024.4,9.7,5.4,0.01,0.0,110000,50.2,249
360010,2021-02-18,15:02:43,KAZAKHSTAN,-5.4,-9.6,1010.8,1026.7,4.3,33.5,0.02,3.2,111000,59.8,278
358840,2021-02-18,15:02:43,KAZAKHSTAN,-8.6,-11.8,977.4,994.1,19.5,12.5,0.03,12.6,111000,50.9,313
512880,2021-02-18,15:02:43,CHINA,-15.5,-23.5,836.1,838.6,35.2,7.3,0.01,0.0,110000,50.1,187
571930,2021-02-18,15:02:43,CHINA,-0.2,-7.5,1031.3,1026.3,14.5,8.7,0.02,0.0,110000,72.5,92
537230,2021-02-18,15:02:43,CHINA,-9.5,-20.1,908.0,1029.7,19.8,8.8,0.02,0.0,110000,80.8,75
557730,2021-02-18,15:02:43,CHINA,-12.6,-20.1,620.3,621.3,20.0,11.6,0.00,0.0,100000,57.8,139
503530,2021-02-18,15:02:43,CHINA,-14.3,-21.0,998.6,1021.4,19.2,8.5,0.00,0.0,100000,7.7,226
470390,2021-02-18,15:02:43,KOREANORTH,-8.8,-11.1,1022.2,1024.1,8.1,3.4,0.00,0.0,100000,89.8,97
170880,2021-02-18,15:02:43,TURKEY,-2.7,-4.3,876.6,878.7,16.5,11.8,0.05,16.2,111000,50.3,292
549450,2021-02-18,15:02:43,CHINA,-1.4,-9.7,1024.7,1027.0,16.8,12.8,0.09,0.0,110000,50.2,32
541860,2021-02-18,15:02:43,CHINA,-16.0,-23.3,1013.5,1024.6,18.6,10.0,0.03,0.0,110000,50.0,143
524410,2021-02-18,15:02:43,CHINA,-14.2,-27.0,845.1,847.5,43.2,17.1,0.00,0.0,100000,78.5,355
516440,2021-02-18,15:02:43,CHINA,-2.7,-11.4,923.6,1028.1,22.8,7.4,0.01,0.0,110000,50.0,80
546180,2021-02-18,15:02:43,CHINA,-1.5,-11.1,1024.2,1026.1,11.1,9.9,0.08,0.0,110000,70.0,21
474400,2021-02-18,15:02:43,JAPAN,-7.7,-13.9,1012.4,1016.8,23.4,11.2,0.38,0.0,110000,52.9,129
475920,2021-02-18,15:02:43,JAPAN,-1.3,-5.9,1015.3,1018.1,19.5,12.5,0.17,0.9,111000,87.0,76
535430,2021-02-18,15:02:43,CHINA,-10.1,-21.6,883.3,1029.8,22.9,11.8,0.01,0.0,110000,62.2,214
289780,2021-02-18,15:02:43,KAZAKHSTAN,-11.4,-13.4,969.2,1022.4,17.2,10.8,0.00,0.0,100000,31.1,275
549060,2021-02-18,15:02:43,CHINA,-2.0,-10.5,1022.6,1026.4,18.0,8.2,0.02,0.0,110000,62.7,287
471430,2021-02-18,15:02:43,KOREASOUTH,-0.7,-8.3,1016.1,1023.0,18.5,10.0,0.06,0.1,111000,50.0,20
541020,2021-02-18,15:02:43,CHINA,-18.5,-25.1,936.5,1030.5,28.5,12.2,0.01,0.0,110000,50.3,228
517300,2021-02-18,15:02:43,CHINA,-3.1,-12.9,987.1,1028.6,20.0,4.6,0.01,0.0,110000,50.4,71
474410,2021-02-18,15:02:43,JAPAN,-6.7,-11.6,1004.0,1006.0,9.2,25.0,0.00,0.0,100000,82.6,97
443170,2021-02-18,15:02:43,MONGOLIA,-10.9,-17.2,890.0,1017.6,21.2,13.5,0.00,4.5,101000,50.7,290
471140,2021-02-18,15:02:43,KOREASOUTH,-4.8,-10.6,1008.0,1023.9,14.7,4.6,0.08,0.0,110000,96.9,257
542590,2021-02-18,15:02:43,CHINA,-13.2,-21.4,1024.9,1025.8,15.7,7.4,0.04,0.0,110000,91.1,251
471000,2021-02-18,15:02:43,KOREASOUTH,-8.5,-14.9,922.8,1024.3,13.6,15.5,0.19,13.0,111000,50.3,297
470980,2021-02-18,15:02:43,KOREASOUTH,-5.1,-13.0,1010.5,1024.6,12.9,6.9,0.00,0.0,100000,82.2,65
476170,2021-02-18,15:02:43,JAPAN,-6.0,-10.4,957.5,1027.9,23.9,4.3,0.00,0.0,100000,14.7,34
547150,2021-02-18,15:02:43,CHINA,-2.8,-11.5,1025.3,1027.6,17.3,12.4,0.08,0.0,110000,63.4,148
350420,2021-02-18,15:02:43,KAZAKHSTAN,-7.0,-10.2,1025.8,1025.6,16.9,17.7,0.00,6.3,101000,50.1,89
522030,2021-02-18,15:02:43,CHINA,-7.7,-19.5,989.1,1027.9,37.6,7.4,0.00,0.0,100000,80.7,149
354590,2021-02-18,15:02:43,KAZAKHSTAN,-8.2,-13.9,1031.6,1030.0,48.2,24.2,0.00,4.5,101000,50.1,214
476240,2021-02-18,15:02:43,JAPAN,-0.5,-9.6,1009.7,1017.8,27.0,12.8,0.08,0.2,111000,50.1,328
476380,2021-02-18,15:02:43,JAPAN,-0.9,-9.2,996.5,1017.1,17.8,9.7,0.16,0.1,111000,53.3,50
529830,2021-02-18,15:02:43,CHINA,-10.4,-15.4,818.8,835.6,21.1,6.4,0.02,0.0,110000,66.9,324
355320,2021-02-18,15:02:43,KAZAKHSTAN,-2.5,-4.1,1013.7,1027.9,15.8,18.4,0.06,15.6,111000,75.6,5
476900,2021-02-18,15:02:43,JAPAN,-7.6,-11.9,866.7,867.0,25.4,13.9,0.14,0.0,110000,50.0,216
560330,2021-02-18,15:02:43,CHINA,-5.4,-16.3,626.3,623.0,25.8,11.9,0.01,0.0,110000,50.3,226
478140,2021-02-18,15:02:43,JAPAN,-0.2,-5.4,1011.4,1021.9,14.9,5.8,0.24,0.0,110000,50.0,227
355760,2021-02-18,15:02:43,KAZAKHSTAN,-11.4,-13.6,1014.2,1035.4,21.7,11.4,0.00,6.2,101000,52.0,255
540270,2021-02-18,15:02:43,CHINA,-13.3,-26.4,993.9,1025.5,29.4,12.1,0.01,0.0,110000,50.0,49
533910,2021-02-18,15:02:43,CHINA,-15.3,-23.0,884.0,1027.2,28.9,17.8,0.01,0.0,110000,50.3,291
471074,2021-02-18,15:02:43,KOREASOUTH,-2.8,-6.3,1007.5,1025.4,9.4,18.7,0.00,0.0,100000,99.2,331
471087,2021-02-18,15:02:43,KOREASOUTH,-4.6,-15.3,1007.2,985.7,11.1,11.1,0.00,0.0,100000,32.8,320
471080,2021-02-18,15:02:43,KOREASOUTH,-3.2,-10.1,1019.3,1023.7,11.3,9.0,0.03,0.1,111000,85.3,294
471120,2021-02-18,15:02:43,KOREASOUTH,-2.7,-9.0,1018.4,1023.5,15.8,12.3,0.04,0.0,110000,51.3,45
506320,2021-02-18,15:02:43,CHINA,-19.6,-25.1,983.0,1024.4,27.5,10.2,0.02,0.0,110000,50.4,165
476180,2021-02-18,15:02:43,JAPAN,-4.0,-10.2,976.3,1019.1,13.5,7.0,0.14,1.3,111000,81.8,112
442290,2021-02-18,15:02:43,MONGOLIA,-15.8,-22.6,780.6,1014.0,50.1,6.7,0.00,0.0,100000,63.8,156
475150,2021-02-18,15:02:43,JAPAN,-2.4,-7.3,997.3,998.6,10.1,16.6,0.00,0.0,100000,99.5,33
570670,2021-02-18,15:02:43,CHINA,-2.4,-9.5,993.4,1028.8,13.8,5.1,0.02,0.0,110000,58.1,275
545390,2021-02-18,15:02:43,CHINA,-5.4,-13.5,1024.5,1027.3,18.6,10.9,0.03,0.0,110000,95.2,101
470200,2021-02-18,15:02:43,KOREANORTH,-11.4,-19.1,1016.0,1028.9,10.5,4.1,0.00,0.0,100000,47.8,347
477470,2021-02-18,15:02:43,JAPAN,-1.0,-2.4,1026.8,1027.5,14.7,4.2,0.19,0.0,110000,50.6,280
443730,2021-02-18,15:02:43,MONGOLIA,-11.0,-21.2,854.3,1027.8,45.1,9.5,0.00,0.2,101000,50.5,345
443740,2021-02-18,15:02:43,MONGOLIA,-13.0,-22.0,830.7,1030.5,49.3,14.4,0.00,1.3,101000,69.5,342
560210,2021-02-18,15:02:43,CHINA,-16.7,-28.2,616.6,616.4,28.9,9.4,0.01,0.0,110000,85.2,49
540940,2021-02-18,15:02:43,CHINA,-15.8,-21.3,1009.1,1023.0,7.7,8.1,0.03,0.0,110000,50.1,302
534870,2021-02-18,15:02:43,CHINA,-11.6,-21.7,973.2,1029.3,16.6,11.6,0.01,0.0,110000,65.4,273
386090,2021-02-18,15:02:43,TAJIKISTAN,-2.4,-7.0,925.0,1028.1,16.8,10.0,0.00,0.0,100000,82.8,120
368590,2021-02-18,15:02:43,KAZAKHSTAN,-4.9,-10.5,1007.2,1027.6,39.6,7.5,0.02,1.6,111000,50.2,257
471110,2021-02-18,15:02:43,KOREASOUTH,-2.0,-8.5,989.4,990.4,9.3,7.7,0.00,0.0,100000,36.3,257
547050,2021-02-18,15:02:43,CHINA,-15.6,-20.4,1024.2,1034.1,7.8,3.6,0.00,0.0,100000,51.3,265
540960,2021-02-18,15:02:43,CHINA,-15.5,-21.4,1022.9,1023.1,17.3,12.3,0.03,0.0,110000,50.3,12
509150,2021-02-18,15:02:43,CHINA,-20.8,-24.7,945.3,1029.6,29.5,10.8,0.02,0.0,110000,52.6,151
360030,2021-02-18,15:02:43,KAZAKHSTAN,-5.6,-8.0,1023.2,1030.2,23.5,16.6,0.01,5.0,111000,90.9,41
471360,2021-02-18,15:02:43,KOREASOUTH,-3.5,-9.8,1010.7,1024.1,18.0,7.3,0.06,0.0,110000,89.6,27
471370,2021-02-18,15:02:43,KOREASOUTH,-2.8,-12.1,1010.6,1023.0,15.5,6.9,0.03,0.0,110000,50.3,66
383340,2021-02-18,15:02:43,KAZAKHSTAN,-1.4,-6.0,927.1,1024.4,12.1,10.4,0.00,4.7,101000,73.1,152
516280,2021-02-18,15:02:43,CHINA,-1.7,-7.0,998.8,1030.7,19.3,4.3,0.00,0.0,100000,53.3,159
470500,2021-02-18,15:02:43,KOREANORTH,-7.5,-13.5,1027.3,1023.9,14.8,7.3,0.08,0.0,110000,91.2,208
583430,2021-02-18,15:02:43,CHINA,-0.2,-6.8,1013.3,1025.8,16.2,10.7,0.00,0.0,100000,97.8,19
475800,2021-02-18,15:02:43,JAPAN,-2.8,-7.5,1004.7,1005.2,11.3,13.8,0.00,1.7,101000,51.9,61
477560,2021-02-18,15:02:43,JAPAN,-0.6,-5.3,1001.3,1019.8,12.9,5.1,0.44,0.0,110000,58.6,157
539290,2021-02-18,15:02:43,CHINA,-4.3,-5.9,883.8,880.1,7.7,11.8,0.00,0.0,100000,71.6,8
442320,2021-02-18,15:02:43,MONGOLIA,-27.1,-32.7,1068.6,1049.0,44.8,4.6,0.00,0.0,100000,92.4,327
543740,2021-02-18,15:02:43,CHINA,-14.7,-20.9,1005.3,1024.4,15.3,3.7,0.05,0.0,110000,95.6,269
470690,2021-02-18,15:02:43,KOREANORTH,-4.3,-11.6,1021.8,1024.8,15.2,9.7,0.00,0.0,100000,90.9,179
517090,2021-02-18,15:02:43,CHINA,-1.5,-8.4,912.1,1026.8,15.3,5.7,0.01,0.0,110000,50.1,278
470700,2021-02-18,15:02:43,KOREANORTH,-4.3,-11.2,1028.4,1022.8,17.6,8.0,0.05,0.0,110000,88.7,108
593530,2021-02-18,15:02:43,TAIWAN,-3.0,-2.8,763.2,1022.0,7.6,5.3,0.00,0.0,100000,96.8,15
471320,2021-02-18,15:02:43,KOREASOUTH,-8.0,-15.2,1003.9,995.6,10.6,0.9,0.00,0.0,100000,46.2,39
561440,2021-02-18,15:02:43,CHINA,-4.7,-20.6,683.3,684.3,35.3,4.8,0.00,0.0,100000,73.3,218
470312,2021-02-18,15:02:43,CHINA,-2.1,-10.7,985.1,965.3,5.6,8.2,0.00,0.0,100000,29.4,91
518180,2021-02-18,15:02:43,CHINA,-1.2,-12.9,976.6,1023.7,15.6,4.9,0.01,0.0,110000,50.7,45
354160,2021-02-18,15:02:43,KAZAKHSTAN,-7.4,-10.3,1024.5,1027.4,7.6,17.2,0.03,5.6,111000,54.6,72
535020,2021-02-18,15:02:43,CHINA,-10.2,-23.5,979.9,1029.4,22.6,11.4,0.00,0.0,100000,46.5,177
474110,2021-02-18,15:02:43,JAPAN,-6.5,-10.8,1012.9,1016.1,19.4,12.1,0.21,0.0,110000,50.1,199
474090,2021-02-18,15:02:43,JAPAN,-10.6,-14.7,1013.8,1016.1,22.6,9.6,0.04,9.9,111000,50.4,154
477090,2021-02-18,15:02:43,JAPAN,-1.5,-10.3,998.8,1002.2,9.2,10.5,0.00,0.0,100000,71.5,126
471170,2021-02-18,15:02:43,KOREASOUTH,-1.0,-6.4,1000.2,986.2,8.8,5.2,0.01,0.0,110000,50.3,71
474130,2021-02-18,15:02:43,JAPAN,-6.9,-10.1,1008.1,1014.5,16.9,9.6,0.03,0.0,110000,50.0,279
474170,2021-02-18,15:02:43,JAPAN,-14.6,-18.8,1009.8,1015.0,10.1,5.8,0.04,0.0,110000,51.1,264
513340,2021-02-18,15:02:43,CHINA,-8.3,-11.1,1030.7,1032.8,25.7,5.2,0.01,0.0,110000,50.3,166
475160,2021-02-18,15:02:43,JAPAN,-2.9,-7.2,997.8,993.3,10.1,17.2,0.00,0.0,100000,0.0,3
543240,2021-02-18,15:02:43,CHINA,-11.9,-26.3,1022.2,1025.4,21.0,11.6,0.01,0.0,110000,54.5,183
529960,2021-02-18,15:02:43,CHINA,-9.2,-14.7,778.7,779.3,15.2,15.8,0.01,0.0,110000,50.5,330
381980,2021-02-18,15:02:43,KAZAKHSTAN,-2.4,-7.1,1030.4,1026.3,21.6,8.2,0.32,0.4,111000,62.8,170
561720,2021-02-18,15:02:43,CHINA,-2.5,-12.9,778.4,781.2,32.4,3.5,0.04,0.0,110000,50.1,40
561730,2021-02-18,15:02:43,CHINA,-13.1,-26.6,660.3,670.4,29.4,10.6,0.00,0.0,100000,81.5,195
471290,2021-02-18,15:02:43,KOREASOUTH,-3.2,-8.2,1021.3,1024.0,19.2,8.6,0.03,0.0,110000,58.1,307
471920,2021-02-18,15:02:43,KOREASOUTH,-2.2,-10.4,1022.5,1022.5,21.5,6.8,0.06,0.0,110000,50.0,79
381780,2021-02-18,15:02:43,UZBEKISTAN,-1.3,-6.4,1010.5,1025.1,14.6,10.6,0.00,0.0,100000,6.3,168
560650,2021-02-18,15:02:43,CHINA,-15.4,-26.6,661.0,659.8,26.4,9.6,0.01,0.0,110000,64.3,29
538210,2021-02-18,15:02:43,CHINA,-7.6,-20.0,931.5,1029.0,18.6,8.7,0.00,0.0,100000,0.3,94
443470,2021-02-18,15:02:43,MONGOLIA,-7.6,-25.9,861.4,1013.1,37.2,26.1,0.00,0.0,100000,23.8,3
172480,2021-02-18,15:02:43,TURKEY,-3.9,-5.7,894.3,885.7,15.7,8.4,0.36,8.8,111000,87.1,46
538450,2021-02-18,15:02:43,CHINA,-6.5,-16.7,933.5,1028.8,12.2,6.6,0.01,0.0,110000,68.9,4
289520,2021-02-18,15:02:43,KAZAKHSTAN,-13.7,-18.1,1038.2,1033.1,7.8,13.4,0.04,0.0,110000,52.1,294
544710,2021-02-18,15:02:43,CHINA,-8.6,-15.5,1026.6,1025.4,13.4,14.0,0.04,0.0,110000,50.5,257
381411,2021-02-18,15:02:43,KAZAKHSTAN,-7.5,-8.8,1006.3,987.3,6.6,17.1,0.00,0.0,100000,90.8,86
381410,2021-02-18,15:02:43,UZBEKISTAN,-1.1,-4.8,1004.6,1021.0,18.6,12.1,0.00,0.0,100000,30.5,358
471330,2021-02-18,15:02:43,KOREASOUTH,-2.8,-9.9,1019.8,1024.1,17.2,6.4,0.04,0.0,110000,79.4,328
471340,2021-02-18,15:02:43,KOREASOUTH,-3.1,-8.5,1001.0,997.0,10.2,6.9,0.01,0.0,110000,95.4,217
506030,2021-02-18,15:02:43,CHINA,-19.9,-23.3,982.8,1028.0,29.5,10.7,0.01,0.0,110000,72.2,110
471350,2021-02-18,15:02:43,KOREASOUTH,-3.1,-9.6,1011.8,1023.3,19.7,14.4,0.08,0.0,110000,55.0,130
366220,2021-02-18,15:02:43,KAZAKHSTAN,-7.6,-12.7,1034.1,1037.4,42.9,13.7,0.02,6.3,111000,51.9,127
545110,2021-02-18,15:02:43,CHINA,-3.7,-16.8,1022.7,1026.0,14.9,12.7,0.03,0.0,110000,73.5,122
527650,2021-02-18,15:02:43,CHINA,-14.1,-28.5,715.2,717.4,20.7,8.7,0.00,0.0,100000,57.2,84
509780,2021-02-18,15:02:43,CHINA,-15.2,-22.9,1009.2,1022.3,26.7,12.7,0.01,0.0,110000,50.2,175
584450,2021-02-18,15:02:43,CHINA,-4.4,-11.3,875.3,946.9,15.7,20.1,0.19,0.0,110000,50.0,317
471190,2021-02-18,15:02:43,KOREASOUTH,-3.5,-10.4,1027.3,1024.0,15.3,7.6,0.05,0.1,111000,50.1,309
471180,2021-02-18,15:02:43,KOREASOUTH,-9.7,-17.5,1014.7,1029.9,10.7,8.1,0.00,0.0,100000,68.2,109
509630,2021-02-18,15:02:43,CHINA,-18.0,-23.9,1019.7,1023.0,13.3,14.2,0.01,0.0,110000,50.5,126
443520,2021-02-18,15:02:43,MONGOLIA,-15.7,-24.2,1021.1,1029.0,50.1,14.5,0.00,0.0,100000,27.4,201
471400,2021-02-18,15:02:43,KOREASOUTH,-1.3,-5.8,1019.4,1023.9,17.3,14.5,0.04,0.0,110000,92.2,359
471410,2021-02-18,15:02:43,KOREASOUTH,-1.4,-6.4,1013.4,1013.9,10.6,13.9,0.04,0.1,111000,51.3,211
471420,2021-02-18,15:02:43,KOREASOUTH,-2.5,-10.9,1015.0,1015.1,12.0,,0.01,0.0,110000,50.1,46
471571,2021-02-18,15:02:43,KOREASOUTH,-3.0,-13.2,988.4,960.8,10.8,11.7,0.00,0.0,100000,91.3,259
547510,2021-02-18,15:02:43,CHINA,-1.2,-8.2,1029.5,1027.2,16.9,20.9,0.06,0.0,110000,87.6,202
345810,2021-02-18,15:02:43,KAZAKHSTAN,-1.8,-6.2,1043.8,1027.3,51.1,18.0,0.00,0.0,100000,24.9,234
474050,2021-02-18,15:02:43,JAPAN,-11.3,-14.9,1018.3,1019.2,39.7,10.1,0.06,0.0,110000,50.4,148
541150,2021-02-18,15:02:43,CHINA,-14.2,-26.4,973.4,1027.1,24.5,11.3,0.01,0.0,110000,50.1,239
476200,2021-02-18,15:02:43,JAPAN,-3.2,-7.7,926.7,1018.6,27.2,12.6,0.18,0.0,110000,50.1,124
535930,2021-02-18,15:02:43,CHINA,-11.8,-22.8,980.5,1029.0,23.8,7.2,0.01,0.0,110000,90.9,202
563850,2021-02-18,15:02:43,CHINA,-7.2,-10.1,745.9,745.2,10.2,10.2,0.04,0.0,110000,50.7,97
505570,2021-02-18,15:02:43,CHINA,-23.3,-27.1,1009.7,1023.8,14.5,7.9,0.01,0.0,110000,50.2,318
547140,2021-02-18,15:02:43,CHINA,-3.5,-13.5,1029.5,1026.2,15.8,10.3,0.03,0.0,110000,50.0,228
471540,2021-02-18,15:02:43,KOREASOUTH,-0.1,-11.1,1012.8,1034.7,11.7,11.4,0.00,0.0,100000,6.8,282
471060,2021-02-18,15:02:43,KOREASOUTH,-4.1,-11.8,1017.0,1022.1,14.2,6.5,0.11,0.4,111000,50.2,319
549160,2021-02-18,15:02:43,CHINA,-2.7,-12.1,1029.1,1026.9,14.7,9.3,0.03,0.0,110000,50.1,135
522670,2021-02-18,15:02:43,CHINA,-11.3,-27.3,931.3,1030.8,27.9,12.3,0.00,0.0,100000,26.4,139
561520,2021-02-18,15:02:43,CHINA,-12.2,-22.2,663.1,663.9,32.2,5.1,0.02,0.0,110000,50.0,144
530680,2021-02-18,15:02:43,CHINA,-17.0,-25.2,934.1,1030.4,28.0,13.4,0.01,0.0,110000,50.2,211
475840,2021-02-18,15:02:43,JAPAN,-4.3,-9.8,1007.1,1017.5,15.5,10.7,0.13,3.9,111000,50.0,122
535130,2021-02-18,15:02:43,CHINA,-9.1,-21.6,926.6,1029.6,21.3,7.3,0.00,0.0,100000,25.3,358
475900,2021-02-18,15:02:43,JAPAN,-1.0,-7.5,1014.7,1017.8,23.1,11.9,0.25,0.3,111000,50.2,203
570460,2021-02-18,15:02:43,CHINA,-6.7,-14.3,817.5,831.4,18.3,15.9,0.03,0.0,110000,52.4,238
540120,2021-02-18,15:02:43,CHINA,-18.2,-24.9,935.8,1030.0,25.0,12.9,0.01,0.0,110000,50.3,177
581020,2021-02-18,15:02:43,CHINA,-0.4,-8.3,1021.5,1026.7,18.4,8.6,0.08,0.0,110000,69.4,231
474300,2021-02-18,15:02:43,JAPAN,-5.7,-10.4,1016.3,1016.6,13.3,12.5,0.09,8.8,111000,97.1,126
474180,2021-02-18,15:02:43,JAPAN,-10.3,-15.4,1011.3,1015.7,20.8,15.6,0.06,5.1,111000,86.7,265
351880,2021-02-18,15:02:43,KAZAKHSTAN,-11.6,-13.8,1028.0,1028.9,16.3,16.7,0.22,1.9,111000,89.9,84
528420,2021-02-18,15:02:43,CHINA,-2.0,-18.8,696.7,692.1,17.0,14.9,0.00,0.0,100000,83.5,28
544010,2021-02-18,15:02:43,CHINA,-8.3,-20.5,986.6,1028.2,20.6,10.5,0.01,0.0,110000,50.2,286
518390,2021-02-18,15:02:43,CHINA,-1.8,-14.9,890.0,1029.4,13.7,6.7,0.00,0.0,100000,93.2,200
548080,2021-02-18,15:02:43,CHINA,-2.4,-10.7,1030.2,1027.0,12.7,10.8,0.02,0.0,110000,50.1,103
524950,2021-02-18,15:02:43,CHINA,-12.2,-23.7,903.3,1030.9,26.0,12.4,0.00,0.0,100000,88.1,133
534630,2021-02-18,15:02:43,CHINA,-11.5,-19.4,929.9,1030.4,16.8,7.1,0.01,0.0,110000,50.6,326
364420,2021-02-18,15:02:43,KAZAKHSTAN,-18.3,-29.4,1017.3,1008.7,38.2,27.0,0.00,2.6,101000,81.0,295
528250,2021-02-18,15:02:43,CHINA,-10.3,-27.9,724.2,719.1,23.5,11.5,0.00,0.0,100000,77.9,131
511560,2021-02-18,15:02:43,CHINA,-14.4,-20.6,928.5,1033.3,36.2,7.3,0.01,0.0,110000,50.6,198
365350,2021-02-18,15:02:43,KAZAKHSTAN,-12.2,-15.9,1069.5,1040.1,45.7,6.9,0.00,0.0,100000,87.2,139
474280,2021-02-18,15:02:43,JAPAN,-3.4,-8.7,1012.0,1015.8,19.4,25.8,0.15,0.0,110000,50.5,124
552990,2021-02-18,15:02:43,CHINA,-16.2,-30.7,1003.2,1004.7,27.3,11.6,0.03,0.0,110000,99.1,332
476370,2021-02-18,15:02:43,JAPAN,-3.6,-9.5,958.3,1018.2,27.3,9.8,0.18,0.0,110000,93.1,266
474340,2021-02-18,15:02:43,JAPAN,-10.9,-15.0,1002.8,1010.8,11.1,11.4,0.01,6.3,111000,54.8,271
474350,2021-02-18,15:02:43,JAPAN,-7.7,-12.4,1017.2,1019.5,38.5,12.0,0.16,0.0,110000,50.0,89
545870,2021-02-18,15:02:43,CHINA,-3.3,-10.5,1028.9,1024.9,27.8,22.9,0.26,0.0,110000,95.6,99
470520,2021-02-18,15:02:43,KOREANORTH,-7.9,-11.7,1034.5,1028.5,13.7,4.8,0.00,0.0,100000,78.4,106
548260,2021-02-18,15:02:43,CHINA,-7.9,-20.1,871.4,874.0,27.4,26.6,0.08,0.0,110000,50.7,359
470350,2021-02-18,15:02:43,KOREANORTH,-5.9,-14.4,1034.0,1024.8,16.1,11.6,0.05,0.0,110000,98.6,343
542180,2021-02-18,15:02:43,CHINA,-11.2,-25.0,992.1,1026.4,21.7,9.6,0.01,0.0,110000,50.0,182
442840,2021-02-18,15:02:43,MONGOLIA,-29.2,-30.0,787.5,1046.6,49.8,2.3,0.00,4.5,101000,67.7,103
474900,2021-02-18,15:02:43,JAPAN,-10.9,-17.2,992.7,995.8,10.1,8.7,0.00,0.0,100000,32.8,144
474890,2021-02-18,15:02:43,JAPAN,-8.3,-14.0,1002.6,1001.6,10.2,10.8,0.00,0.0,100000,65.3,252
505480,2021-02-18,15:02:43,CHINA,-19.8,-26.0,999.1,1010.3,30.6,3.5,0.00,0.0,100000,61.9,228
586530,2021-02-18,15:02:43,CHINA,-2.6,-4.9,916.2,1023.9,9.1,22.8,0.15,0.0,110000,50.7,239
508880,2021-02-18,15:02:43,CHINA,-16.1,-22.3,1016.2,1022.1,23.4,12.6,0.01,0.0,110000,91.1,333
355420,2021-02-18,15:02:43,KAZAKHSTAN,-13.2,-15.5,1027.0,1029.0,12.5,14.8,0.48,2.1,111000,76.4,238
380810,2021-02-18,15:02:43,KAZAKHSTAN,-5.0,-8.5,1030.5,1029.8,23.5,14.4,0.01,0.3,111000,69.7,135
526510,2021-02-18,15:02:43,CHINA,-2.9,-24.9,984.8,1001.5,69.9,5.7,0.00,0.0,100000,48.0,209
529550,2021-02-18,15:02:43,CHINA,-10.3,-24.7,694.8,691.1,30.7,7.5,0.00,0.0,100000,15.5,161
350780,2021-02-18,15:02:43,KAZAKHSTAN,-10.8,-13.0,1034.3,1033.0,11.0,13.8,0.01,9.2,111000,50.0,65
546620,2021-02-18,15:02:43,CHINA,-3.9,-11.2,1022.3,1025.7,13.8,17.7,0.02,0.0,110000,64.6,244
533360,2021-02-18,15:02:43,CHINA,-13.3,-23.7,910.2,1030.8,27.1,10.1,0.04,0.0,110000,78.6,14
442590,2021-02-18,15:02:43,MONGOLIA,-17.5,-20.6,950.2,1027.6,20.9,10.0,0.02,1.9,111000,50.1,349
353760,2021-02-18,15:02:43,KAZAKHSTAN,-10.8,-15.1,991.1,1030.5,19.9,14.3,0.01,7.4,111000,69.9,178
288790,2021-02-18,15:02:43,KAZAKHSTAN,-11.7,-15.7,1033.6,1031.1,9.8,17.6,0.00,0.9,101000,50.1,219
288770,2021-02-18,15:02:43,KAZAKHSTAN,-5.5,-10.0,1025.0,1022.8,14.9,12.4,0.03,1.9,111000,78.6,36
470950,2021-02-18,15:02:43,KOREASOUTH,-6.0,-13.4,1007.6,1024.0,16.2,6.4,0.05,0.0,110000,50.2,93
509830,2021-02-18,15:02:43,CHINA,-15.9,-21.2,1017.9,1022.3,16.4,10.7,0.01,0.0,110000,50.1,257
366390,2021-02-18,15:02:43,KAZAKHSTAN,-10.3,-12.8,1056.1,1038.4,49.3,2.7,1.83,0.0,110000,71.0,343
533520,2021-02-18,15:02:43,CHINA,-15.8,-25.7,959.3,1031.4,29.0,16.8,0.02,0.0,110000,50.2,279
570230,2021-02-18,15:02:43,CHINA,-0.3,-11.9,872.7,1009.8,11.3,5.4,0.00,0.0,100000,47.0,96
357460,2021-02-18,15:02:43,KAZAKHSTAN,-8.6,-12.3,1025.5,1027.7,16.4,18.8,0.01,1.1,111000,99.1,122
358490,2021-02-18,15:02:43,KAZAKHSTAN,-5.2,-9.9,1017.1,1024.3,17.9,12.2,0.02,1.1,111000,50.0,92
537050,2021-02-18,15:02:43,CHINA,-7.2,-19.6,974.7,1028.7,19.1,11.4,0.01,0.0,110000,50.1,251
353610,2021-02-18,15:02:43,KAZAKHSTAN,-9.2,-13.2,991.6,1021.0,26.8,8.0,0.00,0.0,100000,33.9,320
475980,2021-02-18,15:02:43,JAPAN,-0.1,-7.9,1021.9,1017.8,23.1,9.5,0.17,0.3,111000,50.3,103
387130,2021-02-18,15:02:43,TAJIKISTAN,-3.6,-7.5,995.9,1020.2,42.9,6.6,0.00,5.0,101000,55.6,15
354970,2021-02-18,15:02:43,KAZAKHSTAN,-7.2,-13.6,983.2,1035.3,31.4,11.8,0.02,,111000,50.6,202
471223,2021-02-18,15:02:43,KOREASOUTH,-0.5,-2.5,1010.6,1018.3,4.2,11.9,1.07,0.0,110000,50.1,154
471220,2021-02-18,15:02:43,KOREASOUTH,-4.6,-9.5,1017.1,1018.1,9.9,8.3,0.03,0.3,111000,50.0,11
543370,2021-02-18,15:02:43,CHINA,-7.3,-17.8,1024.0,1025.5,12.3,13.5,0.01,0.0,110000,50.6,226
536460,2021-02-18,15:02:43,CHINA,-8.5,-19.5,928.0,1029.2,17.9,9.6,0.01,0.0,110000,50.6,19
524240,2021-02-18,15:02:43,CHINA,-11.1,-22.0,900.0,1030.2,25.3,14.4,0.01,0.0,110000,50.6,54
383450,2021-02-18,15:02:43,KYRGYZSTAN,-1.6,-6.5,895.5,895.9,20.2,3.9,0.00,1.8,101000,71.0,9
383430,2021-02-18,15:02:43,KAZAKHSTAN,-1.4,-3.3,940.0,1025.4,10.2,4.1,0.00,2.6,101000,93.2,17
749347,2021-02-18,15:02:43,CHINA,-3.5,-8.1,1035.2,1037.9,10.8,9.4,0.00,0.0,100000,69.0,323
749348,2021-02-18,15:02:43,CHINA,-18.3,-21.8,1032.4,1037.1,62.9,2.5,0.00,0.0,100000,75.9,196
350670,2021-02-18,15:02:43,KAZAKHSTAN,-8.6,-13.0,1043.2,1033.9,10.4,9.6,0.00,5.2,101000,50.9,313
512320,2021-02-18,15:02:43,CHINA,-8.3,-13.1,1029.2,1032.4,16.0,17.8,0.01,0.0,110000,57.3,116
517770,2021-02-18,15:02:43,CHINA,-5.9,-19.0,939.7,1027.2,21.9,8.2,0.00,0.0,100000,50.8,72
442820,2021-02-18,15:02:43,MONGOLIA,-8.4,-26.2,816.0,1009.5,49.1,7.4,0.00,0.0,100000,21.7,32
364390,2021-02-18,15:02:43,KAZAKHSTAN,-15.6,-21.8,997.0,1002.3,37.2,15.5,0.81,2.3,111000,97.8,268
540260,2021-02-18,15:02:43,CHINA,-10.6,-22.8,1013.1,1024.6,26.1,12.1,0.01,0.0,110000,84.7,9
544360,2021-02-18,15:02:43,CHINA,-8.3,-19.3,1018.5,1026.0,26.8,6.0,0.02,0.0,110000,78.2,337
475200,2021-02-18,15:02:43,JAPAN,-3.2,-6.3,1005.5,1018.6,16.3,11.4,0.15,0.0,110000,50.1,172
353860,2021-02-18,15:02:43,KAZAKHSTAN,-16.5,-19.0,986.2,989.7,17.7,9.4,0.00,0.0,100000,6.3,153
537720,2021-02-18,15:02:43,CHINA,-6.3,-18.2,981.9,1028.1,11.2,10.0,0.01,0.0,110000,70.0,148
541610,2021-02-18,15:02:43,CHINA,-12.3,-19.9,1014.6,1024.0,12.5,13.5,0.02,0.0,110000,50.6,133
541611,2021-02-18,15:02:43,CHINA,-13.1,-24.9,1008.9,1007.2,9.8,17.4,0.00,0.0,100000,18.5,288
541570,2021-02-18,15:02:43,CHINA,-12.3,-19.2,1021.2,1024.3,14.7,10.7,0.04,0.0,110000,50.3,325
470410,2021-02-18,15:02:43,KOREANORTH,-6.3,-12.0,1021.5,1021.7,13.2,9.9,0.03,0.0,110000,50.0,126
527540,2021-02-18,15:02:43,CHINA,-13.8,-28.6,676.2,676.3,24.0,10.8,0.00,0.0,100000,39.0,184
515420,2021-02-18,15:02:43,CHINA,-20.4,-23.3,755.0,752.7,31.5,6.6,0.01,0.0,110000,88.3,71
539750,2021-02-18,15:02:43,CHINA,-4.1,-12.4,1019.0,1028.8,14.5,7.3,0.02,0.0,110000,50.5,220
534460,2021-02-18,15:02:43,CHINA,-12.2,-27.8,995.2,1031.2,13.5,12.7,0.00,0.0,100000,58.9,125
560460,2021-02-18,15:02:43,CHINA,-15.0,-23.2,671.4,671.8,25.4,8.4,0.01,0.0,110000,50.1,184
526610,2021-02-18,15:02:43,CHINA,-11.0,-26.7,929.2,953.9,69.5,8.1,0.00,0.0,100000,22.5,244
544230,2021-02-18,15:02:43,CHINA,-10.0,-23.7,975.9,1024.6,24.1,5.1,0.00,0.0,100000,22.4,327
545270,2021-02-18,15:02:43,CHINA,-3.5,-12.6,1027.0,1026.3,10.6,8.7,0.03,0.0,110000,50.0,1
545273,2021-02-18,15:02:43,CHINA,-1.6,-10.9,1000.4,998.5,6.9,11.8,0.00,0.0,100000,8.4,211
359970,2021-02-18,15:02:43,KAZAKHSTAN,-6.7,-11.4,1031.9,1033.9,25.1,9.9,0.01,0.8,111000,58.4,69
443050,2021-02-18,15:02:43,MONGOLIA,-17.3,-21.7,950.4,1028.7,46.3,10.2,0.00,2.3,101000,97.5,99
536730,2021-02-18,15:02:43,CHINA,-8.1,-19.3,974.2,1028.2,17.6,9.1,0.01,0.0,110000,91.8,38
525760,2021-02-18,15:02:43,CHINA,-9.7,-23.3,852.6,855.1,30.5,17.5,0.00,0.0,100000,24.1,269
518860,2021-02-18,15:02:43,CHINA,-12.0,-28.9,701.4,700.8,27.1,12.6,0.00,0.0,100000,42.1,221
353450,2021-02-18,15:02:43,KAZAKHSTAN,-7.0,-11.9,1061.8,1040.2,22.8,11.7,0.00,0.0,100000,42.5,118
475810,2021-02-18,15:02:43,JAPAN,-3.2,-8.4,1016.3,1017.0,18.9,15.4,0.12,6.2,111000,50.7,165
535290,2021-02-18,15:02:43,CHINA,-10.8,-21.0,893.4,1029.7,25.2,10.8,0.21,0.0,110000,50.5,66
475740,2021-02-18,15:02:43,JAPAN,-1.3,-8.3,1014.4,1024.1,30.0,13.7,0.16,0.0,110000,50.4,293
474230,2021-02-18,15:02:43,JAPAN,-4.8,-9.1,1009.6,1015.0,15.2,21.8,0.19,0.0,110000,92.5,12
474120,2021-02-18,15:02:43,JAPAN,-7.8,-12.5,1016.7,1016.1,9.2,8.0,0.19,17.8,111000,72.9,176
570710,2021-02-18,15:02:43,CHINA,-0.6,-10.1,1028.2,1027.9,13.4,10.9,0.06,0.0,110000,50.6,72
356990,2021-02-18,15:02:43,KAZAKHSTAN,-6.4,-15.4,958.3,1038.9,28.1,0.6,0.00,4.5,101000,50.8,128
576220,2021-02-18,15:02:43,CHINA,-3.4,-3.9,842.1,837.9,2.9,10.6,0.15,0.0,110000,50.1,167
560670,2021-02-18,15:02:43,CHINA,-13.0,-23.9,650.5,646.5,19.9,12.4,0.00,0.0,100000,25.7,101
542920,2021-02-18,15:02:43,CHINA,-12.6,-21.8,1007.8,1025.5,20.9,11.3,0.00,0.0,100000,84.1,253
527370,2021-02-18,15:02:43,CHINA,-2.7,-26.9,725.3,726.7,25.6,7.3,0.00,0.0,100000,88.6,63
475870,2021-02-18,15:02:43,JAPAN,-1.4,-5.6,1013.4,1017.9,15.1,24.3,0.34,4.2,111000,50.4,29
475850,2021-02-18,15:02:43,JAPAN,-3.6,-10.3,1010.6,1017.0,23.7,9.4,0.12,2.8,111000,50.0,331
517160,2021-02-18,15:02:43,CHINA,-2.3,-10.0,910.9,1025.5,18.8,7.2,0.00,0.0,100000,73.4,179
478210,2021-02-18,15:02:43,JAPAN,-5.2,-9.9,892.3,899.3,29.4,12.6,0.00,0.0,100000,14.8,174
560290,2021-02-18,15:02:43,CHINA,-8.2,-21.4,645.7,645.7,29.3,4.3,0.01,0.0,110000,71.4,302
359250,2021-02-18,15:02:43,KAZAKHSTAN,-4.6,-9.4,1017.9,1028.7,21.8,22.1,0.00,0.0,100000,11.1,82
171400,2021-02-18,15:02:43,TURKEY,-7.7,-8.6,865.1,853.2,8.7,9.5,0.45,22.6,111000,50.1,107
542730,2021-02-18,15:02:44,CHINA,-16.5,-21.9,1017.4,1025.2,15.7,8.2,0.06,0.0,110000,67.5,344
531920,2021-02-18,15:02:44,CHINA,-19.7,-24.9,918.0,1033.1,31.1,10.0,0.01,0.0,110000,63.5,240
517470,2021-02-18,15:02:44,CHINA,-6.5,-19.8,893.8,1025.7,19.3,3.8,0.00,0.0,100000,35.7,53
476240,2021-02-18,15:02:44,JAPAN,-0.2,-9.6,1009.6,1017.8,27.0,12.9,0.08,0.2,111000,50.0,327
570140,2021-02-18,15:02:44,CHINA,-5.7,-9.8,1014.7,1034.8,11.8,6.5,0.00,0.0,100000,73.7,191
470410,2021-02-18,15:02:44,KOREANORTH,-2.1,-13.2,1021.5,1021.7,13.3,9.8,0.03,0.0,110000,50.1,126
544830,2021-02-18,15:02:44,CHINA,-15.0,-23.9,1026.0,1024.4,16.1,7.1,0.01,0.0,110000,54.9,183
547760,2021-02-18,15:02:44,CHINA,-1.1,-7.3,1020.5,1025.8,19.5,23.7,0.07,0.0,110000,76.8,21
540270,2021-02-18,15:02:44,CHINA,-13.3,-26.4,993.9,1025.5,29.4,12.0,0.01,0.0,110000,50.0,49
470350,2021-02-18,15:02:44,KOREANORTH,-6.3,-14.4,1034.0,1024.8,16.1,11.7,0.05,0.0,110000,98.6,343
542180,2021-02-18,15:02:44,CHINA,-12.0,-23.5,992.1,1026.4,21.6,9.6,0.01,0.0,110000,50.0,181
561820,2021-02-18,15:02:44,CHINA,-6.9,-15.4,778.5,822.0,28.5,6.8,0.06,0.0,110000,50.4,225
383530,2021-02-18,15:02:44,KYRGYZSTAN,-0.7,-6.3,995.5,1027.6,5.6,8.1,0.04,0.6,111000,61.1,37
383531,2021-02-18,15:02:44,KYRGYZSTAN,-1.6,-5.4,988.5,976.8,2.0,13.5,0.00,0.0,100000,7.4,133
354160,2021-02-18,15:02:44,KAZAKHSTAN,-7.5,-11.2,1024.5,1027.4,7.6,17.1,0.03,5.6,111000,54.6,71
535020,2021-02-18,15:02:44,CHINA,-10.4,-21.9,979.9,1029.4,22.5,11.3,0.00,0.0,100000,46.4,177
516560,2021-02-18,15:02:44,CHINA,-4.2,-16.1,932.8,1027.0,18.5,9.2,0.00,0.0,100000,11.8,126
521180,2021-02-18,15:02:44,CHINA,-13.5,-26.1,828.9,831.5,30.9,10.3,0.01,0.0,110000,79.5,86
570830,2021-02-18,15:02:44,CHINA,-1.0,-10.8,1020.6,1027.1,10.0,8.7,0.04,0.0,110000,50.9,96
554720,2021-02-18,15:02:44,CHINA,-13.2,-31.1,996.3,993.5,26.3,25.9,0.01,0.0,110000,84.6,313
527870,2021-02-18,15:02:44,CHINA,-13.4,-24.2,746.8,750.6,26.7,18.6,0.01,0.0,110000,73.0,24
381980,2021-02-18,15:02:44,KAZAKHSTAN,-2.4,-7.1,1030.4,1026.3,21.5,8.2,0.32,0.4,111000,62.7,170
343980,2021-02-18,15:02:44,KAZAKHSTAN,-8.0,-10.7,1016.2,1015.7,17.6,16.0,0.00,5.6,101000,82.8,171
382200,2021-02-18,15:02:44,KYRGYZSTAN,-8.0,-9.4,951.2,1031.1,7.2,6.9,0.00,6.8,101000,50.5,11
546560,2021-02-18,15:02:44,CHINA,-2.8,-8.9,1022.5,1024.8,20.2,26.0,0.00,0.0,100000,60.2,85
443140,2021-02-18,15:02:44,MONGOLIA,-15.3,-20.9,935.4,1022.1,17.5,19.2,0.01,1.8,111000,50.1,195
508440,2021-02-18,15:02:44,CHINA,-14.8,-24.5,1026.3,1023.5,14.8,13.5,0.01,0.0,110000,50.1,32
170880,2021-02-18,15:02:44,TURKEY,-2.7,-3.7,876.6,878.4,16.5,11.8,0.05,16.2,111000,50.3,292
581410,2021-02-18,15:02:44,CHINA,-0.9,-9.7,1031.8,1034.3,15.8,7.1,0.00,0.0,100000,30.8,297
517650,2021-02-18,15:02:44,CHINA,-7.7,-19.1,939.6,1027.3,28.2,5.9,0.00,0.0,100000,47.4,25
560800,2021-02-18,15:02:44,CHINA,-11.4,-20.3,734.5,733.3,25.3,6.7,0.01,0.0,110000,95.5,157
560790,2021-02-18,15:02:44,CHINA,-12.2,-20.6,665.4,664.8,31.5,8.6,0.02,0.0,110000,50.4,232
357910,2021-02-18,15:02:44,KAZAKHSTAN,-13.3,-17.8,1035.2,1036.5,40.2,6.6,0.03,2.4,111000,79.3,140
527130,2021-02-18,15:02:44,CHINA,-13.4,-29.1,698.8,699.0,29.1,8.6,0.00,0.0,100000,11.1,259
171400,2021-02-18,15:02:44,TURKEY,-8.1,-8.3,865.1,853.1,8.6,9.5,0.45,22.6,111000,50.1,107
576220,2021-02-18,15:02:44,CHINA,-3.4,-4.3,842.1,837.9,2.8,10.7,0.15,0.0,110000,50.1,167
560670,2021-02-18,15:02:44,CHINA,-13.2,-21.9,650.5,646.5,19.9,12.5,0.00,0.0,100000,25.7,102
474880,2021-02-18,15:02:44,JAPAN,-3.9,-9.3,995.4,998.1,9.1,16.2,0.00,0.0,100000,44.0,231
350850,2021-02-18,15:02:44,KAZAKHSTAN,-13.6,-18.9,1017.7,1033.3,28.6,15.7,0.02,3.4,111000,74.8,335
544970,2021-02-18,15:02:44,CHINA,-6.6,-15.3,1025.1,1024.4,15.1,11.2,0.06,0.0,110000,50.3,351
523780,2021-02-18,15:02:44,CHINA,-10.5,-25.1,986.5,1007.9,29.7,16.3,0.00,0.0,100000,23.3,40
506580,2021-02-18,15:02:44,CHINA,-19.6,-24.3,1025.3,1023.7,15.1,7.5,0.01,0.0,110000,75.5,352
476000,2021-02-18,15:02:44,JAPAN,-0.1,-4.4,1018.4,1019.6,16.0,14.0,0.29,5.1,111000,50.2,354
475530,2021-02-18,15:02:44,JAPAN,-2.4,-6.6,997.0,999.3,8.9,10.9,0.00,0.0,100000,25.7,326
354260,2021-02-18,15:02:44,KAZAKHSTAN,-7.9,-11.0,1003.9,1025.2,38.7,11.7,0.00,4.8,101000,80.9,8
470030,2021-02-18,15:02:44,KOREANORTH,-9.3,-16.6,1018.7,1021.9,22.0,10.1,0.06,0.0,110000,67.7,94
527650,2021-02-18,15:02:44,CHINA,-13.5,-26.4,715.2,717.4,20.6,8.8,0.00,0.0,100000,57.2,84
471131,2021-02-18,15:02:44,KOREASOUTH,-1.7,-10.6,977.4,985.6,9.2,11.6,0.00,0.0,100000,36.6,82
471130,2021-02-18,15:02:44,KOREASOUTH,-1.5,-7.6,1020.0,1022.4,11.1,8.0,0.00,0.0,100000,59.0,273
531490,2021-02-18,15:02:44,CHINA,-14.0,-23.7,905.9,1030.0,29.2,16.2,0.01,0.0,110000,62.5,297
540960,2021-02-18,15:02:44,CHINA,-16.5,-21.4,1022.9,1023.1,17.4,12.2,0.03,0.0,110000,50.2,12
509680,2021-02-18,15:02:44,CHINA,-19.7,-24.8,1025.2,1023.8,14.7,10.3,0.03,0.0,110000,51.7,55
543460,2021-02-18,15:02:44,CHINA,-8.8,-17.4,1019.2,1025.8,13.9,9.2,0.04,0.0,110000,53.1,209
363970,2021-02-18,15:02:44,KAZAKHSTAN,-4.6,-8.7,1044.5,1036.7,24.3,33.2,1.07,2.6,111000,91.7,281
351730,2021-02-18,15:02:44,KAZAKHSTAN,-11.1,-14.9,1025.5,1033.9,29.5,13.6,0.00,6.0,101000,81.7,6
523910,2021-02-18,15:02:44,CHINA,-26.2,-35.4,1002.2,1046.0,36.7,6.7,0.00,0.0,100000,62.9,100
471300,2021-02-18,15:02:44,KOREASOUTH,-0.8,-9.1,1020.3,1022.0,20.9,13.0,0.18,0.0,110000,50.6,26
471310,2021-02-18,15:02:44,KOREASOUTH,-3.3,-8.9,1021.1,1024.1,17.9,6.1,0.04,0.0,110000,64.0,118
367780,2021-02-18,15:02:44,KAZAKHSTAN,-12.0,-17.6,1060.9,1037.2,21.1,6.3,0.00,0.0,100000,91.0,204
532310,2021-02-18,15:02:44,CHINA,-13.8,-25.0,850.5,852.2,25.8,20.7,0.01,0.0,110000,72.9,52
547140,2021-02-18,15:02:44,CHINA,-3.5,-12.3,1029.4,1026.2,15.8,10.4,0.03,0.0,110000,50.0,228
471540,2021-02-18,15:02:44,KOREASOUTH,-0.1,-11.1,1012.8,1034.7,11.8,11.4,0.00,0.0,100000,6.8,283
471060,2021-02-18,15:02:44,KOREASOUTH,-4.1,-11.8,1017.0,1022.1,14.2,6.5,0.11,0.4,111000,50.3,319
570460,2021-02-18,15:02:44,CHINA,-6.7,-15.0,817.5,831.4,18.2,15.8,0.03,0.0,110000,52.5,238
540120,2021-02-18,15:02:44,CHINA,-19.5,-24.9,935.8,1030.0,25.1,12.9,0.01,0.0,110000,50.3,176
442370,2021-02-18,15:02:44,MONGOLIA,-14.7,-21.5,844.0,1022.9,49.2,10.8,0.01,0.3,111000,50.4,28
509780,2021-02-18,15:02:44,CHINA,-15.2,-21.7,1009.2,1022.3,26.7,12.7,0.01,0.0,110000,50.1,175
584450,2021-02-18,15:02:44,CHINA,-4.1,-10.5,875.3,947.0,15.7,20.3,0.19,0.0,110000,50.0,317
539590,2021-02-18,15:02:44,CHINA,-1.4,-10.6,1011.1,1027.1,16.5,9.4,0.01,0.0,110000,50.4,50
509530,2021-02-18,15:02:44,CHINA,-16.9,-21.0,1015.9,1023.1,13.4,12.3,0.02,0.0,110000,92.7,219
543424,2021-02-18,15:02:44,CHINA,-6.7,-15.4,998.5,1001.7,9.7,11.9,0.00,0.0,100000,51.4,235
474740,2021-02-18,15:02:44,JAPAN,-11.8,-19.8,1004.3,1012.2,10.1,9.7,0.00,0.0,100000,63.3,70
536980,2021-02-18,15:02:44,CHINA,-2.0,-13.5,1029.0,1026.5,13.2,6.5,0.04,0.0,110000,50.5,357
289840,2021-02-18,15:02:44,KAZAKHSTAN,-6.1,-9.4,1011.0,1024.3,38.9,11.2,0.00,0.0,100000,76.0,167
474070,2021-02-18,15:02:44,JAPAN,-11.6,-15.2,1007.3,1016.5,9.4,6.6,0.11,20.4,111000,50.6,35
474060,2021-02-18,15:02:44,JAPAN,-7.4,-11.1,1011.2,1015.6,17.7,20.4,0.11,19.6,111000,50.8,74
581020,2021-02-18,15:02:44,CHINA,-0.3,-7.2,1021.4,1026.7,18.5,8.5,0.08,0.0,110000,69.4,231
474300,2021-02-18,15:02:44,JAPAN,-5.7,-10.4,1016.3,1016.6,13.4,12.6,0.09,8.8,111000,97.1,126
474180,2021-02-18,15:02:44,JAPAN,-10.3,-14.2,1011.3,1015.7,20.9,15.5,0.06,5.1,111000,86.6,265
351880,2021-02-18,15:02:44,KAZAKHSTAN,-11.6,-14.8,1028.0,1028.9,16.3,16.8,0.22,1.9,111000,90.0,85
528420,2021-02-18,15:02:44,CHINA,-2.9,-18.8,696.7,692.1,17.0,14.7,0.00,0.0,100000,83.5,29
530830,2021-02-18,15:02:44,CHINA,-18.4,-24.7,965.1,1031.2,29.1,12.6,0.01,0.0,110000,64.7,222
561250,2021-02-18,15:02:44,CHINA,-9.1,-22.3,650.1,654.7,23.6,7.6,0.03,0.0,110000,94.9,43
548260,2021-02-18,15:02:44,CHINA,-7.9,-19.3,871.4,874.1,27.4,26.5,0.08,0.0,110000,50.7,359
443730,2021-02-18,15:02:44,MONGOLIA,-11.0,-21.2,854.3,1027.8,45.1,9.6,0.00,0.2,101000,50.5,345
443740,2021-02-18,15:02:44,MONGOLIA,-13.0,-20.7,830.7,1030.5,49.3,14.4,0.00,1.3,101000,69.6,341
359250,2021-02-18,15:02:44,KAZAKHSTAN,-4.3,-9.4,1017.8,1028.7,21.8,22.2,0.00,0.0,100000,11.1,82
471074,2021-02-18,15:02:44,KOREASOUTH,-2.9,-7.1,1007.7,1025.0,9.5,18.8,0.00,0.0,100000,99.2,331
471087,2021-02-18,15:02:44,KOREASOUTH,-4.6,-14.3,1007.5,985.3,11.0,11.2,0.00,0.0,100000,32.8,321
471080,2021-02-18,15:02:44,KOREASOUTH,-3.1,-9.2,1019.3,1023.7,11.4,9.0,0.03,0.1,111000,85.3,293
471120,2021-02-18,15:02:44,KOREASOUTH,-2.7,-9.7,1018.4,1023.5,15.9,12.2,0.04,0.0,110000,51.2,45
506320,2021-02-18,15:02:44,CHINA,-19.6,-25.1,983.0,1024.4,27.6,10.3,0.02,0.0,110000,50.3,165
477420,2021-02-18,15:02:44,JAPAN,-1.2,-4.2,1026.9,1027.7,17.4,3.3,0.00,0.0,100000,56.1,354
560210,2021-02-18,15:02:44,CHINA,-4.0,-29.9,616.6,616.4,28.9,9.3,0.01,0.0,110000,85.2,49
540940,2021-02-18,15:02:44,CHINA,-15.8,-22.7,1009.2,1023.0,7.7,8.2,0.03,0.0,110000,50.1,302
560930,2021-02-18,15:02:44,CHINA,-9.8,-15.8,1006.3,1019.0,16.2,12.4,0.00,0.0,100000,29.0,310
548570,2021-02-18,15:02:44,CHINA,-1.7,-7.9,1023.6,1026.6,12.3,19.7,0.03,0.0,110000,50.2,32
354590,2021-02-18,15:02:44,KAZAKHSTAN,-7.6,-13.9,1031.7,1030.0,48.3,24.3,0.00,4.5,101000,50.1,214
528660,2021-02-18,15:02:44,CHINA,-7.8,-19.8,772.3,771.4,16.2,7.5,0.00,0.0,100000,18.9,274
476200,2021-02-18,15:02:44,JAPAN,-3.2,-6.8,926.7,1018.6,27.1,12.5,0.18,0.0,110000,50.1,124
476170,2021-02-18,15:02:44,JAPAN,-6.4,-10.4,957.5,1027.8,23.9,4.3,0.00,0.0,100000,14.8,34
380810,2021-02-18,15:02:44,KAZAKHSTAN,-5.0,-9.6,1030.6,1029.7,23.5,14.4,0.01,0.3,111000,69.7,134
526510,2021-02-18,15:02:44,CHINA,-2.9,-23.9,985.0,1001.4,69.9,5.6,0.00,0.0,100000,48.0,209
171890,2021-02-18,15:02:44,TURKEY,-6.5,-9.9,901.5,926.6,15.4,13.0,0.24,9.4,111000,75.4,359
356330,2021-02-18,15:02:44,KAZAKHSTAN,-11.3,-15.1,1026.0,1023.8,21.7,16.6,0.00,5.2,101000,70.2,158
552990,2021-02-18,15:02:44,CHINA,-15.5,-30.7,1003.2,1004.8,27.3,11.8,0.03,0.0,110000,99.2,332
357960,2021-02-18,15:02:44,KAZAKHSTAN,-8.5,-12.7,1018.5,1033.4,30.4,19.3,0.01,1.6,111000,67.8,294
287660,2021-02-18,15:02:44,KAZAKHSTAN,-6.8,-10.5,1016.8,1025.4,11.3,14.2,0.01,4.5,111000,85.4,278
525760,2021-02-18,15:02:44,CHINA,-9.7,-22.1,852.6,855.2,30.4,17.4,0.00,0.0,100000,24.1,268
474130,2021-02-18,15:02:44,JAPAN,-7.0,-10.1,1008.1,1014.6,16.8,9.7,0.03,0.0,110000,50.0,279
474170,2021-02-18,15:02:44,JAPAN,-14.6,-18.8,1009.8,1015.1,10.1,5.7,0.04,0.0,110000,51.1,264
549090,2021-02-18,15:02:44,CHINA,-1.0,-8.9,1021.1,1027.7,15.2,10.7,0.06,0.0,110000,50.2,143
386090,2021-02-18,15:02:44,TAJIKISTAN,-2.4,-7.0,925.0,1028.1,16.7,10.1,0.00,0.0,100000,82.8,120
475200,2021-02-18,15:02:44,JAPAN,-3.2,-7.1,1005.6,1018.6,16.4,11.4,0.15,0.0,110000,50.1,172
353860,2021-02-18,15:02:44,KAZAKHSTAN,-16.4,-19.0,986.0,989.8,17.6,9.5,0.00,0.0,100000,6.3,153
477470,2021-02-18,15:02:44,JAPAN,-1.0,-2.4,1026.9,1027.5,14.6,4.2,0.19,0.0,110000,50.5,280
537720,2021-02-18,15:02:44,CHINA,-6.3,-18.2,981.9,1028.1,11.2,9.9,0.01,0.0,110000,70.1,148
543370,2021-02-18,15:02:44,CHINA,-7.6,-19.0,1024.1,1025.5,12.2,13.6,0.01,0.0,110000,50.5,226
443540,2021-02-18,15:02:44,MONGOLIA,-14.1,-21.1,1058.2,1029.4,49.8,16.9,0.00,0.0,100000,46.7,287
561460,2021-02-18,15:02:44,CHINA,-6.0,-17.7,680.6,677.7,31.5,7.7,0.02,0.0,110000,50.2,181
367440,2021-02-18,15:02:44,KAZAKHSTAN,-5.7,-9.9,1033.9,1034.0,44.0,10.7,0.08,1.0,111000,50.8,349
509630,2021-02-18,15:02:44,CHINA,-18.0,-23.9,1019.8,1023.0,13.3,14.1,0.01,0.0,110000,50.4,127
529830,2021-02-18,15:02:44,CHINA,-10.9,-15.4,818.8,835.6,21.0,6.4,0.02,0.0,110000,66.9,324
350670,2021-02-18,15:02:44,KAZAKHSTAN,-8.6,-11.8,1043.3,1033.9,10.4,9.5,0.00,5.2,101000,50.9,313
470312,2021-02-18,15:02:44,CHINA,-2.1,-10.7,985.3,965.4,5.5,8.3,0.00,0.0,100000,29.3,90
353940,2021-02-18,15:02:44,KAZAKHSTAN,-10.1,-13.4,1006.2,1032.3,17.0,13.8,0.04,3.5,111000,50.5,194
474050,2021-02-18,15:02:44,JAPAN,-11.7,-16.0,1018.3,1019.2,39.8,10.1,0.06,0.0,110000,50.3,147
380190,2021-02-18,15:02:44,KAZAKHSTAN,-10.8,-17.3,1043.8,1032.6,29.3,12.2,0.02,9.4,111000,92.7,61
544490,2021-02-18,15:02:44,CHINA,-0.3,-21.2,1031.0,1016.7,31.9,24.7,0.00,0.0,100000,47.8,298
535930,2021-02-18,15:02:44,CHINA,-11.8,-22.8,980.5,1029.0,23.7,7.2,0.01,0.0,110000,90.9,201
546620,2021-02-18,15:02:44,CHINA,-3.7,-12.0,1022.3,1025.7,13.9,17.6,0.02,0.0,110000,64.6,244
546180,2021-02-18,15:02:44,CHINA,-1.5,-11.1,1024.2,1026.1,11.2,10.0,0.08,0.0,110000,70.0,21
474400,2021-02-18,15:02:44,JAPAN,-8.0,-13.2,1012.4,1016.8,23.4,11.1,0.38,0.0,110000,52.8,129
289780,2021-02-18,15:02:44,KAZAKHSTAN,-11.4,-12.5,969.2,1022.4,17.3,10.7,0.00,0.0,100000,31.0,275
513340,2021-02-18,15:02:44,CHINA,-8.4,-11.1,1030.7,1032.8,25.7,5.1,0.01,0.0,110000,50.2,167
476900,2021-02-18,15:02:44,JAPAN,-7.5,-11.9,866.7,867.1,25.3,14.0,0.14,0.0,110000,50.0,216
354970,2021-02-18,15:02:44,KAZAKHSTAN,-7.2,-12.5,983.2,1035.3,31.5,11.8,0.02,7.5,111000,50.6,201
560330,2021-02-18,15:02:44,CHINA,-5.6,-16.3,626.3,622.9,25.8,11.8,0.01,0.0,110000,50.2,226
476180,2021-02-18,15:02:44,JAPAN,-1.3,-9.1,976.3,1019.1,13.6,6.9,0.14,1.3,111000,81.9,112
504340,2021-02-18,15:02:44,CHINA,-29.8,-33.2,967.3,1027.4,27.2,7.6,0.01,0.0,110000,50.4,351
350530,2021-02-18,15:02:44,KAZAKHSTAN,-7.5,-11.5,1035.2,1033.8,18.8,11.7,0.01,2.5,111000,50.4,289
580270,2021-02-18,15:02:44,CHINA,-0.6,-8.7,1021.2,1026.7,13.9,9.0,0.05,0.0,110000,52.4,299
288790,2021-02-18,15:02:44,KAZAKHSTAN,-11.7,-16.8,1033.7,1031.1,9.8,17.7,0.00,0.9,101000,50.1,218
288770,2021-02-18,15:02:44,KAZAKHSTAN,-5.5,-10.8,1024.9,1022.8,14.9,12.5,0.03,1.9,111000,78.7,36
563850,2021-02-18,15:02:44,CHINA,-7.6,-11.0,745.9,745.2,10.2,10.1,0.04,0.0,110000,50.8,97
505570,2021-02-18,15:02:44,CHINA,-24.2,-28.8,1009.6,1023.8,14.6,7.9,0.01,0.0,110000,50.2,317
478210,2021-02-18,15:02:44,JAPAN,-5.4,-9.9,892.3,899.3,29.5,12.6,0.00,0.0,100000,14.8,175
470520,2021-02-18,15:02:44,KOREANORTH,-7.9,-11.7,1034.4,1028.5,13.7,4.8,0.00,0.0,100000,78.3,106
526610,2021-02-18,15:02:44,CHINA,-11.0,-24.2,929.2,954.0,69.5,8.1,0.00,0.0,100000,22.5,243
544230,2021-02-18,15:02:44,CHINA,-10.2,-22.0,975.9,1024.6,24.1,5.1,0.00,0.0,100000,22.4,326
524180,2021-02-18,15:02:44,CHINA,-8.1,-21.4,917.5,1027.6,27.8,6.3,0.00,0.0,100000,81.5,244
353450,2021-02-18,15:02:44,KAZAKHSTAN,-7.4,-10.2,1061.7,1040.2,22.9,11.7,0.00,0.0,100000,42.5,118
475810,2021-02-18,15:02:44,JAPAN,-3.2,-7.6,1016.2,1017.0,18.8,15.4,0.12,6.2,111000,50.7,165
535290,2021-02-18,15:02:44,CHINA,-10.1,-22.5,893.4,1029.7,25.2,10.9,0.21,0.0,110000,50.5,66
475740,2021-02-18,15:02:44,JAPAN,-1.3,-8.3,1014.4,1024.2,30.1,13.8,0.16,0.0,110000,50.4,292
543420,2021-02-18,15:02:44,CHINA,-10.5,-18.8,1021.9,1024.7,7.0,12.4,0.03,0.0,110000,50.4,193
528180,2021-02-18,15:02:44,CHINA,-10.0,-29.1,753.9,752.8,26.8,8.9,0.00,0.0,100000,70.3,87
442880,2021-02-18,15:02:44,MONGOLIA,-8.2,-15.2,917.4,1028.6,47.5,13.1,0.02,0.1,111000,50.2,316
518480,2021-02-18,15:02:44,CHINA,-4.7,-20.5,923.6,1027.3,15.4,6.9,0.00,0.0,100000,,277
524240,2021-02-18,15:02:44,CHINA,-11.1,-22.0,900.0,1030.2,25.3,14.3,0.01,0.0,110000,50.6,54
383450,2021-02-18,15:02:44,KYRGYZSTAN,-2.1,-6.5,895.5,895.9,20.2,3.9,0.00,1.8,101000,71.0,10
383430,2021-02-18,15:02:44,KAZAKHSTAN,-0.9,-2.6,939.9,1025.4,10.1,4.2,0.00,2.6,101000,93.2,17
749347,2021-02-18,15:02:44,CHINA,-3.4,-7.5,1035.2,1037.9,10.9,9.3,0.00,0.0,100000,69.0,323
749348,2021-02-18,15:02:44,CHINA,-18.3,-21.5,1032.4,1037.1,63.0,2.6,0.00,0.0,100000,75.9,196
561440,2021-02-18,15:02:44,CHINA,-4.6,-22.3,683.3,684.3,35.2,4.7,0.00,0.0,100000,73.4,217
442410,2021-02-18,15:02:44,MONGOLIA,-22.3,-26.6,1029.9,1033.6,45.7,9.1,0.00,1.9,101000,65.2,158
387130,2021-02-18,15:02:44,TAJIKISTAN,-3.6,-7.5,996.0,1020.2,42.9,6.7,0.00,5.0,101000,55.6,15
509490,2021-02-18,15:02:44,CHINA,-15.0,-21.6,1016.1,1023.2,14.0,9.3,0.01,0.0,110000,97.8,141
561160,2021-02-18,15:02:44,CHINA,-7.9,-20.2,684.3,685.0,26.6,4.2,0.00,0.0,100000,34.5,301
538630,2021-02-18,15:02:44,CHINA,-5.3,-13.8,1016.7,1028.0,13.4,8.5,0.02,0.0,110000,50.2,128
538870,2021-02-18,15:02:44,CHINA,-10.7,-29.0,915.3,1027.9,29.1,6.5,0.00,0.0,100000,49.4,332
507270,2021-02-18,15:02:44,CHINA,-24.9,-27.5,914.8,1028.3,25.7,7.4,0.01,0.0,110000,50.2,349
518180,2021-02-18,15:02:44,CHINA,-2.0,-11.8,976.6,1023.7,15.6,4.9,0.01,0.0,110000,50.7,45
541610,2021-02-18,15:02:44,CHINA,-12.3,-19.9,1014.6,1024.0,12.5,13.5,0.02,0.0,110000,50.7,133
541611,2021-02-18,15:02:44,CHINA,-12.5,-24.9,1008.8,1007.6,9.9,17.4,0.00,0.0,100000,18.5,288
541570,2021-02-18,15:02:44,CHINA,-12.3,-20.5,1021.2,1024.3,14.7,10.7,0.04,0.0,110000,50.2,325
476490,2021-02-18,15:02:44,JAPAN,-0.1,-4.4,999.6,1019.6,18.6,12.5,0.28,0.0,110000,50.8,22
546160,2021-02-18,15:02:44,CHINA,-4.0,-14.3,1027.4,1026.5,12.0,13.3,0.03,0.0,110000,64.7,340
509830,2021-02-18,15:02:44,CHINA,-16.9,-22.4,1017.8,1022.3,16.4,10.6,0.01,0.0,110000,50.1,258
470080,2021-02-18,15:02:44,KOREANORTH,-6.9,-12.4,1015.7,1022.0,11.9,8.4,0.01,0.0,110000,72.9,241
508880,2021-02-18,15:02:44,CHINA,-16.1,-22.3,1016.1,1022.1,23.4,12.7,0.01,0.0,110000,91.0,333
355420,2021-02-18,15:02:44,KAZAKHSTAN,-13.5,-16.6,1026.9,1029.0,12.5,14.7,0.48,2.1,111000,76.4,239
544010,2021-02-18,15:02:44,CHINA,-8.3,-21.8,986.6,1028.2,20.5,10.6,0.01,0.0,110000,50.3,286
518390,2021-02-18,15:02:44,CHINA,-1.8,-16.4,889.9,1029.4,13.6,6.7,0.00,0.0,100000,93.2,200
522670,2021-02-18,15:02:44,CHINA,-10.8,-27.3,931.2,1030.8,27.9,12.2,0.00,0.0,100000,26.4,139
561520,2021-02-18,15:02:44,CHINA,-12.5,-20.4,663.1,664.0,32.2,5.1,0.02,0.0,110000,50.1,144
530680,2021-02-18,15:02:44,CHINA,-15.9,-23.6,934.1,1030.4,27.9,13.5,0.01,0.0,110000,50.2,212
547250,2021-02-18,15:02:44,CHINA,-3.7,-12.6,1026.5,1026.6,14.1,12.5,0.08,0.0,110000,70.8,179
545110,2021-02-18,15:02:44,CHINA,-3.9,-16.8,1022.7,1026.0,14.9,12.8,0.03,0.0,110000,73.5,122
476370,2021-02-18,15:02:44,JAPAN,-3.6,-10.6,958.3,1018.2,27.2,9.8,0.18,0.0,110000,93.1,266
386150,2021-02-18,15:02:44,KYRGYZSTAN,-2.0,-10.2,925.4,1033.6,8.9,7.9,0.00,11.3,101000,51.0,122
355820,2021-02-18,15:02:44,KAZAKHSTAN,-10.8,-13.9,1036.9,1034.9,34.5,15.2,0.02,2.5,111000,67.3,126
478180,2021-02-18,15:02:44,JAPAN,-2.6,-9.1,946.3,1029.3,26.0,13.6,0.00,0.0,100000,50.0,317
475690,2021-02-18,15:02:44,JAPAN,-0.7,-8.2,997.1,997.5,9.6,15.9,0.00,0.0,100000,45.2,279
507560,2021-02-18,15:02:44,CHINA,-19.7,-23.2,1010.9,1023.2,12.7,9.8,0.00,0.0,100000,23.2,293
515670,2021-02-18,15:02:44,CHINA,-7.1,-15.0,1004.5,1032.5,18.3,7.6,0.00,0.0,100000,26.5,249
474900,2021-02-18,15:02:44,JAPAN,-10.9,-17.2,992.7,995.8,10.1,8.8,0.00,0.0,100000,32.8,145
474890,2021-02-18,15:02:44,JAPAN,-8.3,-14.7,1002.6,1001.7,10.3,10.7,0.00,0.0,100000,65.4,252
505480,2021-02-18,15:02:44,CHINA,-19.8,-26.0,998.9,1010.3,30.6,3.5,0.00,0.0,100000,61.9,229
442320,2021-02-18,15:02:44,MONGOLIA,-27.6,-32.7,1068.8,1049.0,44.7,4.5,0.00,0.0,100000,92.3,327
562570,2021-02-18,15:02:44,CHINA,-8.9,-20.9,684.5,683.3,37.6,7.9,0.00,0.0,100000,64.0,261
476120,2021-02-18,15:02:44,JAPAN,-0.6,-4.0,1017.4,1019.3,15.6,10.1,0.57,12.3,111000,50.1,357
471290,2021-02-18,15:02:44,KOREASOUTH,-3.2,-8.2,1021.3,1024.0,19.2,8.6,0.03,0.0,110000,58.1,308
548430,2021-02-18,15:02:44,CHINA,-4.4,-13.1,1024.0,1026.6,16.9,12.4,0.04,0.0,110000,50.9,22
561930,2021-02-18,15:02:44,CHINA,-1.3,-6.4,1033.3,1031.2,14.4,2.7,0.11,0.0,110000,50.3,35
548080,2021-02-18,15:02:44,CHINA,-2.4,-11.8,1030.2,1027.0,12.7,10.8,0.02,0.0,110000,50.2,103
552790,2021-02-18,15:02:44,CHINA,-12.0,-30.9,996.5,997.6,27.6,18.6,0.01,0.0,110000,50.0,290
471360,2021-02-18,15:02:44,KOREASOUTH,-3.5,-9.8,1010.7,1024.1,17.9,7.3,0.06,0.0,110000,89.7,26
471370,2021-02-18,15:02:44,KOREASOUTH,-2.7,-10.9,1010.5,1023.0,15.5,6.9,0.03,0.0,110000,50.2,66
536460,2021-02-18,15:02:44,CHINA,-9.0,-19.5,928.0,1029.2,17.9,9.7,0.01,0.0,110000,50.7,19
517770,2021-02-18,15:02:44,CHINA,-5.9,-19.0,939.7,1027.2,21.9,8.3,0.00,0.0,100000,50.8,71
527070,2021-02-18,15:02:44,CHINA,-13.4,-30.2,725.5,721.6,21.3,11.1,0.00,0.0,100000,44.5,244
570230,2021-02-18,15:02:44,CHINA,-0.3,-13.8,872.7,1009.8,11.4,5.4,0.00,0.0,100000,47.0,96
357460,2021-02-18,15:02:44,KAZAKHSTAN,-8.6,-12.3,1025.5,1027.7,16.4,18.8,0.01,1.1,111000,99.2,123
512880,2021-02-18,15:02:44,CHINA,-15.5,-24.6,836.1,838.7,35.2,7.3,0.01,0.0,110000,50.1,187
529550,2021-02-18,15:02:44,CHINA,-10.7,-26.6,694.8,691.0,30.7,7.5,0.00,0.0,100000,15.5,161
350780,2021-02-18,15:02:44,KAZAKHSTAN,-10.8,-14.0,1034.3,1033.0,11.0,13.9,0.01,9.2,111000,50.0,64
537230,2021-02-18,15:02:44,CHINA,-9.9,-21.6,908.0,1029.6,19.8,8.7,0.02,0.0,110000,80.8,74
555910,2021-02-18,15:02:44,CHINA,-3.4,-25.7,676.7,675.6,29.7,9.5,0.00,0.0,100000,80.6,342
540490,2021-02-18,15:02:44,CHINA,-13.4,-23.3,1025.9,1024.1,19.5,11.8,0.01,0.0,110000,50.0,23
537640,2021-02-18,15:02:44,CHINA,-7.5,-17.8,974.0,1029.5,18.9,8.3,0.12,0.0,,80.3,196
536140,2021-02-18,15:02:44,CHINA,-7.9,-18.7,928.6,1029.1,20.7,7.1,0.01,0.0,110000,50.2,317
470900,2021-02-18,15:02:44,KOREASOUTH,-1.1,-9.2,1020.0,1021.3,20.0,11.1,0.17,0.5,111000,96.8,112
518550,2021-02-18,15:02:44,CHINA,-7.9,-21.7,933.0,1025.4,17.5,7.4,0.00,0.0,100000,93.9,252
543860,2021-02-18,15:02:44,CHINA,-16.5,-23.4,965.9,1026.2,18.4,10.6,0.04,0.0,110000,73.6,276
363350,2021-02-18,15:02:44,KAZAKHSTAN,-9.6,-15.1,1031.4,1033.1,42.9,18.9,0.04,7.6,111000,50.6,15
442590,2021-02-18,15:02:44,MONGOLIA,-17.5,-20.6,950.1,1027.6,20.9,10.0,0.02,1.9,111000,50.0,350
570710,2021-02-18,15:02:44,CHINA,-0.6,-9.2,1028.2,1027.9,13.5,10.9,0.06,0.0,110000,50.6,72
356990,2021-02-18,15:02:44,KAZAKHSTAN,-6.4,-15.4,958.4,1038.9,28.1,0.6,0.00,4.5,101000,50.8,128
475450,2021-02-18,15:02:44,JAPAN,-1.8,-6.7,1007.0,1004.2,8.5,15.2,0.00,0.0,100000,39.5,249
552280,2021-02-18,15:02:44,CHINA,-4.7,-19.8,603.4,600.4,30.2,11.8,0.01,0.0,110000,79.8,98
354060,2021-02-18,15:02:44,KAZAKHSTAN,-7.2,-12.1,1032.1,1028.9,24.1,21.5,0.01,0.0,110000,50.0,97
474110,2021-02-18,15:02:44,JAPAN,-6.1,-11.4,1012.9,1016.1,19.3,12.2,0.21,0.0,110000,50.0,199
474090,2021-02-18,15:02:44,JAPAN,-10.2,-14.7,1013.8,1016.1,22.6,9.5,0.04,9.9,111000,50.4,155
539150,2021-02-18,15:02:44,CHINA,-5.6,-15.1,907.8,1027.7,22.2,7.3,0.02,0.0,110000,56.4,61
570250,2021-02-18,15:02:44,CHINA,-0.5,-4.9,1038.1,1034.4,6.3,6.8,0.00,0.0,100000,47.1,340
474340,2021-02-18,15:02:44,JAPAN,-10.4,-15.0,1002.8,1010.8,11.0,11.3,0.01,6.3,111000,54.9,271
474350,2021-02-18,15:02:44,JAPAN,-7.7,-12.4,1017.2,1019.5,38.6,12.0,0.16,0.0,110000,50.1,89
545870,2021-02-18,15:02:44,CHINA,-3.3,-9.7,1029.0,1024.9,27.8,22.8,0.26,0.0,110000,95.6,99
593530,2021-02-18,15:02:44,TAIWAN,-2.9,-2.7,763.2,1022.0,7.7,5.3,0.00,0.0,100000,96.8,15
471320,2021-02-18,15:02:44,KOREASOUTH,-8.0,-16.6,1003.8,995.7,10.6,0.9,0.00,0.0,100000,46.1,38
474040,2021-02-18,15:02:44,JAPAN,-7.5,-11.1,1015.5,1016.7,26.1,14.4,0.24,0.0,110000,54.9,262
534630,2021-02-18,15:02:44,CHINA,-11.5,-19.4,929.9,1030.4,16.8,7.1,0.01,0.0,110000,50.5,325
514670,2021-02-18,15:02:44,CHINA,-9.4,-21.7,829.6,830.9,27.8,9.1,0.00,0.0,100000,4.7,114
539470,2021-02-18,15:02:44,CHINA,-2.8,-11.3,949.9,1027.2,12.7,8.4,0.01,0.0,110000,57.4,204
570060,2021-02-18,15:02:44,CHINA,-2.2,-10.7,947.0,1025.4,11.3,5.6,0.01,0.0,110000,50.3,109
524360,2021-02-18,15:02:44,CHINA,-10.5,-24.3,863.3,1029.2,30.2,13.1,0.00,0.0,100000,77.6,28
470050,2021-02-18,15:02:44,KOREANORTH,-18.4,-22.2,900.1,898.5,19.7,6.3,0.06,6.7,111000,50.7,67
472185,2021-02-18,15:02:44,JAPAN,-4.8,-12.4,985.5,975.4,9.5,19.7,0.00,0.0,100000,74.2,317
470610,2021-02-18,15:02:44,KOREANORTH,-2.4,-8.6,1016.2,1020.7,21.2,8.3,0.18,1.2,111000,89.0,245
470650,2021-02-18,15:02:44,KOREANORTH,-5.5,-12.3,1031.5,1024.9,11.7,8.5,0.02,0.0,110000,79.9,251
345810,2021-02-18,15:02:44,KAZAKHSTAN,-1.8,-6.2,1043.7,1027.3,51.0,18.1,0.00,0.0,100000,25.0,235
470390,2021-02-18,15:02:44,KOREANORTH,-8.4,-11.1,1022.5,1024.1,8.1,3.4,0.00,0.0,100000,89.8,98
526810,2021-02-18,15:02:44,CHINA,-9.4,-23.0,898.2,1029.7,30.0,10.7,0.00,0.0,100000,3.3,315
380620,2021-02-18,15:02:44,KAZAKHSTAN,-4.6,-8.3,1026.6,1024.5,20.0,14.5,0.01,0.7,111000,93.8,348
353760,2021-02-18,15:02:44,KAZAKHSTAN,-10.8,-15.1,991.1,1030.5,19.9,14.2,0.01,7.4,111000,69.9,177
548360,2021-02-18,15:02:44,CHINA,-4.0,-14.6,1031.0,1027.7,14.6,9.8,0.04,0.0,110000,50.2,30
523230,2021-02-18,15:02:44,CHINA,-14.3,-26.9,819.2,814.8,31.5,15.1,0.00,0.0,100000,33.5,16
513460,2021-02-18,15:02:44,CHINA,-19.1,-21.8,1068.0,1038.6,57.2,5.4,0.00,0.0,100000,56.6,299
350420,2021-02-18,15:02:44,KAZAKHSTAN,-7.0,-10.2,1025.8,1025.6,16.8,17.8,0.00,6.3,101000,50.1,89
522030,2021-02-18,15:02:44,CHINA,-7.7,-19.5,989.1,1027.9,37.6,7.4,0.00,0.0,100000,80.7,149
549060,2021-02-18,15:02:44,CHINA,-1.9,-10.5,1022.5,1026.4,17.9,8.2,0.02,0.0,110000,62.8,287
515730,2021-02-18,15:02:44,CHINA,-3.6,-17.6,1023.0,1028.8,23.4,4.8,0.04,0.0,110000,65.1,218
356710,2021-02-18,15:02:44,KAZAKHSTAN,-10.5,-14.6,997.8,1029.5,20.4,17.0,0.00,5.0,101000,50.2,297
442770,2021-02-18,15:02:44,MONGOLIA,-25.3,-30.0,996.5,1028.3,49.2,17.6,0.00,0.0,100000,27.6,124
286790,2021-02-18,15:02:44,KAZAKHSTAN,-11.1,-13.8,1024.5,1029.6,11.2,19.0,0.02,7.1,111000,50.3,189
471100,2021-02-18,15:02:44,KOREASOUTH,-4.1,-10.1,1007.6,1010.5,9.4,10.7,0.00,0.0,100000,63.4,279
541350,2021-02-18,15:02:44,CHINA,-11.8,-24.4,1018.4,1024.7,25.5,14.9,0.01,0.0,110000,51.6,187
361860,2021-02-18,15:02:44,KAZAKHSTAN,-4.7,-7.2,1022.8,1025.5,11.8,2.8,0.00,0.0,100000,32.6,203
512320,2021-02-18,15:02:44,CHINA,-8.0,-12.2,1029.2,1032.3,15.9,17.7,0.01,0.0,110000,57.3,116
471190,2021-02-18,15:02:44,KOREASOUTH,-3.6,-9.4,1027.3,1024.1,15.2,7.7,0.05,0.1,111000,50.0,308
471180,2021-02-18,15:02:44,KOREASOUTH,-9.7,-18.9,1014.6,1029.9,10.6,8.0,0.00,0.0,100000,68.2,108
368590,2021-02-18,15:02:44,KAZAKHSTAN,-5.6,-9.3,1007.2,1027.6,39.5,7.5,0.02,1.6,111000,50.2,258
471110,2021-02-18,15:02:44,KOREASOUTH,-2.0,-9.6,989.4,990.4,9.3,7.6,0.00,0.0,100000,36.3,257
547050,2021-02-18,15:02:44,CHINA,-14.9,-19.0,1024.2,1034.1,7.9,3.7,0.00,0.0,100000,51.4,265
360010,2021-02-18,15:02:44,KAZAKHSTAN,-5.4,-9.6,1010.8,1026.7,4.4,33.4,0.02,3.2,111000,59.9,278
359970,2021-02-18,15:02:44,KAZAKHSTAN,-6.7,-10.1,1032.0,1033.9,25.1,10.0,0.01,0.8,111000,58.4,69
443050,2021-02-18,15:02:44,MONGOLIA,-17.9,-21.7,950.5,1028.7,46.3,10.1,0.00,2.3,101000,97.5,98
536730,2021-02-18,15:02:44,CHINA,-7.5,-19.3,974.2,1028.2,17.7,9.2,0.01,0.0,110000,91.8,38
518110,2021-02-18,15:02:44,CHINA,-1.8,-9.6,919.7,1025.0,14.3,4.6,0.00,0.0,100000,45.2,246
526020,2021-02-18,15:02:44,CHINA,-15.0,-31.4,726.2,726.5,26.5,15.0,0.00,0.0,100000,53.0,189
361770,2021-02-18,15:02:44,KAZAKHSTAN,-6.9,-10.6,1020.4,1027.0,10.4,9.2,0.00,0.0,100000,53.6,27
476040,2021-02-18,15:02:44,JAPAN,-0.1,-5.2,1019.2,1018.8,14.7,15.2,0.21,6.1,111000,50.1,37
476380,2021-02-18,15:02:44,JAPAN,-0.9,-9.2,996.5,1017.1,17.8,9.6,0.16,0.1,111000,53.3,50
571930,2021-02-18,15:02:44,CHINA,-0.2,-8.6,1031.2,1026.3,14.4,8.8,0.02,0.0,110000,72.6,92
351080,2021-02-18,15:02:44,KAZAKHSTAN,-7.9,-9.9,1017.3,1024.3,8.1,18.4,0.04,11.3,111000,53.1,175
534870,2021-02-18,15:02:44,CHINA,-10.8,-23.1,973.2,1029.3,16.7,11.5,0.01,0.0,110000,65.4,272
381780,2021-02-18,15:02:44,UZBEKISTAN,-1.3,-6.4,1010.5,1025.1,14.5,10.5,0.00,0.0,100000,6.3,168
25105,2021-02-18,15:02:44,SINGAPORE,-1.0,-3.0,1011.1,998.7,10.8,6.3,0.00,0.0,100000,75.9,271
289570,2021-02-18,15:02:44,KAZAKHSTAN,-7.9,-10.4,1035.4,1028.1,10.2,11.6,0.00,6.8,101000,75.5,213
353610,2021-02-18,15:02:44,KAZAKHSTAN,-9.2,-12.2,991.6,1021.0,26.8,8.0,0.00,0.0,100000,33.9,321
475980,2021-02-18,15:02:44,JAPAN,-0.1,-7.9,1021.9,1017.8,23.2,9.4,0.17,0.3,111000,50.3,103
470950,2021-02-18,15:02:44,KOREASOUTH,-6.0,-13.4,1007.6,1024.0,16.1,6.4,0.05,0.0,110000,50.2,93
477690,2021-02-18,15:02:44,JAPAN,-0.5,-6.5,1022.5,1027.9,27.6,8.7,0.00,0.0,100000,29.7,155
524460,2021-02-18,15:02:44,CHINA,-11.1,-25.1,940.0,1033.7,43.2,13.4,0.00,0.0,100000,79.2,107
508620,2021-02-18,15:02:44,CHINA,-23.8,-28.8,989.1,1010.0,17.1,8.8,0.00,0.0,100000,21.0,351
368700,2021-02-18,15:02:44,KAZAKHSTAN,-2.3,-6.7,978.3,1022.2,8.3,3.6,0.29,2.9,111000,89.4,269
543110,2021-02-18,15:02:44,CHINA,-12.2,-24.5,970.7,1028.1,28.0,6.5,0.01,0.0,110000,54.0,77
476290,2021-02-18,15:02:44,JAPAN,-1.9,-9.3,1012.6,1016.4,33.0,9.7,0.03,0.0,110000,50.3,106
560180,2021-02-18,15:02:44,CHINA,-13.0,-24.4,627.0,632.9,26.4,8.5,0.02,0.0,110000,86.0,170
560340,2021-02-18,15:02:44,CHINA,-21.8,-30.3,600.9,595.9,22.6,17.0,0.02,0.0,110000,50.0,213
508540,2021-02-18,15:02:44,CHINA,-16.7,-24.7,1022.6,1023.1,16.9,10.8,0.01,0.0,110000,95.0,301
529570,2021-02-18,15:02:44,CHINA,-16.0,-33.0,723.5,726.8,27.2,14.2,0.00,0.0,100000,95.1,32
358490,2021-02-18,15:02:44,KAZAKHSTAN,-5.2,-9.9,1017.1,1024.3,17.9,12.2,0.02,1.1,111000,50.1,92
517160,2021-02-18,15:02:44,CHINA,-1.5,-10.0,910.9,1025.5,18.7,7.2,0.00,0.0,100000,73.4,179
172480,2021-02-18,15:02:44,TURKEY,-3.9,-5.7,894.4,885.9,15.8,8.4,0.36,8.8,111000,87.1,46
360030,2021-02-18,15:02:44,KAZAKHSTAN,-5.6,-9.1,1023.3,1030.2,23.4,16.7,0.01,5.0,111000,90.9,41
442920,2021-02-18,15:02:44,MONGOLIA,-20.8,-23.9,887.4,1031.2,17.3,5.1,0.00,3.7,101000,61.1,76
526740,2021-02-18,15:02:44,CHINA,-12.0,-24.9,801.4,797.0,29.0,11.0,0.01,0.0,110000,50.0,210
518280,2021-02-18,15:02:44,CHINA,-1.3,-13.9,897.8,1024.3,9.7,5.4,0.01,0.0,110000,50.2,248
477090,2021-02-18,15:02:44,JAPAN,-1.4,-10.3,998.9,1002.2,9.2,10.4,0.00,0.0,100000,71.6,127
557730,2021-02-18,15:02:44,CHINA,-12.3,-21.8,620.3,621.3,20.0,11.5,0.00,0.0,100000,57.8,139
503530,2021-02-18,15:02:44,CHINA,-13.2,-21.0,998.6,1021.4,19.3,8.6,0.00,0.0,100000,7.7,226
383280,2021-02-18,15:02:44,KAZAKHSTAN,-1.0,-4.3,952.1,1025.8,10.0,11.2,0.00,2.4,101000,50.8,176
529960,2021-02-18,15:02:44,CHINA,-8.7,-14.7,778.7,779.2,15.1,15.7,0.01,0.0,110000,50.5,330
541150,2021-02-18,15:02:44,CHINA,-14.2,-25.0,973.4,1027.1,24.5,11.4,0.01,0.0,110000,50.0,239
549160,2021-02-18,15:02:44,CHINA,-2.7,-10.9,1029.1,1026.9,14.8,9.3,0.03,0.0,110000,50.1,135
471330,2021-02-18,15:02:44,KOREASOUTH,-2.8,-8.9,1019.8,1024.1,17.2,6.4,0.04,0.0,110000,79.5,328
471340,2021-02-18,15:02:44,KOREASOUTH,-3.1,-9.6,1001.0,997.1,10.3,6.8,0.01,0.0,110000,95.4,217
506030,2021-02-18,15:02:44,CHINA,-19.9,-24.7,982.8,1028.0,29.5,10.6,0.01,0.0,110000,72.1,110
471350,2021-02-18,15:02:44,KOREASOUTH,-3.1,-10.6,1011.8,1023.3,19.7,14.3,0.08,0.0,110000,55.0,130
478140,2021-02-18,15:02:44,JAPAN,-0.1,-5.4,1011.4,1021.9,14.8,5.7,0.24,0.0,110000,50.0,227
355760,2021-02-18,15:02:44,KAZAKHSTAN,-11.5,-13.6,1014.2,1035.4,21.6,11.3,0.00,6.2,101000,52.0,255
471430,2021-02-18,15:02:44,KOREASOUTH,-0.7,-8.3,1016.1,1023.0,18.6,10.1,0.06,0.1,111000,50.0,20
475910,2021-02-18,15:02:44,JAPAN,-1.4,-6.5,1002.4,998.3,12.5,14.5,0.05,0.5,111000,50.1,332
471140,2021-02-18,15:02:44,KOREASOUTH,-4.7,-10.6,1008.0,1023.9,14.8,4.6,0.08,0.0,110000,97.0,257
547150,2021-02-18,15:02:44,CHINA,-2.6,-11.5,1025.4,1027.6,17.3,12.5,0.08,0.0,110000,63.4,148
505270,2021-02-18,15:02:44,CHINA,-24.7,-28.1,992.5,1028.0,17.2,9.1,0.01,0.0,110000,50.1,192
475120,2021-02-18,15:02:44,JAPAN,-3.3,-11.5,1018.8,1023.5,39.9,8.5,0.00,0.0,100000,24.1,263
563740,2021-02-18,15:02:44,CHINA,-2.9,-8.3,748.4,747.8,30.6,17.6,0.04,0.0,110000,91.8,308
443170,2021-02-18,15:02:44,MONGOLIA,-11.5,-16.2,890.0,1017.6,21.2,13.4,0.00,4.5,101000,50.8,290
511560,2021-02-18,15:02:44,CHINA,-13.6,-20.6,928.5,1033.3,36.3,7.2,0.01,0.0,110000,50.7,198
471571,2021-02-18,15:02:44,KOREASOUTH,-2.7,-12.3,988.4,960.8,10.8,11.6,0.00,0.0,100000,91.4,260
547510,2021-02-18,15:02:44,CHINA,-1.2,-7.6,1029.5,1027.2,17.0,21.0,0.06,0.0,110000,87.6,202
366220,2021-02-18,15:02:44,KAZAKHSTAN,-7.3,-12.7,1034.1,1037.4,42.9,13.6,0.02,6.3,111000,52.0,127
585060,2021-02-18,15:02:44,CHINA,-1.0,-5.5,977.8,1026.8,12.1,14.5,0.19,0.0,110000,94.2,223
583211,2021-02-18,15:02:44,CHINA,-0.3,-4.8,1004.9,999.0,9.6,9.6,0.00,0.0,100000,96.5,231
510530,2021-02-18,15:02:44,CHINA,-17.6,-20.9,1025.3,1035.8,25.8,14.7,0.01,0.0,110000,98.2,20
548630,2021-02-18,15:02:44,CHINA,-3.1,-11.0,1026.5,1026.4,19.6,13.8,0.03,0.0,110000,50.3,342
507450,2021-02-18,15:02:44,CHINA,-17.1,-22.8,1015.0,1023.0,11.3,10.6,0.01,0.0,110000,51.1,221
474830,2021-02-18,15:02:44,JAPAN,-6.6,-13.6,1002.3,1004.2,10.8,15.7,0.00,0.0,100000,86.1,319
507880,2021-02-18,15:02:44,CHINA,-18.2,-23.7,1023.1,1020.5,20.5,13.2,0.01,0.0,110000,50.5,268
533910,2021-02-18,15:02:44,CHINA,-15.3,-21.9,884.0,1027.2,28.9,17.7,0.01,0.0,110000,50.3,291
515420,2021-02-18,15:02:44,CHINA,-20.5,-24.7,755.0,752.7,31.4,6.6,0.01,0.0,110000,88.2,70
539750,2021-02-18,15:02:44,CHINA,-3.8,-12.4,1018.9,1028.8,14.5,7.2,0.02,0.0,110000,50.5,221
443850,2021-02-18,15:02:44,MONGOLIA,-8.5,-20.8,896.4,1029.6,50.8,16.7,0.00,0.0,100000,14.6,37
357000,2021-02-18,15:02:44,KAZAKHSTAN,-3.1,-7.2,1025.2,1023.0,16.5,18.6,0.01,0.4,111000,50.3,172
474210,2021-02-18,15:02:44,JAPAN,-4.6,-9.2,1015.3,1016.4,18.6,18.2,0.14,14.5,111000,50.5,323
474760,2021-02-18,15:02:44,JAPAN,-11.3,-14.9,1001.9,1004.0,8.4,11.6,0.00,0.0,100000,43.3,168
529080,2021-02-18,15:02:44,CHINA,-19.3,-30.0,999.9,1006.5,27.1,21.2,0.00,0.0,100000,93.5,195
474790,2021-02-18,15:02:44,JAPAN,-8.5,-13.3,1000.8,1000.7,8.0,13.7,0.00,0.0,100000,77.4,79
471400,2021-02-18,15:02:44,KOREASOUTH,-1.3,-6.5,1019.4,1023.9,17.2,14.4,0.04,0.0,110000,92.2,359
471410,2021-02-18,15:02:44,KOREASOUTH,-1.4,-5.7,1013.3,1013.9,10.6,14.0,0.04,0.1,111000,51.3,211
471420,2021-02-18,15:02:44,KOREASOUTH,-2.5,-9.8,1015.0,1015.0,12.1,10.7,0.01,0.0,110000,50.1,46
542370,2021-02-18,15:02:44,CHINA,-16.5,-29.4,1006.2,1031.3,14.0,12.7,0.00,0.0,100000,39.4,22
470550,2021-02-18,15:02:44,KOREANORTH,-3.1,-10.4,1021.9,1023.0,16.2,8.7,0.46,0.3,111000,50.0,192
474020,2021-02-18,15:02:44,JAPAN,-12.0,-15.8,1016.8,1017.9,21.8,10.1,0.11,0.0,110000,58.6,91
474010,2021-02-18,15:02:44,JAPAN,-7.5,-11.7,1011.3,1015.8,18.0,14.0,0.16,16.7,111000,90.5,199
353210,2021-02-18,15:02:44,KAZAKHSTAN,-14.9,-20.5,1047.0,1037.0,8.9,10.0,0.00,0.0,100000,53.1,69
570670,2021-02-18,15:02:44,CHINA,-2.4,-9.5,993.4,1028.8,13.8,5.1,0.02,0.0,110000,58.1,275
474410,2021-02-18,15:02:44,JAPAN,-6.5,-11.6,1004.0,1006.0,9.3,25.2,0.00,0.0,100000,82.6,97
544710,2021-02-18,15:02:44,CHINA,-8.6,-16.6,1026.6,1025.4,13.3,13.9,0.04,0.0,110000,50.5,257
470460,2021-02-18,15:02:44,KOREANORTH,-4.4,-8.6,1024.0,1020.5,15.9,5.2,0.01,0.0,110000,62.3,245
347980,2021-02-18,15:02:44,KAZAKHSTAN,-3.2,-6.3,1018.9,1020.3,10.6,21.4,0.00,0.6,101000,74.7,43
476400,2021-02-18,15:02:44,JAPAN,-8.1,-16.1,920.4,914.9,30.5,5.4,0.00,0.0,100000,45.7,285
353020,2021-02-18,15:02:44,KAZAKHSTAN,-7.3,-10.8,1051.5,1035.0,19.8,18.4,0.00,0.0,100000,3.3,136
355490,2021-02-18,15:02:44,KAZAKHSTAN,-7.8,-12.7,1033.5,1030.4,22.1,10.0,0.00,4.8,101000,50.5,175
549290,2021-02-18,15:02:44,CHINA,-0.8,-10.7,1023.5,1026.6,17.7,6.7,0.01,0.0,110000,71.9,280
475920,2021-02-18,15:02:44,JAPAN,-1.4,-5.9,1015.3,1018.1,19.5,12.5,0.17,0.9,111000,87.0,75
535430,2021-02-18,15:02:44,CHINA,-10.3,-21.6,883.3,1029.8,23.0,11.9,0.01,0.0,110000,62.3,214
365350,2021-02-18,15:02:44,KAZAKHSTAN,-12.2,-15.9,1069.6,1040.0,45.6,6.9,0.00,0.0,100000,87.1,139
474280,2021-02-18,15:02:44,JAPAN,-3.4,-8.7,1012.1,1015.8,19.4,25.9,0.15,0.0,110000,50.5,124
443290,2021-02-18,15:02:44,MONGOLIA,-14.9,-18.4,779.6,1033.1,19.5,14.1,0.00,3.2,101000,50.1,225
528250,2021-02-18,15:02:44,CHINA,-9.8,-26.3,724.3,719.1,23.4,11.5,0.00,0.0,100000,77.9,131
471610,2021-02-18,15:02:44,KOREASOUTH,-2.0,-8.3,999.2,994.6,10.8,7.3,0.03,0.0,110000,50.1,54
507740,2021-02-18,15:02:44,CHINA,-21.5,-27.5,1013.2,1023.1,10.6,7.0,0.01,0.0,110000,50.0,328
383340,2021-02-18,15:02:44,KAZAKHSTAN,-1.4,-5.1,927.1,1024.4,12.2,10.5,0.00,4.7,101000,73.2,153
509150,2021-02-18,15:02:44,CHINA,-20.8,-26.2,945.4,1029.6,29.6,10.9,0.02,0.0,110000,52.6,151
564440,2021-02-18,15:02:44,CHINA,-4.1,-10.0,734.6,734.8,23.3,10.6,0.04,0.0,110000,50.8,308
287850,2021-02-18,15:02:44,KAZAKHSTAN,-8.5,-9.6,1031.0,1021.0,16.5,4.3,0.00,13.2,101000,77.3,169
471064,2021-02-18,15:02:44,KOREASOUTH,-10.4,-14.0,1001.6,1011.1,10.7,9.7,0.00,0.0,100000,52.0,83
471066,2021-02-18,15:02:44,KOREASOUTH,-4.9,-11.0,1007.9,1002.3,9.0,5.8,0.00,0.0,100000,99.1,50
471050,2021-02-18,15:02:44,KOREASOUTH,-0.9,-8.7,1016.6,1021.8,20.4,11.9,0.18,1.4,111000,92.2,248
475760,2021-02-18,15:02:44,JAPAN,-4.6,-8.9,1016.9,1017.5,21.0,10.9,0.11,0.0,110000,76.9,285
538210,2021-02-18,15:02:44,CHINA,-7.2,-20.0,931.6,1029.0,18.6,8.9,0.00,0.0,100000,0.3,95
443470,2021-02-18,15:02:44,MONGOLIA,-7.6,-27.4,861.4,1013.1,37.3,26.2,0.00,0.0,100000,23.8,3
542590,2021-02-18,15:02:44,CHINA,-14.2,-21.4,1025.0,1025.8,15.7,7.3,0.04,0.0,110000,91.1,251
471000,2021-02-18,15:02:44,KOREASOUTH,-7.9,-13.8,922.8,1024.3,13.5,15.6,0.19,13.0,111000,50.3,297
470980,2021-02-18,15:02:44,KOREASOUTH,-5.2,-14.4,1010.5,1024.6,12.9,6.9,0.00,0.0,100000,82.3,64
471223,2021-02-18,15:02:44,KOREASOUTH,-0.1,-2.5,1010.4,1018.3,4.2,11.8,1.07,0.0,110000,50.2,155
471220,2021-02-18,15:02:44,KOREASOUTH,-4.7,-10.6,1017.1,1018.1,9.9,8.2,0.03,0.3,111000,50.1,11
586530,2021-02-18,15:02:44,CHINA,-2.6,-4.9,916.2,1023.9,9.0,22.7,0.15,0.0,110000,50.6,240
561060,2021-02-18,15:02:44,CHINA,-11.3,-22.7,619.1,618.1,27.5,9.3,0.04,0.0,110000,95.8,333
170980,2021-02-18,15:02:44,TURKEY,-4.9,-7.2,815.6,815.6,9.1,9.8,0.06,12.5,111000,50.1,321
470670,2021-02-18,15:02:44,KOREANORTH,-6.8,-11.6,1044.9,1024.9,15.6,7.6,0.00,0.0,100000,97.9,53
542260,2021-02-18,15:02:44,CHINA,-10.4,-24.8,1022.6,1025.9,25.6,15.0,0.01,0.0,110000,87.7,130
470680,2021-02-18,15:02:44,KOREANORTH,-4.7,-9.1,1030.9,1024.8,16.2,11.5,0.01,0.0,110000,50.1,171
477560,2021-02-18,15:02:44,JAPAN,-0.6,-4.2,1001.3,1019.8,12.8,5.1,0.44,0.0,110000,58.6,157
544930,2021-02-18,15:02:44,CHINA,-11.3,-17.9,1023.4,1025.5,19.8,4.6,0.03,0.0,110000,50.2,170
478920,2021-02-18,15:02:44,JAPAN,-0.1,-8.0,1026.1,1028.5,27.0,9.7,0.00,0.0,100000,94.8,327
543740,2021-02-18,15:02:44,CHINA,-14.7,-19.2,1005.3,1024.4,15.4,3.7,0.05,0.0,110000,95.6,269
475490,2021-02-18,15:02:44,JAPAN,-2.3,-8.3,998.3,999.5,8.7,9.2,0.00,0.0,100000,87.4,237
546020,2021-02-18,15:02:44,CHINA,-3.5,-13.1,1022.0,1026.4,10.9,7.6,0.03,0.0,110000,64.9,212
474200,2021-02-18,15:02:44,JAPAN,-7.2,-11.1,1012.2,1015.2,20.7,14.9,0.06,3.8,111000,50.5,282
351910,2021-02-18,15:02:44,KAZAKHSTAN,-11.1,-18.2,1060.8,1042.7,37.1,12.4,0.00,0.0,100000,8.4,62
170671,2021-02-18,15:02:44,TURKEY,-2.2,-4.9,1009.2,996.8,11.4,9.6,0.00,0.0,100000,7.0,317
471240,2021-02-18,15:02:44,KOREASOUTH,-3.4,-11.5,1016.6,1042.5,11.3,10.9,0.00,0.0,100000,96.1,358
355320,2021-02-18,15:02:44,KAZAKHSTAN,-2.5,-4.1,1013.4,1027.9,15.7,18.3,0.06,15.6,111000,75.7,5
504680,2021-02-18,15:02:44,CHINA,-21.6,-25.4,1011.4,1023.4,21.1,9.3,0.01,0.0,110000,86.6,325
369820,2021-02-18,15:02:44,KYRGYZSTAN,-21.7,-27.6,646.3,646.5,42.7,9.5,0.00,0.0,100000,63.9,266
581500,2021-02-18,15:02:44,CHINA,-0.7,-5.9,1028.2,1026.6,13.8,10.8,0.12,0.0,110000,56.2,316
381960,2021-02-18,15:02:44,KAZAKHSTAN,-2.4,-9.4,925.1,1024.5,17.8,4.5,0.00,9.0,101000,50.2,350
528360,2021-02-18,15:02:44,CHINA,-9.4,-26.4,687.5,687.0,27.6,9.8,0.06,0.0,110000,50.5,117
471010,2021-02-18,15:02:44,KOREASOUTH,-5.2,-12.1,1017.9,1023.5,18.3,5.1,0.04,0.6,111000,59.0,309
471020,2021-02-18,15:02:44,KOREASOUTH,-0.2,-6.4,1004.1,1023.8,11.8,17.7,0.00,0.0,100000,49.9,16
541860,2021-02-18,15:02:44,CHINA,-16.0,-21.9,1013.5,1024.6,18.6,10.0,0.03,0.0,110000,50.0,142
524410,2021-02-18,15:02:44,CHINA,-14.2,-25.8,845.1,847.5,43.2,17.2,0.00,0.0,100000,78.4,355
516440,2021-02-18,15:02:44,CHINA,-2.7,-11.4,923.6,1028.1,22.8,7.4,0.01,0.0,110000,50.1,80
561370,2021-02-18,15:02:44,CHINA,-5.1,-20.1,715.8,711.9,25.3,5.0,0.01,0.0,110000,50.0,108
505640,2021-02-18,15:02:44,CHINA,-23.4,-29.8,1018.7,1024.1,18.3,7.0,0.01,0.0,110000,50.1,307
474810,2021-02-18,15:02:44,JAPAN,-10.7,-14.3,1000.4,992.2,9.2,11.7,0.00,0.0,100000,39.6,356
545390,2021-02-18,15:02:44,CHINA,-5.4,-13.5,1024.5,1027.3,18.7,11.0,0.03,0.0,110000,95.2,101
521120,2021-02-18,15:02:44,CHINA,-8.0,-19.1,1029.7,1026.4,29.3,12.4,0.00,0.0,100000,49.8,183
532760,2021-02-18,15:02:44,CHINA,-14.2,-23.9,919.4,1030.2,28.5,19.8,0.01,0.0,110000,76.4,90
537050,2021-02-18,15:02:44,CHINA,-2.7,-19.6,974.7,1028.7,19.2,11.5,0.01,0.0,110000,50.2,250
534460,2021-02-18,15:02:44,CHINA,-11.6,-25.8,995.3,1031.2,13.4,12.6,0.00,0.0,100000,58.8,125
475970,2021-02-18,15:02:44,JAPAN,-0.9,-9.3,974.2,1018.3,23.8,15.0,0.11,0.0,110000,69.5,289
560650,2021-02-18,15:02:44,CHINA,-15.4,-24.6,661.0,659.9,26.5,9.7,0.01,0.0,110000,64.3,30
577760,2021-02-18,15:02:44,CHINA,-0.6,-2.5,977.1,1024.0,8.4,18.5,0.21,0.0,110000,50.9,103
368215,2021-02-18,15:02:44,KAZAKHSTAN,-7.9,-11.5,1020.8,1045.2,8.8,17.1,0.00,0.0,100000,29.3,217
533360,2021-02-18,15:02:44,CHINA,-13.3,-22.3,910.1,1030.8,27.2,10.2,0.04,0.0,110000,78.6,13
475150,2021-02-18,15:02:44,JAPAN,-2.6,-7.3,997.3,998.6,10.0,16.5,0.00,0.0,100000,99.5,33
549450,2021-02-18,15:02:44,CHINA,-1.4,-8.9,1024.7,1027.0,16.9,12.9,0.09,0.0,110000,50.2,32
516280,2021-02-18,15:02:44,CHINA,-1.7,-8.5,998.8,1030.7,19.3,4.4,0.00,0.0,100000,53.3,159
470500,2021-02-18,15:02:44,KOREANORTH,-7.5,-12.5,1027.3,1023.9,14.7,7.2,0.08,0.0,110000,91.1,208
364420,2021-02-18,15:02:44,KAZAKHSTAN,-19.0,-28.2,1017.3,1008.7,38.0,27.1,0.00,2.6,101000,80.9,294
533520,2021-02-18,15:02:44,CHINA,-15.1,-25.7,959.2,1031.4,29.0,16.7,0.02,0.0,110000,50.2,279
470990,2021-02-18,15:02:44,KOREASOUTH,-6.2,-14.3,1020.6,1024.6,11.4,5.4,0.01,0.0,110000,50.4,2
471030,2021-02-18,15:02:44,KOREASOUTH,-2.4,-6.3,1014.4,1022.6,12.0,21.3,0.00,0.0,100000,65.4,339
471025,2021-02-18,15:02:44,KOREASOUTH,-2.7,-8.6,1013.2,1022.3,11.6,4.2,0.00,0.0,100000,64.2,200
501360,2021-02-18,15:02:44,CHINA,-26.6,-33.9,968.2,1025.9,20.4,7.9,0.00,0.0,100000,10.3,1
474230,2021-02-18,15:02:44,JAPAN,-4.9,-9.6,1009.6,1015.0,15.2,21.9,0.19,0.0,110000,92.5,12
474120,2021-02-18,15:02:44,JAPAN,-7.8,-11.7,1016.7,1016.1,9.3,7.9,0.19,17.8,111000,72.9,175
517110,2021-02-18,15:02:44,CHINA,-6.1,-15.6,801.2,805.3,24.7,8.7,0.02,0.0,110000,50.6,128
560040,2021-02-18,15:02:44,CHINA,-19.6,-30.6,1001.3,1001.2,30.0,20.1,0.00,0.0,100000,77.6,135
470600,2021-02-18,15:02:44,KOREANORTH,-4.2,-9.6,1028.4,1024.4,9.9,12.9,0.04,0.0,110000,50.4,203
513790,2021-02-18,15:02:44,CHINA,-19.3,-21.6,1018.1,1036.0,26.6,9.7,0.01,0.0,110000,53.0,119
555780,2021-02-18,15:02:44,CHINA,-8.2,-31.3,635.7,635.5,29.2,7.4,0.00,0.0,100000,66.9,233
583430,2021-02-18,15:02:44,CHINA,-0.2,-6.8,1013.3,1025.8,16.2,10.8,0.00,0.0,100000,97.9,19
475800,2021-02-18,15:02:44,JAPAN,-3.0,-6.9,1004.7,1005.2,11.4,13.9,0.00,1.7,101000,51.9,62
524950,2021-02-18,15:02:44,CHINA,-11.4,-23.7,903.3,1030.9,25.9,12.4,0.00,0.0,100000,88.1,133
471460,2021-02-18,15:02:44,KOREASOUTH,-1.9,-6.9,1020.2,1023.8,18.6,5.9,0.06,0.1,111000,50.1,290
366390,2021-02-18,15:02:44,KAZAKHSTAN,-9.9,-12.8,1056.3,1038.4,49.2,2.6,1.83,0.0,110000,71.0,343
534800,2021-02-18,15:02:44,CHINA,-14.4,-24.6,957.9,1030.3,26.1,11.5,0.03,0.0,110000,50.6,234
475570,2021-02-18,15:02:44,JAPAN,-0.7,-6.8,993.0,995.7,9.9,16.4,0.00,0.0,100000,73.4,346
442840,2021-02-18,15:02:44,MONGOLIA,-28.1,-31.6,787.5,1046.5,49.8,2.4,0.00,4.5,101000,67.7,103
542360,2021-02-18,15:02:44,CHINA,-11.6,-21.4,1020.5,1024.8,19.6,14.2,0.02,0.0,110000,51.0,77
470580,2021-02-18,15:02:44,KOREANORTH,-6.5,-13.0,1017.4,1024.6,13.0,8.3,0.03,0.3,111000,50.5,42
382320,2021-02-18,15:02:44,KAZAKHSTAN,-0.4,-5.7,1020.9,1023.7,33.5,13.7,0.02,0.4,111000,50.3,66
539290,2021-02-18,15:02:44,CHINA,-4.0,-5.9,883.8,880.2,7.6,11.8,0.00,0.0,100000,71.6,7
549380,2021-02-18,15:02:44,CHINA,-2.4,-11.3,1033.5,1027.6,15.1,10.0,0.02,0.0,110000,50.3,155
548230,2021-02-18,15:02:44,CHINA,-0.9,-12.8,1022.8,1026.4,11.4,11.9,0.05,0.0,110000,50.0,214
523130,2021-02-18,15:02:44,CHINA,-12.0,-22.3,924.6,894.9,59.4,3.1,0.00,0.0,100000,9.2,188
544360,2021-02-18,15:02:44,CHINA,-8.3,-20.8,1018.4,1026.0,26.7,5.9,0.02,0.0,110000,78.3,337
442870,2021-02-18,15:02:44,MONGOLIA,-20.0,-24.5,813.8,1035.2,50.2,12.9,0.00,2.6,101000,50.3,59
288670,2021-02-18,15:02:44,KAZAKHSTAN,-15.3,-18.9,997.3,1033.5,20.6,8.2,0.00,26.3,101000,85.6,72
540260,2021-02-18,15:02:44,CHINA,-10.6,-22.8,1013.1,1024.6,26.0,12.2,0.01,0.0,110000,84.7,9
514635,2021-02-18,15:02:44,CHINA,-12.4,-15.7,989.6,987.9,3.5,4.9,0.00,0.0,100000,71.2,314
477150,2021-02-18,15:02:44,JAPAN,-0.8,-6.7,1000.5,1003.7,9.3,10.2,0.09,0.6,111000,50.3,304
470750,2021-02-18,15:02:44,KOREANORTH,-5.9,-9.5,1027.8,1023.0,23.6,8.0,0.11,0.0,110000,50.6,259
381411,2021-02-18,15:02:44,KAZAKHSTAN,-7.5,-8.8,1006.4,987.3,6.6,17.2,0.00,0.0,100000,90.8,87
381410,2021-02-18,15:02:44,UZBEKISTAN,-0.7,-5.4,1004.5,1021.0,18.6,12.4,0.00,0.0,100000,30.6,358
525330,2021-02-18,15:02:44,CHINA,-9.5,-20.1,894.0,1029.3,29.8,7.6,0.01,0.0,110000,50.5,165
525331,2021-02-18,15:02:44,CHINA,-10.9,-14.7,1000.9,988.2,4.6,5.5,0.00,0.0,100000,49.1,188
577070,2021-02-18,15:02:44,CHINA,-0.4,-2.2,852.3,854.9,9.3,3.0,0.03,0.0,110000,80.5,46
442190,2021-02-18,15:02:44,MONGOLIA,-10.6,-21.5,850.8,1015.0,19.0,6.1,0.00,0.0,100000,27.2,214
475700,2021-02-18,15:02:44,JAPAN,-2.9,-5.8,1008.8,1019.3,14.9,7.1,0.15,9.5,111000,50.1,200
442820,2021-02-18,15:02:44,MONGOLIA,-8.5,-26.2,816.0,1009.5,49.2,7.5,0.00,0.0,100000,21.6,32
561720,2021-02-18,15:02:44,CHINA,-2.5,-14.6,778.4,781.2,32.4,3.6,0.04,0.0,110000,50.0,40
561730,2021-02-18,15:02:44,CHINA,-13.1,-26.6,660.4,670.4,29.4,10.7,0.00,0.0,100000,81.5,195
170672,2021-02-18,15:02:44,TURKEY,-2.0,-4.8,993.6,1017.5,6.9,9.7,0.00,0.0,100000,2.8,164
170674,2021-02-18,15:02:44,TURKEY,-0.7,-3.8,1003.0,1018.6,8.3,18.9,0.00,0.0,100000,52.9,279
362080,2021-02-18,15:02:44,KAZAKHSTAN,-23.4,-25.7,1013.5,1026.8,27.1,3.9,0.38,22.6,111000,50.2,229
346910,2021-02-18,15:02:44,KAZAKHSTAN,-3.7,-8.0,1022.1,1023.4,20.7,16.9,0.00,1.4,101000,68.1,25
538980,2021-02-18,15:02:44,CHINA,-1.8,-10.3,1023.5,1027.2,13.0,7.8,0.03,0.0,110000,50.1,92
358840,2021-02-18,15:02:44,KAZAKHSTAN,-8.6,-10.4,977.3,993.8,19.5,12.6,0.03,12.6,111000,50.9,314
470690,2021-02-18,15:02:44,KOREANORTH,-4.5,-10.6,1021.8,1024.8,15.1,9.6,0.00,0.0,100000,90.9,179
517090,2021-02-18,15:02:44,CHINA,-0.9,-9.5,912.0,1026.8,15.2,5.6,0.01,0.0,110000,50.0,278
470700,2021-02-18,15:02:44,KOREANORTH,-4.3,-10.1,1028.4,1022.8,17.6,8.0,0.05,0.0,110000,88.7,108
570360,2021-02-18,15:02:44,CHINA,-0.9,-8.6,1011.3,1025.3,8.7,7.2,0.04,0.0,110000,50.6,271
364390,2021-02-18,15:02:44,KAZAKHSTAN,-16.2,-21.8,997.0,1002.4,37.3,15.6,0.81,2.3,111000,97.8,268
514950,2021-02-18,15:02:44,CHINA,-8.3,-22.1,990.1,1032.5,35.0,26.5,0.01,0.0,110000,50.6,333
357390,2021-02-18,15:02:44,KAZAKHSTAN,-4.9,-9.5,1041.8,1029.5,46.4,14.6,0.00,1.3,101000,50.3,39
556640,2021-02-18,15:02:44,CHINA,-12.3,-33.4,601.9,600.6,28.6,12.3,0.00,0.0,100000,44.4,351
356050,2021-02-18,15:02:44,KAZAKHSTAN,-0.8,-1.6,1036.3,1014.5,22.5,18.2,0.19,0.0,110000,50.3,161
470200,2021-02-18,15:02:44,KOREANORTH,-12.0,-20.8,1016.0,1028.8,10.5,4.1,0.00,0.0,100000,47.9,347
538450,2021-02-18,15:02:44,CHINA,-6.1,-16.7,933.5,1028.8,12.2,6.6,0.01,0.0,110000,69.0,4
289520,2021-02-18,15:02:44,KAZAKHSTAN,-13.6,-18.1,1038.3,1033.1,7.7,13.4,0.04,0.0,110000,52.1,293
535640,2021-02-18,15:02:44,CHINA,-10.8,-23.3,936.5,1030.3,18.7,6.1,0.00,0.0,100000,7.7,80
476410,2021-02-18,15:02:44,JAPAN,-1.1,-6.6,989.5,1018.1,21.0,6.6,0.08,0.0,110000,50.4,284
476390,2021-02-18,15:02:44,JAPAN,-20.2,-27.6,1001.8,997.7,48.9,81.2,0.00,0.0,100000,6.0,238
511330,2021-02-18,15:02:44,CHINA,-3.5,-7.8,992.6,1033.3,32.1,7.5,0.04,0.0,110000,59.8,174
475840,2021-02-18,15:02:44,JAPAN,-4.6,-8.9,1007.2,1017.5,15.5,10.8,0.13,3.9,111000,50.0,121
535130,2021-02-18,15:02:44,CHINA,-9.7,-21.6,926.6,1029.6,21.4,7.4,0.00,0.0,100000,25.3,358
475900,2021-02-18,15:02:44,JAPAN,-1.1,-6.8,1014.7,1017.7,23.1,12.0,0.25,0.3,111000,50.2,203
541020,2021-02-18,15:02:44,CHINA,-19.0,-23.7,936.5,1030.5,28.6,12.1,0.01,0.0,110000,50.3,229
517300,2021-02-18,15:02:44,CHINA,-3.8,-11.6,987.1,1028.6,20.1,4.5,0.01,0.0,110000,50.4,72
471270,2021-02-18,15:02:44,KOREASOUTH,-3.7,-8.8,1007.7,1014.3,9.4,8.4,0.01,0.1,111000,50.3,21
172410,2021-02-18,15:02:44,TURKEY,-4.7,-8.8,1012.9,1047.2,10.9,15.5,0.00,0.0,100000,94.8,133
471170,2021-02-18,15:02:44,KOREASOUTH,-1.0,-7.3,1000.2,986.4,8.8,5.2,0.01,0.0,110000,50.4,71
471070,2021-02-18,15:02:44,KOREASOUTH,-2.1,-8.2,1013.3,1014.1,12.3,11.9,0.00,0.3,101000,61.1,124
471065,2021-02-18,15:02:44,KOREASOUTH,-1.8,-6.0,1015.8,983.3,11.1,10.1,0.00,3.2,101000,76.2,201
475870,2021-02-18,15:02:44,JAPAN,-1.4,-5.6,1013.4,1017.9,15.1,24.4,0.34,,111000,50.4,30
475850,2021-02-18,15:02:44,JAPAN,-3.5,-9.4,1010.6,1017.0,23.7,9.4,0.12,2.8,111000,50.0,332
542920,2021-02-18,15:02:44,CHINA,-11.8,-23.2,1007.8,1025.5,20.9,11.3,0.00,0.0,100000,84.0,252
527370,2021-02-18,15:02:44,CHINA,-9.4,-25.4,725.3,726.7,25.5,7.4,0.00,0.0,100000,88.7,64
443520,2021-02-18,15:02:44,MONGOLIA,-15.7,-24.2,1021.3,1029.0,50.0,14.4,0.00,0.0,100000,27.4,202
471920,2021-02-18,15:02:44,KOREASOUTH,-2.2,-9.2,1022.5,1022.5,21.5,6.8,0.06,0.0,110000,50.0,79
518860,2021-02-18,15:02:44,CHINA,-12.0,-30.4,701.4,700.8,27.1,12.5,0.00,0.0,100000,42.1,220
545340,2021-02-18,15:02:44,CHINA,-4.9,-14.3,1022.3,1026.3,14.7,10.2,0.01,0.0,110000,71.1,92
442290,2021-02-18,15:02:44,MONGOLIA,-15.8,-22.6,780.6,1013.9,50.0,6.8,0.00,0.0,100000,63.9,156
170960,2021-02-18,15:02:44,TURKEY,-2.6,-6.4,890.7,899.4,9.9,9.7,0.04,8.5,111000,66.1,73
475750,2021-02-18,15:02:44,JAPAN,-3.5,-7.1,1020.6,1017.6,14.7,13.7,0.19,22.8,111000,60.8,221
510870,2021-02-18,15:02:44,CHINA,-9.4,-16.3,931.2,1032.3,23.6,6.2,0.00,0.0,100000,57.0,18
514310,2021-02-18,15:02:44,CHINA,-4.5,-9.2,976.7,1028.2,31.4,5.5,0.03,0.0,110000,50.6,147
560290,2021-02-18,15:02:44,CHINA,-8.2,-21.4,645.7,645.7,29.4,4.4,0.01,0.0,110000,71.4,301
560460,2021-02-18,15:02:44,CHINA,-14.5,-24.9,671.4,671.8,25.4,8.3,0.01,0.0,110000,50.1,184
353630,2021-02-18,15:02:44,KAZAKHSTAN,-8.2,-12.1,1041.0,1040.3,14.2,17.4,0.00,0.0,100000,54.7,274
581440,2021-02-18,15:02:44,CHINA,-0.3,-6.4,1026.9,1026.4,16.5,9.5,0.08,0.0,110000,50.2,13
442120,2021-02-18,15:02:44,MONGOLIA,-33.1,-35.9,914.5,1040.7,46.5,2.4,0.00,11.3,101000,79.6,328
544050,2021-02-18,15:02:44,CHINA,-8.0,-20.4,1023.7,1028.0,21.3,12.5,0.01,0.0,110000,55.4,68
442140,2021-02-18,15:02:44,MONGOLIA,-15.6,-24.9,827.1,1027.8,9.0,15.4,0.00,0.0,100000,91.8,237
543240,2021-02-18,15:02:44,CHINA,-11.0,-26.3,1022.2,1025.4,21.0,11.5,0.01,0.0,110000,54.5,184
527540,2021-02-18,15:02:44,CHINA,-13.8,-27.1,676.2,676.3,24.0,10.7,0.00,0.0,100000,39.0,184
564620,2021-02-18,15:02:44,CHINA,-1.9,-14.7,754.5,754.1,34.0,12.2,0.01,0.0,110000,50.1,83
359530,2021-02-18,15:02:44,KAZAKHSTAN,-6.9,-9.6,1023.6,1029.6,31.4,16.5,0.02,0.0,110000,71.4,225
475160,2021-02-18,15:02:44,JAPAN,-2.9,-7.7,997.8,993.3,10.2,17.1,0.00,0.0,100000,0.0,3
475880,2021-02-18,15:02:44,JAPAN,-3.6,-6.5,998.2,1017.1,11.1,6.9,0.07,0.0,110000,50.8,257
545270,2021-02-18,15:02:44,CHINA,-3.6,-13.7,1026.9,1026.4,10.6,8.7,0.03,0.0,110000,50.0,1
545273,2021-02-18,15:02:44,CHINA,-1.7,-10.0,1000.4,998.4,6.9,11.9,0.00,0.0,100000,8.4,212
475420,2021-02-18,15:02:44,JAPAN,-4.0,-7.5,999.7,1001.8,8.3,17.4,0.00,0.0,100000,53.6,234
471750,2021-02-18,15:02:44,KOREASOUTH,-0.8,-8.6,965.7,1024.1,13.7,21.3,0.06,0.0,110000,94.9,276
470250,2021-02-18,15:02:44,KOREANORTH,-4.9,-8.6,1015.1,1021.3,10.4,8.5,0.27,0.0,110000,50.3,11
532760,2021-02-18,15:02:45,CHINA,-14.2,-22.6,919.4,1030.2,28.5,19.7,0.01,0.0,110000,76.4,91
543110,2021-02-18,15:02:45,CHINA,-11.4,-23.0,970.7,1028.1,28.1,6.6,0.01,0.0,110000,54.0,76
523130,2021-02-18,15:02:45,CHINA,-12.6,-22.3,924.6,894.9,59.3,3.0,0.00,0.0,100000,9.3,188
508620,2021-02-18,15:02:45,CHINA,-25.6,-30.7,989.0,1010.0,17.2,8.7,0.00,0.0,100000,21.0,352
368700,2021-02-18,15:02:45,KAZAKHSTAN,-2.3,-5.6,978.3,1022.2,8.3,3.6,0.29,2.9,111000,89.4,269
533520,2021-02-18,15:02:45,CHINA,-15.1,-24.1,959.2,1031.4,29.1,16.8,0.02,0.0,110000,50.2,279
526740,2021-02-18,15:02:45,CHINA,-11.8,-23.5,801.5,797.0,29.1,11.1,0.01,0.0,110000,50.0,210
518280,2021-02-18,15:02:45,CHINA,-1.3,-12.9,897.8,1024.3,9.6,5.3,0.01,0.0,110000,50.2,248
470350,2021-02-18,15:02:45,KOREANORTH,-6.3,-14.4,1034.0,1024.8,16.2,11.6,0.05,0.0,110000,98.7,343
542180,2021-02-18,15:02:45,CHINA,-12.0,,992.1,1026.4,21.6,9.5,0.01,0.0,110000,50.0,182
581410,2021-02-18,15:02:45,CHINA,-0.8,-10.6,1031.8,1034.3,15.8,7.1,0.00,0.0,100000,30.8,297
471140,2021-02-18,15:02:45,KOREASOUTH,-4.7,-11.8,1008.0,1023.9,14.7,4.5,0.08,0.0,110000,96.9,257
527540,2021-02-18,15:02:45,CHINA,-14.3,-27.1,676.2,676.3,24.0,10.6,0.00,0.0,100000,38.9,183
354260,2021-02-18,15:02:45,KAZAKHSTAN,-7.6,-11.7,1003.9,1025.3,38.6,11.6,0.00,4.8,101000,80.8,9
539290,2021-02-18,15:02:45,CHINA,-4.0,-6.3,883.8,880.1,7.7,11.7,0.00,0.0,100000,71.6,8
549450,2021-02-18,15:02:45,CHINA,-1.4,-8.9,1024.7,1027.0,16.8,12.9,0.09,0.0,110000,50.2,33
471270,2021-02-18,15:02:45,KOREASOUTH,-3.4,-9.9,1007.7,1014.3,9.4,8.5,0.01,0.1,111000,50.3,21
172410,2021-02-18,15:02:45,TURKEY,-5.0,-8.8,1012.9,1047.3,10.9,15.7,0.00,0.0,100000,94.8,133
514950,2021-02-18,15:02:45,CHINA,-8.3,-22.1,990.1,1032.5,35.1,26.4,0.01,0.0,110000,50.6,333
357390,2021-02-18,15:02:45,KAZAKHSTAN,-4.9,-9.5,1041.7,1029.5,46.5,14.7,0.00,1.3,101000,50.3,38
556640,2021-02-18,15:02:45,CHINA,-11.7,-31.6,601.9,600.6,28.5,12.2,0.00,0.0,100000,44.4,352
442870,2021-02-18,15:02:45,MONGOLIA,-19.2,-24.5,813.8,1035.1,50.3,12.9,0.00,2.6,101000,50.4,59
547760,2021-02-18,15:02:45,CHINA,-1.0,-7.3,1020.5,1025.8,19.5,23.6,0.07,0.0,110000,76.8,21
513790,2021-02-18,15:02:45,CHINA,-19.3,-23.2,1018.1,1036.0,26.6,9.8,0.01,0.0,110000,53.0,119
548360,2021-02-18,15:02:45,CHINA,-4.0,-14.6,1030.9,1027.7,14.7,9.9,0.04,0.0,110000,50.3,30
523230,2021-02-18,15:02:45,CHINA,-15.4,-25.3,819.2,814.8,31.5,15.0,0.00,0.0,100000,33.5,16
353610,2021-02-18,15:02:45,KAZAKHSTAN,-9.2,-13.2,991.5,1021.1,26.8,8.0,0.00,0.0,100000,33.9,321
475980,2021-02-18,15:02:45,JAPAN,-0.1,-7.0,1021.9,1017.8,23.2,9.5,0.17,0.3,111000,50.3,102
563850,2021-02-18,15:02:45,CHINA,-7.6,-11.0,745.9,745.2,10.1,10.1,0.04,0.0,110000,50.8,97
505570,2021-02-18,15:02:45,CHINA,-24.2,-28.8,1009.7,1023.8,14.6,8.0,0.01,0.0,110000,50.2,317
383280,2021-02-18,15:02:45,KAZAKHSTAN,-1.8,-5.5,952.1,1025.8,10.0,11.1,0.00,2.4,101000,50.8,176
525330,2021-02-18,15:02:45,CHINA,-9.7,-21.5,894.0,1029.3,29.8,7.6,0.01,0.0,110000,50.4,165
525331,2021-02-18,15:02:45,CHINA,-10.6,-14.7,1000.8,988.1,4.6,5.5,0.00,0.0,100000,49.1,187
509150,2021-02-18,15:02:45,CHINA,-20.8,-26.2,945.4,1029.6,29.6,10.8,0.02,0.0,110000,52.7,151
560180,2021-02-18,15:02:45,CHINA,-12.1,-22.9,627.0,632.9,26.5,8.4,0.02,0.0,110000,86.0,171
560340,2021-02-18,15:02:45,CHINA,-22.8,-30.3,600.9,595.9,22.6,16.9,0.02,0.0,110000,50.0,214
380190,2021-02-18,15:02:45,KAZAKHSTAN,-10.8,-17.3,1044.2,1032.6,29.4,12.1,0.02,9.4,111000,92.6,61
544490,2021-02-18,15:02:45,CHINA,-0.2,-21.2,1031.1,1016.7,32.0,24.8,0.00,0.0,100000,47.9,297
470200,2021-02-18,15:02:45,KOREANORTH,-11.4,-19.1,1016.0,1028.8,10.6,4.2,0.00,0.0,100000,47.8,346
364420,2021-02-18,15:02:45,KAZAKHSTAN,-18.3,-29.4,1017.4,1008.7,38.2,27.0,0.00,2.6,101000,81.0,295
539590,2021-02-18,15:02:45,CHINA,-1.4,-11.8,1011.1,1027.1,16.6,9.3,0.01,0.0,110000,50.4,50
564440,2021-02-18,15:02:45,CHINA,-4.1,-10.0,734.6,734.8,23.3,10.7,0.04,0.0,110000,50.8,308
570230,2021-02-18,15:02:45,CHINA,-0.3,-13.8,872.7,1009.8,11.3,5.4,0.00,0.0,100000,46.9,96
357460,2021-02-18,15:02:45,KAZAKHSTAN,-8.6,-11.3,1025.5,1027.7,16.4,18.7,0.01,1.1,111000,99.1,122
476180,2021-02-18,15:02:45,JAPAN,-3.8,-10.2,976.3,1019.1,13.6,6.8,0.14,1.3,111000,81.8,111
543370,2021-02-18,15:02:45,CHINA,-7.3,-17.8,1024.1,1025.5,12.3,13.7,0.01,0.0,110000,50.5,226
367780,2021-02-18,15:02:45,KAZAKHSTAN,-11.7,-17.6,1060.9,1037.3,20.9,6.3,0.00,0.0,100000,91.0,204
532310,2021-02-18,15:02:45,CHINA,-13.8,-25.0,850.5,852.3,25.9,20.6,0.01,0.0,110000,72.8,51
475910,2021-02-18,15:02:45,JAPAN,-1.3,-6.5,1002.4,998.3,12.5,14.6,0.05,0.5,111000,50.1,333
476490,2021-02-18,15:02:45,JAPAN,-0.1,-4.4,999.6,1019.6,18.5,12.6,0.28,0.0,110000,50.8,22
442120,2021-02-18,15:02:45,MONGOLIA,-31.9,-35.9,914.5,1040.6,46.4,2.3,0.00,11.3,101000,79.7,328
544050,2021-02-18,15:02:45,CHINA,-7.7,-20.4,1023.7,1028.0,21.2,12.4,0.01,0.0,110000,55.4,68
442140,2021-02-18,15:02:45,MONGOLIA,-14.6,-24.9,827.0,1027.9,9.0,15.3,0.00,0.0,100000,91.7,236
470080,2021-02-18,15:02:45,KOREANORTH,-7.1,-13.2,1015.7,1022.0,11.9,8.4,0.01,0.0,110000,72.8,241
533360,2021-02-18,15:02:45,CHINA,-13.7,-22.3,910.2,1030.8,27.2,10.3,0.04,0.0,110000,78.6,13
529080,2021-02-18,15:02:45,CHINA,-20.3,-30.0,999.9,1006.4,27.1,21.3,0.00,0.0,100000,93.5,194
474790,2021-02-18,15:02:45,JAPAN,-8.9,-12.5,1000.8,1000.6,8.0,13.6,0.00,0.0,100000,77.4,79
476380,2021-02-18,15:02:45,JAPAN,-0.9,-8.1,996.5,1017.1,17.8,9.7,0.16,0.1,111000,53.2,50
471290,2021-02-18,15:02:45,KOREASOUTH,-3.2,-9.3,1021.3,1024.0,19.2,8.7,0.03,0.0,110000,58.1,307
471460,2021-02-18,15:02:45,KOREASOUTH,-1.9,-6.9,1020.2,1023.8,18.5,6.0,0.06,0.1,111000,50.1,290
470030,2021-02-18,15:02:45,KOREANORTH,-9.8,-15.7,1018.6,1021.9,21.9,10.1,0.06,0.0,110000,67.7,94
442770,2021-02-18,15:02:45,MONGOLIA,-24.0,-28.6,996.5,1028.3,49.2,17.7,0.00,0.0,100000,27.6,123
562570,2021-02-18,15:02:45,CHINA,-8.9,-20.9,684.5,683.3,37.7,7.8,0.00,0.0,100000,64.0,261
570670,2021-02-18,15:02:45,CHINA,-2.4,-8.3,993.5,1028.8,13.8,5.1,0.02,0.0,110000,58.1,275
474830,2021-02-18,15:02:45,JAPAN,-6.6,-14.0,1002.3,1004.2,10.7,15.8,0.00,0.0,100000,86.2,318
521120,2021-02-18,15:02:45,CHINA,-7.6,-19.1,1029.6,1026.4,29.2,12.5,0.00,0.0,100000,49.7,183
542590,2021-02-18,15:02:45,CHINA,-13.2,-19.8,1025.0,1025.8,15.6,7.4,0.04,0.0,110000,91.1,251
471000,2021-02-18,15:02:45,KOREASOUTH,-8.5,-14.9,922.8,1024.3,13.6,15.7,0.19,13.0,111000,50.3,298
470980,2021-02-18,15:02:45,KOREASOUTH,-1.4,-13.0,1010.5,1024.6,12.9,7.0,0.00,0.0,100000,82.2,64
549380,2021-02-18,15:02:45,CHINA,-2.4,-12.4,1033.5,1027.6,15.0,9.9,0.02,0.0,110000,50.2,155
471920,2021-02-18,15:02:45,KOREASOUTH,-2.2,-10.4,1022.5,1022.5,21.5,6.8,0.06,0.0,110000,50.0,79
477420,2021-02-18,15:02:45,JAPAN,-1.2,-3.6,1026.9,1027.7,17.3,3.3,0.00,0.0,100000,56.1,353
365350,2021-02-18,15:02:45,KAZAKHSTAN,-12.2,-15.9,1069.7,1040.0,45.5,6.9,0.00,0.0,100000,87.1,139
474280,2021-02-18,15:02:45,JAPAN,-3.4,-8.1,1012.1,1015.8,19.5,26.1,0.15,0.0,110000,50.5,124
543240,2021-02-18,15:02:45,CHINA,-11.0,-26.3,1022.2,1025.4,21.0,11.4,0.01,0.0,110000,54.4,183
515420,2021-02-18,15:02:45,CHINA,-20.5,-23.3,755.0,752.7,31.3,6.6,0.01,0.0,110000,88.2,71
539750,2021-02-18,15:02:45,CHINA,-4.1,-12.4,1018.8,1028.8,14.5,7.1,0.02,0.0,110000,50.5,220
359250,2021-02-18,15:02:45,KAZAKHSTAN,-4.6,-10.7,1017.9,1028.7,21.9,22.1,0.00,0.0,100000,11.1,82
517110,2021-02-18,15:02:45,CHINA,-6.1,-15.6,801.1,805.4,24.8,8.7,0.02,0.0,110000,50.7,128
560040,2021-02-18,15:02:45,CHINA,-19.6,-30.6,1001.3,1001.2,30.1,20.2,0.00,0.0,100000,77.5,135
470600,2021-02-18,15:02:45,KOREANORTH,-1.4,-9.6,1028.4,1024.4,10.0,12.8,0.04,0.0,110000,50.4,203
170960,2021-02-18,15:02:45,TURKEY,-2.6,-6.4,890.7,899.4,9.8,9.6,0.04,8.5,111000,66.1,73
585060,2021-02-18,15:02:45,CHINA,-1.0,-4.8,977.8,1026.8,12.2,14.4,0.19,0.0,110000,94.1,223
366220,2021-02-18,15:02:45,KAZAKHSTAN,-7.3,-11.3,1034.1,1037.4,42.9,13.7,0.02,6.3,111000,51.9,127
476200,2021-02-18,15:02:45,JAPAN,-3.0,-6.8,926.7,1018.6,27.0,12.4,0.18,0.0,110000,50.1,125
355490,2021-02-18,15:02:45,KAZAKHSTAN,-7.8,-11.4,1033.6,1030.4,22.2,10.1,0.00,4.8,101000,50.5,175
475450,2021-02-18,15:02:45,JAPAN,-2.0,-6.1,1006.9,1004.3,8.5,15.3,0.00,0.0,100000,39.5,249
552280,2021-02-18,15:02:45,CHINA,-4.5,-19.8,603.4,600.3,30.2,11.7,0.01,0.0,110000,79.8,98
354060,2021-02-18,15:02:45,KAZAKHSTAN,-7.2,-11.2,1032.1,1028.9,24.0,21.6,0.01,0.0,110000,50.1,96
471064,2021-02-18,15:02:45,KOREASOUTH,-10.0,-14.0,1001.5,1011.1,10.7,9.6,0.00,0.0,100000,52.1,83
471066,2021-02-18,15:02:45,KOREASOUTH,-4.9,-12.1,1007.9,1002.2,9.0,5.9,0.00,0.0,100000,99.1,50
471050,2021-02-18,15:02:45,KOREASOUTH,-1.0,-9.6,1016.6,1021.8,20.3,11.9,0.18,1.4,111000,92.2,248
443290,2021-02-18,15:02:45,MONGOLIA,-14.9,-17.1,779.6,1033.1,19.4,14.2,0.00,3.2,101000,50.0,225
476040,2021-02-18,15:02:45,JAPAN,-0.1,-4.6,1019.2,1018.8,14.7,15.1,0.21,6.1,111000,50.1,37
586530,2021-02-18,15:02:45,CHINA,-2.7,-5.7,916.2,1023.9,9.1,22.6,0.15,0.0,110000,50.6,240
540270,2021-02-18,15:02:45,CHINA,-12.7,-26.4,993.9,1025.5,29.3,12.1,0.01,0.0,110000,50.1,49
560930,2021-02-18,15:02:45,CHINA,-9.8,-15.8,1006.4,1019.2,16.2,12.4,0.00,0.0,100000,29.0,310
382320,2021-02-18,15:02:45,KAZAKHSTAN,-0.4,-5.7,1021.0,1023.6,33.4,13.8,0.02,0.4,111000,50.3,66
576220,2021-02-18,15:02:45,CHINA,-3.4,-3.9,842.1,837.9,2.9,10.6,0.15,0.0,110000,50.1,167
560670,2021-02-18,15:02:45,CHINA,-13.0,-21.9,650.5,646.6,19.9,12.4,0.00,0.0,100000,25.7,101
470950,2021-02-18,15:02:45,KOREASOUTH,-6.5,-12.2,1007.5,1024.0,16.2,6.4,0.05,0.0,110000,50.2,93
561440,2021-02-18,15:02:45,CHINA,-4.7,-22.3,683.3,684.3,35.3,4.7,0.00,0.0,100000,73.3,217
507560,2021-02-18,15:02:45,CHINA,-18.7,-24.4,1010.9,1023.2,12.7,9.8,0.00,0.0,100000,23.1,292
477090,2021-02-18,15:02:45,JAPAN,-1.5,-9.6,998.9,1002.2,9.3,10.5,0.00,0.0,100000,71.5,126
475750,2021-02-18,15:02:45,JAPAN,-3.3,-7.1,1020.6,1017.6,14.7,13.6,0.19,22.8,111000,60.8,221
510870,2021-02-18,15:02:45,CHINA,-9.1,-16.3,931.2,1032.3,23.5,6.2,0.00,0.0,100000,57.0,19
543460,2021-02-18,15:02:45,CHINA,-8.8,-17.4,1019.2,1025.8,13.8,9.3,0.04,0.0,110000,53.1,208
363970,2021-02-18,15:02:45,KAZAKHSTAN,-4.9,-8.7,1044.6,1036.7,24.4,33.3,1.07,2.6,111000,91.7,282
475880,2021-02-18,15:02:45,JAPAN,-3.3,-6.5,998.3,1017.1,11.2,7.0,0.07,0.0,110000,50.8,257
443540,2021-02-18,15:02:45,MONGOLIA,-14.1,-21.1,1058.4,1029.5,49.7,16.8,0.00,0.0,100000,46.8,287
548570,2021-02-18,15:02:45,CHINA,-1.7,-8.7,1023.6,1026.6,12.2,19.6,0.03,0.0,110000,50.2,32
509490,2021-02-18,15:02:45,CHINA,-14.4,-23.0,1016.0,1023.2,13.9,9.4,0.01,0.0,110000,97.8,141
474760,2021-02-18,15:02:45,JAPAN,-10.6,-14.0,1001.9,1004.0,8.5,11.7,0.00,0.0,100000,43.3,168
471400,2021-02-18,15:02:45,KOREASOUTH,-1.3,-6.5,1019.4,1023.9,17.2,14.5,0.04,0.0,110000,92.2,359
471410,2021-02-18,15:02:45,KOREASOUTH,-1.4,-6.4,1013.4,1013.9,10.6,14.1,0.04,0.1,111000,51.3,211
471420,2021-02-18,15:02:45,KOREASOUTH,-2.4,-9.8,1015.0,1015.0,12.0,10.6,0.01,0.0,110000,50.1,46
351730,2021-02-18,15:02:45,KAZAKHSTAN,-11.1,-13.9,1025.5,1033.9,29.6,13.7,0.00,6.0,101000,81.7,6
477560,2021-02-18,15:02:45,JAPAN,-0.7,-5.3,1001.3,1019.8,12.9,5.1,0.44,0.0,110000,58.6,158
542730,2021-02-18,15:02:45,CHINA,-16.8,-23.6,1017.3,1025.2,15.8,8.1,0.06,0.0,110000,67.5,344
170880,2021-02-18,15:02:45,TURKEY,-2.7,-4.3,876.6,878.2,16.5,11.8,0.05,16.2,111000,50.3,291
549060,2021-02-18,15:02:45,CHINA,-2.0,-10.5,1022.6,1026.4,17.9,8.2,0.02,0.0,110000,62.8,287
522670,2021-02-18,15:02:45,CHINA,-10.8,-25.7,931.3,1030.8,27.9,12.2,0.00,0.0,100000,26.4,139
561520,2021-02-18,15:02:45,CHINA,-12.2,-20.4,663.1,664.0,32.1,5.1,0.02,0.0,110000,50.1,145
530680,2021-02-18,15:02:45,CHINA,-17.0,-25.2,934.1,1030.4,27.9,13.6,0.01,0.0,110000,50.2,212
471300,2021-02-18,15:02:45,KOREASOUTH,-0.8,-9.1,1020.3,1022.0,20.9,12.9,0.18,0.0,110000,50.7,26
471310,2021-02-18,15:02:45,KOREASOUTH,-3.3,-9.9,1021.2,1024.1,17.8,6.0,0.04,0.0,110000,64.0,118
515670,2021-02-18,15:02:45,CHINA,-7.3,-13.2,1004.5,1032.6,18.2,7.5,0.00,0.0,100000,26.5,248
515730,2021-02-18,15:02:45,CHINA,-3.6,-17.6,1023.0,1028.8,23.4,4.8,0.04,0.0,110000,65.1,219
356710,2021-02-18,15:02:45,KAZAKHSTAN,-10.8,-13.7,997.7,1029.5,20.5,16.9,0.00,5.0,101000,50.2,297
475690,2021-02-18,15:02:45,JAPAN,-0.7,-8.2,997.1,997.5,9.7,15.7,0.00,0.0,100000,45.1,279
443520,2021-02-18,15:02:45,MONGOLIA,-15.7,-22.8,1021.5,1029.0,50.0,14.5,0.00,0.0,100000,27.5,202
549290,2021-02-18,15:02:45,CHINA,-0.8,-9.5,1023.5,1026.6,17.6,6.7,0.01,0.0,110000,72.0,281
387130,2021-02-18,15:02:45,TAJIKISTAN,-3.6,-8.9,995.9,1020.2,43.0,6.7,0.00,5.0,101000,55.5,15
357960,2021-02-18,15:02:45,KAZAKHSTAN,-8.5,-12.7,1018.5,1033.4,30.3,19.2,0.01,1.6,111000,67.8,294
517470,2021-02-18,15:02:45,CHINA,-6.5,-18.0,893.8,1025.7,19.3,3.8,0.00,0.0,100000,35.6,52
443850,2021-02-18,15:02:45,MONGOLIA,-8.5,-20.8,896.3,1029.6,50.8,16.8,0.00,0.0,100000,14.6,38
548630,2021-02-18,15:02:45,CHINA,-3.1,-11.0,1026.6,1026.4,19.5,13.7,0.03,0.0,110000,50.3,342
507450,2021-02-18,15:02:45,CHINA,-17.1,-22.8,1015.0,1023.0,11.3,10.6,0.01,0.0,110000,51.1,221
548230,2021-02-18,15:02:45,CHINA,-0.9,-12.8,1022.8,1026.4,11.4,12.0,0.05,0.0,110000,50.0,214
471070,2021-02-18,15:02:45,KOREASOUTH,-2.1,-8.2,1013.3,1014.1,12.4,11.8,0.00,0.3,101000,61.1,125
471065,2021-02-18,15:02:45,KOREASOUTH,-1.7,-6.0,1015.8,983.3,11.1,10.0,0.00,3.2,101000,76.2,201
474230,2021-02-18,15:02:45,JAPAN,-4.8,-9.6,1009.6,1014.9,15.2,22.0,0.19,0.0,110000,92.6,12
474120,2021-02-18,15:02:45,JAPAN,-7.8,-11.7,1016.7,1016.1,9.4,8.0,0.19,17.8,111000,72.9,175
357000,2021-02-18,15:02:45,KAZAKHSTAN,-3.2,-7.2,1025.2,1023.0,16.4,18.7,0.01,0.4,111000,50.3,172
471170,2021-02-18,15:02:45,KOREASOUTH,-1.0,-6.4,1000.2,986.6,8.7,5.2,0.01,0.0,110000,50.3,71
353210,2021-02-18,15:02:45,KAZAKHSTAN,-14.9,-21.1,1047.1,1037.1,8.9,10.1,0.00,0.0,100000,53.1,69
560330,2021-02-18,15:02:45,CHINA,-5.6,-16.3,626.3,622.9,25.8,11.9,0.01,0.0,110000,50.3,226
543740,2021-02-18,15:02:45,CHINA,-13.9,-20.9,1005.3,1024.4,15.3,3.7,0.05,0.0,110000,95.6,269
537720,2021-02-18,15:02:45,CHINA,-6.3,-18.2,981.9,1028.1,11.3,9.8,0.01,0.0,110000,70.1,148
552990,2021-02-18,15:02:45,CHINA,-16.2,-29.0,1003.2,1004.8,27.3,11.6,0.03,0.0,110000,99.2,332
537050,2021-02-18,15:02:45,CHINA,-7.2,-18.1,974.7,1028.7,19.1,11.6,0.01,0.0,110000,50.2,250
505640,2021-02-18,15:02:45,CHINA,-24.6,-28.0,1018.7,1024.1,18.3,7.1,0.01,0.0,110000,50.1,307
474810,2021-02-18,15:02:45,JAPAN,-10.1,-15.1,1000.4,992.2,9.1,11.8,0.00,0.0,100000,39.6,356
287850,2021-02-18,15:02:45,KAZAKHSTAN,-8.9,-10.9,1031.4,1021.0,16.4,4.3,0.00,13.2,101000,77.3,170
470312,2021-02-18,15:02:45,CHINA,-2.1,-11.8,985.4,965.5,5.4,8.3,0.00,0.0,100000,29.3,91
474110,2021-02-18,15:02:45,JAPAN,-6.5,-11.4,1012.9,1016.1,19.2,12.3,0.21,0.0,110000,50.0,199
474090,2021-02-18,15:02:45,JAPAN,-10.2,-14.7,1013.8,1016.1,22.6,9.6,0.04,9.9,111000,50.4,155
476400,2021-02-18,15:02:45,JAPAN,-8.1,-16.1,920.4,914.8,30.4,5.5,0.00,0.0,100000,45.7,285
353020,2021-02-18,15:02:45,KAZAKHSTAN,-7.5,-11.6,1051.2,1035.0,19.8,18.4,0.00,0.0,100000,3.3,137
475490,2021-02-18,15:02:45,JAPAN,-2.3,-8.3,998.3,999.5,8.7,9.1,0.00,0.0,100000,87.4,237
527130,2021-02-18,15:02:45,CHINA,-13.4,-30.8,698.8,699.1,29.2,8.7,0.00,0.0,100000,11.1,259
360030,2021-02-18,15:02:45,KAZAKHSTAN,-5.6,-8.0,1023.3,1030.2,23.5,16.8,0.01,5.0,111000,90.9,41
171400,2021-02-18,15:02:45,TURKEY,-8.1,-8.6,865.1,853.0,8.7,9.6,0.45,22.6,111000,50.1,107
540260,2021-02-18,15:02:45,CHINA,-11.4,-22.8,1013.1,1024.6,26.0,12.2,0.01,0.0,110000,84.6,9
517770,2021-02-18,15:02:45,CHINA,-5.8,-20.3,939.7,1027.2,21.9,8.3,0.00,0.0,100000,50.9,71
353760,2021-02-18,15:02:45,KAZAKHSTAN,-10.7,-14.0,991.1,1030.5,19.9,14.1,0.01,7.4,111000,70.0,177
478210,2021-02-18,15:02:45,JAPAN,-5.2,-11.0,892.3,899.2,29.6,12.6,0.00,0.0,100000,14.7,175
514635,2021-02-18,15:02:45,CHINA,-13.2,-15.7,989.6,987.8,3.6,4.8,0.00,0.0,100000,71.2,314
288670,2021-02-18,15:02:45,KAZAKHSTAN,-15.6,-20.1,997.3,1033.5,20.6,8.2,0.00,26.3,101000,85.6,71
478920,2021-02-18,15:02:45,JAPAN,-0.1,-9.2,1026.1,1028.5,26.9,9.8,0.00,0.0,100000,94.8,326
542360,2021-02-18,15:02:45,CHINA,-11.6,-22.8,1020.5,1024.8,19.7,14.1,0.02,0.0,110000,50.9,77
470580,2021-02-18,15:02:45,KOREANORTH,-6.3,-12.0,1017.4,1024.5,13.0,8.2,0.03,0.3,111000,50.5,42
541610,2021-02-18,15:02:45,CHINA,-12.3,-21.1,1014.6,1024.0,12.5,13.6,0.02,0.0,110000,50.6,134
541611,2021-02-18,15:02:45,CHINA,-12.5,-26.3,1008.9,1007.2,9.9,17.4,0.00,0.0,100000,18.5,287
541570,2021-02-18,15:02:45,CHINA,-12.0,-20.5,1021.2,1024.3,14.8,10.6,0.04,0.0,110000,50.2,325
538980,2021-02-18,15:02:45,CHINA,-1.8,-11.5,1023.5,1027.2,13.1,7.8,0.03,0.0,110000,50.0,92
172480,2021-02-18,15:02:45,TURKEY,-3.9,-5.7,894.4,885.7,15.9,8.4,0.36,8.8,111000,87.0,46
476370,2021-02-18,15:02:45,JAPAN,-3.5,-9.5,958.3,1018.2,27.3,9.8,0.18,0.0,110000,93.1,266
564620,2021-02-18,15:02:45,CHINA,-1.9,-16.5,754.5,754.1,34.1,12.1,0.01,0.0,110000,50.1,83
545340,2021-02-18,15:02:45,CHINA,-5.2,-15.5,1022.3,1026.3,14.7,10.1,0.01,0.0,110000,71.2,92
359530,2021-02-18,15:02:45,KAZAKHSTAN,-6.9,-10.7,1023.7,1029.6,31.5,16.6,0.02,0.0,110000,71.4,226
541150,2021-02-18,15:02:45,CHINA,-14.2,-25.0,973.4,1027.1,24.5,11.3,0.01,0.0,110000,50.1,238
545390,2021-02-18,15:02:45,CHINA,-5.4,-13.5,1024.5,1027.3,18.7,10.9,0.03,0.0,110000,95.2,101
354970,2021-02-18,15:02:45,KAZAKHSTAN,-2.5,-13.6,983.2,1035.3,,11.9,0.02,7.5,111000,50.5,202
526610,2021-02-18,15:02:45,CHINA,-10.3,-24.2,929.2,954.2,69.6,8.1,0.00,0.0,100000,22.5,243
544230,2021-02-18,15:02:45,CHINA,-10.0,-22.0,975.9,1024.7,24.1,5.0,0.00,0.0,100000,22.4,326
360010,2021-02-18,15:02:45,KAZAKHSTAN,-6.1,-8.6,1010.8,1026.7,4.3,33.3,0.02,3.2,111000,59.9,278
475150,2021-02-18,15:02:45,JAPAN,-2.6,-6.7,997.3,998.6,9.9,16.4,0.00,0.0,100000,99.5,33
170672,2021-02-18,15:02:45,TURKEY,-2.0,-4.8,993.7,1017.3,6.9,9.6,0.00,0.0,100000,2.8,164
170674,2021-02-18,15:02:45,TURKEY,-0.9,-4.8,1003.2,1018.2,8.3,19.0,0.00,0.0,100000,52.9,279
350420,2021-02-18,15:02:45,KAZAKHSTAN,-7.0,-11.4,1025.8,1025.6,16.9,17.7,0.00,6.3,101000,50.1,88
522030,2021-02-18,15:02:45,CHINA,-7.7,-18.1,989.1,1027.9,37.5,7.5,0.00,0.0,100000,80.7,149
518860,2021-02-18,15:02:45,CHINA,-12.5,-30.4,701.4,700.8,27.0,12.5,0.00,0.0,100000,42.1,221
534460,2021-02-18,15:02:45,CHINA,-11.6,-25.8,995.4,1031.2,13.3,12.6,0.00,0.0,100000,58.9,125
543420,2021-02-18,15:02:45,CHINA,-10.0,-18.8,1021.9,1024.7,7.0,12.5,0.03,0.0,110000,50.3,193
533910,2021-02-18,15:02:45,CHINA,-14.8,-23.0,884.0,1027.2,28.9,17.8,0.01,0.0,110000,50.3,291
353450,2021-02-18,15:02:45,KAZAKHSTAN,-7.4,-10.2,1061.7,1040.2,22.8,11.6,0.00,0.0,100000,42.4,119
475810,2021-02-18,15:02:45,JAPAN,-3.2,-8.4,1016.2,1017.0,18.8,15.5,0.12,6.2,111000,50.7,165
535290,2021-02-18,15:02:45,CHINA,-10.1,-22.5,893.4,1029.7,25.1,10.8,0.21,0.0,110000,50.4,66
475740,2021-02-18,15:02:45,JAPAN,-1.3,-7.9,1014.5,1024.1,30.2,13.9,0.16,0.0,110000,50.4,292
516560,2021-02-18,15:02:45,CHINA,-3.9,-16.1,932.8,1027.0,18.4,9.1,0.00,0.0,100000,11.7,126
357910,2021-02-18,15:02:45,KAZAKHSTAN,-13.3,-17.8,1035.2,1036.4,40.2,6.6,0.03,2.4,111000,79.3,139
474050,2021-02-18,15:02:45,JAPAN,-11.7,-16.0,1018.3,1019.3,39.8,10.1,0.06,0.0,110000,50.3,148
442410,2021-02-18,15:02:45,MONGOLIA,-22.3,-24.7,1030.0,1033.6,45.7,9.1,0.00,1.9,101000,65.2,158
543424,2021-02-18,15:02:45,CHINA,-6.7,-15.4,998.5,1001.8,9.6,12.0,0.00,0.0,100000,51.4,235
359970,2021-02-18,15:02:45,KAZAKHSTAN,-6.7,-11.4,1031.9,1033.9,25.1,9.9,0.01,0.8,,58.5,70
443050,2021-02-18,15:02:45,MONGOLIA,-17.3,-20.4,950.4,1028.7,46.4,10.0,0.00,2.3,101000,97.5,99
536730,2021-02-18,15:02:45,CHINA,-8.1,-17.9,974.2,1028.2,17.6,9.1,0.01,0.0,110000,91.8,38
475420,2021-02-18,15:02:45,JAPAN,-3.7,-8.0,999.7,1001.8,8.2,17.5,0.00,0.0,100000,53.6,234
534870,2021-02-18,15:02:45,CHINA,-11.6,-21.7,973.2,1029.3,16.6,11.6,0.01,0.0,110000,65.4,273
470670,2021-02-18,15:02:45,KOREANORTH,-6.4,-10.5,1045.0,1024.9,15.5,7.5,0.00,0.0,100000,97.9,53
542260,2021-02-18,15:02:45,CHINA,-11.0,-23.6,1022.6,1025.9,25.7,15.1,0.01,0.0,110000,87.8,130
470680,2021-02-18,15:02:45,KOREANORTH,-4.4,-10.1,1030.9,1024.8,16.3,11.6,0.01,0.0,110000,50.0,171
471100,2021-02-18,15:02:45,KOREASOUTH,-4.1,-10.1,1007.6,1010.5,9.3,10.7,0.00,0.0,100000,63.4,279
476900,2021-02-18,15:02:45,JAPAN,-7.5,-11.9,866.7,867.0,25.4,13.9,0.14,0.0,110000,50.0,217
509630,2021-02-18,15:02:45,CHINA,-19.5,-22.3,1019.8,1023.0,13.4,14.2,0.01,0.0,110000,50.5,127
570360,2021-02-18,15:02:45,CHINA,-0.9,-7.6,1011.3,1025.3,8.7,7.3,0.04,0.0,110000,50.5,271
581020,2021-02-18,15:02:45,CHINA,-0.4,-7.2,1021.4,1026.7,18.5,8.6,0.08,0.0,110000,69.4,231
474300,2021-02-18,15:02:45,JAPAN,-5.7,-10.4,1016.3,1016.6,13.4,12.5,0.09,8.8,111000,97.2,125
474180,2021-02-18,15:02:45,JAPAN,-9.7,-14.2,1011.3,1015.8,20.8,15.4,0.06,5.1,111000,86.7,265
351880,2021-02-18,15:02:45,KAZAKHSTAN,-11.6,-14.8,1028.0,1028.9,16.4,16.7,0.22,1.9,111000,90.0,84
528420,2021-02-18,15:02:45,CHINA,-2.9,-20.6,696.7,692.1,17.0,14.6,0.00,0.0,100000,83.5,28
512320,2021-02-18,15:02:45,CHINA,-8.3,-13.1,1029.2,1032.4,16.0,17.6,0.01,0.0,110000,57.2,116
548080,2021-02-18,15:02:45,CHINA,-2.4,-10.7,1030.3,1027.0,12.7,10.7,0.02,0.0,110000,50.1,103
476240,2021-02-18,15:02:45,JAPAN,-0.5,-8.6,1009.7,1017.8,27.0,13.0,0.08,0.2,111000,50.0,328
560210,2021-02-18,15:02:45,CHINA,-16.7,-29.9,616.6,616.4,28.9,9.1,0.01,0.0,110000,85.1,49
540940,2021-02-18,15:02:45,CHINA,-16.2,-21.3,1009.2,1023.0,7.7,8.1,0.03,0.0,110000,50.2,302
471571,2021-02-18,15:02:45,KOREASOUTH,-2.7,-13.2,988.4,960.8,10.9,11.7,0.00,0.0,100000,91.3,260
547510,2021-02-18,15:02:45,CHINA,-1.2,-7.6,1029.5,1027.2,17.0,20.9,0.06,0.0,110000,87.5,202
548260,2021-02-18,15:02:45,CHINA,-7.9,-20.1,871.4,874.1,27.4,26.6,0.08,0.0,110000,50.7,359
561160,2021-02-18,15:02:45,CHINA,-8.1,-20.2,684.3,685.0,26.7,4.2,0.00,0.0,100000,34.5,300
511560,2021-02-18,15:02:45,CHINA,-13.6,-19.4,928.5,1033.3,36.3,7.2,0.01,0.0,110000,50.7,197
287660,2021-02-18,15:02:45,KAZAKHSTAN,-6.8,-10.5,1016.9,1025.5,11.2,14.1,0.01,4.5,111000,85.4,279
523780,2021-02-18,15:02:45,CHINA,-9.8,-26.6,986.5,1007.9,29.8,16.4,0.00,0.0,100000,23.3,41
506580,2021-02-18,15:02:45,CHINA,-19.6,-24.3,1025.3,1023.7,15.2,7.5,0.01,0.0,110000,75.5,352
470990,2021-02-18,15:02:45,KOREASOUTH,-6.5,-14.3,1020.6,1024.6,11.5,5.5,0.01,0.0,110000,50.4,2
471030,2021-02-18,15:02:45,KOREASOUTH,-2.5,-6.3,1014.4,1022.5,11.9,21.2,0.00,0.0,100000,65.4,339
471025,2021-02-18,15:02:45,KOREASOUTH,-2.7,-8.6,1013.2,1022.3,11.5,4.1,0.00,0.0,100000,64.2,199
501360,2021-02-18,15:02:45,CHINA,-27.9,-31.4,968.2,1026.0,20.3,8.0,0.00,0.0,100000,10.3,1
477150,2021-02-18,15:02:45,JAPAN,-0.8,-6.7,1000.5,1003.7,9.3,10.3,0.09,0.6,111000,50.3,304
529570,2021-02-18,15:02:45,CHINA,-16.0,-30.8,723.5,726.8,27.2,14.3,0.00,0.0,100000,95.1,32
366390,2021-02-18,15:02:45,KAZAKHSTAN,-9.9,-12.8,1056.1,1038.4,49.1,2.7,1.83,0.0,110000,70.9,343
351080,2021-02-18,15:02:45,KAZAKHSTAN,-7.9,-9.9,1017.3,1024.3,8.2,18.3,0.04,11.3,111000,53.2,175
383530,2021-02-18,15:02:45,KYRGYZSTAN,-2.3,-6.3,995.5,1027.6,5.6,8.1,0.04,0.6,111000,61.1,37
383531,2021-02-18,15:02:45,KYRGYZSTAN,-0.4,-5.4,988.6,976.4,2.0,13.6,0.00,0.0,100000,7.4,133
561370,2021-02-18,15:02:45,CHINA,-5.1,-21.8,715.8,711.9,25.3,5.0,0.01,0.0,110000,50.1,108
517650,2021-02-18,15:02:45,CHINA,-2.3,-20.8,939.6,1027.3,28.2,5.9,0.00,0.0,100000,47.4,25
560800,2021-02-18,15:02:45,CHINA,-11.4,-22.0,734.5,733.3,25.3,6.6,0.01,0.0,110000,95.5,157
560790,2021-02-18,15:02:45,CHINA,-12.6,-22.5,665.4,664.8,31.5,8.5,0.02,0.0,110000,50.4,232
472185,2021-02-18,15:02:45,JAPAN,-4.8,-12.4,985.4,975.1,9.6,19.6,0.00,0.0,100000,74.2,317
593530,2021-02-18,15:02:45,TAIWAN,-3.0,-3.0,763.2,1022.0,7.6,5.3,0.00,0.0,100000,96.8,15
471320,2021-02-18,15:02:45,KOREASOUTH,-8.3,-15.2,1003.9,995.8,10.7,0.9,0.00,0.0,100000,46.1,38
442190,2021-02-18,15:02:45,MONGOLIA,-10.6,-23.2,850.8,1014.9,18.9,6.1,0.00,0.0,100000,27.3,214
561060,2021-02-18,15:02:45,CHINA,-11.3,-22.7,619.1,618.0,27.5,9.2,0.04,0.0,110000,95.8,333
514310,2021-02-18,15:02:45,CHINA,-4.5,-9.2,976.8,1028.2,31.4,5.6,0.03,0.0,110000,50.6,147
541860,2021-02-18,15:02:45,CHINA,-16.4,-23.3,1013.6,1024.6,18.6,10.0,0.03,0.0,110000,50.0,143
524410,2021-02-18,15:02:45,CHINA,-13.3,-27.0,845.1,847.5,43.3,17.3,0.00,0.0,100000,78.5,355
516440,2021-02-18,15:02:45,CHINA,-2.1,-11.4,923.6,1028.1,22.8,7.4,0.01,0.0,110000,50.1,79
358490,2021-02-18,15:02:45,KAZAKHSTAN,-5.2,-9.9,1017.1,1024.3,17.8,12.2,0.02,1.1,111000,50.1,91
474740,2021-02-18,15:02:45,JAPAN,-11.8,-20.0,1004.2,1012.5,10.1,9.7,0.00,0.0,100000,63.3,70
470690,2021-02-18,15:02:45,KOREANORTH,-4.5,-10.6,1021.7,1024.8,15.2,9.7,0.00,0.0,100000,90.9,179
517090,2021-02-18,15:02:45,CHINA,-1.5,-9.5,912.1,1026.8,15.3,5.7,0.01,0.0,110000,50.1,277
470700,2021-02-18,15:02:45,KOREANORTH,-4.2,-11.2,1028.4,1022.8,17.7,8.1,0.05,0.0,110000,88.7,108
381980,2021-02-18,15:02:45,KAZAKHSTAN,-2.4,-5.9,1030.4,1026.3,21.5,8.1,0.32,0.4,111000,62.8,170
557730,2021-02-18,15:02:45,CHINA,-12.3,-20.1,620.3,621.3,20.0,11.6,0.00,0.0,100000,57.8,139
503530,2021-02-18,15:02:45,CHINA,-14.3,-23.4,998.6,1021.4,19.2,8.6,0.00,0.0,100000,7.7,226
25105,2021-02-18,15:02:45,SINGAPORE,-1.0,-3.0,1010.9,998.9,10.9,6.4,0.00,0.0,100000,75.9,270
289570,2021-02-18,15:02:45,KAZAKHSTAN,-7.9,-11.5,1035.3,1028.1,10.1,11.6,0.00,6.8,101000,75.5,213
528360,2021-02-18,15:02:45,CHINA,-9.4,-25.1,687.5,687.0,27.5,9.9,0.06,0.0,110000,50.6,117
560460,2021-02-18,15:02:45,CHINA,-14.5,-24.9,671.4,671.8,25.3,8.4,0.01,0.0,110000,50.1,184
528180,2021-02-18,15:02:45,CHINA,-9.7,-27.6,754.0,752.8,26.7,8.8,0.00,0.0,100000,70.2,87
529960,2021-02-18,15:02:45,CHINA,-9.2,-14.7,778.7,779.2,15.1,15.6,0.01,,110000,50.4,330
442590,2021-02-18,15:02:45,MONGOLIA,-17.5,-20.6,950.1,1027.6,20.8,9.9,0.02,1.9,111000,50.0,350
442290,2021-02-18,15:02:45,MONGOLIA,-14.9,-24.5,780.6,1014.0,50.1,6.8,0.00,0.0,100000,63.8,155
474210,2021-02-18,15:02:45,JAPAN,-4.3,-9.2,1015.3,1016.4,18.6,18.1,0.14,14.5,111000,50.5,323
289780,2021-02-18,15:02:45,KAZAKHSTAN,-11.4,-12.5,969.2,1022.4,17.4,10.7,0.00,0.0,100000,31.0,275
547150,2021-02-18,15:02:45,CHINA,-2.6,-12.6,1025.3,1027.6,17.2,12.5,0.08,0.0,110000,63.4,148
547250,2021-02-18,15:02:45,CHINA,-3.7,-13.8,1026.5,1026.6,14.1,12.5,0.08,0.0,110000,70.8,180
474880,2021-02-18,15:02:45,JAPAN,-3.9,-8.6,995.4,998.1,9.2,16.3,0.00,0.0,100000,43.9,230
353630,2021-02-18,15:02:45,KAZAKHSTAN,-9.0,-12.1,1040.7,1040.3,14.1,17.5,0.00,0.0,100000,54.7,274
505270,2021-02-18,15:02:45,CHINA,-24.1,-28.1,992.5,1028.0,17.2,9.1,0.01,0.0,110000,50.2,192
475120,2021-02-18,15:02:45,JAPAN,-3.4,-11.5,1018.8,1023.5,40.0,8.4,0.00,0.0,100000,24.1,264
563740,2021-02-18,15:02:45,CHINA,-2.9,-8.3,748.5,747.8,30.5,17.5,0.04,0.0,110000,91.7,308
507880,2021-02-18,15:02:45,CHINA,-18.2,-22.4,1023.0,1020.5,20.5,13.1,0.01,0.0,110000,50.5,268
471430,2021-02-18,15:02:45,KOREASOUTH,-0.7,-8.3,1016.1,1023.0,18.7,10.2,0.06,0.1,111000,50.0,20
534630,2021-02-18,15:02:45,CHINA,-11.7,-20.6,929.9,1030.4,16.8,7.0,0.01,0.0,110000,50.6,326
471240,2021-02-18,15:02:45,KOREASOUTH,-3.4,-12.7,1016.7,1042.3,11.3,11.0,0.00,0.0,100000,96.0,359
350850,2021-02-18,15:02:45,KAZAKHSTAN,-13.6,-17.7,1017.6,1033.3,28.5,15.8,0.02,3.4,111000,74.8,336
544970,2021-02-18,15:02:45,CHINA,-2.5,-16.4,1025.1,1024.4,15.1,11.3,0.06,0.0,110000,50.3,351
513460,2021-02-18,15:02:45,CHINA,-19.1,-20.6,1068.1,1038.6,57.1,5.5,0.00,0.0,100000,56.6,299
475970,2021-02-18,15:02:45,JAPAN,-2.9,-9.3,974.2,1018.3,23.9,15.1,0.11,0.0,110000,69.6,289
555780,2021-02-18,15:02:45,CHINA,-8.2,-29.6,635.7,635.6,29.3,7.5,0.00,0.0,100000,66.8,233
474410,2021-02-18,15:02:45,JAPAN,-6.7,-11.0,1004.0,1006.0,9.2,25.0,0.00,0.0,100000,82.6,97
546620,2021-02-18,15:02:45,CHINA,-3.7,-12.0,1022.3,1025.6,13.9,17.7,0.02,0.0,110000,64.6,244
541350,2021-02-18,15:02:45,CHINA,-11.8,-24.4,1018.5,1024.6,25.6,14.8,0.01,0.0,110000,51.6,187
361860,2021-02-18,15:02:45,KAZAKHSTAN,-4.7,-8.3,1022.9,1025.6,11.9,2.9,0.00,0.0,100000,32.6,203
369820,2021-02-18,15:02:45,KYRGYZSTAN,-21.3,-25.6,646.3,646.4,42.9,9.4,0.00,0.0,100000,63.9,267
471330,2021-02-18,15:02:45,KOREASOUTH,-2.6,-9.9,1019.8,1024.1,17.2,6.4,0.04,0.0,110000,79.4,328
471340,2021-02-18,15:02:45,KOREASOUTH,-3.1,-8.5,1001.1,997.1,10.3,6.9,0.01,0.0,110000,95.4,217
506030,2021-02-18,15:02:45,CHINA,-19.9,-23.3,982.8,1028.0,29.6,10.5,0.01,0.0,110000,72.2,110
471350,2021-02-18,15:02:45,KOREASOUTH,-3.0,-9.6,1011.8,1023.3,19.7,14.4,0.08,0.0,110000,55.0,130
546160,2021-02-18,15:02:45,CHINA,-4.0,-14.3,1027.4,1026.5,12.0,13.2,0.03,0.0,110000,64.8,340
477470,2021-02-18,15:02:45,JAPAN,-1.0,-3.0,1026.9,1027.5,14.5,4.1,0.19,0.0,110000,50.6,280
355320,2021-02-18,15:02:45,KAZAKHSTAN,-2.5,-4.1,1013.7,1027.9,15.8,18.4,0.06,15.6,111000,75.7,5
531920,2021-02-18,15:02:45,CHINA,-19.7,-23.5,918.0,1033.1,31.1,10.0,0.01,0.0,110000,63.5,240
527070,2021-02-18,15:02:45,CHINA,-13.4,-30.2,725.5,721.6,21.2,11.0,0.00,0.0,100000,44.6,244
549160,2021-02-18,15:02:45,CHINA,-2.7,-12.1,1029.1,1026.9,14.7,9.4,0.03,0.0,110000,50.1,135
476170,2021-02-18,15:02:45,JAPAN,-6.4,-9.4,957.6,1027.8,23.8,4.3,0.00,0.0,100000,14.7,34
380810,2021-02-18,15:02:45,KAZAKHSTAN,-4.9,-8.5,1030.6,1029.8,23.6,14.3,0.01,0.3,111000,69.8,134
526510,2021-02-18,15:02:45,CHINA,-2.9,-23.9,985.2,1001.3,70.0,5.7,0.00,0.0,100000,48.0,208
476000,2021-02-18,15:02:45,JAPAN,-0.1,-4.4,1018.4,1019.6,15.9,14.0,0.29,5.1,111000,50.2,354
570830,2021-02-18,15:02:45,CHINA,-1.0,-10.8,1020.6,1027.1,9.9,8.6,0.04,0.0,110000,50.9,97
540960,2021-02-18,15:02:45,CHINA,-16.5,-21.4,1022.9,1023.1,17.3,12.3,0.03,0.0,110000,50.2,12
535640,2021-02-18,15:02:45,CHINA,-11.0,-23.3,936.4,1030.3,18.8,6.2,0.00,0.0,100000,7.7,80
476410,2021-02-18,15:02:45,JAPAN,-1.1,-7.8,989.5,1018.1,21.1,6.6,0.08,0.0,110000,50.3,284
476390,2021-02-18,15:02:45,JAPAN,-21.1,-27.0,1001.8,997.7,48.9,80.9,0.00,0.0,100000,6.0,238
511330,2021-02-18,15:02:45,CHINA,-3.5,-9.0,992.6,1033.3,32.1,7.5,0.04,0.0,110000,59.8,175
548430,2021-02-18,15:02:45,CHINA,-4.5,-13.1,1024.0,1026.6,17.0,12.5,0.04,0.0,110000,50.9,22
561930,2021-02-18,15:02:45,CHINA,-1.3,-6.4,1033.1,1031.2,14.4,2.7,0.11,0.0,110000,50.3,34
471190,2021-02-18,15:02:45,KOREASOUTH,-3.5,-10.4,1027.4,1024.0,15.2,7.7,0.05,0.1,111000,50.0,309
471180,2021-02-18,15:02:45,KOREASOUTH,-10.3,-18.9,1014.7,1029.9,10.6,8.1,0.00,0.0,100000,68.2,108
443140,2021-02-18,15:02:45,MONGOLIA,-15.3,-22.1,935.4,1022.1,17.4,19.3,0.01,1.8,111000,50.1,194
509830,2021-02-18,15:02:45,CHINA,-15.9,-21.2,1017.8,1022.3,16.5,10.7,0.01,0.0,110000,50.1,257
541020,2021-02-18,15:02:45,CHINA,-18.5,-25.1,936.5,1030.5,28.5,12.2,0.01,0.0,110000,50.3,228
517300,2021-02-18,15:02:45,CHINA,-3.8,-12.9,987.1,1028.6,20.0,4.5,0.01,0.0,110000,50.4,71
171890,2021-02-18,15:02:45,TURKEY,-6.5,-9.9,901.6,926.5,15.3,13.1,0.24,9.4,111000,75.4,359
356330,2021-02-18,15:02:45,KAZAKHSTAN,-11.3,-13.8,1026.0,1023.8,21.7,16.5,0.00,5.2,101000,70.2,159
523910,2021-02-18,15:02:45,CHINA,-26.2,-35.4,1002.2,1046.0,36.8,6.7,0.00,0.0,100000,63.0,100
570460,2021-02-18,15:02:45,CHINA,-6.7,-15.0,817.5,831.5,18.3,15.9,0.03,0.0,110000,52.5,238
540120,2021-02-18,15:02:45,CHINA,-19.5,-23.6,935.8,1030.0,25.1,12.8,0.01,0.0,110000,50.3,177
383340,2021-02-18,15:02:45,KAZAKHSTAN,-1.4,-6.0,927.1,1024.4,12.2,10.4,0.00,4.7,101000,73.1,153
552790,2021-02-18,15:02:45,CHINA,-12.0,-30.9,996.5,997.5,27.7,18.8,0.01,0.0,110000,50.1,291
474340,2021-02-18,15:02:45,JAPAN,-10.9,-13.8,1002.8,1010.8,11.1,11.2,0.01,6.3,111000,54.8,271
474350,2021-02-18,15:02:45,JAPAN,-7.7,-12.4,1017.2,1019.5,38.7,12.1,0.16,0.0,110000,50.1,89
545870,2021-02-18,15:02:45,CHINA,-3.5,-10.5,1029.0,1024.9,27.8,22.9,0.26,0.0,110000,95.6,99
545110,2021-02-18,15:02:45,CHINA,-3.7,-15.6,1022.7,1026.0,15.0,12.9,0.03,,110000,73.6,122
288790,2021-02-18,15:02:45,KAZAKHSTAN,-11.4,-15.7,1033.6,1031.1,9.9,17.6,0.00,0.9,101000,50.0,218
288770,2021-02-18,15:02:45,KAZAKHSTAN,-5.5,-10.8,1024.9,1022.8,14.9,12.4,0.03,1.9,111000,78.6,36
386150,2021-02-18,15:02:45,KYRGYZSTAN,-2.0,-10.2,925.4,1033.6,8.9,7.9,0.00,11.3,101000,50.9,122
355820,2021-02-18,15:02:45,KAZAKHSTAN,-10.7,-15.0,1036.9,1034.9,34.4,15.3,0.02,2.5,111000,67.3,127
478180,2021-02-18,15:02:45,JAPAN,-2.7,-10.3,946.3,1029.3,26.0,13.6,0.00,0.0,100000,50.0,317
353940,2021-02-18,15:02:45,KAZAKHSTAN,-10.1,-14.4,1006.2,1032.3,16.9,13.7,0.04,3.5,111000,50.4,194
542370,2021-02-18,15:02:45,CHINA,-17.2,-27.8,1006.3,1031.3,13.9,12.7,0.00,0.0,100000,39.3,23
470550,2021-02-18,15:02:45,KOREANORTH,-3.3,-10.4,1021.9,1023.0,16.2,8.7,0.46,0.3,111000,50.0,192
544010,2021-02-18,15:02:45,CHINA,-8.0,-21.8,986.6,1028.2,20.6,10.6,0.01,0.0,110000,50.3,286
518390,2021-02-18,15:02:45,CHINA,-2.5,-14.9,889.9,1029.4,13.6,6.7,0.00,0.0,100000,93.2,200
581500,2021-02-18,15:02:45,CHINA,-0.7,-5.0,1028.2,1026.6,13.8,10.9,0.12,0.0,110000,56.2,316
535930,2021-02-18,15:02:45,CHINA,-11.0,-21.3,980.5,1029.0,23.7,7.3,0.01,0.0,110000,90.9,202
528250,2021-02-18,15:02:45,CHINA,-9.8,-27.9,724.2,719.1,23.5,11.6,0.00,0.0,100000,77.9,131
529830,2021-02-18,15:02:45,CHINA,-10.9,-15.4,818.8,835.7,21.1,6.5,0.02,0.0,110000,66.9,325
471010,2021-02-18,15:02:45,KOREASOUTH,-5.3,-12.1,1017.9,1023.5,18.2,5.1,0.04,0.6,111000,59.0,309
471020,2021-02-18,15:02:45,KOREASOUTH,-0.2,-6.4,1004.1,1023.8,11.9,17.8,0.00,0.0,100000,49.8,16
509680,2021-02-18,15:02:45,CHINA,-19.0,-23.1,1025.1,1023.8,14.8,10.4,0.03,0.0,110000,51.7,54
386090,2021-02-18,15:02:45,TAJIKISTAN,-2.3,-7.0,925.0,1028.1,16.6,10.0,0.00,0.0,100000,82.8,120
546020,2021-02-18,15:02:45,CHINA,-3.5,-13.1,1022.1,1026.4,11.0,7.6,0.03,0.0,110000,64.9,212
474200,2021-02-18,15:02:45,JAPAN,-7.2,-11.9,1012.2,1015.2,20.8,15.0,0.06,3.8,111000,50.5,282
351910,2021-02-18,15:02:45,KAZAKHSTAN,-11.1,-18.9,1060.9,1042.7,37.3,12.3,0.00,0.0,100000,8.4,62
528660,2021-02-18,15:02:45,CHINA,-8.0,-21.3,772.3,771.4,16.1,7.6,0.00,0.0,100000,18.9,274
474020,2021-02-18,15:02:45,JAPAN,-12.3,-15.8,1016.8,1017.9,21.7,10.0,0.11,0.0,110000,58.6,92
474010,2021-02-18,15:02:45,JAPAN,-7.3,-11.7,1011.3,1015.8,17.9,14.1,0.16,16.7,111000,90.5,199
508880,2021-02-18,15:02:45,CHINA,-16.1,-22.3,1016.2,1022.1,23.4,12.8,0.01,0.0,110000,91.1,333
355420,2021-02-18,15:02:45,KAZAKHSTAN,-13.2,-16.6,1026.8,1029.0,12.5,14.8,0.48,2.1,111000,76.4,238
546180,2021-02-18,15:02:45,CHINA,-1.5,-9.9,1024.2,1026.1,11.1,10.0,0.08,0.0,110000,70.0,21
474400,2021-02-18,15:02:45,JAPAN,-7.7,-13.9,1012.4,1016.8,23.3,11.1,0.38,0.0,110000,52.9,129
368590,2021-02-18,15:02:45,KAZAKHSTAN,-4.9,-10.5,1007.2,1027.6,39.6,7.5,0.02,1.6,111000,50.3,257
471110,2021-02-18,15:02:45,KOREASOUTH,-2.0,-8.5,989.4,990.4,9.3,7.6,0.00,0.0,100000,36.3,256
547050,2021-02-18,15:02:45,CHINA,-14.9,-19.0,1024.2,1034.1,8.0,3.6,0.00,0.0,100000,51.4,264
504680,2021-02-18,15:02:45,CHINA,-20.5,-26.8,1011.4,1023.4,21.1,9.3,0.01,0.0,110000,86.6,325
516280,2021-02-18,15:02:45,CHINA,-1.7,-7.0,998.8,1030.7,19.2,4.4,0.00,0.0,100000,53.3,159
470500,2021-02-18,15:02:45,KOREANORTH,-7.2,-12.5,1027.3,1023.9,14.8,7.1,0.08,0.0,110000,91.1,209
538210,2021-02-18,15:02:45,CHINA,-7.6,-18.4,931.5,1028.9,18.6,9.0,0.00,0.0,100000,0.3,94
443470,2021-02-18,15:02:45,MONGOLIA,-7.7,-25.9,861.4,1013.1,37.2,26.4,0.00,0.0,100000,23.8,3
539150,2021-02-18,15:02:45,CHINA,-5.6,-13.9,907.8,1027.7,22.1,7.2,0.02,0.0,110000,56.5,62
570250,2021-02-18,15:02:45,CHINA,-1.4,-4.9,1038.3,1034.4,6.3,6.7,0.00,0.0,100000,47.0,340
526810,2021-02-18,15:02:45,CHINA,-9.7,-23.0,898.2,1029.7,29.9,10.8,0.00,0.0,100000,3.3,315
380620,2021-02-18,15:02:45,KAZAKHSTAN,-5.0,-8.3,1026.5,1024.5,20.1,14.4,0.01,0.7,111000,93.8,348
524240,2021-02-18,15:02:45,CHINA,-10.5,-23.7,900.0,1030.2,25.2,14.2,0.01,0.0,110000,50.6,54
383450,2021-02-18,15:02:45,KYRGYZSTAN,-2.1,-5.4,895.5,895.9,20.1,3.9,0.00,1.8,101000,71.0,10
383430,2021-02-18,15:02:45,KAZAKHSTAN,-0.9,-3.3,940.0,1025.5,10.0,4.1,0.00,2.6,101000,93.2,18
749347,2021-02-18,15:02:45,CHINA,-3.5,-8.1,1035.2,1037.9,10.9,9.2,0.00,0.0,100000,69.0,323
749348,2021-02-18,15:02:45,CHINA,-18.3,-21.5,1032.4,1037.1,62.9,2.6,0.00,0.0,100000,75.9,196
570140,2021-02-18,15:02:45,CHINA,-5.9,-10.8,1015.0,1034.8,11.9,6.5,0.00,0.0,100000,73.8,191
524950,2021-02-18,15:02:45,CHINA,-12.2,-25.1,903.3,1030.9,26.0,12.4,0.00,0.0,100000,88.1,133
170980,2021-02-18,15:02:45,TURKEY,-4.9,-7.2,815.6,815.6,9.2,9.9,0.06,12.5,111000,50.1,321
507740,2021-02-18,15:02:45,CHINA,-21.5,-25.8,1013.2,1023.1,10.5,6.9,0.01,0.0,110000,50.0,328
518110,2021-02-18,15:02:45,CHINA,-2.5,-10.7,919.7,1025.0,14.2,4.7,0.00,0.0,100000,45.2,247
526020,2021-02-18,15:02:45,CHINA,-15.5,-33.3,726.2,726.5,26.5,14.9,0.00,0.0,100000,53.0,188
361770,2021-02-18,15:02:45,KAZAKHSTAN,-6.9,-10.6,1020.3,1026.9,10.4,9.1,0.00,0.0,100000,53.6,27
475920,2021-02-18,15:02:45,JAPAN,-1.4,-5.9,1015.3,1018.1,19.4,,0.17,0.9,111000,87.0,75
535430,2021-02-18,15:02:45,CHINA,-10.3,-21.6,883.3,1029.8,22.9,11.8,0.01,0.0,110000,62.2,213
471131,2021-02-18,15:02:45,KOREASOUTH,-1.6,-10.6,977.4,985.9,9.2,11.5,0.00,0.0,100000,36.5,82
471130,2021-02-18,15:02:45,KOREASOUTH,-1.4,-8.3,1020.0,1022.4,11.2,8.0,0.00,0.0,100000,58.9,272
531490,2021-02-18,15:02:45,CHINA,-13.2,-23.7,905.9,1030.0,29.2,16.3,0.01,0.0,110000,62.5,297
381960,2021-02-18,15:02:45,KAZAKHSTAN,-2.1,-10.3,925.1,1024.5,17.8,4.6,0.00,9.0,101000,50.3,350
471360,2021-02-18,15:02:45,KOREASOUTH,-3.7,-10.9,1010.7,1024.1,17.9,7.4,0.06,0.0,110000,89.7,27
471370,2021-02-18,15:02:45,KOREASOUTH,-0.8,-12.1,1010.6,1023.0,15.6,6.9,0.03,0.0,110000,50.2,65
350670,2021-02-18,15:02:45,KAZAKHSTAN,-8.6,-13.0,1043.2,1033.9,10.4,9.5,0.00,5.2,101000,50.9,313
474070,2021-02-18,15:02:45,JAPAN,-10.8,-15.2,1007.3,1016.5,9.4,6.6,0.11,20.4,111000,50.5,34
474060,2021-02-18,15:02:45,JAPAN,-8.0,-12.0,1011.2,1015.6,17.7,20.5,0.11,19.6,111000,50.8,73
442880,2021-02-18,15:02:45,MONGOLIA,-7.7,-15.2,917.4,1028.6,47.4,13.0,0.02,0.1,111000,50.2,316
471610,2021-02-18,15:02:45,KOREASOUTH,-2.0,-8.3,999.2,994.6,10.7,7.4,0.03,0.0,110000,50.1,54
542920,2021-02-18,15:02:45,CHINA,-11.8,-21.8,1007.8,1025.5,20.9,11.2,0.00,0.0,100000,84.1,252
527370,2021-02-18,15:02:45,CHINA,-10.0,-25.4,725.3,726.7,25.4,7.3,0.00,0.0,100000,88.7,63
364390,2021-02-18,15:02:45,KAZAKHSTAN,-15.6,-20.6,997.0,1002.3,37.4,15.7,0.81,2.3,111000,97.7,268
443730,2021-02-18,15:02:45,MONGOLIA,-11.0,-21.2,854.3,1027.9,45.0,9.5,0.00,0.2,101000,50.5,345
443740,2021-02-18,15:02:45,MONGOLIA,-13.7,-22.0,830.7,1030.5,49.3,14.4,0.00,1.3,101000,69.6,341
474900,2021-02-18,15:02:45,JAPAN,-11.1,-16.3,992.7,995.7,10.1,8.7,0.00,0.0,100000,32.8,145
474890,2021-02-18,15:02:45,JAPAN,-8.3,-14.7,1002.6,1001.6,10.2,10.7,0.00,0.0,100000,65.4,252
505480,2021-02-18,15:02:45,CHINA,-19.8,-26.0,998.8,1010.4,30.7,3.5,0.00,0.0,100000,61.9,229
561460,2021-02-18,15:02:45,CHINA,-6.0,-17.7,680.6,677.7,31.6,7.8,0.02,0.0,110000,50.1,181
367440,2021-02-18,15:02:45,KAZAKHSTAN,-5.6,-8.6,1034.0,1034.0,44.1,10.6,0.08,1.0,111000,50.8,349
286790,2021-02-18,15:02:45,KAZAKHSTAN,-11.1,-14.7,1024.5,1029.6,11.3,18.9,0.02,7.1,111000,50.3,189
529550,2021-02-18,15:02:45,CHINA,-10.7,-26.6,694.8,691.1,30.7,7.5,0.00,0.0,100000,15.5,161
350780,2021-02-18,15:02:45,KAZAKHSTAN,-10.4,-14.0,1034.3,1033.0,11.0,14.0,0.01,9.2,111000,50.0,65
530830,2021-02-18,15:02:45,CHINA,-19.8,-24.7,965.1,1031.2,29.2,12.7,0.01,0.0,110000,64.7,221
561250,2021-02-18,15:02:45,CHINA,-9.1,-23.8,650.0,654.7,23.7,7.5,0.03,0.0,110000,94.8,44
536140,2021-02-18,15:02:45,CHINA,-7.9,-17.3,928.6,1029.1,20.6,7.2,0.01,0.0,110000,50.2,317
442820,2021-02-18,15:02:45,MONGOLIA,-8.4,-26.2,816.0,1009.5,49.1,7.6,0.00,0.0,100000,21.6,32
475840,2021-02-18,15:02:45,JAPAN,-4.6,-8.9,1007.1,1017.5,15.5,10.7,0.13,3.9,111000,50.0,121
535130,2021-02-18,15:02:45,CHINA,-9.7,-21.6,926.6,1029.6,21.3,7.3,0.00,0.0,100000,25.4,358
475900,2021-02-18,15:02:45,JAPAN,-1.0,-6.8,1014.7,1017.7,23.1,12.1,0.25,0.3,111000,50.2,203
474040,2021-02-18,15:02:45,JAPAN,-7.9,-11.1,1015.5,1016.7,26.2,14.3,0.24,0.0,110000,54.9,262
544930,2021-02-18,15:02:45,CHINA,-11.3,-19.5,1023.3,1025.5,19.8,4.7,0.03,0.0,110000,50.3,170
356050,2021-02-18,15:02:45,KAZAKHSTAN,-0.8,-1.6,1036.2,1014.5,22.6,18.1,0.19,0.0,110000,50.3,160
560650,2021-02-18,15:02:45,CHINA,-15.4,-26.6,661.0,659.9,26.4,9.8,0.01,0.0,110000,64.3,30
536460,2021-02-18,15:02:45,CHINA,-9.0,-18.1,928.0,1029.2,17.8,9.6,0.01,0.0,110000,50.7,19
475530,2021-02-18,15:02:45,JAPAN,-2.4,-6.1,997.0,999.3,8.9,10.9,0.00,0.0,100000,25.6,325
475700,2021-02-18,15:02:45,JAPAN,-2.9,-5.8,1008.8,1019.3,15.0,7.2,0.15,9.5,111000,50.1,200
504340,2021-02-18,15:02:45,CHINA,-29.8,-33.2,967.4,1027.4,27.2,7.7,0.01,0.0,110000,50.3,351
350530,2021-02-18,15:02:45,KAZAKHSTAN,-7.5,-10.2,1035.2,1033.8,18.7,11.8,0.01,2.5,111000,50.3,290
580270,2021-02-18,15:02:45,CHINA,-0.5,-7.6,1021.3,1026.7,13.8,9.1,0.05,0.0,110000,52.4,299
362080,2021-02-18,15:02:45,KAZAKHSTAN,-24.0,-27.5,1013.6,1026.8,27.0,3.9,0.38,22.6,111000,50.2,229
346910,2021-02-18,15:02:45,KAZAKHSTAN,-3.6,-7.1,1022.1,1023.4,20.6,16.8,0.00,1.4,101000,68.2,24
518180,2021-02-18,15:02:45,CHINA,-2.0,-11.8,976.7,1023.7,15.5,4.9,0.01,0.0,110000,50.7,46
534800,2021-02-18,15:02:45,CHINA,-14.1,-23.3,957.9,1030.3,26.1,11.6,0.03,0.0,110000,50.6,234
475570,2021-02-18,15:02:45,JAPAN,-0.7,-7.4,993.0,995.7,10.0,16.5,0.00,0.0,100000,73.3,347
470750,2021-02-18,15:02:45,KOREANORTH,-1.8,-10.5,1027.8,1023.0,23.6,8.0,0.11,0.0,110000,50.6,259
537640,2021-02-18,15:02:45,CHINA,-7.5,-17.8,974.0,1029.5,19.0,8.3,0.12,0.0,110000,80.3,196
527870,2021-02-18,15:02:45,CHINA,-14.0,-24.2,746.8,750.6,26.7,18.7,0.01,0.0,110000,73.0,25
509780,2021-02-18,15:02:45,CHINA,-15.5,-21.7,1009.2,1022.3,26.7,12.7,0.01,0.0,110000,50.2,176
584450,2021-02-18,15:02:45,CHINA,-4.4,-11.3,875.3,946.9,15.7,20.1,0.19,0.0,110000,50.0,317
343980,2021-02-18,15:02:45,KAZAKHSTAN,-8.1,-11.6,1016.2,1015.7,17.7,16.0,0.00,5.6,101000,82.7,171
509530,2021-02-18,15:02:45,CHINA,-16.9,-21.0,1015.9,1023.1,13.3,12.2,0.02,0.0,110000,92.7,219
544830,2021-02-18,15:02:45,CHINA,-15.0,-22.3,1026.0,1024.4,16.0,7.1,0.01,0.0,110000,55.0,182
354590,2021-02-18,15:02:45,KAZAKHSTAN,-8.2,-14.7,1031.8,1030.0,48.2,24.4,0.00,4.5,101000,50.2,214
508540,2021-02-18,15:02:45,CHINA,-16.7,-24.7,1022.6,1023.1,16.9,10.7,0.01,0.0,110000,95.1,301
549090,2021-02-18,15:02:45,CHINA,-1.0,-7.8,1021.1,1027.7,15.2,10.8,0.06,0.0,110000,50.2,144
538450,2021-02-18,15:02:45,CHINA,-6.5,-15.3,933.5,1028.8,12.3,6.7,0.01,0.0,110000,69.0,3
289520,2021-02-18,15:02:45,KAZAKHSTAN,-13.7,-17.0,1038.4,1033.1,7.8,13.3,0.04,0.0,110000,52.1,293
524180,2021-02-18,15:02:45,CHINA,-8.1,-21.4,917.5,1027.6,27.7,6.3,0.00,0.0,100000,81.5,244
554720,2021-02-18,15:02:45,CHINA,-13.5,-31.1,996.3,993.5,26.2,26.1,0.01,0.0,110000,84.6,313
471750,2021-02-18,15:02:45,KOREASOUTH,-0.7,-7.5,965.7,1024.1,13.7,21.4,0.06,0.0,110000,94.9,276
470250,2021-02-18,15:02:45,KOREANORTH,-4.9,-9.4,1015.1,1021.3,10.4,8.5,0.27,0.0,110000,50.4,12
570710,2021-02-18,15:02:45,CHINA,-0.6,-9.2,1028.2,1027.9,13.4,10.9,0.06,0.0,110000,50.5,71
356990,2021-02-18,15:02:45,KAZAKHSTAN,-6.4,-14.0,958.4,1038.9,28.1,0.6,0.00,4.5,101000,50.8,129
555910,2021-02-18,15:02:45,CHINA,-3.4,-24.2,676.7,675.6,29.7,9.6,0.00,0.0,100000,80.6,342
540490,2021-02-18,15:02:45,CHINA,-14.0,-23.3,1025.9,1024.1,19.4,11.7,0.01,0.0,110000,50.0,24
513340,2021-02-18,15:02:45,CHINA,-8.4,-12.2,1030.7,1032.8,25.6,5.1,0.01,0.0,110000,50.2,166
382200,2021-02-18,15:02:45,KYRGYZSTAN,-7.6,-9.4,951.2,1031.1,7.2,6.9,0.00,6.8,101000,50.4,11
546560,2021-02-18,15:02:45,CHINA,-2.8,-8.9,1022.5,1024.8,20.2,25.8,0.00,0.0,100000,60.3,85
507270,2021-02-18,15:02:45,CHINA,-24.9,-27.5,914.8,1028.3,25.7,7.5,0.01,0.0,110000,50.2,349
442370,2021-02-18,15:02:45,MONGOLIA,-4.6,-21.5,844.0,1022.9,49.2,10.9,0.01,0.3,111000,50.4,29
442320,2021-02-18,15:02:45,MONGOLIA,-27.6,-32.7,1068.9,1049.0,44.8,4.6,0.00,0.0,100000,92.3,327
583211,2021-02-18,15:02:45,CHINA,-0.3,-5.4,1005.2,999.5,9.5,9.6,0.00,0.0,100000,96.4,230
510530,2021-02-18,15:02:45,CHINA,-16.8,-21.9,1025.3,1035.8,25.8,14.6,0.01,0.0,110000,98.2,21
354160,2021-02-18,15:02:45,KAZAKHSTAN,-7.5,-11.2,1024.5,1027.3,7.7,17.2,0.03,5.6,111000,54.6,71
535020,2021-02-18,15:02:45,CHINA,-10.2,-21.9,979.9,1029.4,22.5,11.2,0.00,0.0,100000,46.5,177
560290,2021-02-18,15:02:45,CHINA,-8.4,-23.0,645.7,645.7,29.4,4.3,0.01,0.0,110000,71.4,302
474130,2021-02-18,15:02:45,JAPAN,-7.0,-9.0,1008.2,1014.5,16.9,9.6,0.03,0.0,110000,50.0,279
474170,2021-02-18,15:02:45,JAPAN,-14.6,-20.5,1009.8,1015.0,10.1,5.8,0.04,0.0,110000,51.1,264
524460,2021-02-18,15:02:45,CHINA,-11.7,-23.5,940.0,1033.7,43.3,13.5,0.00,0.0,100000,79.2,107
518550,2021-02-18,15:02:45,CHINA,-7.6,-21.7,933.0,1025.4,17.5,7.5,0.00,0.0,100000,93.9,252
543860,2021-02-18,15:02:45,CHINA,-16.5,-21.9,965.9,1026.2,18.4,10.5,0.04,0.0,110000,73.6,276
363350,2021-02-18,15:02:45,KAZAKHSTAN,-9.9,-13.6,1031.3,1033.0,43.0,18.7,0.04,7.6,111000,50.6,15
381780,2021-02-18,15:02:45,UZBEKISTAN,-1.3,-7.7,1010.5,1025.1,14.4,10.5,0.00,0.0,100000,6.3,168
345810,2021-02-18,15:02:45,KAZAKHSTAN,-1.8,-6.2,1043.6,1027.3,51.0,18.0,0.00,0.0,100000,25.0,235
544710,2021-02-18,15:02:45,CHINA,-8.6,-16.6,1026.6,1025.4,13.3,13.8,0.04,0.0,110000,50.5,257
470390,2021-02-18,15:02:45,KOREANORTH,-8.8,-11.1,1022.7,1024.1,8.2,3.4,0.00,0.0,100000,89.8,97
381411,2021-02-18,15:02:45,KAZAKHSTAN,-7.5,-8.0,1006.5,987.3,6.6,17.3,0.00,0.0,100000,90.8,87
381410,2021-02-18,15:02:45,UZBEKISTAN,-0.7,-5.4,1004.6,1020.9,18.6,12.7,0.00,0.0,100000,30.5,358
583430,2021-02-18,15:02:45,CHINA,-0.2,-5.9,1013.4,1025.8,16.2,10.9,0.00,0.0,100000,97.9,19
475800,2021-02-18,15:02:45,JAPAN,-3.0,-7.5,1004.7,1005.2,11.4,14.0,0.00,1.7,101000,51.9,61
512880,2021-02-18,15:02:45,CHINA,-15.9,-23.5,836.1,838.6,35.2,7.3,0.01,0.0,110000,50.0,187
470410,2021-02-18,15:02:45,KOREANORTH,-6.5,-13.2,1021.5,1021.7,13.2,9.7,0.03,0.0,110000,50.0,126
358840,2021-02-18,15:02:45,KAZAKHSTAN,-7.9,-10.4,977.4,993.5,19.4,12.6,0.03,12.6,111000,51.0,313
514670,2021-02-18,15:02:45,CHINA,-9.4,-21.7,829.6,831.0,27.8,9.2,0.00,0.0,100000,4.7,115
539470,2021-02-18,15:02:45,CHINA,-2.8,-12.3,949.9,1027.2,12.7,8.5,0.01,0.0,110000,57.5,204
570060,2021-02-18,15:02:45,CHINA,-2.2,-9.6,947.1,1025.4,11.4,5.6,0.01,0.0,110000,50.3,108
561720,2021-02-18,15:02:45,CHINA,-2.5,-14.6,778.4,781.2,32.3,3.5,0.04,0.0,110000,50.0,41
561730,2021-02-18,15:02:45,CHINA,-12.5,-26.6,660.4,670.4,29.4,10.8,0.00,0.0,100000,81.5,195
521180,2021-02-18,15:02:45,CHINA,-14.3,-24.9,828.9,831.5,30.9,10.2,0.01,0.0,110000,79.5,86
470460,2021-02-18,15:02:45,KOREANORTH,-4.1,-8.6,1024.1,1020.5,15.9,5.3,0.01,0.0,110000,62.4,245
347980,2021-02-18,15:02:45,KAZAKHSTAN,-3.2,-7.0,1018.9,1020.3,10.6,21.5,0.00,0.6,101000,74.8,43
537230,2021-02-18,15:02:45,CHINA,-9.5,-20.1,908.0,1029.6,19.8,8.8,0.02,0.0,110000,80.8,75
577070,2021-02-18,15:02:45,CHINA,-0.4,-2.4,852.3,855.2,9.3,3.0,0.03,0.0,110000,80.5,46
477690,2021-02-18,15:02:45,JAPAN,-0.4,-6.5,1022.4,1027.9,27.5,8.8,0.00,0.0,100000,29.7,155
475200,2021-02-18,15:02:45,JAPAN,-3.0,-7.1,1005.6,1018.6,16.3,11.5,0.15,0.0,110000,50.1,172
353860,2021-02-18,15:02:45,KAZAKHSTAN,-16.5,-19.8,986.2,990.0,17.7,9.5,0.00,0.0,100000,6.3,153
517160,2021-02-18,15:02:45,CHINA,-2.3,-10.0,910.9,1025.5,18.7,7.3,0.00,0.0,100000,73.4,178
545270,2021-02-18,15:02:45,CHINA,-3.6,-13.7,1027.0,1026.3,10.6,8.7,0.03,0.0,110000,50.0,1
545273,2021-02-18,15:02:45,CHINA,-1.6,-10.0,1000.4,998.3,6.9,11.8,0.00,0.0,100000,8.4,212
524360,2021-02-18,15:02:45,CHINA,-10.7,-22.9,863.3,1029.2,30.1,13.2,0.00,0.0,100000,77.6,28
470050,2021-02-18,15:02:45,KOREANORTH,-18.4,-22.2,900.1,898.5,19.6,6.3,0.06,6.7,111000,50.6,67
561820,2021-02-18,15:02:45,CHINA,-6.9,-15.4,778.5,822.1,28.5,6.9,0.06,0.0,110000,50.4,226
571930,2021-02-18,15:02:45,CHINA,-0.2,-7.5,1031.3,1026.3,14.5,8.7,0.02,0.0,110000,72.5,92
525760,2021-02-18,15:02:45,CHINA,-9.1,-22.1,852.6,855.1,30.5,17.2,0.00,0.0,100000,24.2,268
470900,2021-02-18,15:02:45,KOREASOUTH,-1.0,-9.2,1020.1,1021.3,20.0,11.0,0.17,0.5,111000,96.8,111
475160,2021-02-18,15:02:45,JAPAN,-3.0,-7.7,997.8,993.3,10.1,17.2,0.00,0.0,100000,0.0,3
581440,2021-02-18,15:02:45,CHINA,-0.4,-6.4,1026.9,1026.4,16.6,9.5,0.08,0.0,110000,50.2,12
536980,2021-02-18,15:02:45,CHINA,-2.0,-12.3,1029.0,1026.5,13.3,6.6,0.04,0.0,110000,50.4,357
289840,2021-02-18,15:02:45,KAZAKHSTAN,-6.1,-8.8,1010.9,1024.3,38.9,11.2,0.00,0.0,100000,76.0,167
544360,2021-02-18,15:02:45,CHINA,-8.3,-19.3,1018.4,1026.0,26.8,5.9,0.02,0.0,110000,78.2,337
478140,2021-02-18,15:02:45,JAPAN,-0.1,-5.4,1011.4,1021.9,14.9,5.8,0.24,0.0,110000,50.0,227
355760,2021-02-18,15:02:45,KAZAKHSTAN,-11.5,-14.7,1014.1,1035.4,21.6,11.4,0.00,6.2,101000,52.0,255
508440,2021-02-18,15:02:45,CHINA,-14.8,-24.5,1026.3,1023.5,14.8,13.6,0.01,0.0,110000,50.1,32
442840,2021-02-18,15:02:45,MONGOLIA,-29.2,-31.6,787.5,1046.6,49.7,2.3,0.00,4.5,101000,67.7,103
476120,2021-02-18,15:02:45,JAPAN,-0.6,-4.0,1017.3,1019.3,15.6,10.0,0.57,12.3,111000,50.1,357
475870,2021-02-18,15:02:45,JAPAN,-1.4,-5.6,1013.4,1017.9,15.2,24.3,0.34,4.2,111000,50.4,30
475850,2021-02-18,15:02:45,JAPAN,-3.5,-10.3,1010.6,1017.0,23.7,9.4,0.12,2.8,111000,50.0,332
547140,2021-02-18,15:02:45,CHINA,-3.7,-13.5,1029.4,1026.2,15.8,10.4,0.03,0.0,110000,50.0,228
471540,2021-02-18,15:02:45,KOREASOUTH,-0.1,-10.1,1012.8,1034.7,11.8,11.5,0.00,0.0,100000,6.8,282
471060,2021-02-18,15:02:45,KOREASOUTH,-4.1,-11.8,1017.0,1022.1,14.2,6.4,0.11,0.4,111000,50.2,319
443170,2021-02-18,15:02:45,MONGOLIA,-10.9,-16.2,,1017.6,21.3,13.2,0.00,4.5,101000,50.8,291
538630,2021-02-18,15:02:45,CHINA,-5.0,-13.8,1016.7,1028.0,13.4,8.4,0.02,0.0,110000,50.1,128
538870,2021-02-18,15:02:45,CHINA,-10.7,-29.0,915.3,1028.0,29.2,6.4,0.00,0.0,100000,49.5,332
475760,2021-02-18,15:02:45,JAPAN,-4.3,-8.9,1016.9,1017.5,21.0,10.9,0.11,0.0,110000,76.8,286
470520,2021-02-18,15:02:45,KOREANORTH,-7.6,-11.7,1034.5,1028.5,13.7,4.8,0.00,0.0,100000,78.4,106
471223,2021-02-18,15:02:45,KOREASOUTH,-0.5,-2.5,1010.2,1018.4,4.2,11.8,1.07,0.0,110000,50.2,155
471220,2021-02-18,15:02:45,KOREASOUTH,-4.7,-9.5,1017.1,1018.1,9.9,8.1,0.03,0.3,111000,50.1,11
577760,2021-02-18,15:02:45,CHINA,-0.6,-3.0,977.1,1024.0,8.4,18.6,0.21,0.0,110000,50.9,103
368215,2021-02-18,15:02:45,KAZAKHSTAN,-8.6,-11.5,1020.8,1045.2,8.9,17.2,0.00,0.0,100000,29.3,216
476290,2021-02-18,15:02:45,JAPAN,-1.9,-8.1,1012.6,1016.4,33.0,9.8,0.03,0.0,110000,50.2,106
170671,2021-02-18,15:02:45,TURKEY,-2.2,-4.9,1009.3,996.9,11.3,9.5,0.00,0.0,100000,6.9,317
471074,2021-02-18,15:02:45,KOREASOUTH,-2.8,-6.3,1007.5,1025.4,9.6,18.7,0.00,0.0,100000,99.3,331
471087,2021-02-18,15:02:45,KOREASOUTH,-4.5,-15.3,1007.2,985.7,11.0,11.1,0.00,0.0,100000,32.8,321
471080,2021-02-18,15:02:45,KOREASOUTH,-3.1,-10.1,1019.3,1023.7,11.3,9.1,0.03,0.1,111000,85.3,294
471120,2021-02-18,15:02:45,KOREASOUTH,-2.7,-9.0,1018.4,1023.5,15.8,12.1,0.04,0.0,110000,51.2,45
506320,2021-02-18,15:02:45,CHINA,-19.6,-23.9,983.0,1024.4,27.6,10.4,0.02,0.0,110000,50.4,165
527650,2021-02-18,15:02:45,CHINA,-14.1,-28.5,715.2,717.4,20.7,8.9,0.00,0.0,100000,57.2,84
442920,2021-02-18,15:02:45,MONGOLIA,-21.3,-23.9,887.4,1031.2,17.4,5.2,0.00,3.7,101000,61.0,76
518480,2021-02-18,15:02:45,CHINA,-5.7,-18.9,923.6,1027.3,15.5,7.0,0.00,0.0,100000,49.7,277
470610,2021-02-18,15:02:45,KOREANORTH,-2.4,-8.6,1016.2,1020.7,21.2,8.4,0.18,1.2,111000,89.0,245
470650,2021-02-18,15:02:45,KOREANORTH,-5.8,-11.2,1031.6,1024.9,11.7,8.5,0.02,0.0,110000,79.8,252
517110,2021-02-18,15:02:46,CHINA,-6.1,-14.6,801.2,805.3,24.7,8.6,0.02,0.0,110000,50.6,128
560040,2021-02-18,15:02:46,CHINA,-19.6,-30.6,1001.3,1001.2,30.1,20.4,0.00,0.0,100000,77.5,135
470600,2021-02-18,15:02:46,KOREANORTH,-4.3,-8.9,1028.4,1024.4,9.9,12.7,0.04,0.0,110000,50.3,203
542730,2021-02-18,15:02:46,CHINA,-16.8,-21.9,1017.3,1025.2,15.7,8.2,0.06,0.0,110000,67.4,344
515730,2021-02-18,15:02:46,CHINA,-3.6,-17.6,1022.9,1028.8,23.3,4.8,0.04,0.0,110000,65.1,219
356710,2021-02-18,15:02:46,KAZAKHSTAN,-10.8,-13.7,997.7,1029.5,20.5,17.0,0.00,5.0,101000,50.2,297
517160,2021-02-18,15:02:46,CHINA,-2.3,-10.0,910.9,1025.5,18.7,7.2,0.00,0.0,100000,73.3,179
343980,2021-02-18,15:02:46,KAZAKHSTAN,-8.0,-11.6,1016.2,1015.7,17.7,15.9,0.00,5.6,101000,82.7,171
547140,2021-02-18,15:02:46,CHINA,-3.5,-12.3,1029.4,1026.2,15.8,10.5,0.03,0.0,110000,50.1,229
471540,2021-02-18,15:02:46,KOREASOUTH,-0.1,-10.1,1012.8,1034.7,11.9,11.5,0.00,0.0,100000,6.8,283
471060,2021-02-18,15:02:46,KOREASOUTH,-3.8,-10.8,1017.0,1022.1,14.2,6.3,0.11,0.4,111000,50.2,319
474740,2021-02-18,15:02:46,JAPAN,-11.8,-20.0,1004.2,1012.8,10.1,9.7,0.00,0.0,100000,63.3,70
543240,2021-02-18,15:02:46,CHINA,-11.0,-26.3,1022.1,1025.3,20.9,11.3,0.01,0.0,110000,54.5,184
287850,2021-02-18,15:02:46,KAZAKHSTAN,-8.5,-10.9,1031.0,1021.0,16.4,4.2,0.00,13.2,101000,77.2,170
521120,2021-02-18,15:02:46,CHINA,-8.0,-19.1,1029.5,1026.4,29.2,12.4,0.00,0.0,100000,49.8,183
470350,2021-02-18,15:02:46,KOREANORTH,-6.3,-13.4,1034.0,1024.8,16.1,11.7,0.05,0.0,110000,98.6,343
542180,2021-02-18,15:02:46,CHINA,-11.2,-25.0,992.1,1026.4,21.5,9.4,0.01,0.0,110000,50.0,182
170880,2021-02-18,15:02:46,TURKEY,-2.7,-3.7,876.6,878.4,16.6,11.8,0.05,16.2,111000,50.3,292
476170,2021-02-18,15:02:46,JAPAN,-6.4,-9.4,957.6,1027.8,23.9,4.3,0.00,0.0,100000,14.8,34
548630,2021-02-18,15:02:46,CHINA,-3.1,-11.9,1026.6,1026.4,19.4,13.6,0.03,0.0,110000,50.4,342
507450,2021-02-18,15:02:46,CHINA,-16.7,-24.1,1015.0,1023.0,11.2,10.6,0.01,0.0,110000,51.1,221
287660,2021-02-18,15:02:46,KAZAKHSTAN,-6.8,-10.5,1016.8,1025.5,11.1,14.2,0.01,4.5,111000,85.4,279
474880,2021-02-18,15:02:46,JAPAN,-3.7,-8.6,995.4,998.1,9.2,16.4,0.00,0.0,100000,43.9,231
359530,2021-02-18,15:02:46,KAZAKHSTAN,-7.2,-9.6,1023.8,1029.6,31.6,16.7,0.02,0.0,110000,71.3,226
581410,2021-02-18,15:02:46,CHINA,-0.9,-9.7,1031.8,1034.3,15.8,7.2,0.00,0.0,100000,30.8,297
576220,2021-02-18,15:02:46,CHINA,-3.3,-3.9,842.1,837.9,2.9,10.6,0.15,0.0,110000,50.1,167
560670,2021-02-18,15:02:46,CHINA,-13.2,-21.9,650.5,646.5,19.9,12.5,0.00,0.0,100000,25.7,101
540960,2021-02-18,15:02:46,CHINA,-15.5,-22.7,1022.9,1023.1,17.4,12.3,0.03,0.0,110000,50.2,12
442190,2021-02-18,15:02:46,MONGOLIA,-10.6,-21.5,850.8,1014.9,19.0,6.0,0.00,0.0,100000,27.2,213
471300,2021-02-18,15:02:46,KOREASOUTH,-0.8,-8.2,1020.3,1022.0,20.9,13.0,0.18,0.0,110000,50.7,26
471310,2021-02-18,15:02:46,KOREASOUTH,-3.3,-8.9,1021.1,1024.1,17.9,6.0,0.04,0.0,110000,64.1,118
560180,2021-02-18,15:02:46,CHINA,-12.1,-24.4,627.0,632.9,26.4,8.3,0.02,0.0,110000,86.0,170
560340,2021-02-18,15:02:46,CHINA,-21.8,-30.3,600.9,595.9,22.6,17.0,0.02,0.0,110000,50.1,214
534460,2021-02-18,15:02:46,CHINA,-12.2,-25.8,995.3,1031.2,13.4,12.6,0.00,0.0,100000,58.9,125
528360,2021-02-18,15:02:46,CHINA,-9.4,-26.4,687.5,687.0,27.5,10.0,0.06,0.0,110000,50.6,116
476200,2021-02-18,15:02:46,JAPAN,-3.0,-6.8,926.7,1018.6,27.0,12.5,0.18,0.0,110000,50.0,125
443730,2021-02-18,15:02:46,MONGOLIA,-11.5,-21.2,854.3,1027.8,45.1,9.6,0.00,0.2,101000,50.4,345
443740,2021-02-18,15:02:46,MONGOLIA,-13.7,-22.0,830.7,1030.6,49.3,14.4,0.00,1.3,101000,69.6,341
381980,2021-02-18,15:02:46,KAZAKHSTAN,-2.4,-7.1,1030.4,1026.3,21.4,8.2,0.32,0.4,111000,62.8,170
532760,2021-02-18,15:02:46,CHINA,-14.2,-22.6,919.4,1030.2,28.5,19.6,0.01,0.0,110000,76.4,90
545110,2021-02-18,15:02:46,CHINA,-3.9,-15.6,1022.7,1026.0,14.9,13.0,0.03,0.0,110000,73.5,123
529960,2021-02-18,15:02:46,CHINA,-8.7,-13.9,778.7,779.2,15.1,15.5,0.01,0.0,110000,50.4,329
526610,2021-02-18,15:02:46,CHINA,-10.3,-24.2,929.2,954.4,69.6,8.2,0.00,0.0,100000,22.5,243
544230,2021-02-18,15:02:46,CHINA,-10.2,-22.0,975.9,1024.6,24.0,5.1,0.00,0.0,100000,22.4,326
544360,2021-02-18,15:02:46,CHINA,-8.3,-20.8,1018.4,1026.0,26.7,5.8,0.02,0.0,110000,78.2,336
474110,2021-02-18,15:02:46,JAPAN,-6.1,-11.4,1012.9,1016.1,19.3,12.4,0.21,0.0,110000,50.0,200
474090,2021-02-18,15:02:46,JAPAN,-10.2,-13.8,1013.8,1016.1,22.6,9.7,0.04,9.9,111000,50.5,155
513790,2021-02-18,15:02:46,CHINA,-18.4,-21.6,1018.1,1036.0,26.7,9.7,0.01,0.0,110000,53.0,118
289780,2021-02-18,15:02:46,KAZAKHSTAN,-11.4,-12.5,969.2,1022.4,17.5,10.6,0.00,0.0,100000,31.0,275
538210,2021-02-18,15:02:46,CHINA,-7.2,-18.4,931.6,1029.0,18.6,8.9,0.00,0.0,100000,0.2,95
443470,2021-02-18,15:02:46,MONGOLIA,-7.7,-27.4,861.4,1013.1,37.1,26.5,0.00,0.0,100000,23.8,2
504340,2021-02-18,15:02:46,CHINA,-29.8,-33.2,967.3,1027.4,27.2,7.7,0.01,0.0,110000,50.3,350
350530,2021-02-18,15:02:46,KAZAKHSTAN,-8.2,-11.5,1035.2,1033.8,18.7,11.7,0.01,2.5,111000,50.4,290
580270,2021-02-18,15:02:46,CHINA,-0.5,-7.6,1021.2,1026.7,13.8,9.0,0.05,0.0,110000,52.4,298
475970,2021-02-18,15:02:46,JAPAN,-2.8,-9.3,974.2,1018.3,23.8,15.2,0.11,0.0,110000,69.5,289
504680,2021-02-18,15:02:46,CHINA,-21.6,-25.4,1011.4,1023.4,21.2,9.3,0.01,0.0,110000,86.6,325
527540,2021-02-18,15:02:46,CHINA,-13.8,-28.6,676.2,676.2,24.0,10.7,0.00,0.0,100000,39.0,184
380190,2021-02-18,15:02:46,KAZAKHSTAN,-11.2,-15.3,1043.8,1032.6,29.3,12.1,0.02,9.4,111000,92.6,61
544490,2021-02-18,15:02:46,CHINA,-0.2,-21.2,1031.0,1016.6,32.0,24.7,0.00,0.0,100000,47.9,298
381780,2021-02-18,15:02:46,UZBEKISTAN,-1.3,-6.4,1010.4,1025.1,14.5,10.4,0.00,0.0,100000,6.4,168
442820,2021-02-18,15:02:46,MONGOLIA,-8.4,-24.7,816.0,1009.5,49.2,7.5,0.00,0.0,100000,21.6,32
561160,2021-02-18,15:02:46,CHINA,-8.1,-21.6,684.3,685.0,26.6,4.2,0.00,0.0,100000,34.5,300
536460,2021-02-18,15:02:46,CHINA,-8.5,-19.5,928.0,1029.2,17.8,9.7,0.01,0.0,110000,50.7,19
356050,2021-02-18,15:02:46,KAZAKHSTAN,-0.8,-1.0,1036.3,1014.5,22.5,17.9,0.19,0.0,110000,50.4,160
171890,2021-02-18,15:02:46,TURKEY,-6.7,-9.9,901.6,926.6,15.4,13.3,0.24,9.4,111000,75.3,359
356330,2021-02-18,15:02:46,KAZAKHSTAN,-11.3,-13.8,1026.0,1023.8,21.8,16.4,0.00,5.2,101000,70.2,159
531920,2021-02-18,15:02:46,CHINA,-18.9,-23.5,918.0,1033.1,31.1,9.9,0.01,0.0,110000,63.5,241
470670,2021-02-18,15:02:46,KOREANORTH,-6.8,-10.5,1044.9,1024.9,15.6,7.6,0.00,0.0,100000,97.9,53
542260,2021-02-18,15:02:46,CHINA,-11.0,-24.8,1022.6,1025.9,25.7,15.2,0.01,0.0,110000,87.8,130
470680,2021-02-18,15:02:46,KOREANORTH,-4.4,-10.1,1030.9,1024.8,16.3,11.5,0.01,0.0,110000,50.1,171
530830,2021-02-18,15:02:46,CHINA,-18.4,-24.7,965.1,1031.2,29.1,12.8,0.01,0.0,110000,64.7,221
561250,2021-02-18,15:02:46,CHINA,-9.1,-23.8,650.1,654.8,23.7,7.4,0.03,0.0,110000,94.9,44
543110,2021-02-18,15:02:46,CHINA,-12.2,-23.0,970.7,1028.1,28.0,6.6,0.01,0.0,110000,54.0,76
442120,2021-02-18,15:02:46,MONGOLIA,-33.1,-35.9,914.5,1040.7,46.4,2.4,0.00,11.3,101000,79.6,327
544050,2021-02-18,15:02:46,CHINA,-7.7,-21.7,1023.7,1028.0,21.3,12.3,0.01,0.0,110000,55.4,68
442140,2021-02-18,15:02:46,MONGOLIA,-15.6,-23.3,827.0,1027.8,9.0,15.2,0.00,0.0,100000,91.7,236
536980,2021-02-18,15:02:46,CHINA,-2.0,-13.5,1029.0,1026.5,13.3,6.5,0.04,0.0,110000,50.4,357
289840,2021-02-18,15:02:46,KAZAKHSTAN,-6.0,-9.4,1011.0,1024.3,38.9,11.1,0.00,0.0,100000,76.0,167
442590,2021-02-18,15:02:46,MONGOLIA,-18.1,-20.6,950.1,1027.6,20.8,9.8,0.02,1.9,111000,50.0,350
537230,2021-02-18,15:02:46,CHINA,-9.5,-20.1,908.0,1029.6,19.7,8.8,0.02,0.0,110000,80.7,74
561460,2021-02-18,15:02:46,CHINA,-6.2,-19.3,680.6,677.7,31.5,7.7,0.02,0.0,110000,50.1,181
367440,2021-02-18,15:02:46,KAZAKHSTAN,-5.7,-8.6,1034.0,1034.0,44.1,10.6,0.08,1.0,111000,50.8,349
443290,2021-02-18,15:02:46,MONGOLIA,-15.8,-17.1,779.6,1033.1,19.5,14.3,0.00,3.2,101000,50.0,224
369820,2021-02-18,15:02:46,KYRGYZSTAN,-21.7,-25.6,646.3,646.5,42.7,9.5,0.00,0.0,100000,63.8,267
527650,2021-02-18,15:02:46,CHINA,-14.1,-28.5,715.2,717.4,20.6,8.8,0.00,0.0,100000,57.3,84
518110,2021-02-18,15:02:46,CHINA,-2.5,-10.7,919.7,1025.0,14.3,4.6,0.00,0.0,100000,45.3,246
526020,2021-02-18,15:02:46,CHINA,-15.5,-33.3,726.2,726.5,26.4,15.0,0.00,0.0,100000,53.0,188
361770,2021-02-18,15:02:46,KAZAKHSTAN,-6.9,-11.9,1020.4,1026.8,10.4,9.2,0.00,0.0,100000,53.6,27
477090,2021-02-18,15:02:46,JAPAN,-1.5,-10.3,998.9,1002.2,9.3,10.4,0.00,0.0,100000,71.5,127
471290,2021-02-18,15:02:46,KOREASOUTH,-3.2,-9.3,1021.3,1024.0,19.1,8.7,0.03,0.0,110000,58.1,307
475160,2021-02-18,15:02:46,JAPAN,-3.0,-7.2,997.8,993.4,10.2,17.1,0.00,0.0,100000,0.1,3
548430,2021-02-18,15:02:46,CHINA,-4.5,-12.0,1024.0,1026.6,17.0,12.4,0.04,0.0,110000,50.9,22
561930,2021-02-18,15:02:46,CHINA,-1.3,-6.4,1033.3,1031.2,14.5,2.7,0.11,0.0,110000,50.4,35
357000,2021-02-18,15:02:46,KAZAKHSTAN,-3.1,-6.3,1025.2,1023.0,16.4,18.6,0.01,0.4,111000,50.3,172
477560,2021-02-18,15:02:46,JAPAN,-0.6,-4.2,1001.3,1019.8,12.8,5.1,0.44,0.0,110000,58.5,158
571930,2021-02-18,15:02:46,CHINA,-0.2,-7.5,1031.3,1026.3,14.6,8.8,0.02,0.0,110000,72.5,93
533910,2021-02-18,15:02:46,CHINA,-4.4,-21.9,884.0,1027.2,28.9,17.9,0.01,0.0,110000,50.3,291
172480,2021-02-18,15:02:46,TURKEY,-4.0,-5.7,894.4,885.9,15.8,8.4,0.36,8.8,111000,87.0,47
515420,2021-02-18,15:02:46,CHINA,-20.5,-23.3,755.0,752.7,31.3,6.7,0.01,0.0,110000,88.2,71
539750,2021-02-18,15:02:46,CHINA,-4.1,-12.4,1018.9,1028.8,14.6,7.1,0.02,0.0,110000,50.4,220
523130,2021-02-18,15:02:46,CHINA,-12.6,-24.3,924.6,894.9,59.3,2.9,0.00,0.0,100000,9.3,189
475200,2021-02-18,15:02:46,JAPAN,-3.2,-6.3,1005.6,1018.6,16.4,11.4,0.15,0.0,110000,50.1,172
353860,2021-02-18,15:02:46,KAZAKHSTAN,-16.4,-19.8,986.3,989.8,17.8,9.5,0.00,0.0,100000,6.2,153
549160,2021-02-18,15:02:46,CHINA,-2.7,-12.1,1029.1,1026.9,14.8,9.4,0.03,0.0,110000,50.0,134
552990,2021-02-18,15:02:46,CHINA,-15.5,-29.0,1003.2,1004.8,27.3,11.8,0.03,0.0,110000,99.2,331
470312,2021-02-18,15:02:46,CHINA,-2.1,-11.8,985.3,965.4,,8.4,0.00,0.0,100000,29.3,90
170960,2021-02-18,15:02:46,TURKEY,-2.6,-6.4,890.7,899.4,9.7,9.7,0.04,8.5,111000,66.1,72
470520,2021-02-18,15:02:46,KOREANORTH,-7.9,-11.7,1034.6,1028.5,13.7,4.9,0.00,0.0,100000,78.4,106
471064,2021-02-18,15:02:46,KOREASOUTH,-10.0,-14.0,1001.3,1011.1,10.8,9.7,0.00,0.0,100000,52.0,83
471066,2021-02-18,15:02:46,KOREASOUTH,-4.9,-12.1,1007.9,1002.2,9.1,5.8,0.00,0.0,100000,99.1,51
471050,2021-02-18,15:02:46,KOREASOUTH,-0.9,-8.7,1016.6,1021.8,20.2,11.9,0.18,1.4,111000,92.1,248
539150,2021-02-18,15:02:46,CHINA,-5.5,-15.1,907.8,1027.7,22.1,7.2,0.02,0.0,110000,56.5,61
570250,2021-02-18,15:02:46,CHINA,-1.4,-4.9,1038.6,1034.4,6.3,6.8,0.00,0.0,100000,47.0,340
475910,2021-02-18,15:02:46,JAPAN,-1.4,-5.8,1002.4,998.3,12.6,14.5,0.05,0.5,111000,50.2,332
555780,2021-02-18,15:02:46,CHINA,-8.2,-31.3,635.7,635.6,29.4,7.5,0.00,0.0,100000,66.8,233
474900,2021-02-18,15:02:46,JAPAN,-10.9,-16.3,992.7,995.7,10.1,8.8,0.00,0.0,100000,32.8,145
474890,2021-02-18,15:02:46,JAPAN,-8.3,-14.7,1002.5,1001.7,10.2,10.7,0.00,0.0,100000,65.4,251
505480,2021-02-18,15:02:46,CHINA,-19.8,-24.1,998.6,1010.3,30.7,3.4,0.00,0.0,100000,62.0,229
518550,2021-02-18,15:02:46,CHINA,-7.6,-20.4,933.0,1025.4,17.5,7.5,0.00,0.0,100000,93.9,252
543860,2021-02-18,15:02:46,CHINA,-15.6,-23.4,965.9,1026.2,18.4,10.6,0.04,0.0,110000,73.6,275
363350,2021-02-18,15:02:46,KAZAKHSTAN,-9.9,-13.6,1031.3,1033.1,43.1,18.6,0.04,7.6,111000,50.7,14
507560,2021-02-18,15:02:46,CHINA,-19.7,-23.2,1010.9,1023.2,12.7,9.7,0.00,0.0,100000,23.1,293
562570,2021-02-18,15:02:46,CHINA,-8.9,-22.5,684.5,683.3,37.6,7.7,0.00,0.0,100000,64.0,261
442920,2021-02-18,15:02:46,MONGOLIA,-21.3,-23.9,887.4,1031.2,17.4,5.1,0.00,3.7,101000,61.0,76
529570,2021-02-18,15:02:46,CHINA,-15.3,-30.8,723.5,726.8,27.2,14.2,0.00,0.0,100000,95.0,32
543420,2021-02-18,15:02:46,CHINA,-10.0,-18.8,1021.9,1024.7,6.9,12.4,0.03,0.0,110000,50.3,193
518860,2021-02-18,15:02:46,CHINA,-12.5,-28.9,701.4,700.8,27.0,12.5,0.00,0.0,100000,42.1,221
524180,2021-02-18,15:02:46,CHINA,-8.1,-21.4,917.5,1027.6,27.7,6.3,0.00,0.0,100000,81.5,244
442840,2021-02-18,15:02:46,MONGOLIA,-29.2,-31.6,787.5,1046.5,49.7,2.4,0.00,4.5,101000,67.7,103
549380,2021-02-18,15:02:46,CHINA,-2.4,-12.4,1033.5,1027.6,15.0,9.9,0.02,0.0,110000,50.3,155
542920,2021-02-18,15:02:46,CHINA,-12.6,-21.8,1007.8,1025.5,20.9,11.3,0.00,0.0,100000,84.0,252
527370,2021-02-18,15:02:46,CHINA,-9.4,-25.4,725.3,726.7,25.4,7.4,0.00,0.0,100000,88.7,63
470610,2021-02-18,15:02:46,KOREANORTH,-2.3,-9.3,1016.2,1020.7,21.2,8.3,0.18,1.2,111000,89.0,245
470650,2021-02-18,15:02:46,KOREANORTH,-5.5,-12.3,1031.5,1024.9,11.7,8.6,0.02,0.0,110000,79.8,251
549450,2021-02-18,15:02:46,CHINA,-1.4,-9.7,1024.7,1027.0,16.8,13.0,0.09,0.0,110000,50.3,32
549290,2021-02-18,15:02:46,CHINA,-0.8,-9.5,1023.5,1026.6,17.7,6.7,0.01,0.0,110000,72.0,281
546160,2021-02-18,15:02:46,CHINA,-3.8,-13.2,1027.4,1026.5,12.1,13.3,0.03,0.0,110000,64.8,340
471430,2021-02-18,15:02:46,KOREASOUTH,-0.7,-8.3,1016.1,1023.0,18.6,10.1,0.06,0.1,111000,50.0,21
471131,2021-02-18,15:02:46,KOREASOUTH,-1.6,-11.3,977.4,985.6,9.2,11.6,0.00,0.0,100000,36.6,82
471130,2021-02-18,15:02:46,KOREASOUTH,-1.5,-7.6,1020.0,1022.4,11.2,8.0,0.00,0.0,100000,59.0,273
531490,2021-02-18,15:02:46,CHINA,-13.2,-25.1,905.9,1030.0,29.2,16.4,0.01,0.0,110000,62.5,297
527870,2021-02-18,15:02:46,CHINA,-13.4,-23.0,746.8,750.6,26.8,18.8,0.01,0.0,110000,73.0,25
475490,2021-02-18,15:02:46,JAPAN,-2.3,-8.3,998.3,999.4,8.6,9.2,0.00,0.0,100000,87.4,236
508440,2021-02-18,15:02:46,CHINA,-15.3,-23.1,1026.3,1023.5,14.8,13.5,0.01,0.0,110000,50.1,32
355320,2021-02-18,15:02:46,KAZAKHSTAN,-2.6,-4.6,1013.4,1027.9,15.9,18.6,0.06,15.6,111000,75.7,4
474760,2021-02-18,15:02:46,JAPAN,-10.6,-14.0,1001.9,1004.0,8.4,11.8,0.00,0.0,100000,43.3,168
528180,2021-02-18,15:02:46,CHINA,-10.0,-29.1,754.0,752.8,26.7,8.8,0.00,0.0,100000,70.3,86
548360,2021-02-18,15:02:46,CHINA,-4.0,-14.6,1031.0,1027.7,14.7,9.9,0.04,0.0,110000,50.3,30
523230,2021-02-18,15:02:46,CHINA,-14.3,-26.9,819.2,814.8,31.4,15.1,0.00,0.0,100000,33.5,16
474040,2021-02-18,15:02:46,JAPAN,-7.9,-11.1,1015.5,1016.7,26.1,14.4,0.24,0.0,110000,54.9,263
509830,2021-02-18,15:02:46,CHINA,-16.9,-22.4,1017.8,1022.3,16.5,10.8,0.01,0.0,110000,50.1,258
537050,2021-02-18,15:02:46,CHINA,-7.2,-19.6,974.7,1028.7,19.1,11.5,0.01,0.0,110000,50.2,250
570670,2021-02-18,15:02:46,CHINA,-2.4,-9.5,993.4,1028.8,13.8,5.1,0.02,0.0,110000,58.1,274
443540,2021-02-18,15:02:46,MONGOLIA,-14.8,-19.5,1058.2,1029.4,49.7,16.6,0.00,0.0,100000,46.7,288
548230,2021-02-18,15:02:46,CHINA,-0.9,-11.8,1022.8,1026.4,11.3,11.9,0.05,0.0,110000,50.0,214
534800,2021-02-18,15:02:46,CHINA,-14.1,-23.3,957.9,1030.3,26.0,11.5,0.03,0.0,110000,50.6,234
475570,2021-02-18,15:02:46,JAPAN,-0.7,-7.4,993.0,995.6,9.9,16.4,0.00,0.0,100000,73.4,346
507740,2021-02-18,15:02:46,CHINA,-21.0,-27.5,1013.2,1023.1,10.5,6.9,0.01,0.0,110000,50.0,328
517770,2021-02-18,15:02:46,CHINA,-5.8,-19.0,939.7,1027.2,21.9,8.3,0.00,0.0,100000,50.9,71
471360,2021-02-18,15:02:46,KOREASOUTH,-3.7,-9.8,1010.7,1024.1,17.8,7.3,0.06,0.0,110000,89.7,27
471370,2021-02-18,15:02:46,KOREASOUTH,-2.8,-10.9,1010.5,1023.0,15.5,6.8,0.03,0.0,110000,50.2,65
366390,2021-02-18,15:02:46,KAZAKHSTAN,-10.3,-14.2,1055.9,1038.4,49.0,2.6,1.83,0.0,110000,70.9,
470690,2021-02-18,15:02:46,KOREANORTH,-4.3,-10.6,1021.8,1024.8,15.1,9.7,0.00,0.0,100000,90.8,179
517090,2021-02-18,15:02:46,CHINA,-0.9,-8.4,912.1,1026.8,15.2,5.6,0.01,0.0,110000,50.0,278
470700,2021-02-18,15:02:46,KOREANORTH,-4.3,-10.1,1028.4,1022.8,17.7,8.1,0.05,0.0,110000,88.7,108
442880,2021-02-18,15:02:46,MONGOLIA,-8.2,-14.1,917.4,1028.6,47.5,13.1,0.02,0.1,111000,50.2,316
476290,2021-02-18,15:02:46,JAPAN,-1.9,-9.3,1012.6,1016.4,33.0,9.9,0.03,0.0,110000,50.3,106
513340,2021-02-18,15:02:46,CHINA,-8.4,-12.2,1030.8,1032.8,25.6,5.1,0.01,0.0,110000,50.2,167
470390,2021-02-18,15:02:46,KOREANORTH,-8.4,-11.1,1022.5,1024.1,8.1,3.4,0.00,0.0,100000,89.8,98
538980,2021-02-18,15:02:46,CHINA,-1.8,-10.3,1023.5,1027.2,13.0,7.8,0.03,0.0,110000,50.1,91
353610,2021-02-18,15:02:46,KAZAKHSTAN,-9.2,-12.2,991.6,1021.1,26.8,8.0,0.00,0.0,100000,33.9,321
475980,2021-02-18,15:02:46,JAPAN,-0.1,-7.0,1021.9,1017.8,23.2,9.4,0.17,0.3,111000,50.3,103
474130,2021-02-18,15:02:46,JAPAN,-6.9,-9.0,1008.1,1014.5,16.8,9.7,0.03,0.0,110000,50.0,278
474170,2021-02-18,15:02:46,JAPAN,-15.4,-18.8,1009.8,1015.0,10.1,5.8,0.04,0.0,110000,51.2,263
442410,2021-02-18,15:02:46,MONGOLIA,-21.4,-24.7,1030.1,1033.6,45.6,9.2,0.00,1.9,101000,65.2,158
581440,2021-02-18,15:02:46,CHINA,-0.4,-7.3,1026.9,1026.4,16.5,9.5,0.08,0.0,110000,50.2,13
475870,2021-02-18,15:02:46,JAPAN,-1.4,-5.6,1013.4,1017.9,15.2,24.4,0.34,4.2,111000,50.4,30
475850,2021-02-18,15:02:46,JAPAN,-3.5,-9.4,1010.6,1017.0,23.7,9.4,0.12,2.8,111000,50.0,332
351730,2021-02-18,15:02:46,KAZAKHSTAN,-11.0,-14.9,1025.6,1033.9,29.5,13.6,0.00,6.0,101000,81.7,6
538450,2021-02-18,15:02:46,CHINA,-6.5,-15.3,933.4,1028.8,12.3,6.7,0.01,0.0,110000,69.0,3
289520,2021-02-18,15:02:46,KAZAKHSTAN,-13.7,-17.0,1038.4,1033.1,7.7,13.4,0.04,0.0,110000,52.1,293
543370,2021-02-18,15:02:46,CHINA,-7.6,-19.0,1024.1,1025.5,12.2,13.6,0.01,0.0,110000,50.5,227
474210,2021-02-18,15:02:46,JAPAN,-4.6,-9.2,1015.3,1016.4,18.5,18.0,0.14,14.5,111000,50.5,323
524460,2021-02-18,15:02:46,CHINA,-11.1,-23.5,940.0,1033.7,43.2,13.6,0.00,0.0,100000,79.2,107
534870,2021-02-18,15:02:46,CHINA,-10.8,-21.7,973.2,1029.3,16.6,11.5,0.01,0.0,110000,65.4,273
546620,2021-02-18,15:02:46,CHINA,-3.7,-12.0,1022.3,1025.6,14.0,17.6,0.02,0.0,110000,64.6,243
570460,2021-02-18,15:02:46,CHINA,-6.7,-15.0,817.5,831.5,18.2,15.8,0.03,0.0,110000,52.5,238
540120,2021-02-18,15:02:46,CHINA,-19.5,-23.6,935.8,1030.0,25.1,12.7,0.01,0.0,110000,50.3,177
476000,2021-02-18,15:02:46,JAPAN,-0.1,-5.0,1018.4,1019.6,15.9,13.9,0.29,5.1,111000,50.3,353
471330,2021-02-18,15:02:46,KOREASOUTH,-2.8,-9.9,1019.8,1024.1,17.1,6.5,0.04,0.0,110000,79.4,328
471340,2021-02-18,15:02:46,KOREASOUTH,-3.1,-9.6,1001.0,997.1,10.4,7.0,0.01,0.0,110000,95.4,217
506030,2021-02-18,15:02:46,CHINA,-19.9,-23.3,982.8,1028.0,29.5,10.6,0.01,0.0,110000,72.2,110
471350,2021-02-18,15:02:46,KOREASOUTH,-3.1,-10.6,1011.8,1023.3,19.7,14.5,0.08,0.0,110000,55.1,130
470750,2021-02-18,15:02:46,KOREANORTH,-6.3,-10.5,1027.9,1023.0,23.6,8.1,0.11,0.0,110000,50.6,259
526810,2021-02-18,15:02:46,CHINA,-9.7,-23.0,898.2,1029.7,29.9,10.9,0.00,0.0,100000,3.2,315
380620,2021-02-18,15:02:46,KAZAKHSTAN,-5.0,-9.3,1026.6,1024.5,20.1,14.5,0.01,0.7,111000,93.8,348
475150,2021-02-18,15:02:46,JAPAN,-2.6,-7.3,997.3,998.6,9.9,16.3,0.00,0.0,100000,99.5,32
475760,2021-02-18,15:02:46,JAPAN,-4.3,-9.8,1016.9,1017.5,21.1,11.0,0.11,0.0,110000,76.9,285
552790,2021-02-18,15:02:46,CHINA,-12.0,-30.9,996.5,997.6,27.6,18.9,0.01,0.0,110000,50.1,291
476400,2021-02-18,15:02:46,JAPAN,-7.9,-16.1,920.4,914.7,30.5,5.5,0.00,0.0,100000,45.7,285
353020,2021-02-18,15:02:46,KAZAKHSTAN,-7.3,-10.8,1051.5,1034.9,19.9,18.4,0.00,0.0,100000,3.3,136
383340,2021-02-18,15:02:46,KAZAKHSTAN,-1.4,-5.1,927.0,1024.4,12.3,10.5,0.00,4.7,101000,73.2,153
521180,2021-02-18,15:02:46,CHINA,-13.5,-24.9,828.9,831.5,31.0,10.3,0.01,0.0,110000,79.5,87
554720,2021-02-18,15:02:46,CHINA,-13.2,-31.1,996.2,993.6,26.2,25.9,0.01,0.0,110000,84.6,313
475750,2021-02-18,15:02:46,JAPAN,-3.3,-7.1,1020.6,1017.6,14.6,13.7,0.19,22.8,111000,60.8,221
510870,2021-02-18,15:02:46,CHINA,-9.1,-18.1,931.2,1032.3,23.4,6.2,0.00,0.0,100000,57.0,18
518480,2021-02-18,15:02:46,CHINA,-5.7,-20.5,923.6,1027.3,15.4,7.0,0.00,0.0,100000,49.6,276
539590,2021-02-18,15:02:46,CHINA,-1.4,-10.6,1011.1,1027.1,16.6,9.3,0.01,0.0,110000,50.4,50
470950,2021-02-18,15:02:46,KOREASOUTH,-6.5,-12.2,1007.6,1024.0,16.2,6.3,0.05,0.0,110000,50.2,94
561440,2021-02-18,15:02:46,CHINA,-4.7,-22.3,683.3,684.3,35.2,4.7,0.00,0.0,100000,73.3,217
560930,2021-02-18,15:02:46,CHINA,-9.8,-15.8,1006.5,1019.0,16.3,12.4,0.00,0.0,100000,29.1,310
443520,2021-02-18,15:02:46,MONGOLIA,-15.1,-24.2,1021.7,1029.0,50.0,14.4,0.00,0.0,100000,27.4,202
350670,2021-02-18,15:02:46,KAZAKHSTAN,-8.2,-11.8,1043.3,1033.9,10.4,9.4,0.00,5.2,101000,50.8,314
358840,2021-02-18,15:02:46,KAZAKHSTAN,-8.6,-10.4,977.3,993.3,19.5,12.6,0.03,12.6,111000,51.0,314
442320,2021-02-18,15:02:46,MONGOLIA,-27.1,-32.7,1069.1,1049.0,44.8,4.5,0.00,0.0,100000,92.3,328
541610,2021-02-18,15:02:46,CHINA,-12.3,-21.1,1014.6,1024.0,12.4,13.5,0.02,0.0,110000,50.6,133
541611,2021-02-18,15:02:46,CHINA,-12.5,-26.3,1008.8,1006.8,9.9,17.4,0.00,0.0,100000,18.5,288
541570,2021-02-18,15:02:46,CHINA,-12.0,-19.2,1021.2,1024.3,14.7,10.5,0.04,0.0,110000,50.2,325
359250,2021-02-18,15:02:46,KAZAKHSTAN,-4.6,-9.4,1017.8,1028.7,21.8,22.0,0.00,0.0,100000,11.0,81
541150,2021-02-18,15:02:46,CHINA,-13.8,-26.4,973.4,1027.1,24.6,11.2,0.01,0.0,110000,50.1,239
517470,2021-02-18,15:02:46,CHINA,-6.5,-19.8,893.8,1025.7,19.3,3.8,0.00,0.0,100000,35.7,52
545270,2021-02-18,15:02:46,CHINA,-3.6,-12.6,1027.0,1026.4,10.6,8.7,0.03,0.0,110000,50.0,1
545273,2021-02-18,15:02:46,CHINA,-1.7,-10.0,1000.3,998.4,7.0,11.9,0.00,0.0,100000,8.4,212
543740,2021-02-18,15:02:46,CHINA,-13.9,-19.2,1005.3,1024.4,15.4,3.7,0.05,0.0,110000,95.6,269
543424,2021-02-18,15:02:46,CHINA,-7.2,-16.5,998.5,1001.7,9.6,12.1,0.00,0.0,100000,51.4,235
570830,2021-02-18,15:02:46,CHINA,-1.0,-10.8,1020.6,1027.1,10.0,8.7,0.04,0.0,110000,50.9,97
581020,2021-02-18,15:02:46,CHINA,-0.4,-7.2,1021.4,1026.7,18.5,8.5,0.08,0.0,110000,69.4,232
474300,2021-02-18,15:02:46,JAPAN,-5.9,-10.4,1016.2,1016.6,13.5,12.4,0.09,8.8,111000,97.2,125
474180,2021-02-18,15:02:46,JAPAN,-10.3,-15.4,1011.3,1015.7,20.9,15.3,0.06,5.1,111000,86.7,265
351880,2021-02-18,15:02:46,KAZAKHSTAN,-11.6,-14.8,1028.0,1028.9,16.4,16.8,0.22,1.9,111000,90.0,85
528420,2021-02-18,15:02:46,CHINA,-2.0,-18.8,696.7,692.0,17.0,14.5,0.00,0.0,100000,83.5,29
535930,2021-02-18,15:02:46,CHINA,-11.8,-22.8,980.5,1029.0,23.6,7.3,0.01,0.0,110000,90.9,202
478140,2021-02-18,15:02:46,JAPAN,-0.1,-6.5,1011.4,1021.9,14.8,5.9,0.24,0.0,110000,50.1,227
355760,2021-02-18,15:02:46,KAZAKHSTAN,-11.5,-13.6,1014.2,1035.4,21.5,11.5,0.00,6.2,101000,52.0,256
350850,2021-02-18,15:02:46,KAZAKHSTAN,-13.6,-18.9,1017.6,1033.3,28.6,15.7,0.02,3.4,111000,74.8,336
544970,2021-02-18,15:02:46,CHINA,-6.9,-16.4,1025.1,1024.4,15.2,11.2,0.06,0.0,110000,50.3,351
364390,2021-02-18,15:02:46,KAZAKHSTAN,-16.2,-20.6,997.0,1002.4,37.5,15.6,0.81,2.3,111000,97.7,267
508880,2021-02-18,15:02:46,CHINA,-15.6,-23.6,1016.2,1022.1,23.4,12.7,0.01,0.0,110000,91.1,334
355420,2021-02-18,15:02:46,KAZAKHSTAN,-13.2,-15.5,1026.9,1029.0,12.4,14.8,0.48,2.1,111000,76.4,239
476180,2021-02-18,15:02:46,JAPAN,-4.0,-9.1,976.3,1019.1,13.6,6.9,0.14,1.3,111000,81.8,112
525760,2021-02-18,15:02:46,CHINA,-9.1,-22.1,852.6,855.0,30.6,17.4,0.00,0.0,100000,24.2,268
387130,2021-02-18,15:02:46,TAJIKISTAN,-3.6,-7.5,995.9,1020.1,43.1,6.7,0.00,5.0,101000,55.5,15
536140,2021-02-18,15:02:46,CHINA,-7.7,-18.7,928.6,1029.1,20.7,7.1,0.01,0.0,110000,50.2,318
509680,2021-02-18,15:02:46,CHINA,-19.7,-23.1,1025.1,1023.8,14.7,10.5,0.03,0.0,110000,51.8,54
471074,2021-02-18,15:02:46,KOREASOUTH,-2.8,-6.3,1007.4,1025.0,9.6,18.6,0.00,0.0,100000,99.2,330
471087,2021-02-18,15:02:46,KOREASOUTH,-4.6,-14.3,1007.5,986.0,10.9,11.2,0.00,0.0,100000,32.7,321
471080,2021-02-18,15:02:46,KOREASOUTH,-3.2,-10.1,1019.3,1023.7,11.3,9.0,0.03,0.1,111000,85.3,294
471120,2021-02-18,15:02:46,KOREASOUTH,-2.7,-9.7,1018.4,1023.5,15.8,12.2,0.04,0.0,110000,51.2,45
506320,2021-02-18,15:02:46,CHINA,-19.6,-25.1,983.0,1024.4,27.7,10.5,0.02,0.0,110000,50.3,165
471240,2021-02-18,15:02:46,KOREASOUTH,-3.4,-11.5,1016.6,1042.2,11.2,11.0,0.00,0.0,100000,96.1,359
381411,2021-02-18,15:02:46,KAZAKHSTAN,-7.5,-8.8,1006.4,987.3,6.6,17.2,0.00,0.0,100000,90.8,87
381410,2021-02-18,15:02:46,UZBEKISTAN,-1.1,-5.4,1004.6,1021.0,18.7,13.0,0.00,0.0,100000,30.6,357
523910,2021-02-18,15:02:46,CHINA,-26.2,-35.4,1002.2,1046.0,36.7,6.8,0.00,0.0,100000,63.0,100
470200,2021-02-18,15:02:46,KOREANORTH,-12.0,-19.1,1016.0,1028.8,10.6,4.2,0.00,0.0,100000,47.8,347
170980,2021-02-18,15:02:46,TURKEY,-4.9,-8.4,815.6,815.7,9.1,9.9,0.06,12.5,111000,50.0,321
354590,2021-02-18,15:02:46,KAZAKHSTAN,-8.2,-14.7,1031.7,1030.0,48.2,24.3,0.00,4.5,101000,50.1,214
570140,2021-02-18,15:02:46,CHINA,-5.9,-10.8,1015.2,1034.8,11.8,6.5,0.00,0.0,100000,73.8,192
555910,2021-02-18,15:02:46,CHINA,-3.4,-24.2,676.7,675.6,29.8,9.5,0.00,0.0,100000,80.6,342
540490,2021-02-18,15:02:46,CHINA,-13.4,-22.0,1025.9,1024.1,19.3,11.7,0.01,0.0,110000,50.0,23
544710,2021-02-18,15:02:46,CHINA,-8.3,-16.6,1026.6,1025.4,13.2,13.8,0.04,0.0,110000,50.5,257
516560,2021-02-18,15:02:46,CHINA,-3.9,-17.2,932.8,1027.0,18.4,9.1,0.00,0.0,100000,11.7,126
365350,2021-02-18,15:02:46,KAZAKHSTAN,-12.5,-15.9,1069.6,1040.0,45.6,6.9,0.00,0.0,100000,87.1,139
474280,2021-02-18,15:02:46,JAPAN,-3.4,-8.1,1012.1,1015.8,19.4,26.2,0.15,0.0,110000,50.5,123
570360,2021-02-18,15:02:46,CHINA,-0.9,-8.6,1011.3,1025.3,8.8,7.3,0.04,0.0,110000,50.5,271
170672,2021-02-18,15:02:46,TURKEY,-2.0,-3.9,993.6,1017.1,6.8,9.7,0.00,0.0,100000,2.7,165
170674,2021-02-18,15:02:46,TURKEY,-0.7,-4.8,1003.4,1017.9,8.3,19.1,0.00,0.0,100000,52.9,278
514950,2021-02-18,15:02:46,CHINA,-8.0,-20.9,990.1,1032.5,35.0,26.3,0.01,0.0,110000,50.6,333
357390,2021-02-18,15:02:46,KAZAKHSTAN,-4.9,-10.7,1041.8,1029.4,46.4,14.8,0.00,1.3,101000,50.3,38
556640,2021-02-18,15:02:46,CHINA,-12.3,-31.6,601.9,600.6,28.5,12.0,0.00,0.0,100000,44.3,352
545340,2021-02-18,15:02:46,CHINA,-4.9,-15.5,1022.3,1026.3,14.7,10.2,0.01,0.0,110000,71.1,92
541020,2021-02-18,15:02:46,CHINA,-19.0,-23.7,936.5,1030.4,28.5,12.3,0.01,0.0,110000,50.4,229
517300,2021-02-18,15:02:46,CHINA,-3.1,-12.9,987.1,1028.6,20.1,4.5,0.01,0.0,110000,50.4,72
561720,2021-02-18,15:02:46,CHINA,-2.5,-14.6,778.4,781.2,32.3,3.5,0.04,0.0,110000,50.0,41
561730,2021-02-18,15:02:46,CHINA,-12.5,-26.6,660.4,670.4,29.5,10.7,0.00,0.0,100000,81.4,195
471920,2021-02-18,15:02:46,KOREASOUTH,-2.2,-10.4,1022.5,1022.5,21.4,6.9,0.06,0.0,110000,50.1,79
564440,2021-02-18,15:02:46,CHINA,-4.1,-11.1,734.6,734.9,23.3,10.6,0.04,0.0,110000,50.7,308
540270,2021-02-18,15:02:46,CHINA,-13.3,-24.7,993.9,1025.5,29.3,12.2,0.01,0.0,110000,50.0,50
474230,2021-02-18,15:02:46,JAPAN,-4.8,-9.6,1009.6,1014.9,15.2,21.9,0.19,0.0,110000,92.5,11
474120,2021-02-18,15:02:46,JAPAN,-7.7,-12.5,1016.7,1016.1,9.3,8.0,0.19,17.8,111000,72.8,175
542360,2021-02-18,15:02:46,CHINA,-11.4,-21.4,1020.4,1024.8,19.6,14.1,0.02,0.0,110000,51.0,77
470580,2021-02-18,15:02:46,KOREANORTH,-6.3,-12.0,1017.5,1024.5,13.0,8.3,0.03,0.3,111000,50.6,42
472185,2021-02-18,15:02:46,JAPAN,-4.8,-12.4,985.5,974.9,9.6,19.7,0.00,0.0,100000,74.3,317
288790,2021-02-18,15:02:46,KAZAKHSTAN,-11.4,-16.8,1033.6,1031.1,9.8,17.5,0.00,0.9,101000,50.1,218
288770,2021-02-18,15:02:46,KAZAKHSTAN,-6.1,-10.8,1024.9,1022.8,15.0,12.5,0.03,1.9,111000,78.7,36
546180,2021-02-18,15:02:46,CHINA,-1.5,,1024.2,1026.1,11.2,10.1,0.08,0.0,110000,69.9,21
474400,2021-02-18,15:02:46,JAPAN,-7.7,-13.2,1012.4,1016.8,23.3,11.0,0.38,0.0,110000,52.8,129
528660,2021-02-18,15:02:46,CHINA,-7.8,-21.3,772.3,771.4,16.1,7.6,0.00,0.0,100000,18.9,273
443170,2021-02-18,15:02:46,MONGOLIA,-10.9,-16.2,890.0,1017.6,21.3,13.4,0.00,4.5,101000,50.8,290
547150,2021-02-18,15:02:46,CHINA,-2.6,-12.6,1025.3,1027.6,17.1,12.6,0.08,0.0,110000,63.4,148
368590,2021-02-18,15:02:46,KAZAKHSTAN,-5.6,-10.5,1007.2,1027.6,39.6,7.4,0.02,1.6,111000,50.2,257
471110,2021-02-18,15:02:46,KOREASOUTH,-2.0,-8.5,989.5,990.4,9.3,7.6,0.00,0.0,100000,36.3,256
547050,2021-02-18,15:02:46,CHINA,-15.6,-20.4,1024.3,1034.1,7.9,3.7,0.00,0.0,100000,51.4,265
471571,2021-02-18,15:02:46,KOREASOUTH,-2.7,-12.3,988.5,960.8,10.9,11.6,0.00,0.0,100000,91.3,260
547510,2021-02-18,15:02:46,CHINA,-1.2,-8.2,1029.5,1027.2,17.0,21.0,0.06,0.0,110000,87.5,202
547250,2021-02-18,15:02:46,CHINA,-3.9,-12.6,1026.4,1026.6,14.0,12.5,0.08,0.0,110000,70.7,180
533360,2021-02-18,15:02:46,CHINA,-13.7,-23.7,910.1,1030.8,27.2,10.3,0.04,0.0,110000,78.6,13
475920,2021-02-18,15:02:46,JAPAN,-1.4,-5.9,1015.3,1018.1,19.4,12.5,0.17,0.9,111000,87.0,75
535430,2021-02-18,15:02:46,CHINA,-3.0,-21.6,883.3,1029.8,23.0,11.8,0.01,0.0,110000,62.2,213
509630,2021-02-18,15:02:46,CHINA,-19.5,-23.9,1019.8,1023.0,13.3,14.1,0.01,0.0,110000,50.4,127
471140,2021-02-18,15:02:46,KOREASOUTH,-4.7,-11.8,1008.0,1023.9,14.8,4.6,0.08,0.0,110000,96.9,256
474410,2021-02-18,15:02:46,JAPAN,-6.7,-11.6,1004.0,1006.0,9.2,24.9,0.00,0.0,100000,82.6,97
470030,2021-02-18,15:02:46,KOREANORTH,-9.8,-16.6,1018.7,1021.9,22.0,10.1,0.06,0.0,110000,67.6,94
474830,2021-02-18,15:02:46,JAPAN,-6.2,-13.6,1002.4,1004.1,10.7,15.7,0.00,0.0,100000,86.2,319
471100,2021-02-18,15:02:46,KOREASOUTH,-4.1,-10.1,1007.6,1010.5,9.3,10.6,0.00,0.0,100000,63.3,279
475530,2021-02-18,15:02:46,JAPAN,-2.4,-6.1,996.9,999.3,8.8,11.0,0.00,0.0,100000,25.7,325
355490,2021-02-18,15:02:46,KAZAKHSTAN,-8.3,-12.7,1033.5,1030.4,22.1,10.0,0.00,4.8,101000,50.5,175
505270,2021-02-18,15:02:46,CHINA,-24.1,-26.7,992.5,1028.0,17.3,9.1,0.01,0.0,110000,50.1,192
475120,2021-02-18,15:02:46,JAPAN,-3.4,-12.5,1018.8,1023.5,39.9,8.3,0.00,0.0,100000,24.1,264
563740,2021-02-18,15:02:46,CHINA,-3.0,-8.3,748.5,747.8,30.5,17.4,0.04,0.0,110000,91.8,308
522670,2021-02-18,15:02:46,CHINA,-11.3,-25.7,931.3,1030.8,27.8,12.2,0.00,0.0,100000,26.3,139
561520,2021-02-18,15:02:46,CHINA,-12.2,-22.2,663.1,664.0,32.1,5.1,0.02,0.0,110000,50.1,144
530680,2021-02-18,15:02:46,CHINA,-15.9,-23.6,934.1,1030.4,27.8,13.5,0.01,0.0,110000,50.2,212
527070,2021-02-18,15:02:46,CHINA,-13.4,-32.1,725.4,721.6,21.3,10.9,0.00,0.0,100000,44.5,244
357910,2021-02-18,15:02:46,KAZAKHSTAN,-13.3,-17.8,1035.1,1036.5,40.2,6.7,0.03,2.4,111000,79.3,140
353210,2021-02-18,15:02:46,KAZAKHSTAN,-14.9,-20.5,1047.0,1037.1,8.9,10.0,0.00,0.0,100000,53.1,69
537640,2021-02-18,15:02:46,CHINA,-8.0,-16.4,974.0,1029.5,18.9,8.3,0.12,0.0,110000,80.3,196
528250,2021-02-18,15:02:46,CHINA,-10.3,-26.3,724.2,719.1,23.4,11.5,0.00,0.0,100000,77.9,132
354260,2021-02-18,15:02:46,KAZAKHSTAN,-7.6,-11.7,1003.9,1025.3,38.5,11.6,0.00,4.8,101000,80.9,8
515670,2021-02-18,15:02:46,CHINA,-7.3,-13.2,1004.5,1032.5,18.3,7.6,0.00,0.0,100000,26.6,249
471400,2021-02-18,15:02:46,KOREASOUTH,-1.3,-6.5,1019.4,1023.9,17.1,14.4,0.04,0.0,110000,92.3,359
471410,2021-02-18,15:02:46,KOREASOUTH,-1.4,-6.4,1013.4,1013.9,10.6,14.2,0.04,0.1,111000,51.3,211
471420,2021-02-18,15:02:46,KOREASOUTH,-2.4,-9.8,1015.0,1015.0,12.1,,0.01,0.0,110000,50.2,45
367780,2021-02-18,15:02:46,KAZAKHSTAN,-11.7,-17.6,1060.9,1037.3,20.8,6.3,0.00,0.0,100000,91.0,204
532310,2021-02-18,15:02:46,CHINA,-13.8,-25.0,850.5,852.2,25.9,20.7,0.01,0.0,110000,72.8,51
511560,2021-02-18,15:02:46,CHINA,-14.4,-20.6,928.6,1033.3,36.4,7.1,0.01,0.0,110000,50.7,198
357960,2021-02-18,15:02:46,KAZAKHSTAN,-8.4,-12.7,1018.5,1033.4,30.2,19.1,0.01,1.6,111000,67.8,294
509490,2021-02-18,15:02:46,CHINA,-15.0,-23.0,1016.1,1023.2,14.0,9.3,0.01,0.0,110000,97.8,140
359970,2021-02-18,15:02:46,KAZAKHSTAN,-6.6,-10.1,1032.0,1033.9,25.1,10.0,0.01,0.8,111000,58.5,70
443050,2021-02-18,15:02:46,MONGOLIA,-17.9,-21.7,950.4,1028.7,46.4,9.9,0.00,2.3,101000,97.5,99
536730,2021-02-18,15:02:46,CHINA,-7.5,-17.9,974.2,1028.2,17.7,9.2,0.01,0.0,110000,91.8,39
544930,2021-02-18,15:02:46,CHINA,-11.3,-19.5,1023.3,1025.5,19.7,4.6,0.03,0.0,110000,50.2,170
471223,2021-02-18,15:02:46,KOREASOUTH,-0.5,-2.3,1010.0,1018.3,4.2,11.8,1.07,0.0,110000,50.2,155
471220,2021-02-18,15:02:46,KOREASOUTH,-4.7,-10.6,1017.1,1018.1,9.8,8.0,0.03,0.3,111000,50.1,10
542370,2021-02-18,15:02:46,CHINA,-17.2,-29.4,1006.2,1031.3,13.9,12.8,0.00,0.0,100000,39.3,23
470550,2021-02-18,15:02:46,KOREANORTH,-3.1,-11.2,1021.9,1023.0,16.3,8.6,0.46,0.3,111000,50.0,192
533520,2021-02-18,15:02:46,CHINA,-15.1,-25.7,959.2,1031.4,29.0,16.9,0.02,0.0,110000,50.2,279
476240,2021-02-18,15:02:46,JAPAN,-0.5,-8.6,1009.7,1017.8,26.9,12.9,0.08,0.2,111000,50.0,328
516280,2021-02-18,15:02:46,CHINA,-0.8,-8.5,998.8,1030.7,19.3,4.4,0.00,0.0,100000,53.3,159
470500,2021-02-18,15:02:46,KOREANORTH,-7.2,-13.5,1027.3,1023.9,14.8,7.0,0.08,0.0,110000,91.1,208
546020,2021-02-18,15:02:46,CHINA,-3.5,-13.1,1022.1,1026.4,10.9,7.6,0.03,0.0,110000,64.9,211
474200,2021-02-18,15:02:46,JAPAN,-7.2,-11.9,1012.2,1015.2,20.8,14.9,0.06,3.8,111000,50.4,282
351910,2021-02-18,15:02:46,KAZAKHSTAN,-11.3,-18.9,1060.9,1042.6,37.5,12.2,0.00,0.0,100000,8.3,62
471270,2021-02-18,15:02:46,KOREASOUTH,-3.7,-9.9,1007.7,1014.3,9.4,8.5,0.01,0.1,111000,50.3,21
172410,2021-02-18,15:02:46,TURKEY,-5.0,-9.4,1012.9,1047.2,10.9,15.8,0.00,,100000,94.8,133
523780,2021-02-18,15:02:46,CHINA,-10.5,-25.1,986.5,1007.9,29.8,16.3,0.00,0.0,100000,23.3,41
506580,2021-02-18,15:02:46,CHINA,-20.1,-24.3,1025.3,1023.7,15.2,7.4,0.01,0.0,110000,75.5,352
583211,2021-02-18,15:02:46,CHINA,-0.3,-4.8,1005.5,1000.1,9.6,9.6,0.00,0.0,100000,96.5,231
510530,2021-02-18,15:02:46,CHINA,-16.8,-20.9,1025.3,1035.8,25.8,14.7,0.01,0.0,110000,98.3,21
286790,2021-02-18,15:02:46,KAZAKHSTAN,-11.2,-14.7,1024.5,1029.6,11.2,18.8,0.02,7.1,111000,50.2,189
505640,2021-02-18,15:02:46,CHINA,-6.3,-28.0,1018.7,1024.1,18.4,7.1,0.01,0.0,110000,50.1,307
474810,2021-02-18,15:02:46,JAPAN,-10.7,-15.1,1000.4,992.3,9.1,11.8,0.00,0.0,100000,39.6,355
541350,2021-02-18,15:02:46,CHINA,-12.7,-24.4,1018.4,1024.7,25.5,14.9,0.01,0.0,110000,51.6,187
361860,2021-02-18,15:02:46,KAZAKHSTAN,-4.7,-7.2,1022.8,1025.6,11.8,2.8,0.00,0.0,100000,32.6,203
383280,2021-02-18,15:02:46,KAZAKHSTAN,-1.8,-5.5,952.1,1025.8,10.1,11.0,0.00,2.4,101000,50.8,176
382200,2021-02-18,15:02:46,KYRGYZSTAN,-8.0,-9.4,951.2,1031.1,7.2,6.8,0.00,6.8,101000,50.5,12
546560,2021-02-18,15:02:46,CHINA,-2.8,-8.9,1022.5,1024.8,20.1,26.0,0.00,0.0,100000,60.3,86
475700,2021-02-18,15:02:46,JAPAN,-2.8,-5.8,1008.8,1019.3,15.0,7.2,0.15,9.5,111000,50.2,200
443850,2021-02-18,15:02:46,MONGOLIA,-8.5,-20.8,896.4,1029.6,50.7,16.7,0.00,0.0,100000,14.6,38
563850,2021-02-18,15:02:46,CHINA,-7.6,-11.0,745.9,745.2,10.2,10.0,0.04,0.0,110000,50.8,97
505570,2021-02-18,15:02:46,CHINA,-24.2,-28.8,1009.7,1023.8,14.7,8.1,0.01,0.0,110000,50.2,317
474020,2021-02-18,15:02:46,JAPAN,-12.3,-14.9,1016.8,1017.9,21.7,10.0,0.11,0.0,110000,58.6,91
474010,2021-02-18,15:02:46,JAPAN,-7.5,-12.3,1011.3,1015.8,17.9,14.0,0.16,16.7,111000,90.5,199
560330,2021-02-18,15:02:46,CHINA,-5.6,-16.3,626.3,622.9,25.9,11.8,0.01,0.0,110000,50.3,226
170671,2021-02-18,15:02:46,TURKEY,-2.3,-4.9,1009.2,996.8,11.3,9.4,0.00,0.0,100000,6.9,317
548260,2021-02-18,15:02:46,CHINA,-7.9,-19.3,871.4,874.1,27.3,26.5,0.08,0.0,110000,50.6,359
364420,2021-02-18,15:02:46,KAZAKHSTAN,-19.0,-29.4,1017.3,1008.7,38.0,27.1,0.00,2.6,101000,80.9,295
560290,2021-02-18,15:02:46,CHINA,-8.4,-21.4,645.7,645.7,29.5,4.2,0.01,0.0,110000,71.5,302
380810,2021-02-18,15:02:46,KAZAKHSTAN,-5.0,-9.6,1030.7,1029.8,23.5,14.4,0.01,0.3,111000,69.7,134
526510,2021-02-18,15:02:46,CHINA,-2.6,-24.9,985.4,1001.2,69.9,5.6,0.00,0.0,100000,47.9,208
561370,2021-02-18,15:02:46,CHINA,-5.5,-20.1,715.9,711.9,25.2,5.1,0.01,0.0,110000,50.0,108
508620,2021-02-18,15:02:46,CHINA,-23.8,-30.7,989.1,1009.9,17.1,8.7,0.00,0.0,100000,21.0,352
368700,2021-02-18,15:02:46,KAZAKHSTAN,-2.5,-5.6,978.3,1022.2,8.3,3.6,0.29,2.9,111000,89.4,269
353450,2021-02-18,15:02:46,KAZAKHSTAN,-7.0,-11.9,1061.6,1040.2,22.9,11.7,0.00,0.0,100000,42.4,118
475810,2021-02-18,15:02:46,JAPAN,-3.4,-8.4,1016.2,1017.0,18.7,15.4,0.12,6.2,111000,50.8,165
535290,2021-02-18,15:02:46,CHINA,-10.8,-21.0,893.4,1029.7,25.2,10.9,0.21,0.0,110000,50.4,66
475740,2021-02-18,15:02:46,JAPAN,-1.3,-7.9,1014.5,1024.2,30.2,13.9,0.16,0.0,110000,50.4,292
476120,2021-02-18,15:02:46,JAPAN,-0.6,-4.7,1017.4,1019.3,15.7,10.1,0.57,12.3,111000,50.1,356
362080,2021-02-18,15:02:46,KAZAKHSTAN,-24.0,-27.5,1013.8,1026.7,26.8,3.8,0.38,22.6,111000,50.2,229
346910,2021-02-18,15:02:46,KAZAKHSTAN,-3.7,-7.1,1022.2,1023.4,20.7,16.9,0.00,1.4,101000,68.2,25
351080,2021-02-18,15:02:46,KAZAKHSTAN,-7.9,-9.9,1017.3,1024.3,8.2,18.3,0.04,11.3,111000,53.1,176
524240,2021-02-18,15:02:46,CHINA,-11.1,-22.0,900.0,1030.2,25.1,14.1,0.01,0.0,110000,50.6,54
383450,2021-02-18,15:02:46,KYRGYZSTAN,-1.6,-6.5,895.5,895.9,20.2,4.0,0.00,1.8,101000,71.0,10
383430,2021-02-18,15:02:46,KAZAKHSTAN,-0.5,-3.3,940.0,1025.4,9.9,4.2,0.00,2.6,101000,93.2,18
749347,2021-02-18,15:02:46,CHINA,-3.5,-8.1,1035.2,1037.9,10.9,9.3,0.00,0.0,100000,69.0,324
749348,2021-02-18,15:02:46,CHINA,-17.8,-21.8,1032.4,1037.1,63.0,2.6,0.00,0.0,100000,76.0,196
477150,2021-02-18,15:02:46,JAPAN,-0.8,-6.7,1000.5,1003.7,9.4,10.4,0.09,0.6,111000,50.3,304
518180,2021-02-18,15:02:46,CHINA,-1.2,-12.9,976.7,1023.7,15.5,4.8,0.01,0.0,110000,50.7,46
509780,2021-02-18,15:02:46,CHINA,-15.2,-22.9,1009.2,1022.3,26.8,12.6,0.01,0.0,110000,50.1,176
584450,2021-02-18,15:02:46,CHINA,-4.1,-11.3,875.3,946.9,15.7,20.0,0.19,0.0,110000,50.0,318
345810,2021-02-18,15:02:46,KAZAKHSTAN,-1.8,-6.2,1043.4,1027.3,51.0,17.9,0.00,0.0,100000,25.0,235
478920,2021-02-18,15:02:46,JAPAN,-0.1,-9.2,1026.1,1028.5,27.0,9.9,0.00,0.0,100000,94.8,326
560460,2021-02-18,15:02:46,CHINA,-14.5,-23.2,671.4,671.9,25.2,8.5,0.01,0.0,110000,50.1,184
541860,2021-02-18,15:02:46,CHINA,-16.0,-23.3,1013.5,1024.6,18.6,10.0,0.03,0.0,110000,50.0,143
524410,2021-02-18,15:02:46,CHINA,-14.2,-25.8,845.1,847.5,43.4,17.2,0.00,0.0,100000,78.4,355
516440,2021-02-18,15:02:46,CHINA,-2.1,-12.4,923.6,1028.1,22.9,7.4,0.01,0.0,110000,50.1,79
471070,2021-02-18,15:02:46,KOREASOUTH,-2.1,-7.4,1013.3,1014.1,12.3,11.7,0.00,0.3,101000,61.1,125
471065,2021-02-18,15:02:46,KOREASOUTH,-1.7,-6.0,1015.8,983.4,11.1,10.1,0.00,3.2,101000,76.2,201
475690,2021-02-18,15:02:46,JAPAN,-0.7,-8.2,997.1,997.5,9.7,15.6,0.00,0.0,100000,45.2,279
471190,2021-02-18,15:02:46,KOREASOUTH,-3.5,-10.4,1027.4,1024.1,15.1,7.7,0.05,0.1,111000,50.0,308
471180,2021-02-18,15:02:46,KOREASOUTH,-3.0,-18.9,1014.7,1029.9,10.6,8.0,0.00,0.0,100000,68.2,108
478210,2021-02-18,15:02:46,JAPAN,-5.2,-11.0,892.4,899.3,29.7,12.6,0.00,0.0,100000,14.7,175
561060,2021-02-18,15:02:46,CHINA,-10.7,-21.3,619.1,618.1,27.5,9.1,0.04,0.0,110000,95.8,333
514310,2021-02-18,15:02:46,CHINA,-4.5,-7.9,976.8,1028.2,31.3,5.5,0.03,0.0,110000,50.6,146
470460,2021-02-18,15:02:46,KOREANORTH,-4.4,-8.6,1024.0,1020.5,16.0,5.2,0.01,0.0,110000,62.3,245
347980,2021-02-18,15:02:46,KAZAKHSTAN,-3.3,-7.0,1018.9,1020.3,10.7,21.6,0.00,0.6,101000,74.8,43
524950,2021-02-18,15:02:46,CHINA,-11.4,-23.7,903.3,1030.9,25.9,12.4,0.00,0.0,100000,88.1,133
557730,2021-02-18,15:02:46,CHINA,-12.3,-20.1,620.3,621.3,20.0,11.5,0.00,0.0,100000,57.9,138
503530,2021-02-18,15:02:46,CHINA,-14.3,-21.0,998.6,1021.5,19.2,8.7,0.00,0.0,100000,7.7,226
476380,2021-02-18,15:02:46,JAPAN,-0.9,-8.1,996.5,1017.1,17.9,9.6,0.16,0.1,111000,53.3,49
526740,2021-02-18,15:02:46,CHINA,-12.0,-23.5,801.4,797.0,29.0,11.1,0.01,0.0,110000,50.0,210
518280,2021-02-18,15:02:46,CHINA,-1.3,-13.9,897.8,1024.3,9.7,5.3,0.01,0.0,110000,50.1,248
381960,2021-02-18,15:02:46,KAZAKHSTAN,-2.1,-10.3,925.1,1024.5,17.8,4.5,0.00,9.0,101000,50.3,350
382320,2021-02-18,15:02:46,KAZAKHSTAN,-0.4,-6.7,1020.9,1023.6,33.5,13.7,0.02,0.4,111000,50.3,66
360030,2021-02-18,15:02:46,KAZAKHSTAN,-5.6,-8.0,1023.4,1030.2,23.5,16.9,0.01,5.0,111000,90.8,41
583430,2021-02-18,15:02:46,CHINA,-0.2,-5.9,1013.3,1025.8,16.2,11.0,0.00,0.0,100000,97.9,19
475800,2021-02-18,15:02:46,JAPAN,-2.8,-6.9,1004.7,1005.2,11.5,13.9,0.00,1.7,101000,51.8,62
471750,2021-02-18,15:02:46,KOREASOUTH,-0.7,-8.6,965.7,1024.1,13.8,21.3,0.06,0.0,110000,94.9,277
470250,2021-02-18,15:02:46,KOREANORTH,-4.9,-8.6,1015.1,1021.3,10.4,8.4,0.27,0.0,110000,50.3,11
545390,2021-02-18,15:02:46,CHINA,-5.4,-14.6,1024.5,1027.3,18.7,11.0,0.03,0.0,110000,95.3,101
353940,2021-02-18,15:02:46,KAZAKHSTAN,-10.1,-13.4,1006.2,1032.3,16.9,13.8,0.04,3.5,111000,50.4,194
25105,2021-02-18,15:02:46,SINGAPORE,-1.0,-3.0,1010.8,999.1,10.8,6.4,0.00,0.0,100000,75.8,270
289570,2021-02-18,15:02:46,KAZAKHSTAN,-7.9,-10.4,1035.2,1028.1,10.1,11.7,0.00,6.8,101000,75.5,213
477470,2021-02-18,15:02:46,JAPAN,-1.0,-2.4,1026.9,1027.5,14.5,4.1,0.19,0.0,110000,50.5,279
358490,2021-02-18,15:02:46,KAZAKHSTAN,-4.8,-9.9,1017.2,1024.3,17.9,12.3,0.02,1.1,111000,50.1,91
476490,2021-02-18,15:02:46,JAPAN,-0.2,-4.4,999.6,1019.6,18.6,12.6,0.28,0.0,110000,50.8,22
475880,2021-02-18,15:02:46,JAPAN,-3.6,-6.5,998.2,1017.1,11.1,7.0,0.07,0.0,110000,50.9,258
474340,2021-02-18,15:02:46,JAPAN,-10.4,-13.8,1002.8,1010.8,11.1,11.1,0.01,6.3,111000,54.8,271
474350,2021-02-18,15:02:46,JAPAN,-7.7,-12.4,1017.2,1019.5,38.6,12.2,0.16,0.0,110000,50.1,90
545870,2021-02-18,15:02:46,CHINA,-3.3,-9.7,1029.0,1024.9,27.9,23.0,0.26,0.0,110000,95.5,100
537720,2021-02-18,15:02:46,CHINA,-5.9,-16.8,981.9,1028.1,11.3,9.8,0.01,0.0,110000,70.1,148
471460,2021-02-18,15:02:46,KOREASOUTH,-1.9,-6.9,1020.2,1023.8,18.6,6.0,0.06,0.1,111000,50.1,290
577070,2021-02-18,15:02:46,CHINA,-0.4,-2.2,852.3,854.9,9.3,3.0,0.03,0.0,110000,80.5,46
474050,2021-02-18,15:02:46,JAPAN,-11.3,-14.9,1018.3,1019.2,39.8,10.1,0.06,0.0,110000,50.3,148
509530,2021-02-18,15:02:46,CHINA,-16.9,-21.0,1016.0,1023.1,13.4,12.3,0.02,0.0,110000,92.7,219
560650,2021-02-18,15:02:46,CHINA,-15.4,-26.6,661.0,659.9,26.5,9.9,0.01,0.0,110000,64.2,30
470900,2021-02-18,15:02:46,KOREASOUTH,-1.0,-8.5,1020.0,1021.3,19.9,10.9,0.17,0.5,111000,96.8,112
514670,2021-02-18,15:02:46,CHINA,-9.1,-21.7,829.6,830.9,27.9,9.1,0.00,0.0,100000,4.8,115
539470,2021-02-18,15:02:46,CHINA,-3.0,-12.3,949.9,1027.2,12.7,8.6,0.01,0.0,110000,57.4,204
570060,2021-02-18,15:02:46,CHINA,-2.2,-9.6,947.0,1025.4,11.3,5.6,0.01,0.0,110000,50.4,109
350420,2021-02-18,15:02:46,KAZAKHSTAN,-7.7,-11.3,1025.8,1025.6,16.8,17.6,0.00,6.3,101000,50.1,88
522030,2021-02-18,15:02:46,CHINA,-7.7,-19.5,989.1,1027.9,37.6,7.5,0.00,0.0,100000,80.7,149
570230,2021-02-18,15:02:46,CHINA,-0.3,-11.9,872.7,1009.8,11.4,5.4,0.00,0.0,100000,47.0,97
357460,2021-02-18,15:02:46,KAZAKHSTAN,-8.5,-11.3,1025.5,1027.7,16.4,18.8,0.01,1.1,111000,99.2,122
543460,2021-02-18,15:02:46,CHINA,-8.6,-17.4,1019.2,1025.8,13.8,9.3,0.04,0.0,110000,53.1,209
363970,2021-02-18,15:02:46,KAZAKHSTAN,-4.6,-10.7,1044.8,1036.7,24.5,33.5,1.07,2.6,111000,91.7,282
507270,2021-02-18,15:02:46,CHINA,-24.9,-27.5,914.8,1028.3,25.6,7.6,0.01,0.0,110000,50.2,349
353630,2021-02-18,15:02:46,KAZAKHSTAN,-9.0,-11.3,1040.4,1040.3,14.0,17.4,0.00,0.0,100000,54.7,274
475840,2021-02-18,15:02:46,JAPAN,-4.3,-8.9,1007.1,1017.5,15.5,10.6,0.13,3.9,111000,50.0,121
535130,2021-02-18,15:02:46,CHINA,-9.1,-20.3,926.6,1029.6,21.4,7.3,0.00,0.0,100000,25.4,357
475900,2021-02-18,15:02:46,JAPAN,-1.1,-6.8,1014.7,1017.7,23.1,12.2,0.25,0.3,111000,50.3,203
470080,2021-02-18,15:02:46,KOREANORTH,-6.9,-13.2,1015.7,1022.0,11.8,8.3,0.01,0.0,110000,72.8,241
477690,2021-02-18,15:02:46,JAPAN,-0.4,-6.5,1022.4,1027.9,27.6,8.7,0.00,0.0,100000,29.7,155
471170,2021-02-18,15:02:46,KOREASOUTH,-0.9,-6.4,1000.2,986.8,8.6,5.2,0.01,0.0,110000,50.3,71
564620,2021-02-18,15:02:46,CHINA,-1.9,-16.5,754.5,754.1,34.0,12.0,0.01,0.0,110000,50.1,82
539290,2021-02-18,15:02:46,CHINA,-4.3,-5.9,883.8,880.1,7.6,11.7,0.00,0.0,100000,71.6,7
534630,2021-02-18,15:02:46,CHINA,-11.7,-19.4,929.9,1030.4,16.8,6.9,0.01,0.0,110000,50.5,325
171400,2021-02-18,15:02:46,TURKEY,-7.7,-8.3,865.1,853.1,8.8,9.6,0.45,22.6,111000,50.0,107
475420,2021-02-18,15:02:46,JAPAN,-3.7,-7.5,999.7,1001.8,8.3,17.6,0.00,0.0,100000,53.6,233
442290,2021-02-18,15:02:46,MONGOLIA,-15.8,-22.6,780.6,1014.0,50.0,6.8,0.00,0.0,100000,63.9,155
524360,2021-02-18,15:02:46,CHINA,-10.5,-24.3,863.3,1029.2,30.2,13.1,0.00,0.0,100000,77.6,28
470050,2021-02-18,15:02:46,KOREANORTH,-18.4,-22.2,900.1,898.5,19.7,6.3,0.06,6.7,111000,50.6,67
514635,2021-02-18,15:02:46,CHINA,-13.2,-15.7,989.6,987.7,3.5,4.8,0.00,0.0,100000,71.2,315
513460,2021-02-18,15:02:46,CHINA,-18.3,-21.8,1068.0,1038.6,57.1,5.4,0.00,0.0,100000,56.5,299
477420,2021-02-18,15:02:46,JAPAN,-1.1,-3.6,1026.9,1027.7,17.4,3.3,0.00,0.0,100000,56.1,353
560210,2021-02-18,15:02:46,CHINA,-16.2,-29.9,616.6,616.4,28.8,9.3,0.01,0.0,110000,85.2,49
540940,2021-02-18,15:02:46,CHINA,-15.8,-22.7,1009.2,1023.0,7.7,8.2,0.03,0.0,110000,50.1,303
517650,2021-02-18,15:02:46,CHINA,-8.2,-19.1,939.6,1027.3,28.1,5.8,0.00,0.0,100000,47.3,25
560800,2021-02-18,15:02:46,CHINA,-11.4,-22.0,734.5,733.3,25.2,6.5,0.01,0.0,110000,95.5,157
560790,2021-02-18,15:02:46,CHINA,-12.2,-22.5,665.4,664.8,31.5,8.5,0.02,0.0,110000,50.3,231
443140,2021-02-18,15:02:46,MONGOLIA,-15.3,-22.1,935.4,1022.1,17.3,19.2,0.01,1.8,111000,50.0,195
442870,2021-02-18,15:02:46,MONGOLIA,-19.2,-24.5,813.8,1035.1,50.3,13.0,0.00,2.6,101000,50.3,59
544010,2021-02-18,15:02:46,CHINA,-8.0,-21.8,986.6,1028.2,20.6,10.6,0.01,0.0,110000,50.3,286
518390,2021-02-18,15:02:46,CHINA,-2.5,-14.9,889.9,1029.4,13.5,6.6,0.00,0.0,100000,93.3,200
476900,2021-02-18,15:02:46,JAPAN,-7.6,-12.8,866.7,867.0,25.4,13.9,0.14,0.0,110000,50.0,217
507880,2021-02-18,15:02:46,CHINA,-18.2,-23.7,1023.0,1020.5,20.4,13.1,0.01,0.0,110000,50.6,268
540260,2021-02-18,15:02:46,CHINA,-10.6,-24.1,1013.1,1024.6,25.9,12.2,0.01,0.0,110000,84.6,9
538630,2021-02-18,15:02:46,CHINA,-5.0,-15.1,1016.7,1028.0,13.5,8.4,0.02,0.0,110000,50.1,128
538870,2021-02-18,15:02:46,CHINA,-10.7,-29.0,915.3,1027.9,29.3,6.5,0.00,0.0,100000,49.5,332
527130,2021-02-18,15:02:46,CHINA,-14.3,-29.1,698.8,699.0,29.2,8.6,0.00,0.0,100000,11.1,258
383530,2021-02-18,15:02:46,KYRGYZSTAN,-2.6,-5.2,995.6,1027.6,5.7,8.1,0.04,0.6,111000,61.1,38
383531,2021-02-18,15:02:46,KYRGYZSTAN,-0.5,-5.4,988.7,975.9,2.0,13.6,0.00,0.0,100000,7.4,133
509150,2021-02-18,15:02:46,CHINA,-19.9,-26.2,945.4,1029.6,29.6,10.9,0.02,0.0,110000,52.7,152
529080,2021-02-18,15:02:46,CHINA,-19.3,-30.0,999.9,1006.5,27.0,21.5,0.00,0.0,100000,93.4,194
474790,2021-02-18,15:02:46,JAPAN,-8.9,-13.3,1000.8,1000.6,7.9,13.6,0.00,0.0,100000,77.4,79
366220,2021-02-18,15:02:46,KAZAKHSTAN,-7.3,-11.3,1034.1,1037.4,42.9,13.8,0.02,6.3,111000,52.0,127
581500,2021-02-18,15:02:46,CHINA,-0.7,-5.9,1028.2,1026.6,13.8,11.0,0.12,0.0,110000,56.2,316
535640,2021-02-18,15:02:46,CHINA,-10.8,-23.3,936.5,1030.3,18.7,6.2,0.00,0.0,100000,7.7,80
476410,2021-02-18,15:02:46,JAPAN,-1.1,-6.6,989.5,1018.1,21.0,6.6,0.08,0.0,110000,50.3,284
476390,2021-02-18,15:02:46,JAPAN,-20.2,-27.6,1001.8,997.7,48.8,81.2,0.00,0.0,100000,6.0,238
511330,2021-02-18,15:02:46,CHINA,-3.0,-9.0,992.6,1033.3,32.1,7.4,0.04,0.0,110000,59.8,174
585060,2021-02-18,15:02:46,CHINA,-1.0,-4.8,977.8,1026.8,12.2,14.3,0.19,0.0,110000,94.2,223
529830,2021-02-18,15:02:46,CHINA,-10.9,-15.4,818.7,835.6,21.2,6.4,0.02,0.0,110000,66.9,324
442770,2021-02-18,15:02:46,MONGOLIA,-24.0,-30.0,996.6,1028.3,49.3,17.6,0.00,0.0,100000,27.6,123
542590,2021-02-18,15:02:46,CHINA,-14.2,-21.4,1025.0,1025.8,15.7,7.3,0.04,0.0,110000,91.2,251
471000,2021-02-18,15:02:46,KOREASOUTH,-7.9,-13.8,922.8,1024.3,13.5,15.7,0.19,13.0,111000,50.3,297
470980,2021-02-18,15:02:46,KOREASOUTH,-5.1,-13.0,1010.5,1024.6,12.9,7.0,0.00,0.0,100000,82.3,64
386150,2021-02-18,15:02:46,KYRGYZSTAN,-2.7,-10.2,925.4,1033.6,8.8,8.0,0.00,11.3,101000,50.9,122
355820,2021-02-18,15:02:46,KAZAKHSTAN,-10.7,-15.0,1036.9,1034.9,34.5,15.4,0.02,2.5,111000,67.3,126
478180,2021-02-18,15:02:46,JAPAN,-2.7,-10.3,946.3,1029.3,25.9,13.6,0.00,0.0,100000,50.0,317
549060,2021-02-18,15:02:46,CHINA,-2.0,-10.5,1022.6,1026.4,17.8,8.1,0.02,0.0,110000,62.8,287
475450,2021-02-18,15:02:46,JAPAN,-1.8,-6.1,1007.0,1004.3,8.4,15.2,0.00,0.0,100000,39.5,249
552280,2021-02-18,15:02:46,CHINA,-4.5,-18.5,603.4,600.2,30.3,11.8,0.01,0.0,110000,79.8,97
354060,2021-02-18,15:02:46,KAZAKHSTAN,-7.2,-12.1,1032.1,1028.9,24.1,21.5,0.01,0.0,110000,50.1,97
548570,2021-02-18,15:02:46,CHINA,-1.7,-8.7,1023.6,1026.6,12.3,19.5,0.03,0.0,110000,50.2,32
360010,2021-02-18,15:02:46,KAZAKHSTAN,-6.1,-8.6,1010.8,1026.7,4.2,33.2,0.02,3.2,111000,59.9,278
288670,2021-02-18,15:02:46,KAZAKHSTAN,-15.6,-18.9,997.3,1033.5,20.6,8.2,0.00,26.3,101000,85.6,71
512880,2021-02-18,15:02:46,CHINA,-15.9,-23.5,836.1,838.6,35.2,7.3,0.01,0.0,110000,50.1,188
353760,2021-02-18,15:02:46,KAZAKHSTAN,-10.8,-15.1,991.1,1030.5,20.0,14.2,0.01,7.4,111000,69.9,177
548080,2021-02-18,15:02:46,CHINA,-2.4,-10.7,1030.2,1027.0,12.6,10.8,0.02,0.0,110000,50.2,103
577760,2021-02-18,15:02:46,CHINA,-0.6,-2.5,977.1,1024.0,8.4,18.5,0.21,0.0,110000,51.0,103
368215,2021-02-18,15:02:46,KAZAKHSTAN,-8.6,-11.5,1020.8,1045.2,8.8,17.1,0.00,0.0,100000,29.3,217
442370,2021-02-18,15:02:46,MONGOLIA,-15.7,-19.8,844.0,1022.9,49.2,10.8,0.01,0.3,111000,50.5,29
354970,2021-02-18,15:02:46,KAZAKHSTAN,-7.5,-13.6,983.2,1035.3,31.4,11.8,0.02,7.5,111000,50.6,201
386090,2021-02-18,15:02:46,TAJIKISTAN,-2.3,-7.7,925.0,1028.1,16.7,10.1,0.00,0.0,100000,82.9,120
586530,2021-02-18,15:02:46,CHINA,-2.7,-5.7,916.2,1023.9,9.2,22.7,0.15,0.0,110000,50.6,240
471010,2021-02-18,15:02:46,KOREASOUTH,-5.2,-12.1,1017.9,1023.5,18.3,5.1,0.04,0.6,111000,59.0,310
471020,2021-02-18,15:02:46,KOREASOUTH,-0.2,-5.7,1004.1,1023.7,11.8,17.7,0.00,0.0,100000,49.9,15
570710,2021-02-18,15:02:46,CHINA,-0.6,-9.2,1028.2,1027.9,13.5,10.9,0.06,0.0,110000,50.5,72
356990,2021-02-18,15:02:46,KAZAKHSTAN,-6.4,-15.4,958.4,1039.0,28.0,0.6,0.00,4.5,101000,50.8,128
593530,2021-02-18,15:02:46,TAIWAN,-3.0,-3.0,763.2,1022.0,7.7,5.3,0.00,0.0,100000,96.8,15
471320,2021-02-18,15:02:46,KOREASOUTH,-8.0,-15.2,1003.9,995.7,10.7,0.9,0.00,0.0,100000,46.1,38
470990,2021-02-18,15:02:46,KOREASOUTH,-6.2,-12.8,1020.6,1024.6,11.4,5.4,0.01,0.0,110000,50.4,2
471030,2021-02-18,15:02:46,KOREASOUTH,-2.4,-6.8,1014.4,1022.6,12.0,21.3,0.00,0.0,100000,65.4,339
471025,2021-02-18,15:02:46,KOREASOUTH,-2.8,-8.6,1013.2,1022.3,11.6,4.2,0.00,0.0,100000,64.2,199
501360,2021-02-18,15:02:46,CHINA,-26.6,-31.4,968.2,1026.0,20.3,8.1,0.00,0.0,100000,10.3,1
476040,2021-02-18,15:02:46,JAPAN,-0.1,-4.6,1019.2,1018.8,14.7,15.0,0.21,6.1,111000,50.2,36
471610,2021-02-18,15:02:46,KOREASOUTH,-2.0,-8.3,999.2,994.6,10.7,7.4,0.03,0.0,110000,50.1,54
354160,2021-02-18,15:02:46,KAZAKHSTAN,-7.5,-11.2,1024.5,1027.4,7.7,17.1,0.03,5.6,111000,54.7,71
535020,2021-02-18,15:02:46,CHINA,-10.4,-21.9,979.9,1029.4,22.4,11.1,0.00,0.0,100000,46.4,177
529550,2021-02-18,15:02:46,CHINA,-10.7,-26.6,694.8,691.2,30.6,7.5,0.00,0.0,100000,15.5,161
350780,2021-02-18,15:02:46,KAZAKHSTAN,-10.4,-13.0,1034.3,1033.0,11.1,13.9,0.01,9.2,111000,50.0,65
525330,2021-02-18,15:02:46,CHINA,-9.5,-20.1,894.0,1029.3,29.7,7.6,0.01,0.0,110000,50.4,164
525331,2021-02-18,15:02:46,CHINA,-10.6,-14.7,1000.7,988.0,4.7,5.5,0.00,0.0,100000,49.1,187
549090,2021-02-18,15:02:46,CHINA,-1.0,-8.9,1021.1,1027.7,15.1,10.7,0.06,0.0,110000,50.2,143
512320,2021-02-18,15:02:46,CHINA,-8.0,-13.1,1029.2,1032.4,15.9,17.5,0.01,0.0,110000,57.3,116
544830,2021-02-18,15:02:46,CHINA,-15.4,-23.9,1025.9,1024.4,16.0,7.0,0.01,0.0,110000,55.0,183
474070,2021-02-18,15:02:46,JAPAN,-10.8,-14.0,1007.3,1016.5,9.4,6.5,0.11,20.4,111000,50.6,34
474060,2021-02-18,15:02:46,JAPAN,-7.4,-12.0,1011.2,1015.6,17.8,20.4,0.11,19.6,111000,50.8,73
508540,2021-02-18,15:02:46,CHINA,-16.7,-23.3,1022.6,1023.1,17.0,10.8,0.01,0.0,110000,95.1,301
470410,2021-02-18,15:02:46,KOREANORTH,-6.5,-12.0,1021.6,1021.7,13.3,9.8,0.03,0.0,110000,50.1,127
561820,2021-02-18,15:02:46,CHINA,-6.9,-16.9,778.5,822.0,28.5,6.9,0.06,0.0,110000,50.4,226
476370,2021-02-18,15:02:46,JAPAN,-3.6,-10.6,958.3,1018.2,27.4,9.7,0.18,0.0,110000,93.1,266
547760,2021-02-18,15:02:46,CHINA,-1.0,-6.8,1020.5,1025.8,19.4,23.5,0.07,0.0,110000,76.8,20
476240,2021-02-18,15:05:07,JAPAN,-0.5,-9.6,1009.6,1017.8,26.5,12.3,0.08,0.2,111000,50.1,330

