STN,DATE,TIME,COUNTRY,TEMP,DEWP,STP,SLP,VISIB,WDSP,PRCP,SNDP,FRSHTT,CLDC,WNDDIR
478290,2021-02-19,13:09:37,JAPAN,-0.6,-7.2,1001.2,1019.1,20.0,13.6,0.07,0.0,110000,50.4,225
541150,2021-02-19,13:09:37,CHINA,-7.1,-17.2,976.0,1026.3,21.0,22.9,0.01,0.0,110000,80.7,241
534800,2021-02-19,13:09:37,CHINA,-9.0,-20.4,960.6,1029.9,30.7,7.1,0.01,0.0,110000,78.3,341
584370,2021-02-19,13:09:37,CHINA,-3.0,-10.2,835.7,833.6,16.4,33.0,0.14,0.0,110000,76.6,47
476200,2021-02-19,13:09:37,JAPAN,-3.7,-9.4,927.5,1018.3,28.4,13.3,0.14,0.0,110000,52.4,95
560330,2021-02-19,13:09:37,CHINA,-12.5,-22.5,626.2,621.8,34.6,5.4,0.03,0.0,110000,79.0,196
477150,2021-02-19,13:09:37,JAPAN,-0.7,-6.7,1001.8,1001.9,8.4,4.3,0.14,0.3,111000,50.1,202
546620,2021-02-19,13:09:37,CHINA,-2.5,-10.9,1020.6,1025.3,3.9,12.3,0.05,0.0,110000,70.8,90
471131,2021-02-19,13:09:37,KOREASOUTH,-1.4,-5.8,991.0,997.5,7.4,6.9,0.00,0.0,100000,44.1,127
531490,2021-02-19,13:09:37,CHINA,-6.4,-17.5,905.7,1027.7,31.1,15.8,0.02,0.0,110000,51.9,16
526810,2021-02-19,13:09:37,CHINA,-4.4,-16.7,896.9,1030.3,28.5,9.5,0.00,0.0,100000,92.1,308
380620,2021-02-19,13:09:37,KAZAKHSTAN,-1.8,-6.2,1022.1,1025.7,20.8,3.9,0.01,0.3,111000,90.1,139
545270,2021-02-19,13:09:37,CHINA,-1.2,-12.1,1030.8,1025.7,17.0,0.9,0.11,0.0,110000,52.9,192
518860,2021-02-19,13:09:37,CHINA,-3.7,-22.5,701.4,698.4,26.7,15.7,0.00,0.0,100000,93.6,161
470390,2021-02-19,13:09:37,KOREANORTH,-3.6,-9.4,1042.4,1024.8,12.6,1.1,0.00,0.0,100000,52.7,72
471610,2021-02-19,13:09:37,KOREASOUTH,-1.2,-8.5,1001.1,1001.4,5.7,11.5,0.05,0.0,110000,93.5,339
514310,2021-02-19,13:09:37,CHINA,-0.5,-4.1,975.4,1028.3,29.2,3.3,0.12,0.0,110000,53.3,245
353940,2021-02-19,13:09:37,KAZAKHSTAN,-4.5,-7.9,1002.1,1031.7,24.3,12.2,0.20,3.9,111000,53.9,49
471310,2021-02-19,13:09:37,KOREASOUTH,-1.9,-8.0,1020.5,1024.0,21.7,15.3,0.04,0.0,110000,52.2,252
471430,2021-02-19,13:09:37,KOREASOUTH,-1.0,-10.7,1015.6,1022.9,24.1,18.6,0.06,0.0,110000,50.0,14
443410,2021-02-19,13:09:37,MONGOLIA,-6.7,-15.3,855.9,1021.3,44.3,8.8,0.00,0.5,101000,52.5,306
286790,2021-02-19,13:09:37,KAZAKHSTAN,-8.4,-12.1,1019.0,1029.6,13.3,18.1,0.01,4.7,111000,75.3,117
367780,2021-02-19,13:09:37,KAZAKHSTAN,-4.5,-10.2,1047.4,1031.8,26.3,6.4,0.00,0.0,100000,91.0,85
172400,2021-02-19,13:09:37,TURKEY,-0.9,-5.8,951.9,1016.0,28.7,6.8,0.09,0.5,111000,56.4,59
532310,2021-02-19,13:09:37,CHINA,-3.8,-16.0,850.9,857.8,29.1,18.0,0.00,0.0,100000,46.4,0
560180,2021-02-19,13:09:37,CHINA,-3.3,-15.6,627.1,635.7,24.4,16.4,0.01,0.0,110000,88.0,57
560340,2021-02-19,13:09:37,CHINA,-10.4,-17.5,600.9,593.5,20.9,17.3,0.05,0.0,110000,54.3,311
528180,2021-02-19,13:09:37,CHINA,-2.8,-21.0,753.9,753.2,28.0,11.7,0.00,0.0,100000,69.3,7
470200,2021-02-19,13:09:37,KOREANORTH,-6.8,-12.3,1015.1,1029.1,0.1,1.6,0.00,0.0,100000,57.0,236
548260,2021-02-19,13:09:37,CHINA,-3.0,-12.3,870.9,873.0,24.9,25.1,0.03,0.0,110000,66.8,328
543770,2021-02-19,13:09:37,CHINA,-4.1,-11.7,1025.7,1025.3,11.3,5.1,0.03,0.0,110000,51.0,34
380910,2021-02-19,13:09:37,KAZAKHSTAN,-2.1,-5.7,1027.0,1030.1,43.6,10.5,0.02,1.2,111000,50.8,134
537640,2021-02-19,13:09:37,CHINA,-5.4,-15.5,972.4,1028.6,19.1,2.7,0.02,0.0,110000,57.1,57
527070,2021-02-19,13:09:37,CHINA,-5.9,-23.0,724.8,721.2,10.7,7.7,0.00,0.0,100000,61.7,328
470030,2021-02-19,13:09:37,KOREANORTH,-6.0,-13.2,1015.9,1019.4,19.8,9.1,0.01,0.0,110000,51.5,74
507560,2021-02-19,13:09:37,CHINA,-7.7,-12.5,1009.2,1022.7,16.6,9.9,0.01,0.0,110000,50.9,6
529570,2021-02-19,13:09:37,CHINA,-4.4,-17.8,723.6,718.0,24.2,15.7,0.03,0.0,110000,90.0,61
400010,2021-02-19,13:09:37,SYRIA,-0.7,-4.8,1036.8,1012.9,15.6,4.2,0.00,0.0,100000,80.6,318
170960,2021-02-19,13:09:37,TURKEY,-2.8,-6.9,891.0,905.2,16.9,16.0,0.08,8.8,111000,51.8,39
407310,2021-02-19,13:09:37,IRAN,-0.3,-2.3,875.3,1024.1,2.8,6.2,0.00,0.0,100000,23.2,136
287660,2021-02-19,13:09:37,KAZAKHSTAN,-5.3,-9.5,1011.8,1027.6,7.0,14.5,0.01,3.5,111000,55.0,314
557730,2021-02-19,13:09:37,CHINA,-1.2,-9.1,620.3,621.9,18.4,16.0,0.03,0.0,110000,60.1,353
503530,2021-02-19,13:09:37,CHINA,-8.3,-17.9,1000.0,1022.8,20.6,7.6,0.00,0.0,100000,39.8,99
526020,2021-02-19,13:09:37,CHINA,-3.8,-19.7,726.2,725.7,23.2,3.8,0.01,0.0,110000,62.1,32
361770,2021-02-19,13:09:37,KAZAKHSTAN,-11.0,-14.5,1023.5,1025.1,9.9,16.1,0.01,0.0,110000,51.2,216
471140,2021-02-19,13:09:37,KOREASOUTH,-2.3,-9.1,1004.7,1023.3,14.2,0.7,0.06,0.4,111000,81.0,152
507880,2021-02-19,13:09:37,CHINA,-10.0,-15.7,1019.0,1019.4,22.8,12.8,0.02,0.0,110000,50.2,229
523130,2021-02-19,13:09:37,CHINA,-2.9,-14.3,921.4,897.5,61.8,2.5,0.00,0.0,100000,74.6,89
564440,2021-02-19,13:09:37,CHINA,-0.5,-5.8,734.9,734.6,27.6,9.2,0.07,0.0,110000,52.0,303
477690,2021-02-19,13:09:37,JAPAN,-0.7,-7.7,1019.9,1025.3,0.1,19.7,0.00,0.0,100000,39.2,263
171880,2021-02-19,13:09:37,TURKEY,-0.1,-3.6,937.6,1016.4,22.4,2.6,0.17,0.3,111000,54.3,187
537720,2021-02-19,13:09:37,CHINA,-2.4,-13.6,982.7,1025.6,6.5,3.1,0.01,0.0,110000,53.5,58
171890,2021-02-19,13:09:37,TURKEY,-6.4,-10.7,905.4,920.7,10.9,6.4,0.02,8.2,111000,54.4,157
477670,2021-02-19,13:09:37,JAPAN,-0.6,-5.2,1018.5,1017.7,16.5,7.8,0.14,0.0,110000,61.4,149
356330,2021-02-19,13:09:37,KAZAKHSTAN,-2.5,-6.2,1027.6,1021.5,24.4,24.6,0.00,3.3,101000,63.8,241
470312,2021-02-19,13:09:37,CHINA,-1.9,-16.4,994.8,979.8,1.7,7.7,0.00,0.0,100000,46.4,117
547760,2021-02-19,13:09:37,CHINA,-0.6,-6.9,1021.1,1025.6,18.8,8.0,0.04,0.0,110000,64.5,341
350850,2021-02-19,13:09:37,KAZAKHSTAN,-9.0,-14.2,1025.9,1032.5,30.0,19.7,0.00,1.4,101000,51.4,103
544970,2021-02-19,13:09:37,CHINA,-3.7,-12.2,1024.6,1024.2,20.1,15.5,0.01,0.0,110000,94.0,279
352170,2021-02-19,13:09:37,KAZAKHSTAN,-3.2,-5.8,1023.3,1022.0,16.8,21.4,0.01,4.8,111000,88.8,350
475450,2021-02-19,13:09:37,JAPAN,-1.8,-5.6,1001.9,1006.8,10.3,13.7,0.00,0.0,100000,93.2,131
552280,2021-02-19,13:09:37,CHINA,-1.7,-17.4,603.4,600.0,30.5,0.0,0.01,0.0,110000,85.7,116
354060,2021-02-19,13:09:37,KAZAKHSTAN,-3.5,-7.0,1027.9,1028.4,27.0,18.3,0.00,0.0,100000,85.9,119
470410,2021-02-19,13:09:37,KOREANORTH,-3.2,-11.0,1009.5,1020.6,15.9,12.0,0.02,0.0,110000,52.6,223
528360,2021-02-19,13:09:37,CHINA,-3.1,-19.3,687.3,685.9,28.8,5.8,0.01,0.0,110000,54.8,281
474050,2021-02-19,13:09:37,JAPAN,-9.7,-14.6,1009.6,1018.1,43.5,18.7,0.00,0.0,100000,85.2,27
538980,2021-02-19,13:09:37,CHINA,-1.0,-9.8,1023.8,1026.8,16.1,8.9,0.02,0.0,110000,52.2,95
442770,2021-02-19,13:09:37,MONGOLIA,-10.1,-20.6,1007.6,1026.1,36.8,22.8,2.35,0.0,110000,50.4,68
526520,2021-02-19,13:09:37,CHINA,-8.1,-20.7,883.8,1029.5,29.2,3.5,0.00,0.0,100000,72.1,286
380810,2021-02-19,13:09:37,KAZAKHSTAN,-2.1,-6.7,1034.3,1029.0,20.8,30.6,0.03,0.2,111000,53.2,67
526510,2021-02-19,13:09:37,CHINA,-8.2,-29.3,976.8,996.1,66.5,4.1,0.00,0.0,100000,29.5,335
471530,2021-02-19,13:09:37,KOREASOUTH,-0.5,-8.1,1016.5,1017.4,8.9,13.3,0.00,0.0,100000,6.5,77
547150,2021-02-19,13:09:37,CHINA,-0.9,-9.6,1021.3,1026.7,12.7,21.5,0.05,0.0,110000,92.0,128
471520,2021-02-19,13:09:37,KOREASOUTH,-0.3,-8.6,1032.8,1021.7,12.6,20.1,0.09,0.0,110000,96.8,217
570140,2021-02-19,13:09:37,CHINA,-2.9,-8.9,1003.4,1032.8,19.9,2.9,0.00,0.0,100000,0.8,111
474760,2021-02-19,13:09:37,JAPAN,-10.5,-14.3,999.9,1001.6,4.5,13.5,0.00,0.0,100000,77.3,31
539150,2021-02-19,13:09:37,CHINA,-2.4,-12.2,907.3,1029.6,23.9,11.6,0.02,0.0,110000,52.5,98
171550,2021-02-19,13:09:37,TURKEY,-1.3,-6.1,899.1,1012.2,14.1,1.9,0.00,0.0,100000,76.3,181
585060,2021-02-19,13:09:37,CHINA,-0.5,-4.9,979.2,1026.7,15.2,13.4,0.16,0.0,110000,50.6,293
543740,2021-02-19,13:09:37,CHINA,-9.6,-15.7,1007.6,1023.3,12.9,3.5,0.01,0.0,110000,51.9,55
523780,2021-02-19,13:09:37,CHINA,-4.0,-18.7,985.8,1008.3,25.6,22.6,0.00,0.0,100000,67.2,154
506580,2021-02-19,13:09:37,CHINA,-9.7,-13.4,1025.4,1022.8,10.5,7.0,0.01,0.0,110000,56.9,179
534460,2021-02-19,13:09:37,CHINA,-4.2,-19.6,1005.6,1029.3,8.0,12.3,0.00,0.0,100000,42.6,239
442410,2021-02-19,13:09:37,MONGOLIA,-12.4,-15.0,1025.8,1033.1,47.0,8.3,0.00,2.1,101000,50.3,159
508620,2021-02-19,13:09:37,CHINA,-18.0,-24.1,1020.1,1006.8,22.3,5.0,0.00,0.0,100000,16.5,319
368700,2021-02-19,13:09:37,KAZAKHSTAN,-0.9,-3.8,978.7,1022.9,10.4,5.2,0.05,2.2,111000,51.5,25
171500,2021-02-19,13:09:37,TURKEY,-0.5,-4.8,1021.2,1019.2,8.8,2.4,0.10,0.9,111000,57.8,292
350670,2021-02-19,13:09:37,KAZAKHSTAN,-7.3,-9.8,1038.4,1034.2,15.9,16.0,0.00,3.0,101000,95.0,9
400300,2021-02-19,13:09:37,SYRIA,-0.3,-6.1,1038.6,1017.3,10.8,3.7,0.00,0.0,100000,8.6,166
289570,2021-02-19,13:09:37,KAZAKHSTAN,-4.1,-6.5,1027.5,1024.5,4.7,2.9,0.04,7.4,111000,53.2,51
511560,2021-02-19,13:09:37,CHINA,-6.7,-11.9,929.2,1031.7,23.3,5.4,0.01,0.0,110000,88.1,311
512880,2021-02-19,13:09:37,CHINA,-5.0,-13.5,835.6,836.2,35.4,10.6,0.01,0.0,110000,82.8,253
583140,2021-02-19,13:09:37,CHINA,-0.2,-4.2,1016.7,1026.7,10.4,8.2,0.13,0.0,110000,50.8,198
475150,2021-02-19,13:09:37,JAPAN,-3.5,-8.4,999.4,1000.6,19.5,13.3,0.00,0.0,100000,44.2,302
548630,2021-02-19,13:09:37,CHINA,-1.4,-10.1,1029.7,1026.6,19.4,14.7,0.05,0.0,110000,53.9,329
507450,2021-02-19,13:09:37,CHINA,-6.8,-14.5,1015.9,1022.7,15.6,4.1,0.01,0.0,110000,59.1,64
521120,2021-02-19,13:09:37,CHINA,-1.8,-16.3,1022.8,1026.0,28.3,21.1,0.00,0.0,100000,13.4,171
529550,2021-02-19,13:09:37,CHINA,-3.3,-17.9,694.4,684.9,32.6,12.3,0.02,0.0,110000,66.7,72
350780,2021-02-19,13:09:37,KAZAKHSTAN,-5.5,-8.1,1021.9,1033.3,9.7,15.2,0.02,8.6,111000,67.4,122
561670,2021-02-19,13:09:37,CHINA,-0.3,-13.3,705.2,714.0,38.5,6.7,0.00,0.0,100000,54.7,176
531920,2021-02-19,13:09:37,CHINA,-5.3,-11.4,918.2,1031.9,30.7,22.6,0.01,0.0,110000,51.2,187
467550,2021-02-19,13:09:37,TAIWAN,-1.5,-1.6,1004.3,998.7,62.7,16.4,0.00,0.0,100000,91.6,224
470610,2021-02-19,13:09:37,KOREANORTH,-1.1,-8.3,1016.6,1020.3,27.2,10.9,0.15,0.8,111000,69.8,9
470650,2021-02-19,13:09:37,KOREANORTH,-3.6,-9.6,1018.6,1024.4,13.9,7.7,0.01,0.0,110000,81.9,171
542080,2021-02-19,13:09:37,CHINA,-7.5,-15.8,912.5,1028.3,29.1,25.1,0.01,0.0,110000,73.1,70
470280,2021-02-19,13:09:37,KOREANORTH,-2.6,-8.2,1021.9,1025.7,16.8,0.9,0.02,0.0,110000,53.0,155
543420,2021-02-19,13:09:37,CHINA,-3.7,-12.2,1019.6,1024.0,8.4,7.3,0.03,0.0,110000,52.6,210
476290,2021-02-19,13:09:37,JAPAN,-1.5,-9.7,1012.5,1016.1,27.4,17.7,0.04,0.0,110000,65.3,23
171950,2021-02-19,13:09:37,TURKEY,-1.0,-5.7,957.2,972.9,9.3,1.6,0.07,1.8,111000,72.3,215
360030,2021-02-19,13:09:37,KAZAKHSTAN,-10.3,-14.1,1020.9,1030.3,28.6,18.5,0.11,4.8,111000,75.4,180
528660,2021-02-19,13:09:37,CHINA,-4.3,-15.9,772.4,766.9,10.9,5.7,0.01,0.0,110000,69.8,141
171240,2021-02-19,13:09:37,TURKEY,-1.6,-4.3,968.5,1018.9,13.0,9.0,0.08,1.2,111000,72.4,352
400830,2021-02-19,13:09:37,SYRIA,-1.2,-9.8,994.5,1022.8,19.8,22.7,0.00,0.0,100000,50.9,314
471240,2021-02-19,13:09:37,KOREASOUTH,-2.7,-10.3,988.9,1081.3,15.7,4.2,0.00,0.0,100000,52.8,119
170900,2021-02-19,13:09:37,TURKEY,-1.6,-4.5,914.1,932.6,18.8,1.8,0.27,4.3,111000,65.8,146
548570,2021-02-19,13:09:37,CHINA,-0.6,-7.8,1024.4,1025.6,12.9,18.5,0.02,0.0,110000,89.7,162
560460,2021-02-19,13:09:37,CHINA,-6.0,-16.6,671.3,672.8,22.5,5.3,0.03,0.0,110000,84.1,313
474340,2021-02-19,13:09:37,JAPAN,-10.1,-14.6,1004.6,1011.7,11.0,11.8,0.00,1.4,101000,91.6,42
474350,2021-02-19,13:09:37,JAPAN,-4.9,-11.1,1012.6,1006.4,34.3,8.4,0.03,0.0,110000,68.4,312
545870,2021-02-19,13:09:37,CHINA,-2.3,-9.6,1026.0,1025.4,25.1,40.7,0.00,0.0,100000,4.1,180
577760,2021-02-19,13:09:37,CHINA,-0.4,-2.3,972.2,1024.0,12.3,23.4,0.29,0.0,110000,74.0,251
368215,2021-02-19,13:09:37,KAZAKHSTAN,-7.8,-10.2,1010.3,1023.2,5.2,15.2,0.00,0.0,100000,26.7,77
570460,2021-02-19,13:09:37,CHINA,-3.6,-11.0,817.2,825.1,23.0,25.2,0.02,0.0,110000,51.5,212
540120,2021-02-19,13:09:37,CHINA,-12.2,-16.9,937.1,1029.7,22.6,14.1,0.02,0.0,110000,50.3,169
548430,2021-02-19,13:09:37,CHINA,-1.7,-9.9,1023.8,1026.3,21.3,16.9,0.03,0.0,110000,50.7,225
547140,2021-02-19,13:09:37,CHINA,-1.7,-10.0,1026.3,1026.2,17.9,14.0,0.08,0.0,110000,51.5,334
471540,2021-02-19,13:09:37,KOREASOUTH,-0.4,-10.0,1010.9,1015.1,10.6,16.2,0.00,0.0,100000,69.0,186
471060,2021-02-19,13:09:37,KOREASOUTH,-1.4,-8.1,1016.0,1022.1,13.1,17.5,0.12,0.2,111000,52.6,267
356710,2021-02-19,13:09:37,KAZAKHSTAN,-4.6,-7.4,997.7,1028.6,17.9,21.0,0.00,3.2,101000,79.1,118
471064,2021-02-19,13:09:37,KOREASOUTH,-6.3,-12.3,1012.2,1011.1,15.1,0.6,0.00,0.0,100000,35.0,271
471066,2021-02-19,13:09:37,KOREASOUTH,-0.4,-8.2,1008.9,1006.8,10.4,4.0,0.00,0.1,101000,51.2,14
475700,2021-02-19,13:09:37,JAPAN,-3.2,-6.3,1007.6,1019.5,14.5,2.8,0.16,7.8,111000,51.4,108
171400,2021-02-19,13:09:37,TURKEY,-4.6,-6.7,871.8,855.5,7.8,14.9,0.07,18.1,111000,51.3,229
376820,2021-02-19,13:09:37,ARMENIA,-3.7,-6.3,803.5,793.4,0.7,9.6,0.00,0.0,100000,17.4,273
545390,2021-02-19,13:09:37,CHINA,-3.1,-13.4,1021.5,1026.6,22.7,9.7,0.02,0.0,110000,80.9,292
475970,2021-02-19,13:09:37,JAPAN,-1.8,-9.1,974.3,1018.1,20.5,16.1,0.07,0.0,110000,97.0,136
540960,2021-02-19,13:09:37,CHINA,-7.5,-14.9,1023.2,1021.8,15.6,18.3,0.02,0.0,110000,51.8,167
474740,2021-02-19,13:09:37,JAPAN,-10.4,-19.1,1009.6,1002.7,6.7,6.6,0.00,0.0,100000,53.8,176
288790,2021-02-19,13:09:37,KAZAKHSTAN,-4.6,-8.8,1032.1,1032.0,7.0,24.7,0.01,0.5,111000,51.5,95
288770,2021-02-19,13:09:37,KAZAKHSTAN,-6.8,-11.3,1016.8,1019.4,19.0,14.2,0.02,5.4,111000,93.5,81
543110,2021-02-19,13:09:37,CHINA,-5.0,-15.9,975.7,1027.8,23.9,8.1,0.02,0.0,110000,67.2,227
542730,2021-02-19,13:09:37,CHINA,-7.9,-16.6,1020.3,1024.8,10.3,1.6,0.00,0.0,100000,40.1,68
541860,2021-02-19,13:09:37,CHINA,-10.3,-17.4,1010.5,1024.1,19.5,6.6,0.03,0.0,110000,52.4,121
524410,2021-02-19,13:09:37,CHINA,-5.7,-19.2,843.9,846.1,41.7,19.5,0.01,0.0,110000,50.0,51
471280,2021-02-19,13:09:37,KOREASOUTH,-1.3,-8.7,1008.6,1009.9,3.2,8.2,0.00,0.0,100000,73.4,157
538210,2021-02-19,13:09:37,CHINA,-5.9,-17.7,929.3,1028.0,20.6,6.1,0.00,0.0,100000,37.6,283
443470,2021-02-19,13:09:37,MONGOLIA,-8.1,-27.1,862.0,1009.9,25.4,19.8,0.00,0.0,100000,91.2,324
514950,2021-02-19,13:09:37,CHINA,-1.9,-17.3,985.3,1032.7,31.6,38.5,0.00,0.0,100000,3.9,52
357390,2021-02-19,13:09:37,KAZAKHSTAN,-0.6,-5.7,1035.7,1028.6,46.6,12.8,0.00,3.0,101000,51.5,343
556640,2021-02-19,13:09:37,CHINA,-0.5,-20.9,602.0,602.2,24.4,29.4,0.00,0.0,100000,11.3,119
570670,2021-02-19,13:09:37,CHINA,-0.4,-7.5,991.6,1028.9,20.4,4.1,0.02,0.0,110000,52.0,132
170671,2021-02-19,13:09:37,TURKEY,-5.8,-8.8,1016.6,1024.4,12.7,2.2,0.00,0.0,100000,1.0,232
508440,2021-02-19,13:09:37,CHINA,-4.8,-13.0,1021.8,1022.9,12.7,14.4,0.01,0.0,110000,50.6,356
475530,2021-02-19,13:09:37,JAPAN,-2.1,-6.0,1004.5,1003.9,5.7,13.2,0.00,0.0,100000,48.6,332
478210,2021-02-19,13:09:37,JAPAN,-3.1,-7.7,891.3,897.6,17.7,7.1,0.00,0.0,100000,34.4,114
513460,2021-02-19,13:09:37,CHINA,-8.5,-11.5,1053.4,1041.1,48.6,2.7,0.00,0.0,100000,33.1,325
380190,2021-02-19,13:09:37,KAZAKHSTAN,-9.5,-12.1,1017.8,1036.2,38.0,2.1,0.05,8.2,111000,52.3,30
544490,2021-02-19,13:09:37,CHINA,-1.2,-18.8,1019.0,1015.6,39.9,30.1,0.05,0.0,110000,52.3,109
512320,2021-02-19,13:09:37,CHINA,-5.3,-9.0,1027.4,1031.3,7.5,23.0,0.03,0.0,110000,51.5,155
442320,2021-02-19,13:09:37,MONGOLIA,-11.9,-16.1,1041.8,1049.4,38.5,6.6,0.00,0.0,100000,78.5,66
548230,2021-02-19,13:09:37,CHINA,-0.5,-11.2,1022.3,1026.3,10.2,11.5,0.02,0.0,110000,51.6,351
383410,2021-02-19,13:09:37,KAZAKHSTAN,-0.8,-4.5,994.7,1027.8,7.8,10.2,0.19,1.4,111000,72.4,277
354590,2021-02-19,13:09:37,KAZAKHSTAN,-3.9,-8.2,1024.6,,48.6,14.5,0.00,0.0,100000,25.8,287
524360,2021-02-19,13:09:37,CHINA,-2.8,-15.7,863.2,1028.5,27.1,31.0,0.01,0.0,110000,51.4,317
470050,2021-02-19,13:09:37,KOREANORTH,-4.5,-9.5,900.8,898.4,13.7,9.1,0.05,6.0,111000,88.1,267
515420,2021-02-19,13:09:37,CHINA,-16.6,-20.7,755.0,753.0,33.0,5.7,0.00,0.0,100000,67.6,100
539750,2021-02-19,13:09:37,CHINA,-2.3,-11.8,1022.9,1028.0,8.3,12.1,0.02,0.0,110000,67.3,120
288670,2021-02-19,13:09:37,KAZAKHSTAN,-6.4,-9.9,1000.8,1030.8,21.2,13.0,0.00,23.0,101000,52.4,112
353610,2021-02-19,13:09:37,KAZAKHSTAN,-0.7,-2.7,990.8,1017.9,24.8,16.0,0.00,0.0,100000,98.2,154
533360,2021-02-19,13:09:37,CHINA,-6.3,-16.0,909.2,1029.9,27.0,6.7,0.01,0.0,110000,54.0,176
535880,2021-02-19,13:09:37,CHINA,-4.5,-11.1,755.4,756.5,19.8,44.4,0.07,0.0,110000,75.7,356
364420,2021-02-19,13:09:37,KAZAKHSTAN,-11.1,-11.4,1012.5,989.7,19.3,31.5,0.02,2.2,111000,98.4,144
525330,2021-02-19,13:09:37,CHINA,-2.0,-14.5,893.6,1027.6,31.0,6.4,0.01,0.0,110000,80.0,143
525331,2021-02-19,13:09:37,CHINA,-5.7,-10.4,974.9,995.5,2.4,10.6,0.00,0.0,100000,32.0,47
170920,2021-02-19,13:09:37,TURKEY,-0.1,-4.0,957.1,982.6,6.8,10.5,0.24,3.5,111000,51.9,120
533910,2021-02-19,13:09:37,CHINA,-5.5,-13.9,880.8,1025.9,33.5,23.3,0.01,0.0,110000,50.4,121
560800,2021-02-19,13:09:37,CHINA,-6.8,-16.9,734.3,733.0,28.5,10.3,0.02,0.0,110000,50.2,77
560790,2021-02-19,13:09:37,CHINA,-6.6,-15.7,665.4,663.3,35.3,3.3,0.02,0.0,110000,50.6,330
377090,2021-02-19,13:09:37,ARMENIA,-2.3,-5.9,982.7,984.9,20.6,16.5,0.02,9.2,111000,51.5,86
549380,2021-02-19,13:09:37,CHINA,-1.9,-11.1,1030.4,1027.4,12.0,7.1,0.01,0.0,110000,52.4,8
544710,2021-02-19,13:09:37,CHINA,-5.5,-13.3,1024.0,1025.0,15.7,24.1,0.00,0.0,100000,31.6,311
442120,2021-02-19,13:09:37,MONGOLIA,-22.1,-24.7,912.3,1037.5,55.0,4.1,0.00,9.9,101000,73.5,210
544050,2021-02-19,13:09:37,CHINA,-4.5,-19.3,1022.5,1027.2,17.0,16.1,0.01,0.0,110000,54.2,192
442140,2021-02-19,13:09:37,MONGOLIA,-10.9,-19.8,825.1,1027.6,10.9,4.8,0.00,0.0,100000,91.4,1
543080,2021-02-19,13:09:37,CHINA,-7.0,-21.9,1020.3,1027.8,30.4,10.8,0.03,0.0,110000,58.5,63
560290,2021-02-19,13:09:37,CHINA,-3.3,-14.8,645.5,645.4,28.5,0.2,0.04,0.0,110000,53.8,263
171270,2021-02-19,13:09:37,TURKEY,-0.2,-3.9,1028.6,1018.8,22.7,11.1,0.05,0.0,110000,53.0,121
359970,2021-02-19,13:09:37,KAZAKHSTAN,-6.4,-9.2,1044.7,1032.9,31.3,5.5,0.05,0.9,111000,53.6,171
443050,2021-02-19,13:09:37,MONGOLIA,-12.8,-15.9,950.6,1027.2,47.1,10.3,0.01,2.2,111000,50.6,330
536730,2021-02-19,13:09:37,CHINA,-2.2,-15.1,975.3,1028.1,17.7,3.2,0.02,0.0,110000,50.2,66
548360,2021-02-19,13:09:37,CHINA,-2.0,-13.3,1032.8,1027.3,14.2,13.7,0.03,0.0,110000,53.8,170
523230,2021-02-19,13:09:37,CHINA,-6.2,-17.7,818.8,817.4,35.4,21.1,0.01,0.0,110000,50.8,266
170980,2021-02-19,13:09:37,TURKEY,-6.8,-8.6,815.6,816.1,12.8,18.3,0.07,11.5,111000,53.5,149
523910,2021-02-19,13:09:37,CHINA,-13.6,-20.2,1002.1,1044.6,38.2,5.2,0.00,0.0,100000,10.9,358
170673,2021-02-19,13:09:37,TURKEY,-0.9,-9.6,1012.6,978.7,12.7,14.3,0.00,0.0,100000,87.9,272
443290,2021-02-19,13:09:37,MONGOLIA,-7.9,-12.7,776.5,1029.7,21.8,13.6,0.00,2.8,101000,96.7,223
443850,2021-02-19,13:09:37,MONGOLIA,-2.5,-14.0,893.1,1026.1,34.4,10.3,0.00,0.0,100000,76.6,246
576220,2021-02-19,13:09:37,CHINA,-0.9,-1.3,841.6,837.7,6.3,16.3,0.05,0.0,110000,75.5,277
560670,2021-02-19,13:09:37,CHINA,-6.5,-19.2,650.5,654.6,22.7,28.0,0.00,0.0,100000,26.6,76
540270,2021-02-19,13:09:37,CHINA,-5.5,-16.9,1001.1,1024.1,26.6,10.9,0.01,0.0,110000,67.4,126
354970,2021-02-19,13:09:37,KAZAKHSTAN,-5.7,-12.1,988.7,1033.9,29.2,13.7,0.00,4.9,101000,50.8,31
581500,2021-02-19,13:09:37,CHINA,-0.7,-5.4,1022.1,1026.7,14.0,9.6,0.03,0.0,110000,54.4,31
443170,2021-02-19,13:09:37,MONGOLIA,-5.6,-10.1,901.0,1032.0,25.6,1.3,0.00,3.3,101000,57.2,252
474230,2021-02-19,13:09:37,JAPAN,-4.7,-9.4,1010.1,1015.4,7.9,25.0,0.09,0.0,110000,51.1,272
474120,2021-02-19,13:09:37,JAPAN,-7.1,-11.8,1014.2,1012.4,11.2,12.2,0.14,14.8,111000,57.6,174
513560,2021-02-19,13:09:37,CHINA,-9.9,-12.4,1006.1,1033.1,15.7,2.9,0.00,0.0,100000,96.7,143
524240,2021-02-19,13:09:37,CHINA,-4.4,-15.9,898.0,1026.1,29.6,14.2,0.02,0.7,111000,52.2,260
749347,2021-02-19,13:09:37,CHINA,-1.2,-6.6,1035.1,1037.4,8.5,11.1,0.00,0.0,100000,91.3,261
749348,2021-02-19,13:09:37,CHINA,-14.7,-18.2,1033.0,1038.4,51.4,7.7,0.00,0.0,100000,61.0,57
547250,2021-02-19,13:09:37,CHINA,-1.8,-11.7,1028.9,1025.6,3.0,15.8,0.03,0.0,110000,52.5,16
471100,2021-02-19,13:09:37,KOREASOUTH,-1.6,-6.5,1008.3,1009.9,2.9,13.0,0.00,0.0,100000,98.6,206
475750,2021-02-19,13:09:37,JAPAN,-3.4,-7.1,1021.6,1016.6,10.8,16.3,0.14,22.5,111000,85.7,140
510870,2021-02-19,13:09:37,CHINA,-4.2,-7.7,928.7,1028.7,35.8,3.1,0.07,0.0,110000,97.0,4
544930,2021-02-19,13:09:37,CHINA,-7.8,-13.6,1021.5,1025.2,19.2,5.3,0.01,0.0,110000,72.1,18
554720,2021-02-19,13:09:37,CHINA,-4.2,-20.3,998.1,992.5,23.6,43.8,0.01,0.0,110000,52.1,22
442820,2021-02-19,13:09:37,MONGOLIA,-12.0,-28.5,819.1,1026.3,49.8,24.7,0.00,0.0,100000,34.6,152
570730,2021-02-19,13:09:37,CHINA,-0.2,-10.0,1024.9,1024.5,16.7,15.1,0.00,0.0,100000,33.3,292
354160,2021-02-19,13:09:37,KAZAKHSTAN,-3.5,-7.1,1026.7,1028.9,6.5,14.5,0.05,7.8,111000,91.2,76
535020,2021-02-19,13:09:37,CHINA,-3.9,-17.6,977.4,1029.5,21.2,11.7,0.00,0.0,100000,5.8,238
475830,2021-02-19,13:09:37,JAPAN,-2.1,-7.3,1009.0,1011.1,3.5,12.8,0.00,0.0,100000,10.6,132
475820,2021-02-19,13:09:37,JAPAN,-2.5,-6.9,1021.0,1017.2,13.4,23.7,0.14,4.9,111000,50.4,306
510760,2021-02-19,13:09:37,CHINA,-7.4,-11.7,962.7,1032.5,30.2,2.8,0.04,0.0,110000,56.7,117
508540,2021-02-19,13:09:37,CHINA,-6.7,-14.1,1026.3,1022.3,15.7,14.8,0.01,0.0,110000,51.9,137
524180,2021-02-19,13:09:37,CHINA,-0.5,-15.9,918.1,1027.1,26.7,2.9,0.01,0.0,110000,51.7,159
474880,2021-02-19,13:09:37,JAPAN,-3.9,-9.0,994.8,997.9,10.7,11.5,0.00,0.0,100000,98.8,337
526610,2021-02-19,13:09:37,CHINA,-4.8,-20.9,928.1,946.3,70.2,12.2,0.00,0.0,100000,24.6,143
544230,2021-02-19,13:09:37,CHINA,-5.3,-17.3,975.7,1023.8,18.6,9.3,0.00,0.0,100000,38.2,271
170500,2021-02-19,13:09:37,TURKEY,-0.1,-5.5,1014.0,1020.1,17.2,10.0,0.04,0.5,111000,93.7,66
536980,2021-02-19,13:09:37,CHINA,-0.6,-11.5,1023.8,1025.5,13.7,15.1,0.04,0.0,110000,50.9,123
289840,2021-02-19,13:09:37,KAZAKHSTAN,-2.9,-6.8,1028.9,1019.0,30.0,19.2,0.00,0.0,100000,93.7,31
377890,2021-02-19,13:09:37,ARMENIA,-0.2,-4.8,985.6,1016.2,7.6,9.1,0.00,0.0,100000,40.5,300
442290,2021-02-19,13:09:37,MONGOLIA,-10.4,-19.0,789.9,1015.3,47.4,9.5,0.00,0.0,100000,67.1,335
353760,2021-02-19,13:09:37,KAZAKHSTAN,-5.5,-8.1,991.0,1030.8,20.7,6.0,0.01,6.4,111000,59.8,336
351730,2021-02-19,13:09:37,KAZAKHSTAN,-9.7,-13.4,1027.4,1032.8,26.8,20.7,0.00,5.2,101000,50.0,46
471580,2021-02-19,13:09:37,KOREASOUTH,-0.6,-4.8,1010.9,1009.2,14.4,9.3,0.00,0.0,100000,65.4,199
471560,2021-02-19,13:09:37,KOREASOUTH,-0.3,-6.7,1018.2,1022.9,13.9,12.6,0.08,0.0,110000,84.8,80
172100,2021-02-19,13:09:37,TURKEY,-0.3,-6.2,915.8,1023.1,24.1,2.0,0.00,0.0,100000,23.7,288
560930,2021-02-19,13:09:37,CHINA,-5.0,-9.8,1012.5,1033.0,15.8,1.4,0.02,0.0,110000,51.0,269
561160,2021-02-19,13:09:37,CHINA,-1.7,-14.1,683.7,690.0,33.7,9.9,0.01,0.0,110000,52.3,70
586530,2021-02-19,13:09:37,CHINA,-1.4,-2.4,914.6,1023.8,1.7,22.4,0.25,0.0,110000,50.9,124
552790,2021-02-19,13:09:37,CHINA,-5.0,-22.7,994.3,995.3,31.2,39.2,0.01,0.0,110000,68.0,119
535640,2021-02-19,13:09:37,CHINA,-5.6,-19.8,936.8,1030.6,20.7,7.6,0.00,0.0,100000,68.0,306
476410,2021-02-19,13:09:37,JAPAN,-1.2,-8.8,989.5,1018.2,23.1,8.1,0.17,0.0,110000,54.5,252
476390,2021-02-19,13:09:37,JAPAN,-22.4,-30.1,1000.4,997.9,44.7,41.1,0.00,0.0,100000,55.3,218
511330,2021-02-19,13:09:37,CHINA,-4.4,-9.0,992.2,1033.3,24.9,9.4,0.05,0.0,110000,89.9,109
536140,2021-02-19,13:09:37,CHINA,-2.7,-14.6,926.9,1028.0,15.7,9.2,0.00,0.0,100000,2.2,121
470950,2021-02-19,13:09:37,KOREASOUTH,-3.1,-10.9,1007.4,1023.7,11.0,14.2,0.05,0.0,110000,55.0,125
355490,2021-02-19,13:09:37,KAZAKHSTAN,-3.5,-8.5,1027.9,1033.7,18.2,17.6,0.00,,101000,97.7,152
509830,2021-02-19,13:09:37,CHINA,-8.8,-14.4,1016.5,1020.9,17.4,2.0,0.02,0.0,110000,99.0,278
509630,2021-02-19,13:09:37,CHINA,-9.3,-14.4,1016.8,1022.0,12.1,5.9,0.01,0.0,110000,98.8,130
561820,2021-02-19,13:09:37,CHINA,-1.4,-9.7,778.6,818.4,33.8,13.4,0.07,0.0,110000,68.1,178
476720,2021-02-19,13:09:37,JAPAN,-0.9,-6.7,1019.7,1020.7,24.8,15.4,0.00,0.0,100000,57.9,216
352290,2021-02-19,13:09:37,KAZAKHSTAN,-5.1,-8.3,1017.1,1026.4,4.6,10.4,0.28,4.0,111000,51.4,230
289780,2021-02-19,13:09:37,KAZAKHSTAN,-8.8,-12.1,969.2,1020.4,11.1,4.6,0.00,0.0,100000,66.2,248
443040,2021-02-19,13:09:37,MONGOLIA,-12.1,-14.9,1022.4,1032.4,46.5,6.9,0.00,1.1,101000,76.3,297
512430,2021-02-19,13:09:37,CHINA,-5.9,-9.2,1008.0,1034.0,14.5,2.9,0.00,0.0,100000,70.5,356
534630,2021-02-19,13:09:37,CHINA,-6.5,-15.4,930.5,1029.0,13.5,11.8,0.01,0.0,110000,53.7,173
509530,2021-02-19,13:09:37,CHINA,-7.6,-13.7,1015.6,1022.6,12.8,15.2,0.02,0.0,110000,88.7,328
505640,2021-02-19,13:09:37,CHINA,-9.4,-13.8,1023.0,1023.6,12.0,9.0,0.01,0.0,110000,80.4,120
474810,2021-02-19,13:09:37,JAPAN,-10.7,-15.9,997.6,989.8,5.5,10.9,0.00,0.0,100000,15.9,346
509150,2021-02-19,13:09:37,CHINA,-8.2,-13.8,945.9,1029.2,33.0,17.0,0.02,0.0,110000,52.5,274
443730,2021-02-19,13:09:37,MONGOLIA,-4.6,-16.1,853.5,1024.6,46.6,11.0,0.00,0.3,101000,72.4,83
443740,2021-02-19,13:09:37,MONGOLIA,-5.2,-16.4,824.4,1024.1,52.1,23.4,0.00,1.1,101000,51.6,115
541350,2021-02-19,13:09:37,CHINA,-8.6,-20.1,1019.3,1024.0,20.1,22.3,0.01,0.0,110000,56.5,236
361860,2021-02-19,13:09:37,KAZAKHSTAN,-2.5,-5.0,992.5,1019.9,7.0,2.1,0.00,17.0,101000,50.5,28
171295,2021-02-19,13:09:37,TURKEY,-0.9,-2.0,997.9,1008.9,10.8,7.8,0.00,0.0,100000,56.8,15
478140,2021-02-19,13:09:37,JAPAN,-0.6,-6.9,1014.6,1023.1,16.0,0.3,0.00,0.0,100000,78.7,130
355760,2021-02-19,13:09:37,KAZAKHSTAN,-8.2,-10.5,1013.6,1036.2,26.3,15.2,0.01,6.9,111000,55.8,220
475420,2021-02-19,13:09:37,JAPAN,-3.3,-7.3,1003.1,1000.8,8.5,20.7,0.00,0.0,100000,90.6,97
539290,2021-02-19,13:09:37,CHINA,-2.0,-11.6,882.4,888.8,10.1,15.6,0.00,0.0,100000,53.2,24
471170,2021-02-19,13:09:37,KOREASOUTH,-1.0,-5.9,1001.9,983.3,9.0,2.7,0.07,0.0,110000,96.3,104
476170,2021-02-19,13:09:37,JAPAN,-6.1,-11.3,953.5,1023.9,20.4,9.2,0.00,0.0,100000,,192
171900,2021-02-19,13:09:37,TURKEY,-1.1,-5.1,947.5,973.3,16.2,9.3,0.13,1.7,111000,63.2,92
524460,2021-02-19,13:09:37,CHINA,-3.2,-17.6,937.2,1034.8,41.6,10.4,0.00,0.0,100000,77.1,1
543370,2021-02-19,13:09:37,CHINA,-5.1,-17.2,1022.8,1025.1,13.8,16.0,0.01,0.0,110000,64.5,230
471010,2021-02-19,13:09:37,KOREASOUTH,-2.2,-9.4,1019.1,1023.5,20.5,0.2,0.05,0.2,111000,77.0,85
471020,2021-02-19,13:09:37,KOREASOUTH,-0.1,-6.6,1004.7,1024.4,7.0,15.2,0.01,0.0,110000,50.8,345
540490,2021-02-19,13:09:37,CHINA,-5.7,-14.9,1028.7,1023.6,18.5,10.8,0.02,0.0,110000,69.6,218
357460,2021-02-19,13:09:37,KAZAKHSTAN,-2.0,-5.2,1025.3,1027.0,15.1,17.7,0.00,0.8,101000,55.2,319
541610,2021-02-19,13:09:37,CHINA,-4.0,-12.1,1012.4,1023.3,12.8,13.3,0.03,0.0,110000,52.1,201
541611,2021-02-19,13:09:37,CHINA,-4.9,-11.6,1019.5,1041.3,10.8,1.2,0.00,0.0,100000,96.9,192
541570,2021-02-19,13:09:37,CHINA,-8.0,-16.3,1025.5,1023.1,12.8,6.0,0.03,0.0,110000,64.0,278
561730,2021-02-19,13:09:37,CHINA,-7.7,-21.2,661.0,668.9,28.3,16.2,,0.0,100000,67.9,1
172500,2021-02-19,13:09:37,TURKEY,-1.7,-6.4,878.8,877.8,27.7,12.9,0.25,3.5,111000,90.5,282
476180,2021-02-19,13:09:37,JAPAN,-4.2,-9.5,975.6,1019.3,17.4,6.6,0.14,1.4,111000,59.0,135
171350,2021-02-19,13:09:37,TURKEY,-0.7,-4.8,922.3,1011.0,14.8,17.7,0.00,0.0,100000,28.7,194
471330,2021-02-19,13:09:37,KOREASOUTH,-0.4,-6.8,1018.7,1024.0,13.5,9.5,0.04,0.0,110000,78.6,106
471340,2021-02-19,13:09:37,KOREASOUTH,-1.6,-7.8,999.4,993.4,11.0,12.1,0.04,0.0,110000,54.9,128
506030,2021-02-19,13:09:37,CHINA,-10.2,-15.6,984.7,1027.5,30.6,2.7,0.01,0.0,110000,65.3,80
471350,2021-02-19,13:09:37,KOREASOUTH,-1.8,-9.9,1005.5,1023.0,17.8,11.7,0.04,0.0,110000,60.9,238
563850,2021-02-19,13:09:37,CHINA,-5.0,-7.4,747.1,745.5,7.5,1.3,0.06,0.0,110000,50.3,62
505570,2021-02-19,13:09:37,CHINA,-15.8,-19.0,1003.3,1022.7,11.2,12.7,0.01,0.0,110000,57.4,320
474020,2021-02-19,13:09:37,JAPAN,-10.1,-13.8,1011.6,1018.3,22.1,15.5,0.05,0.0,110000,55.0,209
474010,2021-02-19,13:09:37,JAPAN,-2.6,-12.8,1011.6,1015.7,15.4,15.1,0.08,15.3,111000,87.1,143
582030,2021-02-19,13:09:37,CHINA,-0.1,-6.6,1022.6,1025.7,19.1,16.0,0.03,0.0,110000,50.6,46
522670,2021-02-19,13:09:37,CHINA,-4.9,-21.4,932.5,1029.6,28.6,10.4,0.00,0.0,100000,45.6,30
561520,2021-02-19,13:09:37,CHINA,-3.0,-9.9,662.7,666.5,28.7,13.5,0.02,0.0,110000,51.0,327
530680,2021-02-19,13:09:37,CHINA,-4.4,-14.0,932.7,1029.0,29.6,12.7,0.01,0.0,110000,51.0,88
542370,2021-02-19,13:09:37,CHINA,-7.7,-22.2,1038.1,1032.0,15.9,18.1,0.00,0.0,100000,90.8,26
470550,2021-02-19,13:09:37,KOREANORTH,-1.2,-9.1,1024.8,1022.5,12.0,5.6,0.12,0.3,111000,89.0,252
538450,2021-02-19,13:09:37,CHINA,-2.4,-13.5,934.3,1029.3,14.3,10.5,0.01,0.0,110000,77.2,238
289520,2021-02-19,13:09:37,KAZAKHSTAN,-7.0,-12.2,1045.6,1033.8,10.0,22.5,0.63,0.0,110000,50.7,170
476120,2021-02-19,13:09:37,JAPAN,-0.6,-4.7,1018.3,1018.8,18.0,4.0,0.40,14.3,111000,50.3,148
343980,2021-02-19,13:09:37,KAZAKHSTAN,-2.1,-6.0,1013.2,1013.6,20.0,21.1,0.00,7.9,101000,59.0,213
443140,2021-02-19,13:09:37,MONGOLIA,-8.6,-15.5,928.1,1022.1,13.4,4.1,0.00,1.5,101000,86.2,171
287850,2021-02-19,13:09:37,KAZAKHSTAN,-4.6,-6.1,1049.5,1018.4,10.0,3.0,0.00,11.6,101000,52.6,106
542920,2021-02-19,13:09:37,CHINA,-8.5,-21.8,1005.8,1025.1,15.8,7.8,0.00,0.0,100000,54.6,230
527370,2021-02-19,13:09:37,CHINA,-1.9,-17.6,725.4,729.3,24.7,22.9,0.01,0.0,110000,76.6,338
474830,2021-02-19,13:09:37,JAPAN,-6.3,-13.4,1005.8,1002.9,8.9,8.1,0.00,0.0,100000,67.4,263
442980,2021-02-19,13:09:37,MONGOLIA,-18.7,-25.0,1056.6,1032.8,41.0,16.9,0.05,0.0,110000,82.3,356
442920,2021-02-19,13:09:37,MONGOLIA,-15.0,-19.8,889.7,1030.4,22.2,5.5,0.26,3.0,111000,86.5,259
537380,2021-02-19,13:09:37,CHINA,-3.5,-16.7,872.0,1025.0,23.8,5.0,0.00,0.0,100000,95.6,118
474070,2021-02-19,13:09:37,JAPAN,-12.2,-14.9,1008.1,1014.6,14.5,12.7,0.09,16.5,111000,67.1,271
474060,2021-02-19,13:09:37,JAPAN,-7.8,-11.5,1010.3,1015.5,15.9,12.6,0.11,15.1,111000,51.3,93
172000,2021-02-19,13:09:37,TURKEY,-0.6,-4.0,975.1,1013.5,11.7,12.6,0.10,0.5,111000,50.1,209
477560,2021-02-19,13:09:37,JAPAN,-0.3,-5.4,1002.9,1019.1,17.0,7.8,0.22,0.0,110000,85.9,155
170860,2021-02-19,13:09:37,TURKEY,-0.2,-5.9,944.7,1018.8,18.5,11.2,0.35,4.1,111000,52.1,61
477090,2021-02-19,13:09:37,JAPAN,-0.8,-8.4,1002.2,1005.0,8.5,8.3,0.00,0.0,100000,9.2,17
476400,2021-02-19,13:09:37,JAPAN,-8.6,-13.5,915.8,906.1,49.6,0.2,0.00,0.0,100000,32.2,166
353020,2021-02-19,13:09:37,KAZAKHSTAN,-3.5,-9.3,1058.2,1032.7,14.1,21.7,0.00,0.0,100000,41.1,161
552990,2021-02-19,13:09:37,CHINA,-5.2,-19.2,1003.3,996.9,21.2,19.8,0.01,0.0,110000,68.5,178
442840,2021-02-19,13:09:37,MONGOLIA,-11.3,-12.6,783.4,1036.4,56.3,4.5,0.00,2.8,101000,61.0,123
470670,2021-02-19,13:09:37,KOREANORTH,-5.1,-9.7,1050.3,1026.4,13.1,12.3,0.00,0.0,100000,14.2,247
542260,2021-02-19,13:09:37,CHINA,-5.0,-18.3,1020.4,1025.3,21.8,5.1,0.01,0.0,110000,52.1,36
470680,2021-02-19,13:09:37,KOREANORTH,-2.5,-7.4,1015.7,1024.1,12.4,14.1,0.01,0.0,110000,83.0,298
476380,2021-02-19,13:09:37,JAPAN,-0.8,-9.8,994.3,1016.1,16.2,2.0,0.13,0.6,111000,51.2,15
474110,2021-02-19,13:09:37,JAPAN,-6.5,-11.3,1011.5,1015.5,14.5,20.2,0.09,0.0,110000,63.5,156
474090,2021-02-19,13:09:37,JAPAN,-10.1,-14.6,1013.9,1014.9,25.8,1.4,0.05,8.6,111000,71.7,156
514630,2021-02-19,13:09:37,CHINA,-6.5,-10.5,947.9,1033.3,14.1,6.6,0.05,0.0,110000,74.0,279
171990,2021-02-19,13:09:37,TURKEY,-3.9,-7.9,912.0,1030.8,18.3,10.4,0.60,3.3,111000,68.4,181
529960,2021-02-19,13:09:37,CHINA,-2.3,-8.3,778.1,776.4,18.6,22.9,0.03,0.0,110000,51.8,140
507270,2021-02-19,13:09:37,CHINA,-5.4,-11.0,914.0,1027.4,31.1,3.7,0.02,0.0,110000,58.4,155
541020,2021-02-19,13:09:37,CHINA,-12.6,-19.2,938.2,1029.7,28.0,1.6,0.01,0.0,110000,69.5,86
546020,2021-02-19,13:09:37,CHINA,-1.6,-11.8,1021.8,1025.6,9.0,5.2,0.02,0.0,110000,96.0,345
474200,2021-02-19,13:09:37,JAPAN,-8.5,-12.9,1014.1,1015.7,16.2,13.1,0.02,3.6,111000,65.0,255
351910,2021-02-19,13:09:37,KAZAKHSTAN,-5.2,-15.7,1034.8,1040.6,46.5,5.2,0.00,0.0,100000,15.3,250
530830,2021-02-19,13:09:37,CHINA,-5.8,-12.1,962.6,1030.0,39.6,9.3,0.02,0.0,110000,52.3,81
561250,2021-02-19,13:09:37,CHINA,-2.5,-18.2,648.6,651.7,19.5,24.0,0.00,0.0,100000,51.3,73
471210,2021-02-19,13:09:37,KOREASOUTH,-3.2,-10.9,994.2,1024.2,12.7,2.5,0.06,0.0,110000,60.7,115
471200,2021-02-19,13:09:37,KOREASOUTH,-2.3,-7.5,1007.7,,8.6,8.2,0.00,0.1,101000,51.7,289
471260,2021-02-19,13:09:37,KOREASOUTH,-0.1,-9.3,999.2,957.9,8.3,14.5,0.00,0.0,100000,12.7,317
298070,2021-02-19,13:09:37,KAZAKHSTAN,-11.3,-15.2,1027.6,1027.4,1.4,5.3,0.02,4.3,111000,52.0,278
544010,2021-02-19,13:09:37,CHINA,-3.7,-17.0,984.7,1027.5,24.1,18.9,0.01,0.0,110000,51.5,218
527650,2021-02-19,13:09:37,CHINA,-8.3,-21.7,714.4,714.3,22.3,0.9,0.01,0.0,110000,51.6,236
470690,2021-02-19,13:09:37,KOREANORTH,-2.3,-8.7,1031.4,1023.8,9.8,8.7,0.22,0.0,110000,51.3,325
470700,2021-02-19,13:09:37,KOREANORTH,-1.4,-7.7,1027.2,1021.2,12.2,15.4,0.01,0.0,110000,80.7,127
544830,2021-02-19,13:09:37,CHINA,-10.2,-15.6,1024.5,1024.0,12.7,13.2,0.01,0.0,110000,52.7,99
543460,2021-02-19,13:09:37,CHINA,-2.5,-11.5,1018.7,1025.1,19.5,8.3,0.02,0.0,110000,57.6,304
363970,2021-02-19,13:09:37,KAZAKHSTAN,-11.3,-16.9,1024.5,1036.7,8.9,33.7,0.00,0.0,100000,86.1,103
475920,2021-02-19,13:09:37,JAPAN,-1.3,-6.1,1014.9,1017.0,22.0,16.0,0.18,2.0,111000,50.2,351
535430,2021-02-19,13:09:37,CHINA,-4.2,-17.2,881.0,1028.0,30.3,9.3,0.00,0.0,100000,69.9,4
358840,2021-02-19,13:09:37,KAZAKHSTAN,-9.7,-11.3,981.9,995.5,19.3,6.8,0.00,11.0,101000,58.9,52
542360,2021-02-19,13:09:37,CHINA,-6.2,-17.5,1019.7,1024.1,13.5,24.1,0.02,0.0,110000,51.5,242
470580,2021-02-19,13:09:37,KOREANORTH,-2.7,-8.3,1015.3,1023.7,22.0,5.5,0.01,0.0,110000,52.1,7
475880,2021-02-19,13:09:37,JAPAN,-3.5,-6.4,997.0,1015.1,16.9,11.9,0.18,0.0,110000,81.8,281
528560,2021-02-19,13:09:37,CHINA,-2.6,-18.8,768.1,767.9,22.0,6.1,0.03,0.0,110000,56.2,257
474330,2021-02-19,13:09:37,JAPAN,-14.4,-17.6,990.3,1014.6,29.6,14.2,0.00,0.0,100000,57.5,199
355820,2021-02-19,13:09:37,KAZAKHSTAN,-2.8,-7.9,1026.3,1032.4,25.8,14.9,0.00,2.6,101000,51.6,92
478180,2021-02-19,13:09:37,JAPAN,-1.1,-6.8,944.9,1027.9,27.4,13.0,0.00,0.0,100000,1.1,115
360010,2021-02-19,13:09:37,KAZAKHSTAN,-12.3,-15.6,1023.4,1023.8,4.5,37.8,0.02,2.8,111000,55.6,232
471290,2021-02-19,13:09:37,KOREASOUTH,-2.2,-7.9,1020.0,1023.9,23.5,7.3,0.05,0.0,110000,51.4,159
537870,2021-02-19,13:09:37,CHINA,-4.6,-17.1,978.2,1027.6,21.4,11.3,0.01,0.0,110000,50.2,256
537980,2021-02-19,13:09:37,CHINA,-0.1,-10.5,1019.7,1025.8,14.2,3.9,0.01,0.0,110000,68.1,233
527130,2021-02-19,13:09:37,CHINA,-5.1,-19.6,699.2,699.1,27.6,13.9,0.02,0.0,110000,63.6,61
471380,2021-02-19,13:09:37,KOREASOUTH,-0.2,-9.4,1026.3,1022.3,16.2,11.0,0.12,0.0,110000,59.2,240
172480,2021-02-19,13:09:37,TURKEY,-5.1,-7.1,902.9,868.6,15.9,2.7,0.33,18.1,111000,50.3,67
476800,2021-02-19,13:09:37,JAPAN,-0.1,-5.9,997.3,1017.7,26.7,13.1,0.00,0.0,100000,95.3,250
171600,2021-02-19,13:09:37,TURKEY,-2.5,-10.2,905.2,876.3,15.9,5.0,0.00,0.0,100000,42.8,181
442870,2021-02-19,13:09:37,MONGOLIA,-8.9,-13.5,809.4,1027.9,53.1,10.9,0.00,1.6,101000,76.3,96
354260,2021-02-19,13:09:37,KAZAKHSTAN,-4.3,-6.5,1004.8,1022.7,31.9,10.2,0.01,5.2,111000,50.2,119
471920,2021-02-19,13:09:37,KOREASOUTH,-1.2,-8.7,1021.3,1022.4,10.1,9.7,0.10,0.0,110000,87.8,298
514635,2021-02-19,13:09:37,CHINA,-6.2,-8.3,992.5,996.1,7.2,6.3,0.00,0.0,100000,11.8,259
474040,2021-02-19,13:09:37,JAPAN,-6.8,-13.0,1014.2,1017.1,33.6,19.8,0.12,0.0,110000,52.0,34
471460,2021-02-19,13:09:37,KOREASOUTH,-0.1,-5.3,1018.8,1023.6,12.5,7.3,0.05,0.0,110000,51.0,280
474210,2021-02-19,13:09:37,JAPAN,-4.2,-9.7,1015.6,1015.1,,11.5,0.10,14.0,111000,50.5,292
534870,2021-02-19,13:09:37,CHINA,-8.6,-19.9,972.0,1027.9,13.6,12.9,0.01,0.0,110000,50.3,267
475870,2021-02-19,13:09:37,JAPAN,-0.7,-5.2,1014.0,1017.1,14.9,18.0,0.21,3.7,111000,84.4,182
475850,2021-02-19,13:09:37,JAPAN,-3.5,-9.4,1010.4,1014.2,21.4,8.4,0.13,2.9,111000,64.3,201
536460,2021-02-19,13:09:37,CHINA,-6.4,-18.1,926.5,1027.9,8.3,7.2,0.01,0.0,110000,51.7,262
546160,2021-02-19,13:09:37,CHINA,-2.8,-11.6,1026.6,1026.2,13.4,8.8,0.02,0.0,110000,53.5,346
474410,2021-02-19,13:09:37,JAPAN,-5.7,-12.0,998.7,1001.6,14.9,11.4,0.00,0.0,100000,23.0,40
539590,2021-02-19,13:09:37,CHINA,-0.9,-9.8,1010.1,1027.0,19.6,15.4,0.01,0.0,110000,55.1,141
170820,2021-02-19,13:09:37,TURKEY,-1.3,-5.5,1003.3,1013.1,8.8,14.8,0.05,0.5,111000,50.2,349
474130,2021-02-19,13:09:37,JAPAN,-6.7,-9.9,1011.5,1017.3,19.0,5.5,0.00,0.0,100000,49.4,135
474170,2021-02-19,13:09:37,JAPAN,-14.8,-18.0,1009.4,1016.4,6.7,8.3,0.05,0.0,110000,72.5,189
546560,2021-02-19,13:09:37,CHINA,-2.1,-8.2,1021.6,1024.8,25.5,30.8,0.01,0.0,110000,53.1,251
474300,2021-02-19,13:09:37,JAPAN,-5.3,-10.1,1019.4,1015.5,15.1,24.6,0.08,7.1,111000,74.0,34
474180,2021-02-19,13:09:37,JAPAN,-11.2,-15.8,1010.1,1016.0,26.0,33.0,0.07,4.6,111000,69.6,235
351880,2021-02-19,13:09:37,KAZAKHSTAN,-4.4,-8.1,1027.8,1027.6,15.7,21.3,0.19,2.2,111000,50.1,247
528420,2021-02-19,13:09:37,CHINA,-10.8,-26.4,696.6,689.9,19.0,10.2,0.01,0.0,110000,76.8,120
442190,2021-02-19,13:09:37,MONGOLIA,-6.2,-18.9,848.4,1027.7,20.1,11.0,0.00,0.0,100000,10.3,284
470520,2021-02-19,13:09:37,KOREANORTH,-4.3,-7.5,1017.3,1023.1,14.7,1.9,0.00,0.0,100000,24.2,100
533520,2021-02-19,13:09:37,CHINA,-9.9,-21.0,960.5,1032.0,26.5,8.4,0.01,0.0,110000,51.1,329
369820,2021-02-19,13:09:37,KYRGYZSTAN,-13.1,-19.4,645.7,644.3,40.7,4.2,0.00,0.0,100000,87.3,282
471190,2021-02-19,13:09:37,KOREASOUTH,-2.1,-8.8,1024.5,1023.6,18.5,2.9,0.03,0.0,110000,80.8,307
471180,2021-02-19,13:09:37,KOREASOUTH,-3.5,-9.4,1014.2,1018.6,7.0,2.3,0.00,0.0,100000,58.5,84
471074,2021-02-19,13:09:37,KOREASOUTH,-1.2,-10.1,995.1,963.4,5.7,27.6,0.00,0.0,100000,38.7,347
471087,2021-02-19,13:09:37,KOREASOUTH,-2.4,-10.4,1025.7,1035.0,13.1,14.4,0.00,0.0,100000,83.0,15
471080,2021-02-19,13:09:37,KOREASOUTH,-1.5,-7.6,1019.1,1022.5,13.9,2.5,0.02,0.1,111000,53.7,217
471120,2021-02-19,13:09:37,KOREASOUTH,-0.8,-6.6,1018.3,1022.9,16.7,17.7,0.02,0.0,110000,54.3,252
506320,2021-02-19,13:09:37,CHINA,-14.2,-19.2,987.4,1024.0,27.2,14.3,0.01,0.0,110000,52.3,186
513790,2021-02-19,13:09:37,CHINA,-8.8,-13.5,1021.5,1035.6,17.6,8.7,0.02,0.0,110000,50.4,353
358490,2021-02-19,13:09:37,KAZAKHSTAN,-1.4,-5.4,1013.3,1023.4,17.2,9.8,0.01,1.2,111000,52.3,158
529080,2021-02-19,13:09:37,CHINA,-8.0,-18.8,999.7,1006.3,24.8,23.6,0.01,0.0,110000,60.4,355
474790,2021-02-19,13:09:37,JAPAN,-7.5,-11.7,1001.6,997.3,7.0,13.8,0.00,0.0,100000,41.7,106
526330,2021-02-19,13:09:37,CHINA,-12.9,-23.3,990.9,980.8,24.5,6.2,0.01,0.0,110000,53.8,217
361520,2021-02-19,13:09:37,KAZAKHSTAN,-12.9,-17.6,1043.7,1034.5,17.6,10.2,0.01,1.4,111000,51.0,116
549160,2021-02-19,13:09:37,CHINA,-0.2,-9.6,1027.4,1026.4,12.6,5.0,0.01,0.0,110000,53.7,275
381411,2021-02-19,13:09:37,KAZAKHSTAN,-3.2,-3.0,1012.9,991.4,1.8,29.5,0.00,0.0,100000,68.3,267
353630,2021-02-19,13:09:37,KAZAKHSTAN,-6.4,-8.8,1055.8,1043.4,14.3,19.0,0.00,0.0,100000,86.3,166
545110,2021-02-19,13:09:37,CHINA,-1.1,-15.2,1021.1,1025.5,18.1,6.9,0.03,0.0,110000,74.7,328
170672,2021-02-19,13:09:37,TURKEY,-4.1,-5.7,979.7,965.2,6.2,8.6,0.00,0.0,100000,16.1,198
170674,2021-02-19,13:09:37,TURKEY,-3.7,-11.4,989.6,995.7,6.9,27.1,0.00,0.0,100000,89.6,74
478240,2021-02-19,13:09:37,JAPAN,-0.3,-8.4,1004.2,1024.0,12.2,0.8,0.04,0.0,110000,52.8,317
353450,2021-02-19,13:09:37,KAZAKHSTAN,-3.4,-6.2,1065.1,1041.8,16.5,0.0,0.00,4.9,101000,69.8,160
475810,2021-02-19,13:09:37,JAPAN,-3.2,-8.1,1013.0,1016.2,28.7,8.8,0.02,5.9,111000,90.3,300
535290,2021-02-19,13:09:37,CHINA,-3.4,-14.9,893.0,1028.5,22.4,4.1,0.01,0.0,110000,63.4,96
475740,2021-02-19,13:09:37,JAPAN,-1.3,-9.0,1007.4,1018.3,13.9,22.0,0.03,0.0,110000,54.4,317
471223,2021-02-19,13:09:37,KOREASOUTH,-1.1,-3.5,1020.1,1027.8,6.7,11.2,0.00,0.0,100000,50.2,88
471220,2021-02-19,13:09:37,KOREASOUTH,-2.5,-7.4,1015.7,1015.4,17.2,7.5,0.02,0.1,111000,58.5,226
521180,2021-02-19,13:09:37,CHINA,-4.1,-15.8,829.1,828.2,32.6,10.6,0.01,0.0,110000,56.9,136
359530,2021-02-19,13:09:37,KAZAKHSTAN,-3.1,-6.3,1014.1,1028.2,25.0,19.9,0.00,3.7,101000,87.5,205
532760,2021-02-19,13:09:37,CHINA,-8.5,-18.0,918.6,1028.3,25.9,15.6,0.01,0.0,110000,86.4,211
170575,2021-02-19,13:09:37,TURKEY,-0.7,-4.1,1002.7,1003.9,8.3,15.5,0.00,0.0,100000,23.9,306
470990,2021-02-19,13:09:37,KOREASOUTH,-2.7,-11.4,1020.7,1024.6,10.2,2.5,0.00,0.0,100000,85.9,331
471030,2021-02-19,13:09:37,KOREASOUTH,-0.7,-4.6,1016.2,1024.6,13.4,22.0,0.00,0.0,100000,73.6,90
471025,2021-02-19,13:09:37,KOREASOUTH,-0.1,-6.9,1011.3,1015.3,1.7,7.7,0.00,0.0,100000,62.8,220
501360,2021-02-19,13:09:37,CHINA,-22.6,-30.9,968.5,1026.9,17.0,4.3,0.00,0.0,100000,56.4,80
364390,2021-02-19,13:09:37,KAZAKHSTAN,-7.2,-14.7,995.2,1001.3,34.7,28.7,0.01,0.7,111000,68.3,226
544360,2021-02-19,13:09:37,CHINA,-6.5,-18.5,1023.7,1025.4,35.0,9.1,0.01,0.0,110000,51.1,311
542590,2021-02-19,13:09:37,CHINA,-7.4,-15.1,1028.7,1024.9,19.3,4.2,0.02,0.0,110000,86.6,69
471000,2021-02-19,13:09:37,KOREASOUTH,-4.0,-9.6,922.2,1022.6,19.1,16.7,0.09,10.6,111000,51.9,226
470980,2021-02-19,13:09:37,KOREASOUTH,-2.7,-10.6,1011.3,1025.2,9.2,4.8,0.01,0.0,110000,72.0,139
364280,2021-02-19,13:09:37,KAZAKHSTAN,-14.1,-18.4,1036.9,1036.8,17.7,3.1,0.01,0.9,111000,50.6,194
510530,2021-02-19,13:09:37,CHINA,-9.3,-13.2,1025.8,1035.3,25.2,13.1,0.02,0.0,110000,53.6,197
527870,2021-02-19,13:09:37,CHINA,-5.7,-14.2,746.9,749.8,26.9,21.4,0.01,0.0,110000,69.5,167
365350,2021-02-19,13:09:37,KAZAKHSTAN,-7.2,-11.4,1072.8,1035.1,33.3,8.8,0.00,0.0,100000,90.6,292
474280,2021-02-19,13:09:37,JAPAN,-3.3,-8.3,1011.6,1013.1,15.3,7.2,0.10,0.0,110000,52.0,334
470350,2021-02-19,13:09:37,KOREANORTH,-4.0,-11.3,1037.1,1024.4,19.2,11.5,0.04,0.0,110000,51.3,97
542180,2021-02-19,13:09:37,CHINA,-7.9,-20.6,992.4,1025.1,24.8,8.5,0.01,0.0,110000,51.3,112
362080,2021-02-19,13:09:37,KAZAKHSTAN,-13.0,-19.1,1011.3,1032.1,26.7,3.1,0.00,0.0,100000,53.6,258
346910,2021-02-19,13:09:37,KAZAKHSTAN,-1.6,-5.7,1021.4,1022.7,16.2,20.6,0.02,2.2,111000,50.1,121
442370,2021-02-19,13:09:37,MONGOLIA,-7.0,-13.6,845.0,1023.8,50.6,13.4,0.00,0.2,101000,77.8,29
471360,2021-02-19,13:09:37,KOREASOUTH,-2.1,-9.4,1014.7,1024.4,18.3,0.0,0.08,0.0,110000,52.4,71
471370,2021-02-19,13:09:37,KOREASOUTH,-1.2,-10.5,1011.6,,12.9,5.5,0.00,0.0,100000,56.2,282
471110,2021-02-19,13:09:37,KOREASOUTH,-1.5,-6.7,1004.0,993.4,2.6,7.3,0.04,0.0,110000,51.4,1
547050,2021-02-19,13:09:37,CHINA,-9.2,-13.2,1039.0,1035.1,22.3,6.9,0.00,0.0,100000,4.5,241
475800,2021-02-19,13:09:37,JAPAN,-3.4,-7.7,999.9,1002.0,20.7,15.2,0.00,1.9,101000,51.0,90
470080,2021-02-19,13:09:37,KOREANORTH,-4.1,-12.5,1014.3,1020.6,13.6,12.9,0.00,0.0,100000,97.3,304
471750,2021-02-19,13:09:37,KOREASOUTH,-0.2,-3.8,966.1,1024.3,11.7,32.7,0.00,0.0,100000,9.1,113
470250,2021-02-19,13:09:37,KOREANORTH,-3.4,-8.1,1015.2,1020.2,10.1,8.2,0.09,0.1,111000,53.0,286
475200,2021-02-19,13:09:37,JAPAN,-2.0,-4.7,1005.5,1018.4,14.5,12.0,0.16,0.0,110000,69.2,192
353860,2021-02-19,13:09:37,KAZAKHSTAN,-7.4,-11.0,986.6,983.3,17.7,13.7,0.00,0.0,100000,47.7,221
170880,2021-02-19,13:09:37,TURKEY,-6.6,-9.7,880.7,860.0,22.7,11.9,0.49,25.2,111000,50.2,2
356990,2021-02-19,13:09:37,KAZAKHSTAN,-4.3,-10.7,952.0,1029.9,27.4,0.2,0.00,3.9,101000,50.9,314
524950,2021-02-19,13:09:37,CHINA,-5.0,-19.7,903.2,1029.7,31.5,12.6,0.00,0.0,100000,16.1,151
538630,2021-02-19,13:09:37,CHINA,-1.7,-13.0,1016.9,1026.9,8.2,13.0,0.02,0.0,110000,54.5,137
538870,2021-02-19,13:09:37,CHINA,-4.4,-22.3,916.1,1026.8,32.3,4.0,0.00,0.0,100000,15.2,76
477590,2021-02-19,13:09:37,JAPAN,-0.4,-6.4,1011.0,1017.9,8.5,15.5,0.29,0.0,110000,50.3,233
171905,2021-02-19,13:09:37,TURKEY,-0.5,-2.0,978.6,1013.8,16.0,3.0,0.00,0.0,100000,33.6,247
477470,2021-02-19,13:09:37,JAPAN,-0.9,-3.7,1024.3,1024.0,10.6,4.5,0.00,0.0,100000,83.0,318
476370,2021-02-19,13:09:37,JAPAN,-2.8,-9.9,957.1,1016.1,25.2,8.0,0.21,0.0,110000,51.7,172
548080,2021-02-19,13:09:37,CHINA,-1.4,-8.7,1026.6,1026.1,2.8,9.6,0.01,0.0,110000,94.8,133
443520,2021-02-19,13:09:37,MONGOLIA,-8.1,-15.1,1071.9,1030.2,53.1,19.2,0.00,0.0,100000,53.3,310
470500,2021-02-19,13:09:37,KOREANORTH,-5.3,-9.4,1020.3,1023.8,18.8,5.4,0.08,0.0,110000,51.0,121
442590,2021-02-19,13:09:37,MONGOLIA,-7.7,-11.9,953.8,1027.0,11.7,17.7,0.00,1.6,101000,80.0,270
351080,2021-02-19,13:09:37,KAZAKHSTAN,-3.3,-6.8,1019.1,1023.8,11.0,28.0,0.01,8.6,111000,79.9,313
474240,2021-02-19,13:09:37,JAPAN,-7.7,-11.6,1018.1,1016.9,21.0,8.1,0.00,0.0,100000,2.4,305
474250,2021-02-19,13:09:37,JAPAN,-10.4,-13.6,1000.6,1001.3,3.1,4.7,0.00,0.0,100000,96.7,303
474260,2021-02-19,13:09:37,JAPAN,-5.6,-10.6,1013.1,1015.5,27.3,23.9,0.03,1.4,111000,97.3,85
563570,2021-02-19,13:09:37,CHINA,-0.4,-15.0,644.9,645.2,31.8,14.7,0.01,0.0,110000,51.5,210
504340,2021-02-19,13:09:37,CHINA,-21.3,-26.7,961.4,1027.2,21.2,12.1,0.02,0.0,110000,53.3,135
350530,2021-02-19,13:09:37,KAZAKHSTAN,-5.0,-8.4,1028.4,1035.4,14.8,19.6,0.08,1.1,111000,63.5,154
509490,2021-02-19,13:09:37,CHINA,-8.0,-16.6,1018.4,1022.6,7.2,17.4,0.02,0.0,110000,82.1,250
366390,2021-02-19,13:09:37,KAZAKHSTAN,-10.6,-13.2,1036.4,1033.1,49.5,3.3,0.00,38.4,101000,51.8,294
471650,2021-02-19,13:09:37,KOREASOUTH,-0.2,-6.1,1025.2,1024.4,18.5,11.0,0.09,0.0,110000,50.9,321
547530,2021-02-19,13:09:37,CHINA,-1.9,-10.1,1025.1,1026.5,15.9,12.5,0.07,0.0,110000,84.6,332
170840,2021-02-19,13:09:37,TURKEY,-2.2,-5.7,942.3,1018.5,20.8,6.1,0.10,3.5,111000,92.0,172
549290,2021-02-19,13:09:37,CHINA,-0.3,-9.7,1025.3,1024.1,22.8,2.8,0.00,0.0,100000,60.6,21
527540,2021-02-19,13:09:37,CHINA,-9.4,-21.6,676.0,678.4,32.3,6.1,0.01,0.0,110000,94.8,227
475690,2021-02-19,13:09:37,JAPAN,-0.5,-6.9,1001.6,1002.5,11.4,18.4,0.00,0.0,100000,73.3,352
546180,2021-02-19,13:09:37,CHINA,-0.4,-9.1,1022.8,1024.7,12.7,13.3,0.08,0.0,110000,51.6,242
474400,2021-02-19,13:09:37,JAPAN,-8.1,-13.8,1012.6,1017.0,19.4,0.8,0.10,0.0,110000,90.3,260
561460,2021-02-19,13:09:37,CHINA,-2.0,-13.6,680.4,678.4,28.6,7.0,0.01,0.0,110000,90.0,275
367440,2021-02-19,13:09:37,KAZAKHSTAN,-5.2,-9.5,1039.7,1032.8,44.9,12.4,0.00,0.9,101000,51.8,215
442070,2021-02-19,13:09:37,MONGOLIA,-15.6,-20.1,1051.2,1044.0,55.4,4.4,0.00,0.0,100000,6.1,316
472185,2021-02-19,13:09:37,JAPAN,-6.8,-12.8,985.9,966.9,11.0,13.5,0.00,0.0,100000,24.4,44
513340,2021-02-19,13:09:37,CHINA,-5.8,-9.5,1042.4,1032.1,25.9,0.9,0.01,0.0,110000,50.1,163
572900,2021-02-19,13:09:37,CHINA,-0.3,-6.6,1021.7,1026.2,20.9,4.0,0.02,0.0,110000,50.3,65
537050,2021-02-19,13:09:37,CHINA,-1.8,-14.4,973.1,1028.4,25.1,15.3,0.01,0.0,110000,50.3,133
543860,2021-02-19,13:09:37,CHINA,-4.5,-12.0,964.6,1025.8,20.8,6.7,0.04,0.0,110000,54.3,184
363350,2021-02-19,13:09:37,KAZAKHSTAN,-6.0,-12.4,1024.3,1031.4,46.6,19.7,0.00,0.3,101000,51.8,210
560650,2021-02-19,13:09:37,CHINA,-4.7,-14.8,661.0,661.1,27.0,7.5,0.02,0.0,110000,69.4,29
517110,2021-02-19,13:09:37,CHINA,-2.0,-9.2,800.8,795.4,25.6,3.2,0.03,0.0,110000,52.9,80
560040,2021-02-19,13:09:37,CHINA,-5.8,-18.4,998.8,1001.7,34.3,18.1,0.01,0.0,110000,55.2,201
470600,2021-02-19,13:09:37,KOREANORTH,-1.6,-6.1,1025.2,1024.2,12.9,11.1,0.01,0.0,110000,51.2,152
357000,2021-02-19,13:09:37,KAZAKHSTAN,-0.8,-4.1,1026.0,1022.2,19.7,30.1,0.04,1.8,111000,54.9,7
593530,2021-02-19,13:09:37,TAIWAN,-1.0,-1.8,763.9,1023.1,14.8,5.5,0.00,0.0,100000,49.2,83
471320,2021-02-19,13:09:37,KOREASOUTH,-3.8,-12.4,996.5,983.3,10.1,5.5,0.00,0.0,100000,67.2,213
549450,2021-02-19,13:09:37,CHINA,-0.6,-8.8,1019.2,1026.7,21.3,5.5,0.03,0.0,110000,51.5,118
475840,2021-02-19,13:09:37,JAPAN,-4.9,-9.9,1005.9,1015.1,3.9,18.7,0.10,3.7,111000,67.6,317
535130,2021-02-19,13:09:37,CHINA,-5.0,-17.3,926.0,1030.4,21.7,6.3,0.00,0.0,100000,20.6,305
475900,2021-02-19,13:09:37,JAPAN,-1.2,-6.8,1009.6,1017.5,19.4,8.4,0.10,0.9,111000,50.1,334
471070,2021-02-19,13:09:37,KOREASOUTH,-0.8,-7.0,1013.5,1016.3,13.8,13.3,0.03,0.3,111000,81.1,36
471065,2021-02-19,13:09:37,KOREASOUTH,-2.1,-7.2,1017.4,1031.1,4.7,10.3,0.00,2.8,101000,50.3,344
543240,2021-02-19,13:09:37,CHINA,-5.0,-19.8,1023.9,1025.2,17.4,18.2,0.01,0.0,110000,50.3,354
539230,2021-02-19,13:09:37,CHINA,-1.4,-10.7,952.7,1026.6,27.2,12.8,0.02,0.0,110000,50.4,73
475160,2021-02-19,13:09:37,JAPAN,-3.2,-8.0,998.4,992.7,12.6,21.0,0.00,0.0,100000,81.2,219
537230,2021-02-19,13:09:37,CHINA,-6.2,-18.2,907.8,1029.1,14.5,11.5,0.02,0.0,110000,54.2,76
470750,2021-02-19,13:09:37,KOREANORTH,-2.2,-5.5,1027.6,1023.2,35.3,11.3,0.07,0.1,111000,51.8,109
171700,2021-02-19,13:09:37,TURKEY,-1.7,-5.9,947.3,943.3,20.8,7.9,0.02,3.9,111000,82.4,221
504680,2021-02-19,13:09:37,CHINA,-14.1,-18.8,1013.4,1021.6,20.6,13.5,0.01,0.0,110000,51.0,271
514670,2021-02-19,13:09:37,CHINA,-0.4,-13.8,829.4,828.4,28.7,0.6,0.00,0.0,100000,70.2,19
539470,2021-02-19,13:09:37,CHINA,-3.2,-14.8,949.2,1027.1,21.8,7.8,0.01,0.0,110000,81.4,133
570060,2021-02-19,13:09:37,CHINA,-0.5,-9.7,946.7,1026.1,11.8,5.0,0.02,0.0,110000,50.7,42
357910,2021-02-19,13:09:37,KAZAKHSTAN,-6.3,-10.8,1032.3,1036.5,50.0,6.7,0.01,4.2,111000,78.5,266
172050,2021-02-19,13:09:37,TURKEY,-3.8,-5.7,829.5,845.1,5.3,8.0,0.22,3.3,111000,52.4,237
475910,2021-02-19,13:09:37,JAPAN,-1.4,-5.6,1005.2,1004.1,18.0,13.0,0.08,0.5,111000,52.5,68
366220,2021-02-19,13:09:37,KAZAKHSTAN,-11.9,-17.7,1041.4,1036.3,26.7,24.7,0.00,3.0,101000,67.2,317
471400,2021-02-19,13:09:37,KOREASOUTH,-0.6,-6.0,1016.8,1023.9,21.3,29.6,0.03,0.0,110000,50.6,174
471410,2021-02-19,13:09:37,KOREASOUTH,-0.7,-4.9,1012.6,1015.3,9.7,20.4,0.07,0.1,111000,95.5,275
471420,2021-02-19,13:09:37,KOREASOUTH,-1.4,-9.5,1013.4,1012.9,12.1,11.3,0.00,0.0,100000,53.9,200
474900,2021-02-19,13:09:37,JAPAN,-11.3,-17.2,995.7,999.5,11.9,7.1,0.00,0.0,100000,76.6,214
474890,2021-02-19,13:09:37,JAPAN,-7.8,-12.9,1000.0,997.8,3.9,5.4,0.00,0.0,100000,31.6,15
505480,2021-02-19,13:09:37,CHINA,-16.5,-19.0,1007.9,1010.0,24.7,7.5,0.00,0.0,100000,35.8,278
540260,2021-02-19,13:09:37,CHINA,-4.7,-16.4,1011.6,1024.1,25.2,23.7,0.01,0.0,110000,89.0,205
475490,2021-02-19,13:09:37,JAPAN,-1.8,-8.0,998.4,995.9,3.5,13.7,0.00,0.0,100000,31.0,42
383530,2021-02-19,13:09:37,KYRGYZSTAN,-0.4,-4.6,1000.1,1028.3,7.5,9.8,0.03,0.4,111000,55.6,165
383531,2021-02-19,13:09:37,KYRGYZSTAN,-0.1,-1.2,990.7,984.5,2.0,13.4,0.00,0.0,100000,63.4,3
170700,2021-02-19,13:09:37,TURKEY,-0.9,-5.1,943.2,1017.1,11.1,4.6,0.14,2.0,111000,54.1,101
549060,2021-02-19,13:09:37,CHINA,-1.7,-8.4,1024.4,1026.2,10.6,10.5,0.01,0.0,110000,62.3,57
561060,2021-02-19,13:09:37,CHINA,-3.2,-14.3,619.0,617.0,28.9,13.1,0.02,0.0,110000,55.3,349
528250,2021-02-19,13:09:37,CHINA,-3.0,-20.8,723.6,722.5,22.7,2.1,0.00,0.0,100000,11.8,165
509680,2021-02-19,13:09:37,CHINA,-11.8,-16.0,1017.8,1022.8,18.5,4.4,0.02,0.0,110000,51.0,233
507740,2021-02-19,13:09:37,CHINA,-12.4,-19.0,1013.4,1022.0,4.0,4.7,0.01,0.0,110000,50.0,314
476900,2021-02-19,13:09:37,JAPAN,-6.6,-11.4,867.0,861.9,24.9,16.5,0.18,0.0,110000,53.0,298
357960,2021-02-19,13:09:37,KAZAKHSTAN,-8.8,-11.7,1019.4,1033.2,42.1,27.8,0.01,1.4,111000,53.4,314
172440,2021-02-19,13:09:37,TURKEY,-1.0,-4.0,952.6,975.8,10.0,10.3,0.02,0.8,111000,51.3,119
475760,2021-02-19,13:09:37,JAPAN,-3.7,-9.0,1016.8,1017.3,5.6,10.8,0.13,0.0,110000,71.3,51
525760,2021-02-19,13:09:37,CHINA,-6.5,-19.5,849.9,861.3,32.9,36.4,0.00,0.0,100000,73.3,270
471270,2021-02-19,13:09:37,KOREASOUTH,-1.4,-6.2,1008.4,1015.2,8.5,10.6,0.01,0.2,111000,52.6,86
172410,2021-02-19,13:09:37,TURKEY,-3.2,-8.2,989.7,1045.9,11.6,11.1,0.00,0.0,100000,92.5,322
171200,2021-02-19,13:09:37,TURKEY,-2.4,-3.5,1025.9,1004.4,15.2,2.1,0.00,0.0,100000,64.4,87
478090,2021-02-19,13:09:37,JAPAN,-0.3,-6.7,1019.1,1024.0,24.1,2.3,0.02,0.0,110000,51.0,117
171290,2021-02-19,13:09:37,TURKEY,-0.7,-5.4,968.4,1019.7,6.6,4.9,0.04,0.0,110000,51.7,176
509780,2021-02-19,13:09:37,CHINA,-6.5,-14.2,1005.9,1021.2,25.0,6.9,0.02,0.0,110000,52.3,9
584450,2021-02-19,13:09:37,CHINA,-2.0,-6.6,875.2,950.4,18.0,31.8,0.18,0.0,110000,50.8,56
560210,2021-02-19,13:09:37,CHINA,-7.8,-20.6,616.6,613.9,29.6,4.2,0.01,0.0,110000,51.8,148
540940,2021-02-19,13:09:37,CHINA,-5.0,-10.7,1010.6,1022.2,12.2,9.7,0.02,0.0,110000,88.3,328
353210,2021-02-19,13:09:37,KAZAKHSTAN,-5.0,-8.3,1054.2,1035.4,8.1,10.2,0.00,0.0,100000,88.1,38
345810,2021-02-19,13:09:37,KAZAKHSTAN,-1.7,-7.0,1040.1,1028.6,49.0,25.3,0.00,0.0,100000,52.8,38
505270,2021-02-19,13:09:37,CHINA,-18.4,-20.8,990.2,1027.9,18.3,14.0,0.02,0.0,110000,51.4,8
475120,2021-02-19,13:09:37,JAPAN,-1.1,-5.4,1019.9,1019.0,41.3,5.9,0.00,0.0,100000,88.9,107
563740,2021-02-19,13:09:37,CHINA,-0.9,-6.2,748.3,750.7,29.7,18.6,0.03,0.0,110000,50.2,334
529830,2021-02-19,13:09:37,CHINA,-6.1,-13.5,817.3,838.3,12.3,7.5,0.00,0.0,100000,36.7,5
580400,2021-02-19,13:09:37,CHINA,-0.9,-8.0,1029.1,1025.7,15.7,15.5,0.02,0.0,110000,76.5,163
562570,2021-02-19,13:09:37,CHINA,-2.1,-13.8,684.6,683.3,43.2,2.5,0.01,0.0,110000,53.3,81
535930,2021-02-19,13:09:37,CHINA,-8.0,-20.8,980.3,1027.5,27.2,9.3,0.02,0.0,110000,61.0,280
470460,2021-02-19,13:09:37,KOREANORTH,-1.3,-5.4,1019.0,1018.9,23.5,11.7,0.01,0.3,111000,53.8,234
347980,2021-02-19,13:09:37,KAZAKHSTAN,-1.7,-4.8,1021.0,1019.7,17.6,19.6,0.00,0.7,101000,50.0,268
350420,2021-02-19,13:09:37,KAZAKHSTAN,-3.2,-7.4,1026.8,1020.0,16.3,12.3,0.01,0.9,111000,83.2,170
522030,2021-02-19,13:09:37,CHINA,-0.2,-11.5,989.1,1027.6,36.3,2.1,0.00,0.0,100000,74.1,118
442880,2021-02-19,13:09:37,MONGOLIA,-14.1,-21.1,916.7,1028.4,47.8,22.0,0.00,0.1,101000,61.8,67
359250,2021-02-19,13:09:37,KAZAKHSTAN,-1.9,-7.1,1014.6,1028.7,27.4,2.7,0.69,0.0,110000,50.4,336
443540,2021-02-19,13:09:37,MONGOLIA,-6.4,-13.4,1044.1,1029.4,55.6,23.4,0.00,0.0,100000,48.8,337
171280,2021-02-19,13:09:37,TURKEY,-1.5,-5.7,955.7,1012.1,11.0,8.8,0.09,1.6,111000,83.1,176
526740,2021-02-19,13:09:37,CHINA,-7.1,-20.1,801.2,795.7,28.7,10.8,0.00,0.0,100000,83.6,99
545340,2021-02-19,13:09:37,CHINA,-1.9,-12.6,1025.7,1025.7,13.5,0.7,0.02,0.0,110000,51.6,90
571930,2021-02-19,13:09:37,CHINA,-0.4,-8.3,1009.1,1025.2,4.5,7.3,0.01,0.0,110000,52.8,11
508880,2021-02-19,13:09:37,CHINA,-6.2,-13.9,1014.3,1020.8,24.7,11.4,0.02,0.0,110000,60.1,166
355420,2021-02-19,13:09:37,KAZAKHSTAN,-6.8,-10.4,1016.3,,8.3,17.6,0.03,0.9,111000,88.9,151
543424,2021-02-19,13:09:37,CHINA,-3.5,-13.2,998.3,994.3,7.1,21.7,0.00,0.0,100000,44.6,355
477420,2021-02-19,13:09:37,JAPAN,-0.7,-3.4,1024.4,1025.1,4.4,8.0,0.03,0.0,110000,51.5,46
471210,2021-02-19,13:09:38,KOREASOUTH,-3.2,-12.4,994.2,1024.2,12.7,2.5,0.06,0.0,110000,60.7,115
471200,2021-02-19,13:09:38,KOREASOUTH,-2.3,-6.6,1007.7,1010.2,8.5,8.1,0.00,0.1,101000,51.7,289
471260,2021-02-19,13:09:38,KOREASOUTH,-0.1,-7.9,999.1,957.9,8.2,14.6,0.00,0.0,100000,12.7,317
298070,2021-02-19,13:09:38,KAZAKHSTAN,-11.3,-15.2,1027.6,1027.4,1.4,5.2,0.02,4.3,111000,51.9,279
470670,2021-02-19,13:09:38,KOREANORTH,-5.1,-9.7,1050.4,1026.4,13.0,12.3,0.00,0.0,100000,14.2,247
542260,2021-02-19,13:09:38,CHINA,-5.0,-19.5,1020.3,1025.3,21.8,5.2,0.01,0.0,110000,52.2,36
470680,2021-02-19,13:09:38,KOREANORTH,-2.5,-6.5,1015.7,1024.2,12.4,14.0,0.01,0.0,110000,83.1,298
475490,2021-02-19,13:09:38,JAPAN,-1.8,-8.0,998.4,996.0,3.5,13.6,0.00,0.0,100000,31.0,42
476290,2021-02-19,13:09:38,JAPAN,-1.5,-8.5,1012.5,1016.1,27.3,17.6,0.04,0.0,110000,65.3,23
536140,2021-02-19,13:09:38,CHINA,-3.3,-14.6,926.9,1028.0,15.8,9.2,0.00,0.0,100000,2.3,121
541610,2021-02-19,13:09:38,CHINA,-4.0,-12.1,1012.4,1023.3,12.9,13.2,0.03,0.0,110000,52.1,200
541611,2021-02-19,13:09:38,CHINA,-4.6,-13.1,1019.5,1041.3,10.9,1.1,0.00,0.0,100000,96.9,193
541570,2021-02-19,13:09:38,CHINA,-7.8,-15.1,1025.5,1023.1,12.8,5.9,0.03,0.0,110000,64.0,279
549160,2021-02-19,13:09:38,CHINA,-0.2,-9.6,1027.4,1026.4,12.6,4.9,0.01,0.0,110000,53.7,275
549450,2021-02-19,13:09:38,CHINA,-0.6,-8.8,1019.2,1026.8,21.2,5.4,0.03,0.0,110000,51.5,117
471140,2021-02-19,13:09:38,KOREASOUTH,-0.7,-9.1,1004.7,1023.3,14.1,0.7,0.06,0.4,111000,80.9,152
170500,2021-02-19,13:09:38,TURKEY,-0.1,-4.7,1014.0,1020.1,17.3,10.0,0.04,0.5,111000,93.7,66
474070,2021-02-19,13:09:38,JAPAN,-11.4,-16.1,1008.1,1014.6,14.5,12.6,0.09,16.5,111000,67.1,272
474060,2021-02-19,13:09:38,JAPAN,-7.8,-11.5,1010.3,1015.5,15.8,12.5,0.11,15.1,111000,51.2,93
172050,2021-02-19,13:09:38,TURKEY,-3.1,-6.9,829.5,844.9,5.1,8.0,0.22,3.3,111000,52.4,237
356710,2021-02-19,13:09:38,KAZAKHSTAN,-4.6,-7.4,997.7,1028.6,17.8,21.1,0.00,3.2,101000,79.1,118
474300,2021-02-19,13:09:38,JAPAN,-5.6,-10.1,1019.4,1015.5,15.1,24.7,0.08,7.1,111000,74.0,33
474180,2021-02-19,13:09:38,JAPAN,-10.6,-14.6,1010.1,1016.0,25.9,32.9,0.07,4.6,111000,69.6,235
351880,2021-02-19,13:09:38,KAZAKHSTAN,-4.4,-8.1,1027.8,1027.7,15.6,21.2,0.19,2.2,111000,50.1,247
528420,2021-02-19,13:09:38,CHINA,-10.8,-25.0,696.6,689.9,18.9,10.3,0.01,0.0,110000,76.7,120
539590,2021-02-19,13:09:38,CHINA,-0.9,-11.0,1010.1,1027.0,19.6,15.5,0.01,0.0,110000,55.0,140
475800,2021-02-19,13:09:38,JAPAN,-3.2,-7.7,999.9,1002.0,20.7,15.1,0.00,1.9,101000,51.0,90
383410,2021-02-19,13:09:38,KAZAKHSTAN,-0.8,-3.6,994.7,1027.8,7.8,10.2,0.19,1.4,111000,72.4,277
534460,2021-02-19,13:09:38,CHINA,-5.1,-17.6,1005.6,1029.3,8.1,12.1,0.00,0.0,100000,42.5,240
509490,2021-02-19,13:09:38,CHINA,-8.2,-16.6,1018.3,1022.6,7.2,17.4,0.02,0.0,110000,82.0,251
580400,2021-02-19,13:09:38,CHINA,-0.9,-8.0,1029.0,1025.7,15.7,15.6,0.02,0.0,110000,76.6,163
535880,2021-02-19,13:09:38,CHINA,-4.4,-10.2,755.4,756.4,19.8,44.6,0.07,0.0,110000,75.7,356
288670,2021-02-19,13:09:38,KAZAKHSTAN,-7.0,-9.9,1001.2,1030.8,21.2,12.9,0.00,23.0,101000,52.4,113
474040,2021-02-19,13:09:38,JAPAN,-6.4,-13.0,1014.2,1017.1,33.7,19.9,0.12,0.0,110000,52.0,34
528180,2021-02-19,13:09:38,CHINA,-3.7,-22.5,753.9,753.2,28.0,11.8,0.00,0.0,100000,69.3,7
537720,2021-02-19,13:09:38,CHINA,-2.4,-15.0,982.7,1025.6,6.6,3.2,0.01,0.0,110000,53.5,58
515420,2021-02-19,13:09:38,CHINA,-16.6,-19.2,755.0,753.0,33.1,5.8,0.00,0.0,100000,67.6,100
539750,2021-02-19,13:09:38,CHINA,-3.1,-12.9,1022.8,1028.0,8.4,12.0,0.02,0.0,110000,67.4,120
561820,2021-02-19,13:09:38,CHINA,-1.4,-9.7,778.6,818.4,33.8,13.3,0.07,0.0,110000,68.2,177
511560,2021-02-19,13:09:38,CHINA,-6.7,,929.2,1031.7,23.3,5.5,0.01,0.0,110000,88.2,310
171240,2021-02-19,13:09:38,TURKEY,-1.3,-4.3,968.5,1018.9,13.1,8.9,0.08,1.2,111000,72.4,352
400830,2021-02-19,13:09:38,SYRIA,-1.2,-9.8,994.4,1023.2,19.9,22.8,0.00,0.0,100000,50.8,314
350420,2021-02-19,13:09:38,KAZAKHSTAN,-2.4,-7.4,1026.9,1020.0,16.2,12.2,0.01,0.9,111000,83.2,169
522030,2021-02-19,13:09:38,CHINA,-0.2,-13.0,989.1,1027.6,36.2,2.1,0.00,0.0,100000,74.1,118
518860,2021-02-19,13:09:38,CHINA,-3.7,-21.0,701.4,698.3,26.8,15.8,0.00,0.0,100000,93.7,161
352170,2021-02-19,13:09:38,KAZAKHSTAN,-3.0,-5.8,1023.3,1022.0,16.8,21.5,0.01,4.8,111000,88.8,350
476380,2021-02-19,13:09:38,JAPAN,-0.8,-9.8,994.3,1016.1,16.2,2.1,0.13,0.6,111000,51.3,15
354160,2021-02-19,13:09:38,KAZAKHSTAN,-2.9,-6.0,1026.7,1028.9,6.4,14.6,0.05,7.8,111000,91.2,76
535020,2021-02-19,13:09:38,CHINA,-4.6,-19.1,977.4,1029.5,21.3,11.8,0.00,0.0,100000,5.8,238
514635,2021-02-19,13:09:38,CHINA,-6.2,-8.3,992.6,996.0,7.3,6.3,0.00,0.0,100000,11.8,259
471010,2021-02-19,13:09:38,KOREASOUTH,-2.2,-9.4,1019.1,1023.5,20.4,0.3,0.05,0.2,111000,77.1,85
471020,2021-02-19,13:09:38,KOREASOUTH,-0.1,-6.6,1004.7,1024.4,7.0,15.2,0.01,0.0,110000,50.8,345
526610,2021-02-19,13:09:38,CHINA,-5.7,-20.9,928.1,946.4,70.2,12.1,0.00,0.0,100000,24.6,143
544230,2021-02-19,13:09:38,CHINA,-5.3,-19.2,975.7,1023.8,18.7,9.2,0.00,0.0,100000,38.2,271
526330,2021-02-19,13:09:38,CHINA,-13.9,-23.3,990.8,980.6,24.4,6.1,0.01,0.0,110000,53.9,217
361520,2021-02-19,13:09:38,KAZAKHSTAN,-13.2,-16.5,1043.6,1034.5,17.5,10.3,0.01,1.4,111000,50.9,116
548360,2021-02-19,13:09:38,CHINA,-2.1,-12.2,1032.8,1027.3,14.3,13.7,0.03,0.0,110000,53.8,170
523230,2021-02-19,13:09:38,CHINA,-5.7,-17.7,818.8,817.3,35.4,21.2,0.01,0.0,110000,50.9,266
474410,2021-02-19,13:09:38,JAPAN,-6.1,-12.0,998.7,1001.7,14.9,11.5,0.00,0.0,100000,23.1,41
471100,2021-02-19,13:09:38,KOREASOUTH,-1.5,-6.5,1008.3,1009.9,2.9,13.1,0.00,0.0,100000,98.5,206
170575,2021-02-19,13:09:38,TURKEY,-0.7,-3.3,1002.7,1003.9,8.2,15.6,0.00,0.0,100000,23.9,306
366220,2021-02-19,13:09:38,KAZAKHSTAN,-11.9,-17.7,1041.4,1036.3,26.6,24.6,0.00,3.0,101000,67.2,317
357960,2021-02-19,13:09:38,KAZAKHSTAN,-8.8,-12.7,1019.4,1033.2,42.2,27.9,0.01,1.4,111000,53.4,314
526810,2021-02-19,13:09:38,CHINA,-3.7,-18.1,896.9,1030.3,28.5,9.4,0.00,0.0,100000,92.1,308
380620,2021-02-19,13:09:38,KAZAKHSTAN,-2.4,-6.2,1022.1,1025.7,20.7,3.8,0.01,0.3,111000,90.1,139
478090,2021-02-19,13:09:38,JAPAN,-0.3,-5.5,1019.1,1024.0,24.0,2.3,0.02,0.0,110000,51.0,117
171290,2021-02-19,13:09:38,TURKEY,-0.9,-4.5,968.4,1019.7,6.6,5.0,0.04,0.0,110000,51.7,177
540960,2021-02-19,13:09:38,CHINA,-7.5,-14.9,1023.2,1021.8,15.6,18.4,0.02,0.0,110000,51.8,167
561460,2021-02-19,13:09:38,CHINA,-0.9,-15.2,680.4,678.4,28.6,7.1,0.01,0.0,110000,90.0,274
367440,2021-02-19,13:09:38,KAZAKHSTAN,-4.6,-8.3,1039.8,1032.8,44.9,12.3,0.00,0.9,101000,51.8,215
345810,2021-02-19,13:09:38,KAZAKHSTAN,-2.2,-6.2,1040.2,1028.6,49.1,25.3,0.00,0.0,100000,52.9,38
537230,2021-02-19,13:09:38,CHINA,-5.5,-16.8,907.8,1029.1,14.4,11.4,0.02,0.0,110000,54.2,76
549380,2021-02-19,13:09:38,CHINA,-2.0,-10.2,1030.5,1027.4,12.0,7.1,0.01,0.0,110000,52.4,8
442840,2021-02-19,13:09:38,MONGOLIA,-11.3,-12.6,783.4,1036.3,56.2,4.5,0.00,2.8,101000,61.0,123
376820,2021-02-19,13:09:38,ARMENIA,-3.7,-5.0,803.6,793.5,0.6,9.5,0.00,0.0,100000,17.4,273
170840,2021-02-19,13:09:38,TURKEY,-2.2,-6.8,942.3,1018.5,20.7,6.1,0.10,3.5,111000,91.9,172
549290,2021-02-19,13:09:38,CHINA,-0.3,-9.7,1025.3,1024.1,22.9,2.8,0.00,0.0,100000,60.6,21
357000,2021-02-19,13:09:38,KAZAKHSTAN,-1.1,-5.0,1025.9,1022.2,19.7,30.0,0.04,1.8,111000,54.9,7
474240,2021-02-19,13:09:38,JAPAN,-7.4,-12.9,1018.1,1016.9,20.9,8.1,0.00,0.0,100000,2.4,305
474250,2021-02-19,13:09:38,JAPAN,-10.4,-14.8,1000.6,1001.3,3.1,4.8,0.00,0.0,100000,96.7,302
474260,2021-02-19,13:09:38,JAPAN,-5.6,-11.4,1013.1,1015.5,27.3,24.0,0.03,1.4,111000,97.4,85
563570,2021-02-19,13:09:38,CHINA,-0.4,-15.0,644.9,645.2,31.8,14.8,0.01,0.0,110000,51.5,210
477690,2021-02-19,13:09:38,JAPAN,-0.8,-7.7,1019.9,1025.3,0.2,19.6,0.00,0.0,100000,39.2,263
171880,2021-02-19,13:09:38,TURKEY,-0.1,-4.3,937.6,1016.4,22.3,2.6,0.17,0.3,111000,54.3,188
570670,2021-02-19,13:09:38,CHINA,-0.4,-8.8,991.6,1028.9,20.5,4.2,0.02,0.0,110000,52.0,132
535930,2021-02-19,13:09:38,CHINA,-8.0,-19.3,980.3,1027.5,27.1,9.4,0.02,0.0,110000,60.9,280
513340,2021-02-19,13:09:38,CHINA,-5.7,-9.5,1042.4,1032.1,25.8,1.0,0.01,0.0,110000,50.1,162
572900,2021-02-19,13:09:38,CHINA,-0.3,-6.6,1021.8,1026.2,21.0,4.1,0.02,0.0,110000,50.3,65
546620,2021-02-19,13:09:38,CHINA,-2.5,-11.6,1020.7,1025.3,3.9,12.2,0.05,0.0,110000,70.8,90
562570,2021-02-19,13:09:38,CHINA,-2.1,-13.8,684.6,683.3,43.2,2.6,0.01,0.0,110000,53.3,81
542920,2021-02-19,13:09:38,CHINA,-8.5,-21.8,1005.8,1025.1,15.7,7.7,0.00,0.0,100000,54.6,231
527370,2021-02-19,13:09:38,CHINA,-2.3,-17.6,725.3,729.3,24.7,22.9,0.01,0.0,110000,76.6,339
475880,2021-02-19,13:09:38,JAPAN,-3.5,-6.4,997.0,1015.1,16.9,11.9,0.18,0.0,110000,81.8,281
359250,2021-02-19,13:09:38,KAZAKHSTAN,-1.9,-8.2,1014.6,1028.7,27.3,2.8,0.69,0.0,110000,50.4,336
360010,2021-02-19,13:09:38,KAZAKHSTAN,-12.3,-15.6,1023.1,1023.8,4.4,37.6,0.02,2.8,111000,55.6,233
538210,2021-02-19,13:09:38,CHINA,-5.1,-19.0,929.2,1028.0,20.6,6.1,0.00,0.0,100000,37.6,283
443470,2021-02-19,13:09:38,MONGOLIA,-9.0,-27.1,862.0,1009.9,25.5,20.0,0.00,0.0,100000,91.2,324
543080,2021-02-19,13:09:38,CHINA,-7.0,-20.4,1020.3,1027.8,30.3,10.7,0.03,0.0,110000,58.5,63
474130,2021-02-19,13:09:38,JAPAN,-6.7,-10.6,1011.5,1017.3,19.0,5.5,0.00,0.0,100000,49.4,135
474170,2021-02-19,13:09:38,JAPAN,-14.8,-18.0,1009.5,1016.4,6.7,8.3,0.05,0.0,110000,72.5,189
475530,2021-02-19,13:09:38,JAPAN,-2.1,-5.5,1004.5,1003.9,5.7,13.1,0.00,0.0,100000,48.6,332
443540,2021-02-19,13:09:38,MONGOLIA,-6.4,-14.6,1044.3,1029.4,55.5,23.5,0.00,0.0,100000,48.8,337
471430,2021-02-19,13:09:38,KOREASOUTH,-0.9,-9.6,1015.6,1023.0,24.1,18.5,0.06,0.0,110000,50.1,15
471280,2021-02-19,13:09:38,KOREASOUTH,-1.4,-8.7,1008.6,1009.9,3.1,8.1,0.00,0.0,100000,73.4,156
526020,2021-02-19,13:09:38,CHINA,-3.8,-19.7,726.2,725.7,23.2,3.7,0.01,0.0,110000,62.2,32
361770,2021-02-19,13:09:38,KAZAKHSTAN,-11.2,-14.5,1023.5,1025.1,9.9,16.0,0.01,0.0,110000,51.1,216
541020,2021-02-19,13:09:38,CHINA,-12.6,-19.2,938.2,1029.7,28.0,1.6,0.01,0.0,110000,69.6,87
471310,2021-02-19,13:09:38,KOREASOUTH,-1.9,-9.1,1020.5,1024.0,21.8,15.4,0.04,0.0,110000,52.2,252
581500,2021-02-19,13:09:38,CHINA,-0.7,-6.2,1022.1,1026.7,13.9,9.5,0.03,0.0,110000,54.3,31
442770,2021-02-19,13:09:38,MONGOLIA,-10.2,-20.6,1007.5,1026.0,36.7,22.9,2.35,0.0,110000,50.3,69
442870,2021-02-19,13:09:38,MONGOLIA,-8.7,-13.5,809.4,1027.9,53.1,10.8,0.00,1.6,101000,76.3,97
529960,2021-02-19,13:09:38,CHINA,-2.3,-7.6,778.1,776.3,18.5,23.0,0.03,0.0,110000,51.8,140
474210,2021-02-19,13:09:38,JAPAN,-4.4,-9.7,1015.6,1015.1,22.4,11.4,0.10,14.0,111000,50.5,293
289780,2021-02-19,13:09:38,KAZAKHSTAN,-8.7,-11.3,969.2,1020.4,11.1,4.5,0.00,0.0,100000,66.2,247
540270,2021-02-19,13:09:38,CHINA,-5.5,-18.3,1001.1,1024.1,26.5,11.0,0.01,0.0,110000,67.4,126
170671,2021-02-19,13:09:38,TURKEY,-5.5,-8.2,1016.6,1024.3,12.7,2.1,0.00,0.0,100000,1.0,233
586530,2021-02-19,13:09:38,CHINA,-1.3,-3.2,914.5,1023.8,1.8,22.3,0.25,0.0,110000,51.0,124
570140,2021-02-19,13:09:38,CHINA,-2.0,-8.9,1003.1,1032.8,19.8,2.9,0.00,0.0,100000,0.8,111
443290,2021-02-19,13:09:38,MONGOLIA,-7.9,-12.7,776.5,1029.6,21.7,13.6,0.00,2.8,101000,96.7,224
471074,2021-02-19,13:09:38,KOREASOUTH,-1.2,-10.8,994.9,963.9,5.7,27.7,0.00,0.0,100000,38.7,347
471087,2021-02-19,13:09:38,KOREASOUTH,-2.4,-11.3,1025.7,1034.8,13.2,14.3,0.00,0.0,100000,83.0,14
471080,2021-02-19,13:09:38,KOREASOUTH,-1.5,-8.5,1019.1,1022.5,13.9,2.5,0.02,0.1,111000,53.6,216
471120,2021-02-19,13:09:38,KOREASOUTH,-0.7,-6.6,1018.3,1022.9,16.7,17.6,0.02,0.0,110000,54.2,252
506320,2021-02-19,13:09:38,CHINA,-14.2,-19.2,987.4,1024.0,27.1,14.3,0.01,0.0,110000,52.4,186
533360,2021-02-19,13:09:38,CHINA,-6.3,-16.0,909.2,1029.9,26.9,6.8,0.01,0.0,110000,54.0,175
475700,2021-02-19,13:09:38,JAPAN,-3.2,-6.3,1007.5,1019.5,14.4,2.9,0.16,7.8,111000,51.4,108
508440,2021-02-19,13:09:38,CHINA,-4.8,-13.0,1021.8,1022.9,12.7,14.5,0.01,0.0,110000,50.7,356
471110,2021-02-19,13:09:38,KOREASOUTH,-1.5,-6.7,1003.9,993.3,2.6,7.4,0.04,0.0,110000,51.4,1
547050,2021-02-19,13:09:38,CHINA,-9.2,-14.5,1039.2,1035.1,22.4,6.9,0.00,0.0,100000,4.6,242
512880,2021-02-19,13:09:38,CHINA,-5.0,-14.7,835.6,836.2,35.3,10.6,0.01,0.0,110000,82.7,253
471650,2021-02-19,13:09:38,KOREASOUTH,-0.2,-6.1,1025.2,1024.4,18.5,11.1,0.09,0.0,110000,50.8,321
547530,2021-02-19,13:09:38,CHINA,-1.9,-9.2,1025.1,1026.5,15.9,12.4,0.07,0.0,110000,84.6,332
542590,2021-02-19,13:09:38,CHINA,-7.4,-15.1,1028.7,1024.9,19.3,4.1,0.02,0.0,110000,86.5,69
471000,2021-02-19,13:09:38,KOREASOUTH,-4.0,-9.6,922.2,1022.6,19.1,16.8,0.09,10.6,111000,52.0,225
470980,2021-02-19,13:09:38,KOREASOUTH,-2.8,-10.6,1011.3,1025.2,9.3,4.9,0.01,0.0,110000,72.0,139
475970,2021-02-19,13:09:38,JAPAN,-1.7,-9.1,974.3,1018.1,20.4,16.0,0.07,0.0,110000,97.0,136
287850,2021-02-19,13:09:38,KAZAKHSTAN,-4.6,-6.1,1049.6,1018.4,9.9,2.9,0.00,11.6,101000,52.6,106
541150,2021-02-19,13:09:38,CHINA,-6.8,-18.5,976.0,1026.3,21.1,22.9,0.01,0.0,110000,80.7,241
470350,2021-02-19,13:09:38,KOREANORTH,-4.1,-11.3,1037.0,1024.4,19.2,11.5,0.04,0.0,110000,51.2,97
542180,2021-02-19,13:09:38,CHINA,-7.9,-22.1,992.4,1025.1,24.8,8.4,0.01,0.0,110000,51.4,112
535640,2021-02-19,13:09:38,CHINA,-5.6,-18.1,936.7,1030.6,20.7,7.6,0.00,0.0,100000,68.1,306
476410,2021-02-19,13:09:38,JAPAN,-0.4,-7.7,989.5,1018.2,23.1,8.2,0.17,0.0,110000,54.4,251
476390,2021-02-19,13:09:38,JAPAN,-23.3,-29.4,1000.4,997.9,44.7,40.8,0.00,0.0,100000,55.3,218
511330,2021-02-19,13:09:38,CHINA,-4.7,-9.0,992.2,1033.3,25.0,9.4,0.05,0.0,110000,89.9,109
532760,2021-02-19,13:09:38,CHINA,-8.5,-19.3,918.6,1028.3,25.8,15.8,0.01,0.0,110000,86.4,211
545340,2021-02-19,13:09:38,CHINA,-2.1,-13.8,1025.6,1025.7,13.4,0.7,0.02,0.0,110000,51.5,91
171350,2021-02-19,13:09:38,TURKEY,-0.7,-6.0,922.3,1011.0,14.8,17.6,0.00,0.0,100000,28.8,194
542080,2021-02-19,13:09:38,CHINA,-7.5,-15.8,912.5,1028.3,29.0,25.2,0.01,0.0,110000,73.1,70
470280,2021-02-19,13:09:38,KOREANORTH,-2.6,-8.2,1021.9,1025.7,16.9,0.9,0.02,0.0,110000,53.0,156
471290,2021-02-19,13:09:38,KOREASOUTH,-2.2,-7.9,1020.1,1023.9,23.4,7.4,0.05,0.0,110000,51.4,159
554720,2021-02-19,13:09:38,CHINA,-4.2,-20.3,998.0,992.4,23.6,43.9,0.01,0.0,110000,52.1,22
471070,2021-02-19,13:09:38,KOREASOUTH,-0.8,-7.8,1013.5,1016.3,13.7,13.2,0.03,0.3,111000,81.0,36
471065,2021-02-19,13:09:38,KOREASOUTH,-2.1,-7.2,1017.4,1031.4,4.7,10.3,0.00,2.8,101000,50.3,344
507560,2021-02-19,13:09:38,CHINA,-7.7,-11.3,1009.2,1022.7,16.6,9.8,0.01,0.0,110000,50.8,6
470030,2021-02-19,13:09:38,KOREANORTH,-6.0,-14.3,1015.9,1019.4,19.8,9.2,0.01,0.0,110000,51.6,74
475920,2021-02-19,13:09:38,JAPAN,-1.4,-6.8,1014.9,1017.0,21.9,16.1,0.18,2.0,111000,50.3,350
535430,2021-02-19,13:09:38,CHINA,-1.1,-17.2,881.0,1028.0,30.3,9.4,0.00,0.0,100000,69.9,3
364280,2021-02-19,13:09:38,KAZAKHSTAN,-14.5,-16.8,1036.9,1036.8,17.8,3.0,0.01,0.9,111000,50.5,194
351080,2021-02-19,13:09:38,KAZAKHSTAN,-3.9,-5.8,1019.1,1023.8,10.9,27.9,0.01,8.6,111000,79.9,313
504340,2021-02-19,13:09:38,CHINA,-21.1,-24.4,961.4,1027.2,21.2,12.0,0.02,0.0,110000,53.3,135
350530,2021-02-19,13:09:38,KAZAKHSTAN,-4.7,-9.5,1028.5,1035.3,14.7,19.6,0.08,1.1,111000,63.6,154
514670,2021-02-19,13:09:38,CHINA,-1.0,-13.8,829.4,828.4,28.7,0.7,0.00,0.0,100000,70.2,18
539470,2021-02-19,13:09:38,CHINA,-2.4,-13.8,949.2,1027.1,21.8,7.7,0.01,0.0,110000,81.5,132
570060,2021-02-19,13:09:38,CHINA,-0.5,-10.7,946.7,1026.1,11.7,5.0,0.02,0.0,110000,50.7,42
470312,2021-02-19,13:09:38,CHINA,-2.1,-16.4,994.8,979.7,1.7,7.6,0.00,0.0,100000,46.4,117
543740,2021-02-19,13:09:38,CHINA,-9.6,-15.7,1007.6,1023.3,13.0,3.5,0.01,0.0,110000,51.8,55
537380,2021-02-19,13:09:38,CHINA,-3.5,-15.2,872.0,1025.0,23.7,4.9,0.00,0.0,100000,95.6,118
353450,2021-02-19,13:09:38,KAZAKHSTAN,-3.4,-4.9,1065.0,1041.8,16.4,0.0,0.00,4.9,101000,69.7,160
475810,2021-02-19,13:09:38,JAPAN,-3.2,-8.9,1013.0,1016.2,28.8,8.7,0.02,5.9,111000,90.3,300
535290,2021-02-19,13:09:38,CHINA,-3.1,-14.9,893.0,1028.5,22.4,4.1,0.01,0.0,110000,63.4,96
475740,2021-02-19,13:09:38,JAPAN,-1.3,-8.4,1007.4,1018.3,14.0,21.9,0.03,0.0,110000,54.3,318
505270,2021-02-19,13:09:38,CHINA,-18.5,-20.8,990.2,1027.9,18.2,13.9,0.02,0.0,110000,51.4,8
475120,2021-02-19,13:09:38,JAPAN,-1.1,-6.4,1019.9,1019.0,41.4,5.9,0.00,0.0,100000,88.9,107
563740,2021-02-19,13:09:38,CHINA,-0.2,-7.1,748.3,750.8,29.6,18.8,0.03,0.0,110000,50.2,333
529570,2021-02-19,13:09:38,CHINA,-4.4,-19.8,723.6,718.0,24.2,15.8,0.03,0.0,110000,90.0,61
171280,2021-02-19,13:09:38,TURKEY,-1.1,-5.7,955.7,1012.1,11.0,8.9,0.09,1.6,111000,83.1,176
540490,2021-02-19,13:09:38,CHINA,-5.7,-14.9,1028.7,1023.6,18.6,10.7,0.02,0.0,110000,69.6,218
471170,2021-02-19,13:09:38,KOREASOUTH,-1.0,-5.9,1001.9,983.4,8.9,2.6,0.07,0.0,110000,96.3,104
442190,2021-02-19,13:09:38,MONGOLIA,-7.1,-18.9,848.4,1027.8,20.0,10.9,0.00,0.0,100000,10.2,283
470610,2021-02-19,13:09:38,KOREANORTH,-1.2,-8.3,1016.5,1020.3,27.2,10.8,0.15,0.8,111000,69.7,9
470650,2021-02-19,13:09:38,KOREANORTH,-3.6,-9.6,1018.7,1024.4,13.8,7.8,0.01,0.0,110000,81.9,171
470390,2021-02-19,13:09:38,KOREANORTH,-3.7,-7.9,1042.4,1024.7,12.5,1.0,0.00,0.0,100000,52.7,72
407310,2021-02-19,13:09:38,IRAN,-0.3,-2.3,875.4,1024.1,2.7,6.2,0.00,0.0,100000,23.2,136
377090,2021-02-19,13:09:38,ARMENIA,-2.7,-5.9,982.6,985.0,20.7,16.6,0.02,9.2,111000,51.5,86
476800,2021-02-19,13:09:38,JAPAN,-0.1,-5.9,997.3,1017.6,26.6,13.0,0.00,0.0,100000,95.3,250
542360,2021-02-19,13:09:38,CHINA,-6.2,-17.5,1019.7,1024.1,13.4,24.2,0.02,0.0,110000,51.5,242
470580,2021-02-19,13:09:38,KOREANORTH,-2.7,-8.3,1015.4,1023.7,22.0,5.4,0.01,0.0,110000,52.1,7
474050,2021-02-19,13:09:38,JAPAN,-10.3,-14.6,1009.6,1018.1,43.4,18.6,0.00,0.0,100000,85.2,27
475840,2021-02-19,13:09:38,JAPAN,-4.7,-9.9,1005.9,1015.1,3.9,18.8,0.10,3.7,111000,67.6,317
535130,2021-02-19,13:09:38,CHINA,-5.6,-18.6,926.0,1030.4,21.6,6.2,0.00,0.0,100000,20.6,305
475900,2021-02-19,13:09:38,JAPAN,-1.2,-6.8,1009.6,1017.5,19.4,8.5,0.10,0.9,111000,50.1,333
442290,2021-02-19,13:09:38,MONGOLIA,-10.4,-17.5,789.8,1015.4,47.5,9.5,0.00,0.0,100000,67.1,334
172000,2021-02-19,13:09:38,TURKEY,-0.6,-4.0,975.1,1013.5,11.6,12.7,0.10,0.5,111000,50.1,209
477560,2021-02-19,13:09:38,JAPAN,-0.1,-5.4,1002.9,1019.1,17.0,7.8,0.22,0.0,110000,85.8,154
546160,2021-02-19,13:09:38,CHINA,-2.8,-12.7,1026.6,1026.2,13.4,8.8,0.02,0.0,110000,53.5,346
471330,2021-02-19,13:09:38,KOREASOUTH,-0.5,-6.8,1018.7,1024.0,13.4,9.4,0.04,0.0,110000,78.7,105
471340,2021-02-19,13:09:38,KOREASOUTH,-1.6,-8.9,999.4,993.4,10.9,12.2,0.04,0.0,110000,54.9,128
506030,2021-02-19,13:09:38,CHINA,-10.5,-14.3,984.8,1027.5,30.6,2.7,0.01,0.0,110000,65.3,79
471350,2021-02-19,13:09:38,KOREASOUTH,-1.9,-9.9,1005.6,1023.0,17.7,11.7,0.04,0.0,110000,60.9,238
527070,2021-02-19,13:09:38,CHINA,-4.8,-23.0,724.8,721.2,10.8,7.6,0.00,0.0,100000,61.7,327
171600,2021-02-19,13:09:38,TURKEY,-3.2,-10.2,905.2,876.3,15.9,5.0,0.00,0.0,100000,42.9,181
354260,2021-02-19,13:09:38,KAZAKHSTAN,-4.3,-7.6,1004.8,1022.6,31.9,10.2,0.01,5.2,111000,50.1,119
170860,2021-02-19,13:09:38,TURKEY,-0.5,-5.1,944.7,1018.8,18.6,11.1,0.35,4.1,111000,52.1,60
523130,2021-02-19,13:09:38,CHINA,-2.9,-12.8,921.4,897.5,61.9,2.5,0.00,0.0,100000,74.7,89
476120,2021-02-19,13:09:38,JAPAN,-0.6,-4.7,1018.3,1018.8,18.0,4.1,0.40,14.3,111000,50.3,148
507880,2021-02-19,13:09:38,CHINA,-10.0,-15.7,1019.0,1019.4,22.8,12.8,0.02,0.0,110000,50.2,229
443850,2021-02-19,13:09:38,MONGOLIA,-3.1,-15.4,893.2,1026.1,34.3,10.2,0.00,0.0,100000,76.6,247
530830,2021-02-19,13:09:38,CHINA,-6.2,-12.1,962.6,1030.0,39.7,9.2,0.02,0.0,110000,52.3,82
561250,2021-02-19,13:09:38,CHINA,-1.4,-18.2,648.6,651.7,19.6,23.9,0.00,0.0,100000,51.3,73
354970,2021-02-19,13:09:38,KAZAKHSTAN,-6.4,-13.4,988.7,1033.9,29.2,13.8,0.00,4.9,101000,50.8,31
171200,2021-02-19,13:09:38,TURKEY,-2.4,-3.5,1025.8,1004.6,15.1,2.2,0.00,0.0,100000,64.4,87
170700,2021-02-19,13:09:38,TURKEY,-0.5,-5.1,943.2,1017.1,11.2,4.6,0.14,2.0,111000,54.2,101
549060,2021-02-19,13:09:38,CHINA,-1.7,-8.4,1024.4,1026.2,10.6,10.4,0.01,0.0,110000,62.3,56
171950,2021-02-19,13:09:38,TURKEY,-1.5,-4.6,957.2,972.9,9.2,1.7,0.07,1.8,111000,72.3,215
443140,2021-02-19,13:09:38,MONGOLIA,-9.0,-16.8,928.2,1022.0,13.4,4.0,0.00,1.5,101000,86.2,171
476900,2021-02-19,13:09:38,JAPAN,-6.6,-11.4,867.0,861.9,25.0,16.4,0.18,0.0,110000,53.0,298
528250,2021-02-19,13:09:38,CHINA,-3.0,-20.8,723.5,722.5,22.7,2.1,0.00,0.0,100000,11.8,166
563850,2021-02-19,13:09:38,CHINA,-5.4,-8.2,747.1,745.5,7.4,1.2,0.06,0.0,110000,50.3,61
505570,2021-02-19,13:09:38,CHINA,-14.9,-20.6,1003.3,1022.7,11.1,12.8,0.01,0.0,110000,57.4,319
475760,2021-02-19,13:09:38,JAPAN,-3.7,-9.0,1016.8,1017.3,5.5,10.8,0.13,0.0,110000,71.3,51
474760,2021-02-19,13:09:38,JAPAN,-10.5,-13.3,999.9,1001.6,4.5,13.6,0.00,0.0,100000,77.3,30
547250,2021-02-19,13:09:38,CHINA,-1.8,-10.5,1028.9,1025.6,3.0,15.7,0.03,0.0,110000,52.4,15
474230,2021-02-19,13:09:38,JAPAN,-4.7,-9.0,1010.1,1015.4,7.8,24.9,0.09,0.0,110000,51.1,272
474120,2021-02-19,13:09:38,JAPAN,-7.1,-11.8,1014.2,1012.4,11.1,12.2,0.14,14.8,111000,57.7,174
560290,2021-02-19,13:09:38,CHINA,-2.3,-16.4,645.5,645.4,28.5,0.1,0.04,0.0,110000,53.9,263
527540,2021-02-19,13:09:38,CHINA,-9.4,-23.1,676.0,678.4,32.4,6.2,0.01,0.0,110000,94.8,227
442880,2021-02-19,13:09:38,MONGOLIA,-13.7,-22.4,916.7,1028.4,47.9,22.1,0.00,0.1,101000,61.8,68
527650,2021-02-19,13:09:38,CHINA,-8.3,-21.7,714.4,714.3,22.3,1.0,0.01,0.0,110000,51.5,235
369820,2021-02-19,13:09:38,KYRGYZSTAN,-13.1,-17.5,645.7,644.4,40.8,4.3,0.00,0.0,100000,87.3,282
510530,2021-02-19,13:09:38,CHINA,-9.4,-14.3,1025.9,1035.3,25.2,13.0,0.02,0.0,110000,53.6,198
538450,2021-02-19,13:09:38,CHINA,-1.7,-12.2,934.2,1029.3,14.2,10.5,0.01,0.0,110000,77.1,238
289520,2021-02-19,13:09:38,KAZAKHSTAN,-7.1,-10.9,1045.5,1033.8,9.9,22.5,0.63,0.0,110000,50.8,170
475450,2021-02-19,13:09:38,JAPAN,-1.7,-6.1,1002.0,1006.8,10.3,13.7,0.00,0.0,100000,93.2,131
552280,2021-02-19,13:09:38,CHINA,-1.2,-15.8,603.4,600.0,30.4,0.0,0.01,0.0,110000,85.7,117
354060,2021-02-19,13:09:38,KAZAKHSTAN,-3.5,-7.8,1027.9,1028.4,26.9,18.2,0.00,0.0,100000,85.9,119
522670,2021-02-19,13:09:38,CHINA,-5.7,-19.8,932.5,1029.6,28.5,10.3,0.00,0.0,100000,45.5,30
561520,2021-02-19,13:09:38,CHINA,-3.0,-9.9,662.7,666.5,28.7,13.4,0.02,0.0,110000,51.1,328
530680,2021-02-19,13:09:38,CHINA,-4.4,-12.4,932.7,1029.0,29.6,12.6,0.01,0.0,110000,51.0,88
508540,2021-02-19,13:09:38,CHINA,-6.8,-12.7,1026.3,1022.3,15.7,14.7,0.01,0.0,110000,51.9,138
548630,2021-02-19,13:09:38,CHINA,-1.4,-10.1,1029.7,1026.6,19.4,14.6,0.05,0.0,110000,53.9,329
507450,2021-02-19,13:09:38,CHINA,-6.8,-14.5,1015.9,1022.7,15.5,4.1,0.01,0.0,110000,59.0,64
353210,2021-02-19,13:09:38,KAZAKHSTAN,-5.0,-10.3,1054.1,1035.4,8.2,10.2,0.00,0.0,100000,88.1,38
470990,2021-02-19,13:09:38,KOREASOUTH,-2.7,-9.8,1020.7,1024.6,10.1,2.5,0.00,0.0,100000,86.0,331
471030,2021-02-19,13:09:38,KOREASOUTH,-0.7,-4.6,1016.2,1024.6,13.5,21.8,0.00,0.0,100000,73.5,90
471025,2021-02-19,13:09:38,KOREASOUTH,-0.1,-6.9,1011.2,1015.3,1.7,7.7,0.00,0.0,100000,62.8,221
501360,2021-02-19,13:09:38,CHINA,-22.6,-30.9,968.5,1026.9,17.1,4.2,0.00,0.0,100000,56.4,80
525330,2021-02-19,13:09:38,CHINA,-2.4,-14.5,893.6,1027.6,31.0,6.4,0.01,0.0,110000,79.9,143
525331,2021-02-19,13:09:38,CHINA,-6.5,-10.4,974.8,995.5,2.4,10.6,0.00,0.0,100000,32.0,48
443520,2021-02-19,13:09:38,MONGOLIA,-8.0,-16.2,1072.2,1030.2,53.0,19.3,0.00,0.0,100000,53.3,310
540260,2021-02-19,13:09:38,CHINA,-4.6,-17.7,1011.7,1024.1,25.2,23.6,0.01,0.0,110000,89.0,205
548230,2021-02-19,13:09:38,CHINA,-0.5,-12.2,1022.3,1026.3,10.2,11.6,0.02,0.0,110000,51.6,351
354590,2021-02-19,13:09:38,KAZAKHSTAN,-3.2,-9.0,1024.6,1030.3,48.7,14.6,0.00,0.0,100000,25.8,288
560180,2021-02-19,13:09:38,CHINA,-1.3,-14.1,627.1,635.6,24.4,16.5,0.01,0.0,110000,88.0,57
560340,2021-02-19,13:09:38,CHINA,-9.9,-19.5,600.9,593.6,21.0,17.2,0.05,0.0,110000,54.4,311
524950,2021-02-19,13:09:38,CHINA,-5.0,-18.3,903.2,1029.7,31.4,12.5,0.00,0.0,100000,16.2,150
528660,2021-02-19,13:09:38,CHINA,-4.3,-15.9,772.4,766.9,10.9,5.6,0.01,0.0,110000,69.7,141
521120,2021-02-19,13:09:38,CHINA,-1.0,-17.8,1022.8,1026.0,28.3,21.0,0.00,0.0,100000,13.4,171
544930,2021-02-19,13:09:38,CHINA,-8.0,-13.6,1021.4,1025.2,19.2,5.3,0.01,0.0,110000,72.1,19
537640,2021-02-19,13:09:38,CHINA,-6.3,-16.8,972.4,1028.6,19.2,2.7,0.02,0.0,110000,57.1,57
476720,2021-02-19,13:09:38,JAPAN,-0.9,-5.4,1019.7,1020.7,24.9,15.4,0.00,0.0,100000,57.9,216
352290,2021-02-19,13:09:38,KAZAKHSTAN,-1.8,-9.4,1017.1,1026.4,4.7,10.4,0.28,4.0,111000,51.3,230
470950,2021-02-19,13:09:38,KOREASOUTH,-3.0,-9.6,1007.3,1023.7,11.1,14.1,0.05,0.0,110000,54.9,124
544010,2021-02-19,13:09:38,CHINA,-3.7,-17.0,984.6,1027.5,24.0,18.9,0.01,0.0,110000,51.5,218
353610,2021-02-19,13:09:38,KAZAKHSTAN,-1.4,-4.2,990.7,1017.9,24.9,16.0,0.00,0.0,100000,98.2,154
509530,2021-02-19,13:09:38,CHINA,-7.8,-13.7,1015.6,1022.6,12.7,15.2,0.02,0.0,110000,88.8,327
524180,2021-02-19,13:09:38,CHINA,-1.3,-14.3,918.1,1027.1,26.8,2.9,0.01,0.0,110000,51.8,159
507740,2021-02-19,13:09:38,CHINA,-12.9,-17.3,1013.4,1022.0,4.0,4.6,0.01,0.0,110000,50.0,314
474740,2021-02-19,13:09:38,JAPAN,-10.4,-19.1,1009.5,1002.4,6.8,6.7,0.00,0.0,100000,53.8,176
571310,2021-02-19,13:09:38,CHINA,-0.3,-6.2,981.3,1029.2,6.6,2.7,0.00,0.0,100000,99.9,188
543460,2021-02-19,13:09:38,CHINA,-2.6,-12.8,1018.7,1025.1,19.6,8.3,0.02,0.0,110000,57.6,304
363970,2021-02-19,13:09:38,KAZAKHSTAN,-10.9,-15.9,1024.2,1036.7,8.7,33.6,0.00,0.0,100000,86.1,103
477420,2021-02-19,13:09:38,JAPAN,-0.7,-3.4,1024.4,1025.1,4.4,8.1,0.03,0.0,110000,51.5,47
172440,2021-02-19,13:09:38,TURKEY,-0.6,-5.0,952.6,975.8,10.1,10.2,0.02,0.8,111000,51.3,120
546180,2021-02-19,13:09:38,CHINA,-0.4,-10.3,1022.8,1024.7,12.7,13.3,0.08,0.0,110000,51.6,242
474400,2021-02-19,13:09:38,JAPAN,-8.1,-13.8,1012.6,1017.0,19.5,0.8,0.10,0.0,110000,90.3,259
471380,2021-02-19,13:09:38,KOREASOUTH,-0.2,-9.4,1026.3,1022.4,16.2,11.0,0.12,0.0,110000,59.1,240
171900,2021-02-19,13:09:38,TURKEY,-1.1,-4.3,947.5,973.3,16.2,9.2,0.13,1.7,111000,63.2,92
443730,2021-02-19,13:09:38,MONGOLIA,-5.1,-16.1,853.5,1024.6,46.6,10.9,0.00,0.3,101000,72.4,83
443740,2021-02-19,13:09:38,MONGOLIA,-5.2,-16.4,824.5,1024.1,52.0,23.3,0.00,1.1,101000,51.6,115
528360,2021-02-19,13:09:38,CHINA,-2.8,-18.1,687.3,685.9,28.8,5.8,0.01,0.0,110000,54.8,281
548260,2021-02-19,13:09:38,CHINA,-3.0,-12.3,870.9,872.9,24.9,25.0,0.03,0.0,110000,66.7,328
474340,2021-02-19,13:09:38,JAPAN,-10.1,-13.4,1004.7,1011.7,11.0,11.9,0.00,1.4,101000,91.7,42
474350,2021-02-19,13:09:38,JAPAN,-4.9,-11.1,1012.6,1006.4,34.2,8.3,0.03,0.0,110000,68.4,312
545870,2021-02-19,13:09:38,CHINA,-2.3,-8.9,1026.0,1025.4,25.1,40.9,0.00,0.0,100000,4.1,180
351730,2021-02-19,13:09:38,KAZAKHSTAN,-9.5,-13.4,1027.4,1032.8,26.9,20.7,0.00,5.2,101000,50.0,46
355820,2021-02-19,13:09:38,KAZAKHSTAN,-3.7,-6.4,1026.4,1032.4,25.7,15.0,0.00,2.6,101000,51.6,92
478180,2021-02-19,13:09:38,JAPAN,-1.1,-6.8,944.9,1027.9,27.3,12.9,0.00,0.0,100000,1.1,115
170672,2021-02-19,13:09:38,TURKEY,-3.7,-5.7,979.7,965.0,6.1,8.6,0.00,0.0,100000,16.1,198
170674,2021-02-19,13:09:38,TURKEY,-3.7,-10.1,989.7,995.7,7.0,27.2,0.00,0.0,100000,89.6,74
478240,2021-02-19,13:09:38,JAPAN,-0.3,-8.4,1004.2,1024.0,12.2,0.8,0.04,0.0,110000,52.8,317
470200,2021-02-19,13:09:38,KOREANORTH,-6.8,-11.2,1015.2,1029.1,0.0,1.5,0.00,0.0,100000,57.1,235
509680,2021-02-19,13:09:38,CHINA,-11.7,-17.6,1017.8,1022.8,18.4,4.4,0.02,0.0,110000,50.9,233
470750,2021-02-19,13:09:38,KOREANORTH,-2.2,-5.5,1027.5,1023.2,35.2,11.3,0.07,0.1,111000,51.8,109
561670,2021-02-19,13:09:38,CHINA,-0.3,-13.3,705.2,714.1,38.4,6.7,0.00,0.0,100000,54.8,176
576220,2021-02-19,13:09:38,CHINA,-1.2,-1.3,841.6,837.8,6.3,16.2,0.05,0.0,110000,75.5,277
560670,2021-02-19,13:09:38,CHINA,-6.5,-19.2,650.5,654.6,22.7,28.1,0.00,0.0,100000,26.6,77
557730,2021-02-19,13:09:38,CHINA,-1.2,-10.9,620.3,621.9,18.5,15.9,0.03,0.0,110000,60.1,354
503530,2021-02-19,13:09:38,CHINA,-8.3,-17.9,1000.0,1022.8,20.5,7.6,0.00,0.0,100000,39.9,98
543770,2021-02-19,13:09:38,CHINA,-4.1,-10.4,1025.8,1025.3,11.4,5.1,0.03,0.0,110000,51.1,34
380910,2021-02-19,13:09:38,KAZAKHSTAN,-2.1,-6.8,1027.1,1030.1,43.6,10.4,0.02,1.2,111000,50.8,134
471190,2021-02-19,13:09:38,KOREASOUTH,-2.0,-7.7,1024.5,1023.6,18.5,3.0,0.03,0.0,110000,80.8,306
471180,2021-02-19,13:09:38,KOREASOUTH,-3.4,-9.4,1014.3,1018.7,7.1,2.3,0.00,0.0,100000,58.5,84
561730,2021-02-19,13:09:38,CHINA,-6.3,-21.2,661.0,668.9,28.2,16.3,0.00,0.0,100000,67.9,1
548570,2021-02-19,13:09:38,CHINA,-0.6,-7.0,1024.4,1025.6,12.9,18.7,0.02,0.0,110000,89.6,163
367780,2021-02-19,13:09:38,KAZAKHSTAN,-4.4,-11.7,1047.2,1031.8,26.2,6.4,0.00,0.0,100000,90.9,85
172400,2021-02-19,13:09:38,TURKEY,-1.3,-5.0,951.9,1016.0,28.7,6.7,0.09,0.5,111000,56.3,59
532310,2021-02-19,13:09:38,CHINA,-3.8,-16.0,850.9,857.8,29.0,17.9,0.00,0.0,100000,46.4,0
525760,2021-02-19,13:09:38,CHINA,-6.5,-19.5,849.8,861.3,32.8,36.5,0.00,0.0,100000,73.3,271
475690,2021-02-19,13:09:38,JAPAN,-0.5,-6.9,1001.6,1002.4,11.4,18.3,0.00,0.0,100000,73.2,352
537870,2021-02-19,13:09:38,CHINA,-4.8,-15.7,978.2,1027.6,21.5,11.3,0.01,0.0,110000,50.2,257
537980,2021-02-19,13:09:38,CHINA,-0.1,-10.5,1019.6,1025.8,14.2,4.0,0.01,0.0,110000,68.1,233
171890,2021-02-19,13:09:38,TURKEY,-5.9,-10.7,905.4,920.4,10.8,6.5,0.02,8.2,111000,54.3,157
477670,2021-02-19,13:09:38,JAPAN,-0.7,-5.2,1018.5,1017.7,16.5,7.8,0.14,0.0,110000,61.4,150
356330,2021-02-19,13:09:38,KAZAKHSTAN,-1.5,-4.7,1027.6,1021.5,24.5,24.7,0.00,3.3,101000,63.8,241
536460,2021-02-19,13:09:38,CHINA,-6.4,-16.7,926.5,1028.0,8.4,7.1,0.01,0.0,110000,51.8,262
593530,2021-02-19,13:09:38,TAIWAN,-1.0,-2.9,763.9,1023.1,14.7,5.5,0.00,0.0,100000,49.2,83
471320,2021-02-19,13:09:38,KOREASOUTH,-3.8,-12.4,996.6,983.2,10.0,5.5,0.00,0.0,100000,67.3,213
353760,2021-02-19,13:09:38,KAZAKHSTAN,-5.5,-9.2,991.1,1030.8,20.7,6.1,0.01,6.4,111000,59.8,335
547760,2021-02-19,13:09:38,CHINA,-0.6,-6.5,1021.1,1025.6,18.7,8.1,0.04,0.0,110000,64.5,341
543240,2021-02-19,13:09:38,CHINA,-5.0,-19.8,1023.9,1025.2,17.5,18.3,0.01,0.0,110000,50.2,354
359970,2021-02-19,13:09:38,KAZAKHSTAN,-6.4,-9.2,1044.6,1032.9,31.4,5.5,0.05,0.9,111000,53.6,172
443050,2021-02-19,13:09:38,MONGOLIA,-12.8,-15.9,950.6,1027.2,47.2,10.4,0.01,2.2,111000,50.6,330
536730,2021-02-19,13:09:38,CHINA,-1.7,-15.1,975.3,1028.1,17.7,3.1,0.02,0.0,110000,50.2,66
521180,2021-02-19,13:09:38,CHINA,-4.2,-15.8,829.1,828.3,32.5,10.5,0.01,0.0,110000,56.8,135
400010,2021-02-19,13:09:38,SYRIA,-0.4,-5.9,1036.6,1012.9,15.5,4.0,0.00,0.0,100000,80.7,318
170960,2021-02-19,13:09:38,TURKEY,-3.2,-5.7,891.0,905.2,17.0,16.0,0.08,8.8,111000,51.8,38
364390,2021-02-19,13:09:38,KAZAKHSTAN,-7.2,-16.0,995.2,1001.3,34.8,28.8,0.01,0.7,111000,68.4,226
539230,2021-02-19,13:09:38,CHINA,-1.4,-10.7,952.7,1026.6,27.1,12.8,0.02,0.0,110000,50.4,73
477090,2021-02-19,13:09:38,JAPAN,-0.8,-8.4,1002.2,1005.0,8.4,8.2,0.00,0.0,100000,9.1,17
357460,2021-02-19,13:09:38,KAZAKHSTAN,-2.7,-6.1,1025.3,1027.0,15.2,17.8,0.00,0.8,101000,55.2,319
544360,2021-02-19,13:09:38,CHINA,-6.5,-18.5,1023.7,1025.4,35.0,9.0,0.01,0.0,110000,51.1,311
543424,2021-02-19,13:09:38,CHINA,-3.5,-13.2,998.3,994.3,7.1,21.8,0.00,0.0,100000,44.7,356
524240,2021-02-19,13:09:38,CHINA,-3.6,-15.9,898.0,1026.1,29.6,14.1,0.02,0.7,111000,52.2,260
749347,2021-02-19,13:09:38,CHINA,-1.2,-6.6,1035.1,1037.4,8.6,11.1,0.00,0.0,100000,91.4,261
749348,2021-02-19,13:09:38,CHINA,-14.7,-18.2,1033.0,1038.4,51.5,7.7,0.00,0.0,100000,61.0,57
358490,2021-02-19,13:09:38,KAZAKHSTAN,-1.9,-5.4,1013.3,1023.4,17.2,9.9,0.01,1.2,111000,52.4,157
171700,2021-02-19,13:09:38,TURKEY,-1.0,-4.8,947.3,943.3,20.9,7.8,0.02,3.9,111000,82.3,220
504680,2021-02-19,13:09:38,CHINA,-14.1,-20.1,1013.4,1021.6,20.7,13.5,0.01,0.0,110000,51.0,271
547140,2021-02-19,13:09:38,CHINA,-1.8,-11.1,1026.3,1026.2,17.9,14.0,0.08,0.0,110000,51.6,335
471540,2021-02-19,13:09:38,KOREASOUTH,-0.4,-11.0,1010.8,1014.8,10.7,16.2,0.00,0.0,100000,69.1,186
471060,2021-02-19,13:09:38,KOREASOUTH,-1.5,-8.1,1016.0,1022.1,13.1,17.4,0.12,0.2,111000,52.5,266
534870,2021-02-19,13:09:38,CHINA,-8.2,-19.9,972.0,1027.9,13.6,13.0,0.01,0.0,110000,50.2,267
471530,2021-02-19,13:09:38,KOREASOUTH,-0.4,-8.1,1016.5,1017.4,8.9,13.4,0.00,0.0,100000,6.5,77
547150,2021-02-19,13:09:38,CHINA,-0.9,-9.6,1021.3,1026.7,12.7,21.4,0.05,0.0,110000,92.0,129
471520,2021-02-19,13:09:38,KOREASOUTH,-0.3,-8.6,1032.8,1021.7,12.5,20.0,0.09,0.0,110000,96.8,218
353630,2021-02-19,13:09:38,KAZAKHSTAN,-6.4,-9.7,1055.7,1043.4,14.2,19.1,0.00,0.0,100000,86.2,167
546560,2021-02-19,13:09:38,CHINA,-2.1,-8.2,1021.6,1024.8,25.6,30.7,0.01,0.0,110000,53.1,251
355490,2021-02-19,13:09:38,KAZAKHSTAN,-4.4,-7.2,1027.8,1033.7,18.3,17.5,0.00,2.6,101000,97.7,153
170673,2021-02-19,13:09:38,TURKEY,-0.9,-10.1,1012.8,978.8,12.7,14.4,0.00,0.0,100000,87.8,272
170820,2021-02-19,13:09:38,TURKEY,-1.3,-4.5,1003.3,1013.1,8.7,14.8,0.05,0.5,111000,50.2,349
509630,2021-02-19,13:09:38,CHINA,-9.1,-12.8,1016.8,1022.1,12.1,6.0,0.01,0.0,110000,98.7,130
471360,2021-02-19,13:09:38,KOREASOUTH,-2.1,-10.7,1014.7,1024.4,18.2,0.1,0.08,0.0,110000,52.5,71
471370,2021-02-19,13:09:38,KOREASOUTH,-1.2,-10.5,1011.6,1021.8,12.9,5.4,0.00,0.0,100000,56.1,281
537050,2021-02-19,13:09:38,CHINA,-2.4,-14.4,973.1,1028.4,25.0,15.3,0.01,0.0,110000,50.3,134
471240,2021-02-19,13:09:38,KOREASOUTH,-2.7,-10.3,988.6,1080.8,15.7,4.2,0.00,0.0,100000,52.8,119
471400,2021-02-19,13:09:38,KOREASOUTH,-0.7,-6.0,1016.7,1023.9,21.2,29.7,0.03,0.0,110000,50.6,173
471410,2021-02-19,13:09:38,KOREASOUTH,-0.7,-4.9,1012.6,1015.4,9.8,20.5,0.07,0.1,111000,95.5,274
471420,2021-02-19,13:09:38,KOREASOUTH,-1.4,-10.6,1013.4,1012.9,12.1,11.4,0.00,0.0,100000,53.9,201
383530,2021-02-19,13:09:38,KYRGYZSTAN,-0.4,-3.5,1000.1,1028.3,7.4,9.9,0.03,0.4,111000,55.6,166
383531,2021-02-19,13:09:38,KYRGYZSTAN,-0.1,-1.2,990.5,984.2,2.0,13.3,0.00,0.0,100000,63.4,3
548430,2021-02-19,13:09:38,CHINA,-1.6,-9.9,1023.8,1026.3,21.2,17.0,0.03,0.0,110000,50.7,225
523780,2021-02-19,13:09:38,CHINA,-4.0,-20.1,985.8,1008.3,25.6,22.7,0.00,0.0,100000,67.2,154
506580,2021-02-19,13:09:38,CHINA,-9.1,-13.4,1025.4,1022.8,10.5,7.0,0.01,0.0,110000,56.9,179
474020,2021-02-19,13:09:38,JAPAN,-10.4,-13.8,1011.6,1018.3,22.2,15.4,0.05,0.0,110000,54.9,209
474010,2021-02-19,13:09:38,JAPAN,-7.7,-12.3,1011.6,1015.7,15.5,15.0,0.08,15.3,111000,87.1,142
513460,2021-02-19,13:09:38,CHINA,-8.5,-11.5,1053.5,1041.0,48.7,2.8,0.00,0.0,100000,33.1,325
471920,2021-02-19,13:09:38,KOREASOUTH,-1.0,-8.7,1021.3,1022.4,10.1,9.8,0.10,0.0,110000,87.8,298
561160,2021-02-19,13:09:38,CHINA,-1.1,-14.1,683.7,690.0,33.6,9.8,0.01,0.0,110000,52.4,70
508880,2021-02-19,13:09:38,CHINA,-6.7,-12.7,1014.3,1020.9,24.8,11.5,0.02,0.0,110000,60.1,167
355420,2021-02-19,13:09:38,KAZAKHSTAN,-6.6,-9.1,1016.3,1029.0,8.3,17.7,0.03,0.9,111000,88.9,151
172100,2021-02-19,13:09:38,TURKEY,-0.3,-6.2,915.8,1023.1,24.0,1.9,0.00,0.0,100000,23.7,288
478290,2021-02-19,13:09:38,JAPAN,-0.6,-8.7,1001.1,1019.1,20.0,13.6,0.07,0.0,110000,50.4,225
170980,2021-02-19,13:09:38,TURKEY,-6.0,-10.2,815.6,816.1,12.9,18.4,0.07,11.5,111000,53.4,148
529830,2021-02-19,13:09:38,CHINA,-6.1,-12.0,817.3,838.3,12.2,7.5,0.00,0.0,100000,36.6,5
360030,2021-02-19,13:09:38,KAZAKHSTAN,-10.3,-14.1,1020.9,1030.3,28.5,18.4,0.11,4.8,111000,75.5,179
538980,2021-02-19,13:09:38,CHINA,-1.0,-10.9,1023.8,1026.9,16.1,8.8,0.02,0.0,110000,52.1,96
470520,2021-02-19,13:09:38,KOREANORTH,-4.3,-9.3,1017.0,1023.2,14.7,1.9,0.00,0.0,100000,24.2,100
170920,2021-02-19,13:09:38,TURKEY,-0.4,-3.3,957.0,982.6,6.9,10.5,0.24,3.5,111000,51.9,121
533910,2021-02-19,13:09:38,CHINA,-5.5,-12.7,880.8,1025.9,33.6,23.1,0.01,0.0,110000,50.4,121
442820,2021-02-19,13:09:38,MONGOLIA,-12.0,-28.5,819.1,1026.2,49.8,24.8,0.00,0.0,100000,34.6,152
343980,2021-02-19,13:09:38,KAZAKHSTAN,-2.2,-5.0,1013.2,1013.6,19.9,21.2,0.00,7.9,101000,59.0,213
170880,2021-02-19,13:09:38,TURKEY,-7.0,-9.7,880.8,860.0,22.8,11.8,0.49,25.2,111000,50.2,2
534800,2021-02-19,13:09:38,CHINA,-9.0,-19.0,960.6,1029.9,30.8,7.2,0.01,0.0,110000,78.3,341
560650,2021-02-19,13:09:38,CHINA,-5.3,-14.8,661.0,661.1,27.0,7.6,0.02,0.0,110000,69.4,29
583140,2021-02-19,13:09:38,CHINA,-0.2,-5.2,1016.6,1026.7,10.5,8.2,0.13,0.0,110000,50.8,197
475150,2021-02-19,13:09:38,JAPAN,-3.5,-8.4,999.4,1000.6,19.4,13.2,0.00,0.0,100000,44.3,301
442120,2021-02-19,13:09:38,MONGOLIA,-22.1,-26.2,912.3,1037.5,55.0,4.2,0.00,9.9,101000,73.4,211
544050,2021-02-19,13:09:38,CHINA,-4.5,-18.0,1022.5,1027.2,17.0,16.2,0.01,0.0,110000,54.2,192
442140,2021-02-19,13:09:38,MONGOLIA,-9.9,-18.4,825.1,1027.5,10.8,4.9,0.00,0.0,100000,91.5,1
475870,2021-02-19,13:09:38,JAPAN,-0.6,-5.9,1014.0,1017.0,15.0,17.9,0.21,3.7,111000,84.4,182
475850,2021-02-19,13:09:38,JAPAN,-3.4,-10.3,1010.4,1014.2,21.5,8.5,0.13,2.9,111000,64.3,201
560330,2021-02-19,13:09:38,CHINA,-13.5,-22.5,626.2,621.8,34.6,5.5,0.03,0.0,110000,79.1,196
509830,2021-02-19,13:09:38,CHINA,-8.8,-14.4,1016.6,1020.9,17.3,1.9,0.02,0.0,110000,99.1,278
545110,2021-02-19,13:09:38,CHINA,-1.1,-14.0,1021.1,1025.5,18.1,7.0,0.03,0.0,110000,74.6,328
289570,2021-02-19,13:09:38,KAZAKHSTAN,-4.1,-7.7,1027.5,1024.5,4.7,3.0,0.04,7.4,111000,53.2,52
560210,2021-02-19,13:09:38,CHINA,-7.8,-20.6,616.6,613.9,29.6,4.1,0.01,0.0,110000,51.8,148
540940,2021-02-19,13:09:38,CHINA,-5.0,-12.1,1010.6,1022.2,12.3,9.8,0.02,0.0,110000,88.2,329
545390,2021-02-19,13:09:38,CHINA,-3.1,-13.4,1021.5,1026.6,22.6,9.6,0.02,0.0,110000,81.0,292
560460,2021-02-19,13:09:38,CHINA,-6.0,-16.6,671.3,672.8,22.5,5.2,0.03,0.0,110000,84.1,313
477590,2021-02-19,13:09:38,JAPAN,-0.4,-6.4,1011.0,1017.9,8.5,15.4,0.29,0.0,110000,50.3,234
474830,2021-02-19,13:09:38,JAPAN,-6.3,-12.9,1005.9,1003.0,8.9,8.1,0.00,0.0,100000,67.4,264
513560,2021-02-19,13:09:38,CHINA,-9.4,-12.4,1006.1,1033.1,15.6,3.0,0.00,0.0,100000,96.7,144
350850,2021-02-19,13:09:38,KAZAKHSTAN,-9.0,-14.2,1025.9,1032.5,30.0,19.6,0.00,1.4,101000,51.4,103
544970,2021-02-19,13:09:38,CHINA,-3.5,-13.3,1024.6,1024.2,20.1,15.6,0.01,0.0,110000,94.0,279
543860,2021-02-19,13:09:38,CHINA,-4.4,-12.0,964.5,1025.8,20.7,6.8,0.04,0.0,110000,54.3,183
363350,2021-02-19,13:09:38,KAZAKHSTAN,-6.0,-11.1,1024.2,1031.4,46.5,19.6,0.00,0.3,101000,51.7,211
362080,2021-02-19,13:09:38,KAZAKHSTAN,-13.0,-19.1,1011.4,1032.1,26.7,3.1,0.00,0.0,100000,53.6,257
346910,2021-02-19,13:09:38,KAZAKHSTAN,-1.4,-4.8,1021.4,1022.7,16.1,20.5,0.02,2.2,111000,50.1,120
170900,2021-02-19,13:09:38,TURKEY,-1.6,-4.5,914.1,932.6,18.9,1.8,0.27,4.3,111000,65.7,147
471580,2021-02-19,13:09:38,KOREASOUTH,-0.5,-5.6,1010.9,1009.2,14.3,9.2,0.00,0.0,100000,65.5,199
471560,2021-02-19,13:09:38,KOREASOUTH,-0.3,-5.7,1018.2,1022.9,14.0,12.5,0.08,0.0,110000,84.8,80
172500,2021-02-19,13:09:38,TURKEY,-1.7,-6.4,878.8,877.7,27.7,13.0,0.25,3.5,111000,90.5,281
546020,2021-02-19,13:09:38,CHINA,-1.6,-12.9,1021.8,1025.6,9.1,5.3,0.02,0.0,110000,96.1,344
474200,2021-02-19,13:09:38,JAPAN,-7.9,-12.1,1014.1,1015.7,16.2,13.2,0.02,3.6,111000,65.1,255
351910,2021-02-19,13:09:38,KAZAKHSTAN,-4.7,-14.3,1034.6,1040.6,46.7,5.3,0.00,0.0,100000,15.3,250
542370,2021-02-19,13:09:38,CHINA,-7.7,-23.7,1037.8,1032.0,15.9,18.2,0.00,0.0,100000,90.8,26
470550,2021-02-19,13:09:38,KOREANORTH,-1.2,-8.4,1024.8,1022.5,11.9,5.6,0.12,0.3,111000,89.0,253
505640,2021-02-19,13:09:38,CHINA,-9.2,-15.6,1023.0,1023.6,11.9,9.0,0.01,0.0,110000,80.5,120
474810,2021-02-19,13:09:38,JAPAN,-4.3,-15.0,997.6,989.9,5.4,10.9,0.00,0.0,100000,15.9,346
570460,2021-02-19,13:09:38,CHINA,-3.6,-11.0,817.2,825.1,22.9,25.3,0.02,0.0,110000,51.4,212
540120,2021-02-19,13:09:38,CHINA,-12.2,-18.3,937.1,1029.7,22.5,14.0,0.02,0.0,110000,50.3,169
529080,2021-02-19,13:09:38,CHINA,-7.8,-17.2,999.7,1006.3,24.8,23.5,0.01,0.0,110000,60.5,355
474790,2021-02-19,13:09:38,JAPAN,-7.5,-11.7,1001.6,997.3,7.0,13.9,0.00,0.0,100000,41.7,106
471610,2021-02-19,13:09:38,KOREASOUTH,-1.2,-7.4,1001.0,1001.5,5.6,11.4,0.05,0.0,110000,93.5,339
539290,2021-02-19,13:09:38,CHINA,-2.0,-11.6,882.4,888.8,10.2,15.5,0.00,0.0,100000,53.2,23
526520,2021-02-19,13:09:38,CHINA,-8.1,-19.2,883.8,1029.5,29.1,3.5,0.00,0.0,100000,72.2,286
380810,2021-02-19,13:09:38,KAZAKHSTAN,-2.4,-6.7,1034.3,1029.0,20.8,30.5,0.03,0.2,111000,53.2,67
526510,2021-02-19,13:09:38,CHINA,-8.2,-28.5,976.6,996.3,66.4,4.0,0.00,0.0,100000,29.5,335
476400,2021-02-19,13:09:38,JAPAN,-8.1,-12.2,915.8,906.1,49.5,0.1,0.00,0.0,100000,32.1,166
353020,2021-02-19,13:09:38,KAZAKHSTAN,-3.8,-9.3,1058.1,1032.7,14.2,21.6,0.00,0.0,100000,41.2,161
474900,2021-02-19,13:09:38,JAPAN,-10.7,-17.2,995.7,999.5,11.9,7.2,0.00,0.0,100000,76.6,215
474890,2021-02-19,13:09:38,JAPAN,-7.8,-13.6,1000.0,997.8,3.8,5.3,0.00,0.0,100000,31.6,14
505480,2021-02-19,13:09:38,CHINA,-16.5,-21.0,1007.9,1010.0,24.7,7.5,0.00,0.0,100000,35.8,278
474110,2021-02-19,13:09:38,JAPAN,-6.5,-11.3,1011.5,1015.5,14.6,20.2,0.09,0.0,110000,63.5,156
474090,2021-02-19,13:09:38,JAPAN,-10.1,-14.6,1013.9,1014.9,25.7,1.3,0.05,8.6,111000,71.8,155
366390,2021-02-19,13:09:38,KAZAKHSTAN,-10.2,-13.2,1036.5,1033.0,49.5,3.3,0.00,38.4,101000,51.9,294
443170,2021-02-19,13:09:38,MONGOLIA,-5.9,-8.5,901.1,1032.1,25.6,1.5,0.00,3.3,101000,57.2,251
570360,2021-02-19,13:09:38,CHINA,-0.4,-6.8,1006.0,1025.1,1.7,11.3,0.02,0.0,110000,66.7,22
543420,2021-02-19,13:09:38,CHINA,-3.7,-13.5,1019.6,1024.0,8.4,7.2,0.03,0.0,110000,52.6,210
443040,2021-02-19,13:09:38,MONGOLIA,-11.8,-16.4,1022.5,1032.3,46.5,6.9,0.00,1.1,101000,76.3,298
512430,2021-02-19,13:09:38,CHINA,-5.9,-9.2,1008.0,1034.0,14.4,2.8,0.00,0.0,100000,70.5,356
475200,2021-02-19,13:09:38,JAPAN,-2.0,-5.5,1005.5,1018.4,14.5,11.9,0.16,0.0,110000,69.2,191
353860,2021-02-19,13:09:38,KAZAKHSTAN,-7.4,-12.3,986.5,983.1,17.8,13.8,0.00,0.0,100000,47.8,220
529550,2021-02-19,13:09:38,CHINA,-2.5,-16.2,694.4,684.9,32.5,12.3,0.02,0.0,110000,66.7,71
350780,2021-02-19,13:09:38,KAZAKHSTAN,-6.5,-8.1,1021.8,1033.3,9.7,15.1,0.02,8.6,111000,67.5,122
356990,2021-02-19,13:09:38,KAZAKHSTAN,-4.3,-12.0,951.9,1029.8,27.5,0.2,0.00,3.9,101000,51.0,314
442920,2021-02-19,13:09:38,MONGOLIA,-14.2,-19.8,889.7,1030.4,22.2,5.4,0.26,3.0,111000,86.6,259
507270,2021-02-19,13:09:38,CHINA,-6.5,-11.0,914.0,1027.4,31.2,3.8,0.02,0.0,110000,58.4,155
478210,2021-02-19,13:09:38,JAPAN,-3.0,-8.5,891.3,897.6,17.8,7.2,0.00,0.0,100000,34.4,114
171905,2021-02-19,13:09:38,TURKEY,-0.5,-2.0,979.0,1013.8,15.9,2.9,0.00,0.0,100000,33.7,248
477470,2021-02-19,13:09:38,JAPAN,-0.9,-4.7,1024.3,1023.9,10.7,4.5,0.00,0.0,100000,83.0,318
509150,2021-02-19,13:09:38,CHINA,-7.6,-13.8,945.9,1029.2,33.0,17.1,0.02,0.0,110000,52.5,274
544830,2021-02-19,13:09:38,CHINA,-10.2,-15.6,1024.5,1024.0,12.6,13.3,0.01,0.0,110000,52.7,99
287660,2021-02-19,13:09:38,KAZAKHSTAN,-5.2,-9.5,1011.8,1027.6,7.0,14.4,0.01,3.5,111000,55.0,314
523910,2021-02-19,13:09:38,CHINA,-13.6,-22.2,1002.1,1044.6,38.2,5.1,0.00,0.0,100000,10.9,358
471460,2021-02-19,13:09:38,KOREASOUTH,-0.1,-6.3,1018.8,1023.6,12.5,7.3,0.05,0.0,110000,51.0,280
577760,2021-02-19,13:09:38,CHINA,-0.4,-2.3,972.2,1024.0,12.3,23.3,0.29,0.0,110000,74.0,251
368215,2021-02-19,13:09:38,KAZAKHSTAN,-7.8,-10.2,1010.4,1022.9,5.3,15.1,0.00,0.0,100000,26.7,76
570730,2021-02-19,13:09:38,CHINA,-0.3,-11.3,1024.9,1024.5,16.7,15.0,0.00,0.0,100000,33.3,292
171270,2021-02-19,13:09:38,TURKEY,-0.2,-5.0,1028.7,1018.8,22.7,11.2,0.05,0.0,110000,53.0,121
476200,2021-02-19,13:09:38,JAPAN,-3.7,-8.4,927.5,1018.3,28.5,13.4,0.14,0.0,110000,52.4,95
286790,2021-02-19,13:09:38,KAZAKHSTAN,-8.5,-11.1,1019.0,1029.5,13.4,18.0,0.01,4.7,111000,75.3,117
514310,2021-02-19,13:09:38,CHINA,-0.5,-5.3,975.4,1028.3,29.2,3.3,0.12,0.0,110000,53.4,245
524360,2021-02-19,13:09:38,CHINA,-2.8,-15.7,863.2,1028.5,27.0,31.1,0.01,0.0,110000,51.5,317
470050,2021-02-19,13:09:38,KOREANORTH,-4.5,-8.1,900.8,898.4,13.7,9.2,0.05,6.0,111000,88.1,266
552990,2021-02-19,13:09:38,CHINA,-5.2,-17.5,1003.3,996.9,21.1,20.0,0.01,0.0,110000,68.5,178
476180,2021-02-19,13:09:38,JAPAN,-4.1,-10.6,975.6,1019.3,17.4,6.6,0.14,1.4,111000,58.9,135
533520,2021-02-19,13:09:38,CHINA,-9.9,-21.0,960.5,1032.0,26.6,8.3,0.01,0.0,110000,51.1,329
381411,2021-02-19,13:09:38,KAZAKHSTAN,-3.2,-3.7,1013.0,991.4,1.7,29.6,0.00,0.0,100000,68.2,267
288790,2021-02-19,13:09:38,KAZAKHSTAN,-4.9,-8.8,1032.2,1032.0,7.0,24.6,0.01,0.5,111000,51.5,96
288770,2021-02-19,13:09:38,KAZAKHSTAN,-6.7,-12.1,1016.9,1019.4,19.1,14.1,0.02,5.4,111000,93.5,81
517110,2021-02-19,13:09:38,CHINA,-2.0,-10.2,800.8,795.3,25.6,3.1,0.03,0.0,110000,52.9,80
560040,2021-02-19,13:09:38,CHINA,-5.9,-18.4,998.8,1001.7,34.3,18.2,0.01,0.0,110000,55.3,201
470600,2021-02-19,13:09:38,KOREANORTH,-1.6,-6.9,1025.2,1024.2,13.0,11.0,0.01,0.0,110000,51.3,151
541350,2021-02-19,13:09:38,CHINA,-8.3,-20.1,1019.4,1024.0,20.2,22.2,0.01,0.0,110000,56.5,236
361860,2021-02-19,13:09:38,KAZAKHSTAN,-2.7,-6.8,992.6,1019.9,7.0,2.0,0.00,17.0,101000,50.6,28
475750,2021-02-19,13:09:38,JAPAN,-3.1,-7.8,1021.6,1016.5,10.9,16.3,0.14,22.5,111000,85.7,140
510870,2021-02-19,13:09:38,CHINA,-4.2,-7.7,928.8,1028.6,35.7,3.0,0.07,0.0,110000,97.0,4
471131,2021-02-19,13:09:38,KOREASOUTH,-1.4,-6.4,990.7,997.5,7.5,6.8,0.00,0.0,100000,44.1,127
531490,2021-02-19,13:09:38,CHINA,-6.8,-17.5,905.7,1027.7,31.0,15.7,0.02,0.0,110000,51.9,15
171295,2021-02-19,13:09:38,TURKEY,-0.9,-2.0,997.7,1009.4,10.7,7.7,0.00,0.0,100000,56.7,15
478140,2021-02-19,13:09:38,JAPAN,-0.6,-5.6,1014.6,1023.1,15.9,0.3,0.00,0.0,100000,78.7,130
355760,2021-02-19,13:09:38,KAZAKHSTAN,-8.2,-10.5,1013.6,1036.2,26.2,15.1,0.01,6.9,111000,55.8,219
171400,2021-02-19,13:09:38,TURKEY,-4.8,-6.7,871.8,855.3,7.8,15.0,0.07,18.1,111000,51.3,230
364420,2021-02-19,13:09:38,KAZAKHSTAN,-11.1,-11.4,1012.5,989.8,19.4,31.8,0.02,2.2,111000,98.4,144
171990,2021-02-19,13:09:38,TURKEY,-3.9,-7.9,912.0,1030.9,18.4,10.4,0.60,3.3,111000,68.4,182
512320,2021-02-19,13:09:38,CHINA,-5.2,-9.9,1027.4,1031.3,7.5,22.9,0.03,0.0,110000,51.5,156
561060,2021-02-19,13:09:38,CHINA,-2.4,-15.8,619.0,617.0,29.0,13.2,0.02,0.0,110000,55.4,349
514630,2021-02-19,13:09:38,CHINA,-6.8,-10.5,947.9,1033.3,14.0,6.7,0.05,0.0,110000,73.9,279
545270,2021-02-19,13:09:38,CHINA,-1.2,-11.1,1030.8,1025.7,17.1,1.0,0.11,0.0,110000,52.8,193
545273,2021-02-19,13:09:38,CHINA,-0.1,-9.7,1001.0,993.4,5.7,13.0,0.00,0.0,100000,9.0,356
543110,2021-02-19,13:09:38,CHINA,-5.0,-17.3,975.7,1027.8,24.0,8.1,0.02,0.0,110000,67.1,228
442320,2021-02-19,13:09:38,MONGOLIA,-12.2,-18.4,1042.0,1049.4,38.6,6.6,0.00,0.0,100000,78.6,66
552790,2021-02-19,13:09:38,CHINA,-5.4,-23.9,994.2,995.3,31.2,39.3,0.01,0.0,110000,68.0,119
374320,2021-02-19,13:09:38,GEORGIA,-0.3,-3.7,952.5,955.1,31.0,8.8,0.16,5.7,111000,72.8,356
442370,2021-02-19,13:09:38,MONGOLIA,-7.4,-13.6,845.0,1023.8,50.5,13.5,0.00,0.2,101000,77.8,29
470500,2021-02-19,13:09:38,KOREANORTH,-5.3,-9.4,1020.3,1023.8,18.8,5.3,0.08,0.0,110000,51.1,120
171550,2021-02-19,13:09:38,TURKEY,-0.8,-6.1,899.1,1012.2,14.1,1.9,0.00,0.0,100000,76.4,182
585060,2021-02-19,13:09:38,CHINA,-0.5,-4.9,979.2,1026.7,15.1,13.3,0.16,0.0,110000,50.7,293
350670,2021-02-19,13:09:38,KAZAKHSTAN,-7.3,-10.8,1038.4,1034.2,15.9,16.1,0.00,3.0,101000,95.0,10
560930,2021-02-19,13:09:38,CHINA,-5.0,-9.8,1012.4,1033.0,15.8,1.4,0.02,0.0,110000,51.0,269
527870,2021-02-19,13:09:38,CHINA,-5.7,-14.2,746.9,749.8,27.0,21.3,0.01,0.0,110000,69.6,166
543370,2021-02-19,13:09:38,CHINA,-5.1,-17.2,1022.8,1025.1,13.9,15.9,0.01,0.0,110000,64.5,230
571930,2021-02-19,13:09:38,CHINA,-0.4,-7.3,1009.2,1025.2,4.5,7.2,0.01,0.0,110000,52.8,11
508620,2021-02-19,13:09:38,CHINA,-18.0,-22.2,1019.9,1006.8,,5.0,0.00,0.0,100000,16.6,320
368700,2021-02-19,13:09:38,KAZAKHSTAN,-1.2,-4.9,978.7,1022.9,10.3,5.2,0.05,2.2,111000,51.5,26
171500,2021-02-19,13:09:38,TURKEY,-0.6,-4.8,1021.2,1019.2,8.7,2.5,0.10,0.9,111000,57.8,293
470410,2021-02-19,13:09:38,KOREANORTH,-3.3,-9.8,1009.5,1020.6,15.9,12.1,0.02,0.0,110000,52.6,224
471064,2021-02-19,13:09:38,KOREASOUTH,-6.3,-12.3,1012.5,1011.1,15.2,0.5,0.00,0.0,100000,35.0,271
471066,2021-02-19,13:09:38,KOREASOUTH,-1.6,-8.2,1008.9,1006.7,10.3,4.0,0.00,0.1,101000,51.2,14
524460,2021-02-19,13:09:38,CHINA,-3.2,-16.0,937.1,1034.8,41.5,10.5,0.00,0.0,100000,77.1,0
513790,2021-02-19,13:09:38,CHINA,-8.8,-13.5,1021.5,1035.6,17.7,8.6,0.02,0.0,110000,50.4,353
442980,2021-02-19,13:09:38,MONGOLIA,-18.7,-25.0,1056.6,1032.8,41.0,16.8,0.05,0.0,110000,82.3,355
548080,2021-02-19,13:09:38,CHINA,-1.4,-8.7,1026.5,1026.1,2.8,9.6,0.01,0.0,110000,94.9,134
470690,2021-02-19,13:09:38,KOREANORTH,-2.1,-7.9,1031.5,1023.8,9.9,8.8,0.22,0.0,110000,51.3,326
470700,2021-02-19,13:09:38,KOREANORTH,-1.3,-7.7,1027.3,1021.1,12.3,15.5,0.01,0.0,110000,80.6,128
509780,2021-02-19,13:09:38,CHINA,-6.6,-14.2,1006.0,1021.3,25.0,6.9,0.02,0.0,110000,52.4,10
584450,2021-02-19,13:09:38,CHINA,-2.0,-6.6,875.2,950.4,18.1,31.7,0.18,0.0,110000,50.8,57
443410,2021-02-19,13:09:38,MONGOLIA,-6.7,-15.3,855.9,1021.3,44.3,8.9,0.00,0.5,101000,52.4,305
544710,2021-02-19,13:09:38,CHINA,-5.7,-13.3,1024.0,1025.0,15.7,24.2,0.00,0.0,100000,31.6,312
471223,2021-02-19,13:09:38,KOREASOUTH,-1.1,-2.6,1020.2,1027.8,6.6,11.1,0.00,0.0,100000,50.3,88
471220,2021-02-19,13:09:38,KOREASOUTH,-2.5,-8.5,1015.7,1015.4,17.3,7.4,0.02,0.1,111000,58.5,226
539150,2021-02-19,13:09:38,CHINA,-2.4,-12.2,907.3,1029.6,23.8,11.7,0.02,0.0,110000,52.4,98
476170,2021-02-19,13:09:38,JAPAN,-5.9,-11.3,953.5,1023.9,20.3,9.3,0.00,0.0,100000,17.9,192
442590,2021-02-19,13:09:38,MONGOLIA,-7.3,-10.6,953.8,1027.0,11.6,17.7,0.00,1.6,101000,79.9,271
475420,2021-02-19,13:09:38,JAPAN,-3.3,-6.8,1003.1,1000.7,8.4,20.6,0.00,0.0,100000,90.6,98
353940,2021-02-19,13:09:38,KAZAKHSTAN,-4.8,-9.0,1002.1,1031.7,24.3,12.1,0.20,3.9,111000,53.9,49
357910,2021-02-19,13:09:38,KAZAKHSTAN,-6.7,-9.5,1032.3,1036.5,50.1,6.7,0.01,4.2,111000,78.4,266
542730,2021-02-19,13:09:38,CHINA,-7.9,-16.6,1020.3,1024.8,10.2,1.7,0.00,0.0,100000,40.2,68
476370,2021-02-19,13:09:38,JAPAN,-2.7,-8.6,957.1,1016.1,25.3,8.1,0.21,0.0,110000,51.6,173
527130,2021-02-19,13:09:38,CHINA,-5.1,-21.1,699.2,699.2,27.7,13.8,0.02,0.0,110000,63.7,61
475910,2021-02-19,13:09:38,JAPAN,-1.4,-6.4,1005.2,1004.1,18.0,12.9,0.08,0.5,111000,52.5,68
528560,2021-02-19,13:09:38,CHINA,-2.6,-18.8,768.1,767.8,22.1,6.2,0.03,0.0,110000,56.2,256
474330,2021-02-19,13:09:38,JAPAN,-14.4,-17.6,990.3,1014.6,29.4,14.2,0.00,0.0,100000,57.4,199
475160,2021-02-19,13:09:38,JAPAN,-3.3,-7.5,998.4,992.7,12.5,20.9,0.00,0.0,100000,81.1,220
538630,2021-02-19,13:09:38,CHINA,-2.4,-13.0,1016.9,1026.9,8.2,12.9,0.02,0.0,110000,54.4,137
538870,2021-02-19,13:09:38,CHINA,-4.4,-19.8,916.1,1026.8,32.3,4.0,0.00,0.0,100000,15.2,76
514950,2021-02-19,13:09:38,CHINA,-1.9,-17.3,985.4,1032.7,31.5,38.7,0.00,0.0,100000,3.9,52
357390,2021-02-19,13:09:38,KAZAKHSTAN,-0.6,-6.8,1035.8,1028.6,46.6,12.9,0.00,3.0,101000,51.5,344
556640,2021-02-19,13:09:38,CHINA,-0.5,-19.0,602.0,602.2,24.4,29.5,0.00,0.0,100000,11.3,118
560800,2021-02-19,13:09:38,CHINA,-7.7,-15.3,734.3,733.0,28.4,10.3,0.02,0.0,110000,50.2,77
560790,2021-02-19,13:09:38,CHINA,-5.7,-15.7,665.4,663.3,35.4,3.2,0.02,0.0,110000,50.5,330
359530,2021-02-19,13:09:38,KAZAKHSTAN,-3.0,-5.2,1014.1,1028.2,24.9,19.9,0.00,3.7,101000,87.5,205
467550,2021-02-19,13:09:38,TAIWAN,-1.5,-1.6,1004.2,998.6,63.0,16.5,0.00,0.0,100000,91.6,224
534630,2021-02-19,13:09:38,CHINA,-6.0,-15.4,930.5,1029.0,13.5,11.9,0.01,0.0,110000,53.7,173
472185,2021-02-19,13:09:38,JAPAN,-6.8,-12.8,986.0,966.7,11.0,13.4,0.00,0.0,100000,24.5,44
380190,2021-02-19,13:09:38,KAZAKHSTAN,-9.5,-13.3,1018.2,1036.1,37.9,2.0,0.05,8.2,111000,52.3,31
544490,2021-02-19,13:09:38,CHINA,-1.2,-18.8,1018.7,1015.6,39.8,29.9,0.05,0.0,110000,52.3,109
584370,2021-02-19,13:09:38,CHINA,-3.0,-11.0,835.7,833.6,16.3,33.1,0.14,0.0,110000,76.6,48
365350,2021-02-19,13:09:38,KAZAKHSTAN,-7.4,-9.0,1073.1,1035.1,33.4,8.8,0.00,0.0,100000,90.6,292
474280,2021-02-19,13:09:38,JAPAN,-3.0,-8.3,1011.6,1013.1,15.3,7.3,0.10,0.0,110000,52.0,333
477150,2021-02-19,13:09:38,JAPAN,-0.7,-5.7,1001.8,1001.9,8.5,4.4,0.14,0.3,111000,50.0,202
526740,2021-02-19,13:09:38,CHINA,-7.7,-20.1,801.2,795.7,28.6,10.9,0.00,0.0,100000,83.6,99
541860,2021-02-19,13:09:38,CHINA,-9.9,-17.4,1010.4,1024.1,19.5,6.7,0.03,0.0,110000,52.4,121
524410,2021-02-19,13:09:38,CHINA,-6.1,-19.2,843.9,846.1,41.6,19.4,0.01,0.0,110000,50.0,51
471270,2021-02-19,13:09:38,KOREASOUTH,-1.4,-7.3,1008.4,1015.2,8.5,10.6,0.01,0.2,111000,52.5,86
172410,2021-02-19,13:09:38,TURKEY,-3.2,-8.2,989.6,1045.7,11.7,11.0,0.00,0.0,100000,92.6,322
358840,2021-02-19,13:09:38,KAZAKHSTAN,-9.7,-11.3,982.0,995.4,19.3,6.8,0.00,11.0,101000,58.9,53
442070,2021-02-19,13:09:38,MONGOLIA,-14.8,-20.1,1051.0,1044.0,55.3,4.4,0.00,0.0,100000,6.2,316
471750,2021-02-19,13:09:38,KOREASOUTH,-0.2,-4.7,966.1,1024.3,11.6,32.8,0.00,0.0,100000,9.0,112
470250,2021-02-19,13:09:38,KOREANORTH,-3.4,-7.3,1015.2,1020.2,10.0,8.3,0.09,0.1,111000,53.0,285
475830,2021-02-19,13:09:38,JAPAN,-2.1,-7.9,1009.1,1011.1,3.4,12.9,0.00,0.0,100000,10.6,132
475820,2021-02-19,13:09:38,JAPAN,-2.3,-7.5,1021.0,1017.1,13.3,23.8,0.14,4.9,111000,50.4,306
510760,2021-02-19,13:09:38,CHINA,-7.4,-12.9,,1032.5,30.3,2.8,0.04,0.0,110000,56.6,117
536980,2021-02-19,13:09:38,CHINA,-0.6,-11.5,1023.9,1025.5,13.7,15.0,0.04,0.0,110000,50.9,122
289840,2021-02-19,13:09:38,KAZAKHSTAN,-2.9,-6.0,1028.9,1019.1,29.9,19.3,0.00,0.0,100000,93.6,31
470460,2021-02-19,13:09:38,KOREANORTH,-1.4,-6.3,1019.0,1018.9,23.5,11.7,0.01,0.3,111000,53.8,235
347980,2021-02-19,13:09:38,KAZAKHSTAN,-2.0,-5.6,1021.1,1019.7,17.5,19.5,0.00,0.7,101000,50.1,267
442410,2021-02-19,13:09:38,MONGOLIA,-12.4,-15.0,1025.8,1033.1,47.1,8.4,0.00,2.1,101000,50.2,159
470080,2021-02-19,13:09:38,KOREANORTH,-3.9,-11.5,1014.4,1020.6,13.5,12.8,0.00,0.0,100000,97.2,304
531920,2021-02-19,13:09:38,CHINA,-4.5,-9.9,918.2,1031.9,30.7,22.7,0.01,0.0,110000,51.1,187
474880,2021-02-19,13:09:38,JAPAN,-4.0,-9.0,994.8,997.9,10.7,11.6,0.00,0.0,100000,98.8,336
172480,2021-02-19,13:09:38,TURKEY,-4.8,-7.1,903.0,868.5,15.9,2.8,0.33,18.1,111000,50.3,66
377890,2021-02-19,13:09:38,ARMENIA,-0.2,-4.8,985.6,1016.2,7.6,9.2,0.00,0.0,100000,40.5,300
475760,2021-02-19,13:09:39,JAPAN,-3.5,-8.0,1016.8,1017.3,5.6,10.8,0.13,0.0,110000,71.3,51
561720,2021-02-19,13:09:39,CHINA,-0.2,-11.7,777.9,783.0,37.7,6.9,0.02,0.0,110000,92.7,14
561730,2021-02-19,13:09:39,CHINA,-7.7,-19.0,661.0,668.8,28.3,16.4,0.00,0.0,100000,67.8,0
475800,2021-02-19,13:09:39,JAPAN,-3.2,-7.1,999.8,1002.1,20.7,15.0,0.00,1.9,101000,51.0,90
513340,2021-02-19,13:09:39,CHINA,-5.8,-8.5,1042.3,1032.1,25.9,1.0,0.01,0.0,110000,50.1,163
572900,2021-02-19,13:09:39,CHINA,-0.3,-6.6,1021.7,1026.2,21.0,4.0,0.02,0.0,110000,50.3,64
353760,2021-02-19,13:09:39,KAZAKHSTAN,-5.5,-8.1,991.0,1030.8,20.8,6.0,0.01,6.4,111000,59.9,336
504680,2021-02-19,13:09:39,CHINA,-14.1,-18.8,1013.4,1021.6,20.6,13.4,0.01,0.0,110000,51.0,271
359530,2021-02-19,13:09:39,KAZAKHSTAN,-3.1,-5.2,1014.2,1028.2,25.0,19.9,0.00,3.7,101000,87.5,205
474040,2021-02-19,13:09:39,JAPAN,-6.4,-13.0,1014.2,1017.1,33.6,19.8,0.12,0.0,110000,52.0,34
443730,2021-02-19,13:09:39,MONGOLIA,-1.6,-17.6,853.5,1024.6,46.6,10.8,0.00,0.3,101000,72.4,83
443740,2021-02-19,13:09:39,MONGOLIA,-5.9,-16.4,824.4,1024.1,52.0,23.4,0.00,1.1,101000,51.6,114
549160,2021-02-19,13:09:39,CHINA,-0.2,-8.4,1027.4,1026.4,12.7,5.0,0.01,0.0,110000,53.7,275
471460,2021-02-19,13:09:39,KOREASOUTH,-0.3,-5.3,1018.8,1023.6,12.6,7.3,0.05,0.0,110000,50.9,281
529080,2021-02-19,13:09:39,CHINA,-7.8,-18.8,999.7,1006.2,24.7,23.3,0.01,0.0,110000,60.4,355
474790,2021-02-19,13:09:39,JAPAN,-7.9,-11.7,1001.6,997.3,7.0,13.8,0.00,0.0,100000,41.7,106
353630,2021-02-19,13:09:39,KAZAKHSTAN,-6.4,-8.8,1055.5,1043.4,14.3,19.2,0.00,0.0,100000,86.2,167
358490,2021-02-19,13:09:39,KAZAKHSTAN,-1.4,-5.4,1013.3,1023.4,17.1,10.0,0.01,1.2,111000,52.3,157
475490,2021-02-19,13:09:39,JAPAN,-1.8,-8.0,998.4,996.0,3.5,13.6,0.00,0.0,100000,31.0,42
170840,2021-02-19,13:09:39,TURKEY,-2.2,-5.7,942.3,1018.5,20.8,6.2,0.10,3.5,111000,91.9,173
549290,2021-02-19,13:09:39,CHINA,-0.3,-9.7,1025.3,1024.1,22.8,2.7,0.00,0.0,100000,60.6,22
570730,2021-02-19,13:09:39,CHINA,-0.3,-11.3,1024.9,1024.5,16.7,14.9,0.00,0.0,100000,33.3,292
542730,2021-02-19,13:09:39,CHINA,-7.9,-16.6,1020.3,1024.8,10.3,1.6,0.00,0.0,100000,40.2,69
537050,2021-02-19,13:09:39,CHINA,-1.8,-14.4,973.1,1028.4,25.1,15.3,0.01,0.0,110000,50.3,134
526610,2021-02-19,13:09:39,CHINA,-4.8,-20.9,928.1,946.6,70.1,12.1,0.00,0.0,100000,24.7,142
544230,2021-02-19,13:09:39,CHINA,-5.3,-17.3,975.7,1023.8,18.8,9.3,0.00,0.0,100000,38.2,272
543240,2021-02-19,13:09:39,CHINA,-5.0,-19.8,1023.9,1025.2,17.5,18.2,0.01,0.0,110000,50.2,354
570670,2021-02-19,13:09:39,CHINA,-0.4,-7.5,991.6,1028.9,20.6,4.2,0.02,0.0,110000,51.9,132
366390,2021-02-19,13:09:39,KAZAKHSTAN,-10.6,-14.6,1036.5,1033.0,49.4,3.3,0.00,38.4,101000,51.8,294
541020,2021-02-19,13:09:39,CHINA,-12.4,-17.6,938.2,1029.7,28.0,1.6,0.01,0.0,110000,69.5,86
539290,2021-02-19,13:09:39,CHINA,-2.4,-11.6,882.4,888.8,10.2,15.4,0.00,0.0,100000,53.2,23
560650,2021-02-19,13:09:39,CHINA,-4.7,-16.7,661.0,661.1,27.1,7.5,0.02,0.0,110000,69.5,29
477090,2021-02-19,13:09:39,JAPAN,-0.8,-8.4,1002.2,1005.0,8.4,8.1,0.00,0.0,100000,9.2,17
571930,2021-02-19,13:09:39,CHINA,-0.4,-8.3,1009.1,1025.2,4.5,7.2,0.01,0.0,110000,52.8,11
172500,2021-02-19,13:09:39,TURKEY,-2.0,-5.7,878.8,877.7,27.6,12.9,0.25,3.5,111000,90.5,281
355820,2021-02-19,13:09:39,KAZAKHSTAN,-3.7,-6.4,1026.3,1032.4,25.8,15.1,0.00,2.6,101000,51.6,92
478180,2021-02-19,13:09:39,JAPAN,-0.4,-5.8,944.9,1027.9,27.4,13.0,0.00,0.0,100000,1.1,116
471750,2021-02-19,13:09:39,KOREASOUTH,-0.2,-3.8,966.1,1024.3,11.7,32.7,0.00,0.0,100000,9.1,112
470250,2021-02-19,13:09:39,KOREANORTH,-3.4,-8.1,1015.2,1020.2,10.0,8.2,0.09,0.1,111000,53.0,286
539230,2021-02-19,13:09:39,CHINA,-1.8,-10.7,952.8,1026.6,27.2,12.7,0.02,0.0,110000,50.4,74
544710,2021-02-19,13:09:39,CHINA,-5.7,-14.4,1024.0,1025.0,15.7,24.1,0.00,0.0,100000,31.6,312
171905,2021-02-19,13:09:39,TURKEY,-0.5,-2.9,979.3,1013.8,15.9,2.9,0.00,0.0,100000,33.7,248
477470,2021-02-19,13:09:39,JAPAN,-0.9,-4.7,1024.3,1024.0,10.8,4.5,0.00,0.0,100000,83.0,318
471300,2021-02-19,13:09:39,KOREASOUTH,-0.1,-8.9,1018.9,1021.4,19.5,23.9,0.13,0.2,111000,50.0,254
471310,2021-02-19,13:09:39,KOREASOUTH,-1.9,-9.1,1020.5,1024.0,21.8,15.3,0.04,0.0,110000,52.2,252
521120,2021-02-19,13:09:39,CHINA,-1.8,-16.3,1022.8,1026.0,28.3,21.1,0.00,0.0,100000,13.4,172
508440,2021-02-19,13:09:39,CHINA,-4.8,-14.3,1021.8,1022.9,12.7,14.6,0.01,0.0,110000,50.6,356
170673,2021-02-19,13:09:39,TURKEY,-0.6,-10.1,1012.6,978.7,12.7,14.3,0.00,0.0,100000,87.9,272
474240,2021-02-19,13:09:39,JAPAN,-7.4,-12.9,1018.1,1016.9,20.8,8.0,0.00,0.0,100000,2.4,304
474250,2021-02-19,13:09:39,JAPAN,-9.8,-13.6,1000.6,1001.3,3.0,4.9,0.00,0.0,100000,96.7,302
474260,2021-02-19,13:09:39,JAPAN,-5.4,-11.4,1013.1,1015.5,27.4,24.1,0.03,1.4,111000,97.4,85
563570,2021-02-19,13:09:39,CHINA,-0.4,-15.0,644.9,645.2,31.7,14.7,0.01,0.0,110000,51.5,210
542590,2021-02-19,13:09:39,CHINA,-7.4,-15.1,1028.7,1024.9,19.4,4.0,0.02,0.0,110000,86.5,69
471000,2021-02-19,13:09:39,KOREASOUTH,-4.0,-9.6,922.2,1022.6,19.2,16.7,0.09,10.6,111000,52.0,226
470980,2021-02-19,13:09:39,KOREASOUTH,-2.8,-10.6,1011.3,1025.2,9.3,4.8,0.01,0.0,110000,72.1,139
369820,2021-02-19,13:09:39,KYRGYZSTAN,-13.6,-19.4,645.7,644.3,40.9,4.2,0.00,0.0,100000,87.3,282
364420,2021-02-19,13:09:39,KAZAKHSTAN,-11.0,-11.4,1012.5,989.7,19.3,32.0,0.02,2.2,111000,98.4,144
538630,2021-02-19,13:09:39,CHINA,-2.4,-13.0,1016.9,1026.9,8.2,12.9,0.02,0.0,110000,54.5,137
538870,2021-02-19,13:09:39,CHINA,-4.3,-22.3,916.1,1026.8,32.4,4.1,0.00,0.0,100000,15.2,76
170575,2021-02-19,13:09:39,TURKEY,-0.7,-4.1,1002.7,1003.9,8.2,15.7,0.00,0.0,100000,23.9,306
171295,2021-02-19,13:09:39,TURKEY,-0.5,-2.0,997.5,1008.9,10.7,7.8,0.00,0.0,100000,56.8,15
478140,2021-02-19,13:09:39,JAPAN,-0.6,-6.9,1014.6,1023.1,15.9,0.2,0.00,0.0,100000,78.7,130
355760,2021-02-19,13:09:39,KAZAKHSTAN,-8.2,-11.8,1013.6,1036.2,26.2,15.2,0.01,6.9,111000,55.8,220
476200,2021-02-19,13:09:39,JAPAN,-3.7,-8.4,927.5,1018.3,28.6,13.5,0.14,0.0,110000,52.5,95
288790,2021-02-19,13:09:39,KAZAKHSTAN,-4.9,-8.8,1032.2,1032.0,7.0,24.7,0.01,0.5,111000,51.5,96
288770,2021-02-19,13:09:39,KAZAKHSTAN,-6.8,-11.3,1016.8,1019.4,19.0,14.2,0.02,5.4,111000,93.6,81
584370,2021-02-19,13:09:39,CHINA,-3.0,-10.2,835.7,833.5,16.3,33.0,0.14,0.0,110000,76.6,48
524180,2021-02-19,13:09:39,CHINA,-1.3,-14.3,918.1,1027.1,26.8,2.8,0.01,0.0,110000,51.8,159
172440,2021-02-19,13:09:39,TURKEY,-0.6,-5.0,952.6,975.8,10.0,10.1,0.02,0.8,111000,51.3,120
543860,2021-02-19,13:09:39,CHINA,-4.4,-10.5,964.5,1025.8,20.8,6.9,0.04,0.0,110000,54.3,183
363350,2021-02-19,13:09:39,KAZAKHSTAN,-6.6,-11.1,1024.2,1031.4,46.5,19.7,0.00,0.3,101000,51.7,210
474900,2021-02-19,13:09:39,JAPAN,-11.3,-17.2,995.7,999.5,11.8,7.1,0.00,0.0,100000,76.7,214
474890,2021-02-19,13:09:39,JAPAN,-7.3,-13.6,1000.0,997.9,3.9,5.4,0.00,0.0,100000,31.6,14
505480,2021-02-19,13:09:39,CHINA,-16.5,-19.0,1007.9,1010.1,24.7,7.5,0.00,0.0,100000,35.8,278
471010,2021-02-19,13:09:39,KOREASOUTH,-2.2,-9.4,1019.1,1023.4,20.5,0.3,0.05,0.2,111000,77.1,85
471020,2021-02-19,13:09:39,KOREASOUTH,-0.1,-7.2,1004.7,1024.4,7.0,15.3,0.01,0.0,110000,50.8,345
353450,2021-02-19,13:09:39,KAZAKHSTAN,-2.7,-4.9,1065.1,1041.8,16.2,0.2,0.00,4.9,101000,69.7,160
475810,2021-02-19,13:09:39,JAPAN,-3.4,-8.9,1013.0,1016.2,28.7,8.8,0.02,5.9,111000,90.2,301
535290,2021-02-19,13:09:39,CHINA,-3.4,-16.2,893.0,1028.5,22.5,4.0,0.01,0.0,110000,63.4,96
475740,2021-02-19,13:09:39,JAPAN,-1.3,-9.0,1007.4,1018.3,13.9,22.0,0.03,0.0,110000,54.4,318
544010,2021-02-19,13:09:39,CHINA,-3.8,-18.3,984.7,1027.5,24.0,19.0,0.01,0.0,110000,51.5,219
476800,2021-02-19,13:09:39,JAPAN,-0.1,-5.1,997.4,1017.7,26.6,12.9,0.00,0.0,100000,95.3,249
470410,2021-02-19,13:09:39,KOREANORTH,-3.3,-11.0,1009.5,1020.6,15.9,12.0,0.02,0.0,110000,52.6,224
570230,2021-02-19,13:09:39,CHINA,-0.4,-10.2,870.0,1003.5,6.5,0.6,0.00,0.0,100000,36.1,36
357460,2021-02-19,13:09:39,KAZAKHSTAN,-2.0,-6.1,1025.4,1027.0,15.1,17.8,0.00,0.8,101000,55.2,318
509150,2021-02-19,13:09:39,CHINA,-8.2,-12.2,945.9,1029.2,33.1,17.0,0.02,0.0,110000,52.6,274
475530,2021-02-19,13:09:39,JAPAN,-2.1,-5.5,1004.5,1003.9,5.7,13.2,0.00,0.0,100000,48.5,332
476900,2021-02-19,13:09:39,JAPAN,-6.5,-10.5,867.0,861.8,25.0,16.5,0.18,0.0,110000,53.0,297
475750,2021-02-19,13:09:39,JAPAN,-3.1,-7.1,1021.6,1016.6,10.9,16.4,0.14,22.5,111000,85.7,140
510870,2021-02-19,13:09:39,CHINA,-4.2,-6.8,928.7,1028.7,35.8,3.1,0.07,0.0,110000,97.1,5
470350,2021-02-19,13:09:39,KOREANORTH,-4.1,-12.3,1037.0,1024.4,19.1,11.6,0.04,0.0,110000,51.2,97
542180,2021-02-19,13:09:39,CHINA,-7.9,-20.6,992.4,1025.1,24.9,8.3,0.01,0.0,110000,51.4,112
356710,2021-02-19,13:09:39,KAZAKHSTAN,-4.6,-7.4,997.6,1028.6,17.9,21.0,0.00,3.2,101000,79.1,118
364390,2021-02-19,13:09:39,KAZAKHSTAN,-7.2,-14.7,995.2,1001.2,34.8,28.7,0.01,0.7,111000,68.4,227
560930,2021-02-19,13:09:39,CHINA,-5.0,-9.8,1012.3,1033.0,15.8,1.4,0.02,0.0,110000,51.0,269
474300,2021-02-19,13:09:39,JAPAN,-5.6,-10.1,1019.4,1015.5,15.1,24.8,0.08,7.1,111000,73.9,34
474180,2021-02-19,13:09:39,JAPAN,-10.6,-15.8,1010.2,1016.0,26.0,33.0,0.07,4.6,111000,69.6,235
351880,2021-02-19,13:09:39,KAZAKHSTAN,-4.9,-7.0,1027.8,1027.6,15.5,21.1,0.19,2.2,111000,50.1,247
528420,2021-02-19,13:09:39,CHINA,-10.2,-25.0,696.5,689.8,18.9,10.2,0.01,0.0,110000,76.8,120
356990,2021-02-19,13:09:39,KAZAKHSTAN,-4.0,-12.0,951.9,1029.9,27.4,0.2,0.00,3.9,101000,51.0,315
171270,2021-02-19,13:09:39,TURKEY,-0.2,-5.0,1028.6,1018.8,22.7,11.3,0.05,0.0,110000,53.0,121
543770,2021-02-19,13:09:39,CHINA,-4.7,-11.7,1025.8,1025.3,11.5,5.1,0.03,0.0,110000,51.0,34
380910,2021-02-19,13:09:39,KAZAKHSTAN,-2.1,-6.8,1027.1,1030.1,43.7,10.5,0.02,1.2,111000,50.7,134
554720,2021-02-19,13:09:39,CHINA,-3.8,-21.7,998.1,992.5,23.5,43.8,0.01,0.0,110000,52.1,22
533360,2021-02-19,13:09:39,CHINA,-6.0,-16.0,909.2,1029.9,27.0,6.9,0.01,0.0,110000,54.0,176
534800,2021-02-19,13:09:39,CHINA,-9.0,-20.4,960.6,1029.9,30.7,7.1,0.01,0.0,110000,78.3,341
571310,2021-02-19,13:09:39,CHINA,-0.3,-6.2,981.2,1029.3,6.5,2.7,0.00,0.0,100000,99.8,188
535640,2021-02-19,13:09:39,CHINA,-6.4,-19.8,936.7,1030.6,20.7,7.7,0.00,0.0,100000,68.0,306
476410,2021-02-19,13:09:39,JAPAN,-1.2,-8.8,989.5,1018.2,23.0,8.2,0.17,0.0,110000,54.5,252
476390,2021-02-19,13:09:39,JAPAN,-22.4,-30.1,1000.4,997.9,44.6,41.1,0.00,0.0,100000,55.3,218
511330,2021-02-19,13:09:39,CHINA,-4.7,-10.1,992.2,1033.3,24.9,9.4,0.05,0.0,110000,89.8,109
367780,2021-02-19,13:09:39,KAZAKHSTAN,-4.5,-11.7,1046.9,1031.8,26.3,6.3,0.00,0.0,100000,91.0,85
172400,2021-02-19,13:09:39,TURKEY,-1.3,-5.0,951.9,1016.0,28.6,6.8,0.09,0.5,111000,56.3,59
532310,2021-02-19,13:09:39,CHINA,-3.8,-14.7,850.9,857.9,29.1,17.8,0.00,0.0,100000,46.4,0
548080,2021-02-19,13:09:39,CHINA,-1.4,-8.7,1026.6,1026.1,2.8,9.6,0.01,0.0,110000,94.9,133
528560,2021-02-19,13:09:39,CHINA,-3.2,-18.8,768.1,767.8,22.0,6.1,0.03,0.0,110000,56.2,257
474330,2021-02-19,13:09:39,JAPAN,-14.8,-17.6,990.3,1014.6,29.6,14.1,0.00,0.0,100000,57.5,200
524360,2021-02-19,13:09:39,CHINA,-3.3,-15.7,863.2,1028.5,27.1,31.0,0.01,0.0,110000,51.5,317
470050,2021-02-19,13:09:39,KOREANORTH,-4.5,-9.5,900.8,898.4,13.6,9.1,0.05,6.0,111000,88.1,266
353940,2021-02-19,13:09:39,KAZAKHSTAN,-4.8,-9.0,1002.1,1031.7,24.3,12.2,0.20,3.9,111000,53.9,49
350420,2021-02-19,13:09:39,KAZAKHSTAN,-3.2,-6.2,1026.9,1020.0,16.2,12.3,0.01,0.9,111000,83.2,169
522030,2021-02-19,13:09:39,CHINA,-0.2,-11.5,989.1,1027.5,36.2,2.1,0.00,0.0,100000,74.1,118
510530,2021-02-19,13:09:39,CHINA,-9.3,-13.2,1025.8,1035.3,25.3,12.9,0.02,0.0,110000,53.6,197
541350,2021-02-19,13:09:39,CHINA,-8.3,-20.1,1019.4,1024.0,20.2,22.3,0.01,0.0,110000,56.5,236
361860,2021-02-19,13:09:39,KAZAKHSTAN,-2.5,-5.0,992.7,1019.9,7.0,2.1,0.00,17.0,101000,50.6,28
171900,2021-02-19,13:09:39,TURKEY,-1.1,-4.3,947.5,973.3,16.1,9.2,0.13,1.7,111000,63.1,92
467550,2021-02-19,13:09:39,TAIWAN,-1.5,-1.6,1004.3,998.6,63.2,16.5,0.00,0.0,100000,91.7,224
570460,2021-02-19,13:09:39,CHINA,-3.6,-11.0,817.2,825.1,23.0,25.4,0.02,0.0,110000,51.4,212
540120,2021-02-19,13:09:39,CHINA,-12.2,-18.3,937.1,1029.7,22.6,13.9,0.02,0.0,110000,50.3,169
471064,2021-02-19,13:09:39,KOREASOUTH,-6.3,-12.3,1012.2,1011.1,15.1,0.5,0.00,0.0,100000,35.1,271
471066,2021-02-19,13:09:39,KOREASOUTH,-1.6,-8.2,1008.9,1006.7,10.3,3.9,0.00,0.1,101000,51.2,14
528180,2021-02-19,13:09:39,CHINA,-3.7,-21.0,753.8,753.2,28.0,11.8,0.00,0.0,100000,69.4,7
442190,2021-02-19,13:09:39,MONGOLIA,-6.2,-18.9,848.4,1027.9,20.1,11.0,0.00,0.0,100000,10.2,283
345810,2021-02-19,13:09:39,KAZAKHSTAN,-2.2,-7.0,1040.1,1028.6,49.1,25.2,0.00,0.0,100000,52.9,38
536980,2021-02-19,13:09:39,CHINA,-0.6,-11.5,1023.9,1025.5,13.6,15.0,0.04,0.0,110000,50.9,122
289840,2021-02-19,13:09:39,KAZAKHSTAN,-2.6,-6.0,1028.9,1019.0,29.8,19.3,0.00,0.0,100000,93.7,32
474050,2021-02-19,13:09:39,JAPAN,-9.7,-14.6,1009.6,1018.1,43.5,18.5,0.00,0.0,100000,85.2,27
530830,2021-02-19,13:09:39,CHINA,-5.8,-12.1,962.6,1030.0,39.6,9.1,0.02,0.0,110000,52.3,82
561250,2021-02-19,13:09:39,CHINA,-1.4,-19.9,648.6,651.7,19.6,24.0,0.00,0.0,100000,51.3,73
350670,2021-02-19,13:09:39,KAZAKHSTAN,-6.9,-9.8,1038.4,1034.2,15.9,16.0,0.00,3.0,101000,95.0,10
442290,2021-02-19,13:09:39,MONGOLIA,-10.4,-17.5,789.9,1015.3,47.5,9.4,0.00,0.0,100000,67.2,334
474880,2021-02-19,13:09:39,JAPAN,-4.0,-9.6,994.8,997.9,10.7,11.7,0.00,0.0,100000,98.9,337
564440,2021-02-19,13:09:39,CHINA,-0.5,-6.7,734.9,734.6,27.6,9.0,0.07,0.0,110000,52.0,304
549450,2021-02-19,13:09:39,CHINA,-0.6,-8.8,1019.2,1026.8,21.2,5.5,0.03,0.0,110000,51.5,118
526740,2021-02-19,13:09:39,CHINA,-7.1,-20.1,801.1,795.7,28.6,10.9,0.00,0.0,100000,83.6,99
471290,2021-02-19,13:09:39,KOREASOUTH,-2.2,-6.9,1020.0,1023.9,23.4,7.5,0.05,0.0,110000,51.3,159
475880,2021-02-19,13:09:39,JAPAN,-3.5,-7.2,997.0,1015.1,16.9,11.9,0.18,0.0,110000,81.8,281
476370,2021-02-19,13:09:39,JAPAN,-2.8,-9.9,957.1,1016.1,25.3,8.2,0.21,0.0,110000,51.7,173
543420,2021-02-19,13:09:39,CHINA,-3.7,-13.5,1019.6,1024.0,8.4,7.2,0.03,0.0,110000,52.6,210
171350,2021-02-19,13:09:39,TURKEY,-0.1,-6.0,922.3,1011.0,14.8,17.7,0.00,0.0,100000,28.7,194
477420,2021-02-19,13:09:39,JAPAN,-0.7,-3.4,1024.4,1025.1,4.4,8.1,0.03,0.0,110000,51.5,47
380190,2021-02-19,13:09:39,KAZAKHSTAN,-9.5,-12.1,1017.8,1036.2,37.7,2.1,0.05,8.2,111000,52.3,30
544490,2021-02-19,13:09:39,CHINA,-1.2,-18.8,1019.0,1015.6,39.8,29.8,0.05,0.0,110000,52.3,109
289570,2021-02-19,13:09:39,KAZAKHSTAN,-4.0,-6.5,1027.4,1024.5,4.7,2.9,0.04,7.4,111000,53.2,52
474830,2021-02-19,13:09:39,JAPAN,-5.9,-13.4,1005.9,1003.0,8.9,8.1,0.00,0.0,100000,67.4,263
524460,2021-02-19,13:09:39,CHINA,-3.8,-16.0,937.2,1034.8,41.6,10.4,0.00,0.0,100000,77.2,0
690110,2021-02-19,13:09:39,IRAQ,-0.4,,877.7,1019.3,43.5,16.9,0.00,0.0,100000,80.3,332
476290,2021-02-19,13:09:39,JAPAN,-1.5,-8.5,1012.5,1016.1,27.4,17.7,0.04,0.0,110000,65.3,23
475870,2021-02-19,13:09:39,JAPAN,-0.6,-5.9,1014.0,1017.1,15.1,18.0,0.21,3.7,111000,84.4,182
475850,2021-02-19,13:09:39,JAPAN,-3.5,-9.4,1010.4,1014.2,21.4,8.4,0.13,2.9,111000,64.3,202
474410,2021-02-19,13:09:39,JAPAN,-6.1,-11.6,998.8,1001.6,14.9,11.4,0.00,0.0,100000,23.0,40
528660,2021-02-19,13:09:39,CHINA,-4.3,-14.5,772.4,766.9,10.8,5.7,0.01,0.0,110000,69.8,141
470670,2021-02-19,13:09:39,KOREANORTH,-5.0,-11.1,1050.3,1026.4,13.1,12.3,0.00,0.0,100000,14.2,247
542260,2021-02-19,13:09:39,CHINA,-5.0,-18.3,1020.3,1025.3,21.8,5.1,0.01,0.0,110000,52.2,36
470680,2021-02-19,13:09:39,KOREANORTH,-2.5,-7.4,1015.7,1024.1,12.5,14.1,0.01,0.0,110000,83.1,298
507270,2021-02-19,13:09:39,CHINA,-5.4,-9.3,914.0,1027.4,31.2,3.9,0.02,0.0,110000,58.4,155
355490,2021-02-19,13:09:39,KAZAKHSTAN,-4.4,-8.5,1027.9,1033.7,18.2,17.4,0.00,2.6,101000,97.6,153
548570,2021-02-19,13:09:39,CHINA,-0.6,-7.8,1024.4,1025.6,12.9,18.8,0.02,0.0,110000,89.7,163
534870,2021-02-19,13:09:39,CHINA,-8.2,-21.4,972.0,1027.9,13.5,12.9,0.01,0.0,110000,50.2,267
471530,2021-02-19,13:09:39,KOREASOUTH,-0.5,-8.1,1016.5,1017.4,8.9,13.3,0.00,0.0,100000,6.5,78
547150,2021-02-19,13:09:39,CHINA,-0.9,-10.9,1021.4,1026.7,12.7,21.3,0.05,0.0,110000,92.0,129
471520,2021-02-19,13:09:39,KOREASOUTH,-0.3,-8.6,1032.7,1021.7,12.6,19.9,0.09,0.0,110000,96.7,217
543424,2021-02-19,13:09:39,CHINA,-3.5,-13.2,998.3,994.3,7.1,21.8,0.00,0.0,100000,44.6,355
442840,2021-02-19,13:09:39,MONGOLIA,-11.3,-14.3,783.4,1036.4,56.3,4.5,0.00,2.8,101000,61.1,123
442770,2021-02-19,13:09:39,MONGOLIA,-10.1,-20.6,1007.4,1026.0,36.5,22.9,2.35,0.0,110000,50.3,68
471430,2021-02-19,13:09:39,KOREASOUTH,-0.9,-9.6,1015.7,1022.9,24.2,18.6,0.06,0.0,110000,50.1,15
523130,2021-02-19,13:09:39,CHINA,-2.9,-12.8,921.5,897.5,61.8,2.5,0.00,0.0,100000,74.7,89
470520,2021-02-19,13:09:39,KOREANORTH,-4.2,-9.3,1017.3,1023.2,14.8,1.9,0.00,0.0,100000,24.1,100
507740,2021-02-19,13:09:39,CHINA,-12.4,-19.0,1013.4,1022.0,4.1,4.7,0.01,0.0,110000,50.0,314
443520,2021-02-19,13:09:39,MONGOLIA,-8.0,-16.2,1071.9,1030.2,53.1,19.5,0.00,0.0,100000,53.2,310
583140,2021-02-19,13:09:39,CHINA,-0.2,-4.2,1016.6,1026.7,10.4,8.2,0.13,0.0,110000,50.9,198
475150,2021-02-19,13:09:39,JAPAN,-3.3,-7.8,999.4,1000.6,19.5,13.1,0.00,0.0,100000,44.3,301
474210,2021-02-19,13:09:39,JAPAN,-4.2,-9.1,1015.6,1015.1,22.5,11.3,0.10,14.0,111000,50.5,293
381411,2021-02-19,13:09:39,KAZAKHSTAN,-3.2,-3.0,1012.9,991.3,1.8,29.5,0.00,0.0,100000,68.3,268
470030,2021-02-19,13:09:39,KOREANORTH,-6.0,-14.3,1015.9,1019.4,19.9,9.1,0.01,0.0,110000,51.5,74
171700,2021-02-19,13:09:39,TURKEY,-1.0,-5.9,947.4,943.2,20.8,7.7,0.02,3.9,111000,82.4,221
505640,2021-02-19,13:09:39,CHINA,-9.2,-13.8,1023.0,1023.6,12.0,9.0,0.01,0.0,110000,80.5,120
474810,2021-02-19,13:09:39,JAPAN,-11.3,-15.0,997.5,989.8,5.5,11.0,0.00,0.0,100000,15.9,346
513790,2021-02-19,13:09:39,CHINA,-8.8,-11.9,1021.5,1035.6,17.8,8.6,0.02,0.0,110000,50.5,353
541860,2021-02-19,13:09:39,CHINA,-10.3,-16.0,1010.5,1024.1,19.6,6.6,0.03,0.0,110000,52.3,121
524410,2021-02-19,13:09:39,CHINA,-6.1,-19.2,843.9,846.1,41.7,19.3,0.01,0.0,110000,50.0,51
580400,2021-02-19,13:09:39,CHINA,-0.9,-7.1,1029.1,1025.7,15.8,15.6,0.02,0.0,110000,76.6,163
524950,2021-02-19,13:09:39,CHINA,-4.6,-18.3,903.2,1029.7,31.4,12.4,0.00,0.0,100000,16.1,150
561460,2021-02-19,13:09:39,CHINA,-0.9,-15.2,680.4,678.4,28.6,7.2,0.01,0.0,110000,90.0,275
367440,2021-02-19,13:09:39,KAZAKHSTAN,-4.6,-8.3,1039.7,1032.8,45.0,12.4,0.00,0.9,101000,51.9,215
545270,2021-02-19,13:09:39,CHINA,-1.2,-12.1,1030.8,1025.7,17.1,1.0,0.11,0.0,110000,52.8,193
545273,2021-02-19,13:09:39,CHINA,-0.1,-10.7,1001.0,993.4,5.6,13.0,0.00,0.0,100000,8.9,356
508880,2021-02-19,13:09:39,CHINA,-6.7,-13.9,1014.4,1020.9,24.8,11.6,0.02,0.0,110000,60.1,166
355420,2021-02-19,13:09:39,KAZAKHSTAN,-6.8,-10.4,1016.3,1029.0,8.3,17.6,0.03,0.9,111000,88.9,151
528360,2021-02-19,13:09:39,CHINA,-2.8,-19.3,687.3,685.9,28.8,5.9,0.01,0.0,110000,54.8,281
524240,2021-02-19,13:09:39,CHINA,-3.6,-15.9,898.0,1026.1,29.5,14.0,0.02,0.7,111000,52.2,260
749347,2021-02-19,13:09:39,CHINA,-1.2,-5.8,1035.1,1037.4,8.6,11.1,0.00,0.0,100000,91.3,262
749348,2021-02-19,13:09:39,CHINA,-14.5,-18.6,1033.0,1038.4,51.7,7.7,0.00,0.0,100000,61.0,57
542920,2021-02-19,13:09:39,CHINA,-8.7,-21.8,1005.8,1025.1,15.8,7.8,0.00,0.0,100000,54.6,231
527370,2021-02-19,13:09:39,CHINA,-1.9,-18.9,725.4,729.3,24.6,22.8,0.01,0.0,110000,76.7,338
171990,2021-02-19,13:09:39,TURKEY,-3.9,-8.8,912.1,1030.9,18.3,10.4,0.60,3.3,111000,68.4,181
528250,2021-02-19,13:09:39,CHINA,-3.7,-20.8,723.6,722.4,22.8,2.1,0.00,0.0,100000,11.8,166
533520,2021-02-19,13:09:39,CHINA,-9.9,-19.4,960.5,1032.0,26.5,8.2,0.01,0.0,110000,51.1,329
544930,2021-02-19,13:09:39,CHINA,-7.8,-14.9,1021.5,1025.2,19.1,5.2,0.01,0.0,110000,72.1,19
365350,2021-02-19,13:09:39,KAZAKHSTAN,-7.4,-11.4,1072.8,1035.0,33.5,8.8,0.00,0.0,100000,90.6,292
474280,2021-02-19,13:09:39,JAPAN,-3.0,-7.8,1011.6,1013.1,15.3,7.5,0.10,0.0,110000,51.9,334
543110,2021-02-19,13:09:39,CHINA,-5.0,-15.9,975.7,1027.8,23.9,8.0,0.02,0.0,110000,67.1,228
474070,2021-02-19,13:09:39,JAPAN,-11.4,-16.1,1008.1,1014.6,14.5,12.6,0.09,16.5,111000,67.1,271
474060,2021-02-19,13:09:39,JAPAN,-7.8,-11.5,1010.3,1015.5,15.9,12.4,0.11,15.1,111000,51.3,93
476720,2021-02-19,13:09:39,JAPAN,-0.9,-5.4,1019.7,1020.7,25.0,15.3,0.00,0.0,100000,57.8,216
352290,2021-02-19,13:09:39,KAZAKHSTAN,-5.1,-9.4,1017.1,1026.4,4.6,10.4,0.28,4.0,111000,51.3,230
525330,2021-02-19,13:09:39,CHINA,-2.4,-14.5,893.6,1027.6,30.9,6.4,0.01,0.0,110000,80.0,143
525331,2021-02-19,13:09:39,CHINA,-5.7,-11.8,974.6,995.5,2.3,10.6,0.00,0.0,100000,31.9,48
509530,2021-02-19,13:09:39,CHINA,-7.8,-13.7,1015.6,1022.6,12.7,15.3,0.02,0.0,110000,88.8,328
557730,2021-02-19,13:09:39,CHINA,-0.6,-10.9,620.3,621.9,18.6,15.8,0.03,0.0,110000,60.1,354
503530,2021-02-19,13:09:39,CHINA,-8.3,-17.9,1000.0,1022.8,20.5,7.6,0.00,0.0,100000,39.8,99
170500,2021-02-19,13:09:39,TURKEY,-0.1,-4.7,1014.0,1020.1,17.3,10.0,0.04,0.5,111000,93.7,66
471210,2021-02-19,13:09:39,KOREASOUTH,-3.2,-12.4,994.2,1024.2,12.8,2.4,0.06,0.0,110000,60.7,115
471200,2021-02-19,13:09:39,KOREASOUTH,-2.2,-6.6,1007.7,1010.2,8.6,8.2,0.00,0.1,101000,51.7,288
471260,2021-02-19,13:09:39,KOREASOUTH,-0.1,-7.9,999.2,957.9,8.3,14.7,0.00,0.0,100000,12.8,317
298070,2021-02-19,13:09:39,KAZAKHSTAN,-11.3,-14.2,1027.6,1027.4,1.5,5.3,0.02,4.3,111000,52.0,279
535880,2021-02-19,13:09:39,CHINA,-4.5,-10.2,755.4,756.4,19.9,44.8,0.07,0.0,110000,75.8,355
442880,2021-02-19,13:09:39,MONGOLIA,-13.7,-21.1,916.7,1028.4,47.8,22.0,0.00,0.1,101000,61.7,68
400010,2021-02-19,13:09:39,SYRIA,-0.4,-5.9,1036.8,1012.8,15.6,3.7,0.00,0.0,100000,80.6,318
170960,2021-02-19,13:09:39,TURKEY,-2.8,-5.7,891.1,905.2,17.0,15.9,0.08,8.8,111000,51.8,38
171240,2021-02-19,13:09:39,TURKEY,-1.6,-5.2,968.5,1018.9,13.1,9.0,0.08,1.2,111000,72.5,352
400830,2021-02-19,13:09:39,SYRIA,-1.7,-9.1,994.3,1023.6,19.8,22.7,0.00,0.0,100000,50.8,314
526810,2021-02-19,13:09:39,CHINA,-3.8,-16.7,896.8,1030.3,28.6,9.4,0.00,0.0,100000,92.1,309
380620,2021-02-19,13:09:39,KAZAKHSTAN,-1.8,-6.2,1022.1,1025.7,20.8,3.9,0.01,0.3,111000,90.2,139
532760,2021-02-19,13:09:39,CHINA,-8.7,-19.3,918.6,1028.3,25.9,15.9,0.01,0.0,110000,86.3,211
471131,2021-02-19,13:09:39,KOREASOUTH,-1.4,-5.8,990.5,997.5,7.5,6.9,0.00,0.0,100000,44.1,127
531490,2021-02-19,13:09:39,CHINA,-6.8,-17.5,905.7,1027.7,31.0,15.8,0.02,0.0,110000,51.9,15
471280,2021-02-19,13:09:39,KOREASOUTH,-1.4,-8.7,1008.6,1009.9,3.2,8.2,0.00,0.0,100000,73.4,156
470460,2021-02-19,13:09:39,KOREANORTH,-1.3,-5.4,1019.0,1018.9,23.4,11.7,0.01,0.3,111000,53.8,235
347980,2021-02-19,13:09:39,KAZAKHSTAN,-2.0,-4.8,1021.1,1019.7,17.6,19.6,0.00,0.7,101000,50.1,267
531920,2021-02-19,13:09:39,CHINA,-4.5,-11.4,918.2,1031.9,30.8,22.6,0.01,0.0,110000,51.2,188
475160,2021-02-19,13:09:39,JAPAN,-3.2,-7.5,998.4,992.7,12.5,21.0,0.00,0.0,100000,81.2,220
543740,2021-02-19,13:09:39,CHINA,-9.7,-17.4,1007.6,1023.3,12.9,3.5,0.01,0.0,110000,51.8,55
537380,2021-02-19,13:09:39,CHINA,-4.2,-16.7,872.0,1025.0,23.8,5.0,0.00,0.0,100000,95.6,118
170672,2021-02-19,13:09:39,TURKEY,-4.1,-6.7,979.7,964.8,6.2,8.6,0.00,0.0,100000,16.1,198
170674,2021-02-19,13:09:39,TURKEY,-4.4,-11.4,989.8,995.7,6.9,27.1,0.00,0.0,100000,89.5,75
478240,2021-02-19,13:09:39,JAPAN,-0.3,-8.4,1004.2,1024.0,12.2,0.9,0.04,0.0,110000,52.8,317
526020,2021-02-19,13:09:39,CHINA,-3.3,-19.7,726.2,725.7,23.3,3.8,0.01,0.0,110000,62.2,33
361770,2021-02-19,13:09:39,KAZAKHSTAN,-11.2,-15.8,1023.5,1025.0,10.0,15.9,0.01,0.0,110000,51.1,216
357910,2021-02-19,13:09:39,KAZAKHSTAN,-6.3,-9.5,1032.3,1036.5,50.2,6.6,0.01,4.2,111000,78.4,266
543080,2021-02-19,13:09:39,CHINA,-7.3,-21.9,1020.3,1027.8,30.3,10.7,0.03,0.0,110000,58.5,62
475200,2021-02-19,13:09:39,JAPAN,-2.0,-5.5,1005.5,1018.4,14.5,12.0,0.16,0.0,110000,69.2,192
353860,2021-02-19,13:09:39,KAZAKHSTAN,-7.4,-12.3,986.6,982.8,17.9,13.8,0.00,0.0,100000,47.8,220
471170,2021-02-19,13:09:39,KOREASOUTH,-1.0,-6.7,1001.9,983.3,8.9,2.7,0.07,0.0,110000,96.2,104
470750,2021-02-19,13:09:39,KOREANORTH,-2.3,-6.6,1027.6,1023.2,35.2,11.3,0.07,0.1,111000,51.9,109
476380,2021-02-19,13:09:39,JAPAN,-0.8,-9.8,994.3,1016.1,16.1,2.1,0.13,0.6,111000,51.2,15
593530,2021-02-19,13:09:39,TAIWAN,-0.9,-1.8,763.9,1023.1,14.7,5.5,0.00,0.0,100000,49.2,83
471320,2021-02-19,13:09:39,KOREASOUTH,-3.8,-12.4,996.5,983.3,10.0,5.5,0.00,0.0,100000,67.3,213
475910,2021-02-19,13:09:39,JAPAN,-1.4,-6.4,1005.2,1004.1,18.0,13.0,0.08,0.5,111000,52.4,68
471140,2021-02-19,13:09:39,KOREASOUTH,-2.3,-9.1,1004.7,1023.3,14.1,0.8,0.06,0.4,111000,81.0,152
509630,2021-02-19,13:09:39,CHINA,-9.3,-14.4,1016.8,1022.1,12.1,5.9,0.01,0.0,110000,98.8,130
547760,2021-02-19,13:09:39,CHINA,-0.6,-6.5,1021.1,1025.6,18.7,8.2,0.04,0.0,110000,64.5,341
442070,2021-02-19,13:09:39,MONGOLIA,-14.8,-20.1,1051.2,1044.0,55.4,4.3,0.00,0.0,100000,6.1,316
474020,2021-02-19,13:09:39,JAPAN,-10.4,-13.8,1011.6,1018.3,22.1,15.5,0.05,0.0,110000,54.9,209
474010,2021-02-19,13:09:39,JAPAN,-7.7,-12.8,1011.6,1015.7,15.5,15.1,0.08,15.3,111000,87.2,143
354260,2021-02-19,13:09:39,KAZAKHSTAN,-4.3,-6.5,1004.8,1022.7,31.9,10.2,0.01,5.2,111000,50.2,119
546160,2021-02-19,13:09:39,CHINA,-2.8,-11.6,1026.6,1026.2,13.4,8.7,0.02,0.0,110000,53.5,345
172050,2021-02-19,13:09:39,TURKEY,-3.8,-6.9,829.4,845.1,5.0,8.0,0.22,3.3,111000,52.4,237
289780,2021-02-19,13:09:39,KAZAKHSTAN,-8.8,-12.1,969.2,1020.4,11.0,4.6,0.00,0.0,100000,66.3,247
171600,2021-02-19,13:09:39,TURKEY,-3.2,-10.2,905.2,876.3,15.8,5.0,0.00,0.0,100000,42.9,181
170860,2021-02-19,13:09:39,TURKEY,-0.5,-5.1,944.7,1018.8,18.5,11.2,0.35,4.1,111000,52.1,60
442870,2021-02-19,13:09:39,MONGOLIA,-8.7,-15.0,809.4,1027.9,53.2,10.9,0.00,1.6,101000,76.3,96
507880,2021-02-19,13:09:39,CHINA,-10.0,-15.7,1019.0,1019.4,22.9,12.7,0.02,0.0,110000,50.2,229
475970,2021-02-19,13:09:39,JAPAN,-1.8,-9.1,974.3,1018.1,20.3,15.9,0.07,0.0,110000,96.9,136
443850,2021-02-19,13:09:39,MONGOLIA,-3.1,-15.4,893.2,1026.2,34.2,10.3,0.00,0.0,100000,76.6,246
476120,2021-02-19,13:09:39,JAPAN,-0.6,-5.5,1018.3,1018.8,18.1,4.1,0.40,14.3,111000,50.3,148
548430,2021-02-19,13:09:39,CHINA,-1.6,-9.9,1023.8,1026.3,21.3,17.1,0.03,0.0,110000,50.6,224
478290,2021-02-19,13:09:39,JAPAN,-0.6,-8.7,1001.2,1019.1,20.0,13.7,0.07,0.0,110000,50.3,225
287850,2021-02-19,13:09:39,KAZAKHSTAN,-4.9,-7.1,1049.8,1018.4,10.0,2.9,0.00,11.6,101000,52.6,105
478210,2021-02-19,13:09:39,JAPAN,-1.2,-8.5,891.3,897.6,17.9,7.1,0.00,0.0,100000,34.4,114
544360,2021-02-19,13:09:39,CHINA,-6.5,-19.9,1023.7,1025.4,34.9,9.0,0.01,0.0,110000,51.1,312
561820,2021-02-19,13:09:39,CHINA,-1.4,-11.2,778.6,818.4,33.8,13.4,0.07,0.0,110000,68.2,177
170700,2021-02-19,13:09:39,TURKEY,-0.5,-4.1,943.2,1017.1,11.1,4.6,0.14,2.0,111000,54.1,101
549060,2021-02-19,13:09:39,CHINA,-1.7,-8.4,1024.4,1026.2,10.6,10.5,0.01,0.0,110000,62.2,56
172000,2021-02-19,13:09:39,TURKEY,-0.3,-4.0,975.1,1013.5,11.7,12.8,0.10,0.5,111000,50.1,209
477560,2021-02-19,13:09:39,JAPAN,-0.3,-4.2,1002.9,1019.1,16.9,7.8,0.22,0.0,110000,85.9,154
366220,2021-02-19,13:09:39,KAZAKHSTAN,-12.5,-16.3,1041.4,1036.3,26.7,24.5,0.00,3.0,101000,67.2,317
523910,2021-02-19,13:09:39,CHINA,-13.2,-20.2,1002.1,1044.6,38.2,5.2,0.00,0.0,100000,10.9,358
471360,2021-02-19,13:09:39,KOREASOUTH,-2.1,-9.4,1014.7,1024.4,18.3,0.0,0.08,0.0,110000,52.4,71
471370,2021-02-19,13:09:39,KOREASOUTH,-1.4,-10.5,1011.6,1021.8,12.9,5.4,0.00,0.0,100000,56.1,282
474760,2021-02-19,13:09:39,JAPAN,-9.7,-14.3,999.9,1001.6,4.5,13.5,0.00,0.0,100000,77.3,30
170820,2021-02-19,13:09:39,TURKEY,-1.3,-5.5,1003.3,1013.1,8.7,14.7,0.05,0.5,111000,50.1,349
547140,2021-02-19,13:09:39,CHINA,-1.8,-11.1,1026.3,1026.2,17.8,13.9,0.08,0.0,110000,51.5,335
471540,2021-02-19,13:09:39,KOREASOUTH,-0.4,-10.0,1010.9,1015.1,10.6,16.2,0.00,0.0,100000,69.0,186
471060,2021-02-19,13:09:39,KOREASOUTH,-1.4,-9.3,1016.0,1022.1,13.1,17.4,0.12,0.2,111000,52.6,266
505270,2021-02-19,13:09:39,CHINA,-18.4,-20.8,990.2,1027.9,18.3,13.8,0.02,0.0,110000,51.5,8
475120,2021-02-19,13:09:39,JAPAN,-1.1,-5.4,1019.9,1018.9,41.3,5.9,0.00,0.0,100000,88.9,108
563740,2021-02-19,13:09:39,CHINA,-0.2,-6.2,748.3,750.7,29.6,18.9,0.03,0.0,110000,50.2,334
513460,2021-02-19,13:09:39,CHINA,-8.5,-10.3,1053.4,1041.1,48.8,2.7,0.00,0.0,100000,33.1,325
471110,2021-02-19,13:09:39,KOREASOUTH,-1.5,-6.7,1003.8,993.4,2.6,7.3,0.04,0.0,110000,51.4,1
547050,2021-02-19,13:09:39,CHINA,-9.2,-14.5,1039.3,1035.1,22.4,6.9,0.00,0.0,100000,4.5,241
443140,2021-02-19,13:09:39,MONGOLIA,-9.0,-16.8,928.1,1022.1,13.5,3.9,0.00,1.5,101000,86.2,171
170980,2021-02-19,13:09:39,TURKEY,-6.8,-8.6,815.6,816.1,12.8,18.3,0.07,11.5,111000,53.4,149
563850,2021-02-19,13:09:39,CHINA,-5.0,-8.2,747.1,745.5,7.5,1.3,0.06,0.0,110000,50.3,61
505570,2021-02-19,13:09:39,CHINA,-15.8,-20.6,1003.3,1022.7,11.1,12.7,0.01,0.0,110000,57.4,319
471100,2021-02-19,13:09:39,KOREASOUTH,-1.6,-6.5,1008.3,1009.9,3.0,13.1,0.00,0.0,100000,98.6,206
383530,2021-02-19,13:09:39,KYRGYZSTAN,-0.7,-3.5,1000.1,1028.3,7.5,10.0,0.03,0.4,111000,55.5,165
286790,2021-02-19,13:09:39,KAZAKHSTAN,-8.5,-12.1,1019.0,1029.6,13.3,17.9,0.01,4.7,111000,75.2,118
514630,2021-02-19,13:09:39,CHINA,-6.8,-9.5,947.9,1033.3,14.1,6.6,0.05,0.0,110000,74.0,279
471240,2021-02-19,13:09:39,KOREASOUTH,-2.7,-10.3,988.9,1081.3,15.7,4.2,0.00,0.0,100000,52.7,119
170900,2021-02-19,13:09:39,TURKEY,-1.6,-4.5,914.1,932.6,18.8,1.8,0.27,4.3,111000,65.7,147
586530,2021-02-19,13:09:39,CHINA,-1.3,-2.4,914.5,1023.8,1.8,22.4,0.25,0.0,110000,50.9,124
475700,2021-02-19,13:09:39,JAPAN,-3.2,-7.1,1007.6,1019.5,14.5,2.9,0.16,7.8,111000,51.4,109
354970,2021-02-19,13:09:39,KAZAKHSTAN,-6.4,-13.4,988.8,1033.9,29.1,13.8,0.00,4.9,101000,50.8,32
545110,2021-02-19,13:09:39,CHINA,-1.1,-15.2,1021.1,1025.5,18.1,7.0,0.03,0.0,110000,74.6,329
536140,2021-02-19,13:09:39,CHINA,-3.3,-13.3,926.9,1028.0,15.8,9.2,0.00,0.0,100000,2.3,121
539590,2021-02-19,13:09:39,CHINA,-0.9,-9.8,1010.1,1027.0,19.5,15.5,0.01,0.0,110000,55.1,140
527070,2021-02-19,13:09:39,CHINA,-4.8,-21.1,724.8,721.2,10.8,7.6,0.00,0.0,100000,61.7,327
471074,2021-02-19,13:09:39,KOREASOUTH,-1.2,-10.1,995.1,963.4,5.8,27.6,0.00,0.0,100000,38.8,346
471087,2021-02-19,13:09:39,KOREASOUTH,-2.3,-10.4,1025.7,1034.7,13.1,14.4,0.00,0.0,100000,82.9,14
471080,2021-02-19,13:09:39,KOREASOUTH,-1.5,-7.6,1019.1,1022.5,13.9,2.5,0.02,0.1,111000,53.6,217
471120,2021-02-19,13:09:39,KOREASOUTH,-0.7,-7.5,1018.3,1022.9,16.6,17.5,0.02,0.0,110000,54.2,252
506320,2021-02-19,13:09:39,CHINA,-14.2,,987.4,1024.0,27.2,14.2,0.01,0.0,110000,52.4,186
547250,2021-02-19,13:09:39,CHINA,-1.8,-10.5,1028.9,1025.6,3.0,15.7,0.03,0.0,110000,52.4,16
562570,2021-02-19,13:09:39,CHINA,-2.1,-15.4,684.6,683.3,43.1,2.5,0.01,0.0,110000,53.3,81
523780,2021-02-19,13:09:39,CHINA,-4.0,-20.1,985.8,1008.3,25.5,22.6,0.00,0.0,100000,67.3,155
506580,2021-02-19,13:09:39,CHINA,-9.1,-13.4,1025.4,1022.8,10.5,7.1,0.01,0.0,110000,56.9,179
171400,2021-02-19,13:09:39,TURKEY,-4.8,-6.7,871.7,855.5,7.7,14.9,0.07,18.1,111000,51.3,230
509830,2021-02-19,13:09:39,CHINA,-8.7,-14.4,1016.6,1020.9,17.4,2.0,0.02,0.0,110000,99.0,278
560330,2021-02-19,13:09:39,CHINA,-12.5,-21.0,626.2,621.8,34.6,5.4,0.03,0.0,110000,79.0,196
474230,2021-02-19,13:09:39,JAPAN,-4.3,-9.0,1010.1,1015.4,7.9,25.0,0.09,0.0,110000,51.1,273
474120,2021-02-19,13:09:39,JAPAN,-7.5,-12.6,1014.1,1012.4,11.2,12.2,0.14,14.8,111000,57.6,174
548630,2021-02-19,13:09:39,CHINA,-1.4,-9.1,1029.7,1026.6,19.4,14.5,0.05,0.0,110000,54.0,329
507450,2021-02-19,13:09:39,CHINA,-6.8,-14.5,1015.8,1022.7,15.5,4.1,0.01,0.0,110000,59.1,64
470990,2021-02-19,13:09:39,KOREASOUTH,-2.7,-9.8,1020.7,1024.6,10.1,2.6,0.00,0.0,100000,85.9,331
471030,2021-02-19,13:09:39,KOREASOUTH,-0.7,-4.6,1016.2,1024.6,13.5,22.0,0.00,0.0,100000,73.6,89
471025,2021-02-19,13:09:39,KOREASOUTH,-0.1,-6.9,1011.3,1015.3,1.8,7.7,0.00,0.0,100000,62.8,220
501360,2021-02-19,13:09:39,CHINA,-23.2,-30.9,968.5,1026.9,17.1,4.1,0.00,0.0,100000,56.4,80
561160,2021-02-19,13:09:39,CHINA,-1.7,-15.5,683.7,690.0,33.6,9.7,0.01,0.0,110000,52.3,70
581500,2021-02-19,13:09:39,CHINA,-0.7,-6.2,1022.1,1026.7,14.0,9.6,0.03,0.0,110000,54.3,30
171200,2021-02-19,13:09:39,TURKEY,-2.0,-3.5,1025.8,1004.8,15.2,2.2,0.00,0.0,100000,64.4,87
357960,2021-02-19,13:09:39,KAZAKHSTAN,-8.8,-12.7,1019.4,1033.2,42.2,27.8,0.01,1.4,111000,53.4,314
548230,2021-02-19,13:09:39,CHINA,-0.5,-12.2,1022.3,1026.3,10.3,11.7,0.02,0.0,110000,51.6,351
443170,2021-02-19,13:09:39,MONGOLIA,-5.6,-10.1,901.0,1032.0,25.6,1.3,0.00,3.3,101000,57.2,251
526520,2021-02-19,13:09:39,CHINA,-8.4,-20.7,883.8,1029.5,29.2,3.5,0.00,0.0,100000,72.1,286
380810,2021-02-19,13:09:39,KAZAKHSTAN,-2.4,-5.8,1034.3,1029.0,20.8,30.4,0.03,0.2,111000,53.2,67
526510,2021-02-19,13:09:39,CHINA,-8.2,-29.3,976.8,996.5,66.4,3.9,0.00,0.0,100000,29.5,335
538450,2021-02-19,13:09:39,CHINA,-1.7,-13.5,934.2,1029.3,14.3,10.4,0.01,0.0,110000,77.1,239
289520,2021-02-19,13:09:39,KAZAKHSTAN,-7.1,-10.9,1045.6,1033.8,10.0,22.4,0.63,0.0,110000,50.8,170
561060,2021-02-19,13:09:39,CHINA,-3.2,-15.8,619.0,617.0,29.0,13.1,0.02,0.0,110000,55.3,350
354590,2021-02-19,13:09:39,KAZAKHSTAN,-3.9,-8.2,1024.6,1030.3,48.7,14.5,0.00,0.0,100000,25.8,288
513560,2021-02-19,13:09:39,CHINA,-9.4,-11.0,1006.1,1033.1,15.5,2.9,0.00,0.0,100000,96.8,144
540260,2021-02-19,13:09:39,CHINA,-4.7,-16.4,1011.7,1024.1,25.2,23.5,0.01,0.0,110000,89.0,204
475450,2021-02-19,13:09:39,JAPAN,-1.8,-5.6,1002.1,1006.8,10.4,13.6,0.00,0.0,100000,93.2,131
552280,2021-02-19,13:09:39,CHINA,-1.7,-17.4,603.4,600.0,30.5,0.1,0.01,0.0,110000,85.7,117
354060,2021-02-19,13:09:39,KAZAKHSTAN,-3.5,-7.8,1027.8,1028.4,26.8,18.3,0.00,0.0,100000,86.0,119
542080,2021-02-19,13:09:39,CHINA,-7.7,-15.8,912.5,1028.3,29.1,25.1,0.01,0.0,110000,73.1,70
470280,2021-02-19,13:09:39,KOREANORTH,-0.8,-8.2,1021.9,1025.7,16.8,0.8,0.02,0.0,110000,53.0,155
544830,2021-02-19,13:09:39,CHINA,-10.2,-15.6,1024.5,1024.0,12.6,13.2,0.01,0.0,110000,52.7,99
548260,2021-02-19,13:09:39,CHINA,-3.0,-13.0,870.9,873.0,24.8,25.1,0.03,0.0,110000,66.8,328
538980,2021-02-19,13:09:39,CHINA,-1.0,-10.9,1023.9,1026.8,16.0,8.8,0.02,0.0,110000,52.2,96
471330,2021-02-19,13:09:39,KOREASOUTH,-0.4,-6.8,1018.7,1024.0,13.5,9.4,0.04,0.0,110000,78.6,106
471340,2021-02-19,13:09:39,KOREASOUTH,-1.6,-7.8,999.3,993.4,11.0,12.2,0.04,0.0,110000,54.9,128
506030,2021-02-19,13:09:39,CHINA,-10.5,-15.6,984.7,1027.5,30.7,2.7,0.01,0.0,110000,65.3,80
471350,2021-02-19,13:09:39,KOREASOUTH,-1.9,-8.8,1005.6,1023.0,17.8,11.7,0.04,0.0,110000,60.9,238
376820,2021-02-19,13:09:39,ARMENIA,-4.0,-6.3,803.6,793.7,0.5,9.6,0.00,0.0,100000,17.4,273
546020,2021-02-19,13:09:39,CHINA,-1.6,-12.9,1021.8,1025.6,9.2,5.4,0.02,0.0,110000,96.0,345
474200,2021-02-19,13:09:39,JAPAN,-7.9,-12.1,1014.1,1015.7,16.2,13.1,0.02,3.6,111000,65.0,255
351910,2021-02-19,13:09:39,KAZAKHSTAN,-4.7,-14.3,1034.8,1040.6,46.5,5.4,0.00,0.0,100000,15.4,250
442820,2021-02-19,13:09:39,MONGOLIA,-10.8,-28.5,819.1,1026.1,49.8,24.7,0.00,0.0,100000,34.6,152
171950,2021-02-19,13:09:39,TURKEY,-1.5,-4.6,957.2,972.9,9.3,1.6,0.07,1.8,111000,72.3,214
570360,2021-02-19,13:09:39,CHINA,-0.4,-7.8,1006.0,1025.1,1.6,11.2,0.02,0.0,110000,66.7,23
477590,2021-02-19,13:09:39,JAPAN,-0.4,-6.4,1011.0,1017.9,8.6,15.5,0.29,0.0,110000,50.3,233
560180,2021-02-19,13:09:39,CHINA,-3.3,-14.1,627.1,635.7,24.3,16.6,0.01,0.0,110000,88.0,56
560340,2021-02-19,13:09:39,CHINA,-9.9,-17.5,600.9,593.6,21.0,17.1,0.05,0.0,110000,54.3,311
470950,2021-02-19,13:09:39,KOREASOUTH,-3.1,-9.6,1007.3,1023.7,11.2,14.2,0.05,0.0,110000,54.9,124
540270,2021-02-19,13:09:39,CHINA,-5.9,-18.3,1001.0,1024.1,26.5,10.9,0.01,0.0,110000,67.4,125
546620,2021-02-19,13:09:39,CHINA,-2.6,-10.9,1020.7,1025.3,3.9,12.1,0.05,0.0,110000,70.7,91
474130,2021-02-19,13:09:39,JAPAN,-7.0,-10.6,1011.5,1017.3,19.0,5.5,0.00,0.0,100000,49.5,135
474170,2021-02-19,13:09:39,JAPAN,-14.8,-19.7,1009.4,1016.4,6.7,8.3,0.05,0.0,110000,72.5,189
515420,2021-02-19,13:09:39,CHINA,-16.6,-19.2,755.0,753.0,33.1,5.7,0.00,0.0,100000,67.6,101
539750,2021-02-19,13:09:39,CHINA,-2.3,-12.9,1022.9,1028.0,8.3,11.9,0.02,0.0,110000,67.4,120
170920,2021-02-19,13:09:39,TURKEY,-0.1,-4.0,957.1,982.6,6.9,10.4,0.24,3.5,111000,51.9,120
533910,2021-02-19,13:09:39,CHINA,-5.5,-12.7,880.8,1025.9,33.5,23.3,0.01,0.0,110000,50.3,121
170671,2021-02-19,13:09:39,TURKEY,-5.5,-8.2,1016.6,1024.1,12.7,2.0,0.00,0.0,100000,0.9,233
509680,2021-02-19,13:09:39,CHINA,-11.8,-17.6,1017.7,1022.8,18.5,4.4,0.02,0.0,110000,50.9,233
471223,2021-02-19,13:09:39,KOREASOUTH,-1.2,-2.6,1020.3,1027.9,6.7,11.2,0.00,0.0,100000,50.3,87
471220,2021-02-19,13:09:39,KOREASOUTH,-2.6,-8.5,1015.8,1015.4,17.2,7.5,0.02,0.1,111000,58.6,227
552790,2021-02-19,13:09:39,CHINA,-5.4,-23.9,994.2,995.3,31.3,39.4,0.01,0.0,110000,68.0,119
527130,2021-02-19,13:09:39,CHINA,-5.1,-21.1,699.2,699.2,27.6,13.7,0.02,0.0,110000,63.7,61
443540,2021-02-19,13:09:39,MONGOLIA,-6.4,-14.6,1044.1,1029.4,55.6,23.4,0.00,0.0,100000,48.8,337
474740,2021-02-19,13:09:39,JAPAN,-10.4,-19.5,1009.6,1002.1,6.7,6.7,0.00,0.0,100000,53.8,175
474110,2021-02-19,13:09:39,JAPAN,-6.3,-11.3,1011.5,1015.5,14.5,20.1,0.09,0.0,110000,63.5,156
474090,2021-02-19,13:09:39,JAPAN,-10.7,-14.6,1013.9,1014.9,25.7,1.2,0.05,8.6,111000,71.8,155
475920,2021-02-19,13:09:39,JAPAN,-1.3,-6.1,1014.9,1017.0,21.9,16.1,0.18,2.0,111000,50.3,351
535430,2021-02-19,13:09:39,CHINA,-4.5,-16.1,881.0,1028.0,30.3,9.3,0.00,0.0,100000,69.9,4
287660,2021-02-19,13:09:39,KAZAKHSTAN,-5.2,-9.5,1011.8,1027.6,6.9,14.5,0.01,3.5,111000,55.0,314
540960,2021-02-19,13:09:39,CHINA,-7.5,-13.6,1023.2,1021.8,15.7,18.3,0.02,0.0,110000,51.8,167
527650,2021-02-19,13:09:39,CHINA,-9.4,-19.9,714.4,714.3,22.2,1.1,0.01,0.0,110000,51.6,236
509490,2021-02-19,13:09:39,CHINA,-8.2,-16.6,1018.4,1022.6,7.2,17.4,0.02,0.0,110000,82.0,250
542370,2021-02-19,13:09:39,CHINA,-7.7,-22.2,1037.5,1032.0,15.9,18.1,0.00,0.0,100000,90.8,26
470550,2021-02-19,13:09:39,KOREANORTH,-1.2,-9.1,1024.8,1022.5,12.0,5.7,0.12,0.3,111000,89.0,252
476170,2021-02-19,13:09:39,JAPAN,-6.1,-10.1,953.5,1023.9,20.3,9.3,0.00,0.0,100000,17.9,192
507560,2021-02-19,13:09:39,CHINA,-7.7,-12.5,1009.2,1022.7,16.6,9.9,0.01,0.0,110000,50.8,6
471580,2021-02-19,13:09:39,KOREASOUTH,-0.6,-5.6,1010.9,1009.2,14.4,9.3,0.00,0.0,100000,65.5,198
471560,2021-02-19,13:09:39,KOREASOUTH,-0.2,-5.7,1018.2,1022.9,14.0,12.6,0.08,0.0,110000,84.8,80
521180,2021-02-19,13:09:39,CHINA,-4.2,-15.8,829.1,828.3,32.6,10.4,0.01,0.0,110000,56.8,136
476400,2021-02-19,13:09:39,JAPAN,-8.1,-12.2,915.8,906.1,49.4,0.2,0.00,0.0,100000,32.2,166
353020,2021-02-19,13:09:39,KAZAKHSTAN,-3.5,-9.3,1058.2,1032.7,14.2,21.7,0.00,0.0,100000,41.1,160
443410,2021-02-19,13:09:39,MONGOLIA,-6.1,-15.3,855.9,1021.3,44.4,8.8,0.00,0.5,101000,52.5,305
170880,2021-02-19,13:09:39,TURKEY,-7.0,-9.7,880.7,860.0,22.7,11.9,0.49,25.2,111000,50.1,3
359970,2021-02-19,13:09:39,KAZAKHSTAN,-6.4,-10.3,1044.7,1032.9,31.3,5.5,0.05,0.9,111000,53.6,171
443050,2021-02-19,13:09:39,MONGOLIA,-12.8,-15.9,950.6,1027.2,47.1,10.3,0.01,2.2,111000,50.6,330
536730,2021-02-19,13:09:39,CHINA,-2.2,-15.1,975.3,1028.1,17.6,3.0,0.02,0.0,110000,50.2,67
443040,2021-02-19,13:09:39,MONGOLIA,-11.8,-16.4,1022.4,1032.3,46.5,6.9,0.00,1.1,101000,76.3,298
512430,2021-02-19,13:09:39,CHINA,-6.1,-10.1,1008.0,1034.0,14.4,2.8,0.00,0.0,100000,70.5,356
368215,2021-02-19,13:09:39,KAZAKHSTAN,-7.8,-10.2,1010.6,1022.6,5.2,15.2,0.00,0.0,100000,26.7,76
377090,2021-02-19,13:09:39,ARMENIA,-2.3,-4.9,982.7,984.9,20.7,16.5,0.02,9.2,111000,51.5,86
518860,2021-02-19,13:09:39,CHINA,-3.7,-22.5,701.4,698.4,26.7,15.7,0.00,0.0,100000,93.6,160
517110,2021-02-19,13:09:39,CHINA,-1.6,-9.2,800.8,795.4,25.7,3.2,0.03,0.0,110000,52.9,80
560040,2021-02-19,13:09:39,CHINA,-5.8,-18.4,998.8,1001.7,34.3,18.1,0.01,0.0,110000,55.2,201
470600,2021-02-19,13:09:39,KOREANORTH,-1.6,-6.9,1025.2,1024.2,13.0,11.1,0.01,0.0,110000,51.2,151
534460,2021-02-19,13:09:39,CHINA,-4.2,-17.6,1005.6,1029.3,8.0,11.9,0.00,0.0,100000,42.5,240
475830,2021-02-19,13:09:39,JAPAN,-2.1,-7.3,1009.0,1011.1,3.5,13.0,0.00,0.0,100000,10.6,133
475820,2021-02-19,13:09:39,JAPAN,-2.5,-7.5,1021.1,1017.2,13.2,23.7,0.14,4.9,111000,50.4,306
510760,2021-02-19,13:09:39,CHINA,-7.4,-12.9,962.7,1032.5,30.2,2.8,0.04,0.0,110000,56.6,117
541150,2021-02-19,13:09:39,CHINA,-7.1,-18.5,976.0,1026.3,21.0,22.9,0.01,0.0,110000,80.6,241
535930,2021-02-19,13:09:39,CHINA,-8.0,-19.3,980.3,1027.5,27.1,9.3,0.02,0.0,110000,61.0,280
512880,2021-02-19,13:09:39,CHINA,-5.0,-13.5,835.6,836.2,35.2,10.7,0.01,0.0,110000,82.7,253
353610,2021-02-19,13:09:39,KAZAKHSTAN,-0.7,-4.2,990.8,1017.9,25.0,16.0,0.00,0.0,100000,98.2,155
560210,2021-02-19,13:09:39,CHINA,-7.8,-20.6,616.6,613.9,29.6,4.0,0.01,0.0,110000,51.8,148
540940,2021-02-19,13:09:39,CHINA,-5.0,-12.1,1010.6,1022.2,12.2,9.9,0.02,0.0,110000,88.3,328
546180,2021-02-19,13:09:39,CHINA,-0.4,-10.3,1022.8,1024.7,12.7,13.2,0.08,0.0,110000,51.6,242
474400,2021-02-19,13:09:39,JAPAN,-8.4,-12.9,1012.6,1017.0,19.4,0.7,0.10,0.0,110000,90.3,259
358840,2021-02-19,13:09:39,KAZAKHSTAN,-8.5,-11.3,981.9,995.5,19.2,6.8,0.00,11.0,101000,58.9,53
543460,2021-02-19,13:09:39,CHINA,-2.5,-11.5,1018.7,1025.1,19.5,8.2,0.02,0.0,110000,57.7,304
363970,2021-02-19,13:09:39,KAZAKHSTAN,-11.3,-15.9,1023.9,1036.7,8.9,33.4,0.00,0.0,100000,86.2,103
529960,2021-02-19,13:09:39,CHINA,-2.3,-7.6,778.1,776.4,18.5,22.9,0.03,0.0,110000,51.8,139
362080,2021-02-19,13:09:39,KAZAKHSTAN,-13.4,-19.1,1011.5,1032.1,26.6,3.1,0.00,0.0,100000,53.5,258
346910,2021-02-19,13:09:39,KAZAKHSTAN,-1.6,-4.8,1021.4,1022.7,16.2,20.4,0.02,2.2,111000,50.1,120
172480,2021-02-19,13:09:39,TURKEY,-5.1,-7.7,902.9,868.6,15.9,2.8,0.33,18.1,111000,50.3,67
471920,2021-02-19,13:09:39,KOREASOUTH,-1.0,-10.0,1021.3,1022.4,10.2,9.7,0.10,0.0,110000,87.8,298
470690,2021-02-19,13:09:39,KOREANORTH,-2.3,-8.7,1031.4,1023.8,10.0,8.7,0.22,0.0,110000,51.2,326
470700,2021-02-19,13:09:39,KOREANORTH,-1.4,-6.7,1027.2,1021.2,12.3,15.4,0.01,0.0,110000,80.6,127
534630,2021-02-19,13:09:39,CHINA,-6.5,-16.7,930.5,1029.0,13.5,11.8,0.01,0.0,110000,53.7,173
529550,2021-02-19,13:09:39,CHINA,-3.3,-16.2,694.4,684.9,32.5,12.3,0.02,0.0,110000,66.6,71
350780,2021-02-19,13:09:39,KAZAKHSTAN,-5.5,-9.1,1021.9,1033.3,9.7,15.2,0.02,8.6,111000,67.5,122
476180,2021-02-19,13:09:39,JAPAN,-4.2,-10.6,975.6,1019.3,17.5,6.5,0.14,1.4,111000,58.9,135
470200,2021-02-19,13:09:39,KOREANORTH,-6.8,-12.3,1015.1,1029.1,0.1,1.5,0.00,0.0,100000,57.1,236
582030,2021-02-19,13:09:39,CHINA,-0.1,-5.7,1022.7,1025.7,19.2,16.0,0.03,0.0,110000,50.6,46
537640,2021-02-19,13:09:39,CHINA,-5.4,-16.8,972.5,1028.6,19.2,2.7,0.02,0.0,110000,57.1,57
552990,2021-02-19,13:09:39,CHINA,-4.6,-19.3,1003.4,996.9,21.2,20.1,0.01,0.0,110000,68.5,178
471270,2021-02-19,13:09:39,KOREASOUTH,-1.4,-7.3,1008.4,1015.2,8.5,10.6,0.01,0.2,111000,52.6,86
172410,2021-02-19,13:09:39,TURKEY,-3.1,-8.2,989.7,1045.5,11.7,11.1,0.00,0.0,100000,92.6,322
471650,2021-02-19,13:09:39,KOREASOUTH,-0.2,-5.3,1025.2,1024.4,18.4,11.0,0.09,0.0,110000,50.8,321
547530,2021-02-19,13:09:39,CHINA,-1.9,-9.2,1025.1,1026.5,16.0,12.4,0.07,0.0,110000,84.6,332
549380,2021-02-19,13:09:39,CHINA,-1.9,-11.1,1030.4,1027.3,11.9,7.0,0.01,0.0,110000,52.4,8
537230,2021-02-19,13:09:39,CHINA,-5.5,-16.8,907.8,1029.1,14.5,11.5,0.02,0.0,110000,54.2,76
442410,2021-02-19,13:09:39,MONGOLIA,-12.4,-16.3,1025.8,1033.1,47.1,8.3,0.00,2.1,101000,50.2,158
471190,2021-02-19,13:09:39,KOREASOUTH,-2.1,-7.7,1024.5,1023.6,18.4,3.1,0.03,0.0,110000,80.7,307
471180,2021-02-19,13:09:39,KOREASOUTH,-3.5,-9.4,1014.2,1018.6,7.0,2.3,0.00,0.0,100000,58.5,84
529830,2021-02-19,13:09:39,CHINA,-5.2,-12.0,817.3,838.3,12.3,7.5,0.00,0.0,100000,36.7,5
525760,2021-02-19,13:09:39,CHINA,-5.9,-20.7,849.8,861.3,32.8,36.4,0.00,0.0,100000,73.3,270
374320,2021-02-19,13:09:39,GEORGIA,-0.3,-3.7,952.5,955.1,30.9,8.8,0.16,5.7,111000,72.8,356
474340,2021-02-19,13:09:39,JAPAN,-10.3,-13.4,1004.6,1011.7,11.0,12.0,0.00,1.4,101000,91.6,42
474350,2021-02-19,13:09:39,JAPAN,-4.8,-11.1,1012.6,1006.3,34.1,8.3,0.03,0.0,110000,68.4,312
545870,2021-02-19,13:09:39,CHINA,-2.3,-9.6,1025.9,1025.4,25.1,40.7,0.00,0.0,100000,4.1,180
360010,2021-02-19,13:09:39,KAZAKHSTAN,-11.8,-16.4,1023.4,1023.8,4.3,37.8,0.02,2.8,111000,55.6,233
511560,2021-02-19,13:09:39,CHINA,-6.3,-11.9,929.2,1031.7,23.3,5.6,0.01,0.0,110000,88.1,311
540490,2021-02-19,13:09:39,CHINA,-5.7,-13.6,1028.7,1023.6,18.6,10.8,0.02,0.0,110000,69.6,218
514310,2021-02-19,13:09:39,CHINA,-0.5,-4.1,975.4,1028.3,29.3,3.3,0.12,0.0,110000,53.3,245
472185,2021-02-19,13:09:39,JAPAN,-6.4,-12.9,985.9,966.9,11.0,13.5,0.00,0.0,100000,24.5,43
508540,2021-02-19,13:09:39,CHINA,-6.8,-14.1,1026.3,1022.3,15.7,14.6,0.01,0.0,110000,52.0,138
508620,2021-02-19,13:09:39,CHINA,-17.5,-22.2,1019.7,1006.8,22.3,5.0,0.00,0.0,100000,16.5,320
368700,2021-02-19,13:09:39,KAZAKHSTAN,-0.9,-3.8,978.7,1022.9,10.3,5.2,0.05,2.2,111000,51.5,25
171500,2021-02-19,13:09:39,TURKEY,-0.6,-4.8,1021.2,1019.2,8.6,2.4,0.10,0.9,111000,57.8,292
477150,2021-02-19,13:09:39,JAPAN,-0.6,-5.7,1001.8,1001.9,8.5,4.5,0.14,0.3,111000,50.1,202
539150,2021-02-19,13:09:39,CHINA,-2.4,-11.1,907.3,1029.6,23.9,11.7,0.02,0.0,110000,52.4,99
570250,2021-02-19,13:09:39,CHINA,-0.4,-7.8,1047.6,1035.4,14.2,6.4,0.00,0.0,100000,4.2,81
442590,2021-02-19,13:09:39,MONGOLIA,-7.3,-11.9,953.8,1027.0,11.7,17.8,0.00,1.6,101000,79.9,270
560460,2021-02-19,13:09:39,CHINA,-6.5,-16.6,671.3,672.8,22.5,5.3,0.03,0.0,110000,84.1,313
570140,2021-02-19,13:09:39,CHINA,-2.0,-8.9,1003.4,1032.8,19.9,2.8,0.00,0.0,100000,0.8,111
171550,2021-02-19,13:09:39,TURKEY,-1.3,-6.1,899.1,1012.2,14.2,1.9,0.00,0.0,100000,76.4,181
585060,2021-02-19,13:09:39,CHINA,-0.5,-4.9,979.2,1026.7,15.2,13.2,0.16,0.0,110000,50.7,294
504340,2021-02-19,13:09:39,CHINA,-21.3,-24.4,961.4,1027.2,21.2,12.1,0.02,0.0,110000,53.3,136
350530,2021-02-19,13:09:39,KAZAKHSTAN,-4.7,-9.5,1028.5,1035.4,14.8,19.5,0.08,1.1,111000,63.6,154
470312,2021-02-19,13:09:39,CHINA,-2.1,-16.4,994.8,979.8,1.7,7.7,0.00,0.0,100000,46.3,117
514950,2021-02-19,13:09:39,CHINA,-2.5,-16.1,985.4,1032.7,31.6,38.5,0.00,0.0,100000,3.9,52
357390,2021-02-19,13:09:39,KAZAKHSTAN,-0.6,-6.8,1035.8,1028.6,46.5,12.8,0.00,3.0,101000,51.4,343
556640,2021-02-19,13:09:39,CHINA,-0.5,-20.9,602.0,602.2,24.5,29.4,0.00,0.0,100000,11.4,118
475690,2021-02-19,13:09:39,JAPAN,-0.5,-7.7,1001.6,1002.4,11.4,18.4,0.00,0.0,100000,73.2,352
477690,2021-02-19,13:09:39,JAPAN,-0.7,-7.7,1019.9,1025.3,0.1,19.7,0.00,0.0,100000,39.2,263
171880,2021-02-19,13:09:39,TURKEY,-0.1,-4.3,937.6,1016.4,22.3,2.6,0.17,0.3,111000,54.3,187
171280,2021-02-19,13:09:39,TURKEY,-1.5,-5.7,955.6,1012.1,11.1,9.0,0.09,1.6,111000,83.1,176
359250,2021-02-19,13:09:39,KAZAKHSTAN,-1.4,-7.1,1014.5,1028.7,27.4,2.9,0.69,0.0,110000,50.4,336
470610,2021-02-19,13:09:39,KOREANORTH,-1.2,-8.3,1016.4,1020.3,27.1,10.9,0.15,0.8,111000,69.7,8
470650,2021-02-19,13:09:39,KOREANORTH,-3.6,-8.6,1018.6,1024.4,13.9,7.7,0.01,0.0,110000,81.9,171
475420,2021-02-19,13:09:39,JAPAN,-3.3,-7.3,1003.1,1000.8,8.4,20.5,0.00,0.0,100000,90.6,98
541610,2021-02-19,13:09:39,CHINA,-4.0,-10.9,1012.4,1023.3,12.9,13.1,0.03,0.0,110000,52.1,200
541611,2021-02-19,13:09:39,CHINA,-4.6,-13.1,1019.5,1041.2,10.9,1.0,0.00,0.0,100000,97.0,192
541570,2021-02-19,13:09:39,CHINA,-7.8,-16.3,1025.5,1023.1,12.8,6.0,0.03,0.0,110000,64.0,278
475840,2021-02-19,13:09:39,JAPAN,-4.7,-9.0,1005.9,1015.1,4.0,18.9,0.10,3.7,111000,67.6,317
535130,2021-02-19,13:09:39,CHINA,-5.6,-17.3,926.0,1030.4,21.7,6.1,0.00,0.0,100000,20.6,305
475900,2021-02-19,13:09:39,JAPAN,-1.2,-6.8,1009.6,1017.5,19.4,8.6,0.10,0.9,111000,50.1,333
471380,2021-02-19,13:09:39,KOREASOUTH,-0.2,-9.4,1026.3,1022.3,16.2,11.0,0.12,0.0,110000,59.2,240
364280,2021-02-19,13:09:39,KAZAKHSTAN,-14.5,-18.4,1036.9,1036.8,17.7,3.0,0.01,0.9,111000,50.5,194
542360,2021-02-19,13:09:39,CHINA,-6.2,-16.1,1019.7,1024.1,13.3,24.3,0.02,0.0,110000,51.4,242
470580,2021-02-19,13:09:39,KOREANORTH,-2.9,-8.3,1015.3,1023.7,22.0,5.4,0.01,0.0,110000,52.1,6
537870,2021-02-19,13:09:39,CHINA,-4.8,-15.7,978.2,1027.6,21.5,11.2,0.01,0.0,110000,50.2,257
537980,2021-02-19,13:09:39,CHINA,-0.1,-9.5,1019.6,1025.8,14.1,3.9,0.01,0.0,110000,68.1,233
545340,2021-02-19,13:09:39,CHINA,-2.1,-13.8,1025.6,1025.7,13.4,0.7,0.02,0.0,110000,51.5,90
351730,2021-02-19,13:09:39,KAZAKHSTAN,-9.7,-13.4,1027.4,1032.8,26.8,20.8,0.00,5.2,101000,50.1,45
527870,2021-02-19,13:09:39,CHINA,-5.7,-14.2,746.9,749.8,26.9,21.4,0.01,0.0,110000,69.5,167
538210,2021-02-19,13:09:39,CHINA,-5.9,-19.0,929.1,1028.0,20.6,6.0,0.00,0.0,100000,37.6,283
443470,2021-02-19,13:09:39,MONGOLIA,-9.0,-27.1,862.0,1009.9,25.6,19.8,0.00,0.0,100000,91.2,323
471070,2021-02-19,13:09:39,KOREASOUTH,-0.8,-7.0,1013.5,1016.3,13.8,13.1,0.03,0.3,111000,81.0,36
471065,2021-02-19,13:09:39,KOREASOUTH,-2.1,-7.2,1017.4,1031.1,4.8,10.3,0.00,2.8,101000,50.3,343
442320,2021-02-19,13:09:39,MONGOLIA,-12.2,-16.1,1041.8,1049.4,38.5,6.5,0.00,0.0,100000,78.5,66
514670,2021-02-19,13:09:39,CHINA,-1.0,-15.2,829.4,828.4,28.8,0.6,0.00,0.0,100000,70.2,19
539470,2021-02-19,13:09:39,CHINA,-3.2,-14.8,949.2,1027.1,21.8,7.6,0.01,0.0,110000,81.5,132
570060,2021-02-19,13:09:39,CHINA,-1.2,-9.7,946.7,1026.1,11.7,5.0,0.02,0.0,110000,50.7,43
543370,2021-02-19,13:09:39,CHINA,-5.0,-17.2,1022.8,1025.1,13.8,15.8,0.01,0.0,110000,64.5,230
512320,2021-02-19,13:09:39,CHINA,-5.3,-9.0,1027.4,1031.3,7.6,22.8,0.03,0.0,110000,51.6,155
537720,2021-02-19,13:09:39,CHINA,-2.4,-13.6,982.7,1025.6,6.5,3.2,0.01,0.0,110000,53.5,58
560290,2021-02-19,13:09:39,CHINA,-3.3,-14.8,645.5,645.4,28.5,0.1,0.04,0.0,110000,53.9,262
442120,2021-02-19,13:09:39,MONGOLIA,-22.1,-24.7,912.3,1037.5,54.9,4.3,0.00,9.9,101000,73.5,210
544050,2021-02-19,13:09:39,CHINA,-4.5,-18.0,1022.5,1027.2,17.1,16.3,0.01,0.0,110000,54.2,192
442140,2021-02-19,13:09:39,MONGOLIA,-3.6,-18.4,825.1,1027.5,10.9,5.0,0.00,0.0,100000,91.5,1
546560,2021-02-19,13:09:39,CHINA,-2.1,-7.7,1021.6,1024.8,25.5,30.8,0.01,0.0,110000,53.1,251
471400,2021-02-19,13:09:39,KOREASOUTH,-0.6,-6.0,1016.7,1023.9,21.1,29.8,0.03,0.0,110000,50.6,173
471410,2021-02-19,13:09:39,KOREASOUTH,-0.7,-5.6,1012.6,1015.3,9.7,20.6,0.07,0.1,111000,95.5,274
471420,2021-02-19,13:09:39,KOREASOUTH,-1.4,-9.5,1013.4,1012.9,12.2,11.3,0.00,0.0,100000,53.9,201
478090,2021-02-19,13:09:39,JAPAN,-0.3,-6.7,1019.1,1024.0,24.1,2.2,0.02,0.0,110000,50.9,117
171290,2021-02-19,13:09:39,TURKEY,-0.7,-5.4,968.5,1019.7,6.6,4.9,0.04,0.0,110000,51.8,177
522670,2021-02-19,13:09:39,CHINA,-4.9,-21.4,932.6,1029.6,28.6,10.2,0.00,0.0,100000,45.6,30
561520,2021-02-19,13:09:39,CHINA,-3.0,-9.9,662.7,666.5,28.7,13.5,0.02,0.0,110000,51.0,327
530680,2021-02-19,13:09:39,CHINA,-4.4,-14.0,932.7,1029.0,29.7,12.7,0.01,0.0,110000,51.0,88
443290,2021-02-19,13:09:39,MONGOLIA,-7.9,-11.3,776.5,1029.7,21.7,13.6,0.00,2.8,101000,96.7,223
548360,2021-02-19,13:09:39,CHINA,-2.1,-13.3,1032.7,1027.3,14.2,13.6,0.03,0.0,110000,53.8,170
523230,2021-02-19,13:09:39,CHINA,-5.7,-19.3,818.8,817.3,35.5,21.3,0.01,0.0,110000,50.9,266
172100,2021-02-19,13:09:39,TURKEY,-0.3,-7.3,915.8,1023.1,24.1,1.9,0.00,0.0,100000,23.6,289
383410,2021-02-19,13:09:39,KAZAKHSTAN,-1.0,-3.6,994.7,1027.8,7.7,10.3,0.19,1.4,111000,72.4,278
350850,2021-02-19,13:09:39,KAZAKHSTAN,-8.9,-13.1,1026.0,1032.5,30.0,19.7,0.00,1.4,101000,51.4,103
544970,2021-02-19,13:09:39,CHINA,-3.5,-12.2,1024.6,1024.3,20.1,15.5,0.01,0.0,110000,94.0,279
351080,2021-02-19,13:09:39,KAZAKHSTAN,-3.9,-5.8,1019.1,1023.8,10.9,27.8,0.01,8.6,111000,80.0,313
360030,2021-02-19,13:09:39,KAZAKHSTAN,-10.0,-12.9,1020.9,1030.3,28.6,18.5,0.11,4.8,111000,75.4,179
470080,2021-02-19,13:09:39,KOREANORTH,-4.1,-11.5,1014.3,1020.6,13.6,12.9,0.00,0.0,100000,97.3,304
171890,2021-02-19,13:09:39,TURKEY,-5.9,-10.7,905.3,920.1,10.9,6.5,0.02,8.2,111000,54.4,157
477670,2021-02-19,13:09:39,JAPAN,-0.7,-6.2,1018.5,1017.7,16.6,7.9,0.14,0.0,110000,61.5,150
356330,2021-02-19,13:09:39,KAZAKHSTAN,-2.5,-4.7,1027.6,1021.5,24.4,24.6,0.00,3.3,101000,63.8,241
357000,2021-02-19,13:09:39,KAZAKHSTAN,-1.1,-5.0,1026.0,1022.2,19.7,29.9,0.04,1.8,111000,54.9,7
576220,2021-02-19,13:09:39,CHINA,-1.2,-2.0,841.6,837.7,6.3,16.3,0.05,0.0,110000,75.5,277
560670,2021-02-19,13:09:39,CHINA,-5.5,-19.2,650.5,654.6,22.6,28.0,0.00,0.0,100000,26.6,77
354160,2021-02-19,13:09:39,KAZAKHSTAN,-2.9,-6.0,1026.7,1028.9,6.5,14.5,0.05,7.8,111000,91.2,76
535020,2021-02-19,13:09:39,CHINA,-3.9,-19.1,977.5,1029.5,21.2,11.9,0.00,0.0,100000,5.7,238
343980,2021-02-19,13:09:39,KAZAKHSTAN,-2.1,-6.0,1013.2,1013.6,20.0,21.1,0.00,7.9,101000,59.0,213
545390,2021-02-19,13:09:39,CHINA,-3.1,-12.3,1021.5,1026.6,22.7,9.6,0.02,0.0,110000,81.0,292
442980,2021-02-19,13:09:39,MONGOLIA,-18.7,-25.0,1056.6,1032.8,41.1,16.7,0.05,0.0,110000,82.2,355
470390,2021-02-19,13:09:39,KOREANORTH,-3.6,-9.4,1042.4,1024.7,12.5,1.0,0.00,0.0,100000,52.7,72
471610,2021-02-19,13:09:39,KOREASOUTH,-1.2,-7.4,1001.1,1001.6,5.7,11.5,0.05,0.0,110000,93.4,339
526330,2021-02-19,13:09:39,CHINA,-12.9,-25.1,990.7,980.8,24.5,6.2,0.01,0.0,110000,53.8,217
361520,2021-02-19,13:09:39,KAZAKHSTAN,-13.2,-16.5,1043.7,1034.5,17.6,10.4,0.01,1.4,111000,50.9,115
470500,2021-02-19,13:09:39,KOREANORTH,-5.3,-9.4,1020.3,1023.8,18.7,5.2,0.08,0.0,110000,51.1,120
560800,2021-02-19,13:09:39,CHINA,-7.7,-15.3,734.3,733.0,28.5,10.3,0.02,0.0,110000,50.1,76
560790,2021-02-19,13:09:39,CHINA,-6.6,-13.9,665.4,663.3,35.4,3.3,0.02,0.0,110000,50.6,330
514635,2021-02-19,13:09:39,CHINA,-6.2,-8.3,992.5,996.1,7.2,6.3,0.00,0.0,100000,11.8,259
442920,2021-02-19,13:09:39,MONGOLIA,-14.2,-17.9,889.7,1030.4,22.3,5.3,0.26,3.0,111000,86.5,258
352170,2021-02-19,13:09:39,KAZAKHSTAN,-3.0,-5.8,1023.3,1022.0,16.9,21.4,0.01,4.8,111000,88.8,350
442370,2021-02-19,13:09:39,MONGOLIA,-7.4,-12.1,845.0,1023.8,50.6,13.5,0.00,0.2,101000,77.8,29
509780,2021-02-19,13:09:39,CHINA,-6.6,-13.0,1006.0,1021.2,24.9,6.8,0.02,0.0,110000,52.4,10
584450,2021-02-19,13:09:39,CHINA,-2.0,-6.6,875.2,950.4,18.1,31.8,0.18,0.0,110000,50.8,57
353210,2021-02-19,13:09:39,KAZAKHSTAN,-4.7,-8.3,1054.0,1035.4,8.1,10.1,0.00,0.0,100000,88.1,38
288670,2021-02-19,13:09:39,KAZAKHSTAN,-7.0,-9.9,1000.8,1030.8,21.3,12.9,0.00,23.0,101000,52.4,113
536460,2021-02-19,13:09:39,CHINA,-6.4,-16.7,926.5,1028.0,8.3,7.2,0.01,0.0,110000,51.8,262
529570,2021-02-19,13:09:39,CHINA,-3.9,-17.8,723.6,718.0,24.3,15.7,0.03,0.0,110000,90.0,61
527540,2021-02-19,13:09:39,CHINA,-8.6,-23.1,676.0,678.4,32.3,6.1,0.01,0.0,110000,94.7,226
570360,2021-02-19,13:09:40,CHINA,-0.4,-7.8,1006.0,1025.1,1.6,11.3,0.02,0.0,110000,66.7,22
517110,2021-02-19,13:09:40,CHINA,-0.7,-9.2,800.8,795.4,25.7,3.1,0.03,0.0,110000,52.9,80
560040,2021-02-19,13:09:40,CHINA,-5.8,-16.6,998.8,1001.7,34.2,17.9,0.01,0.0,110000,55.2,201
470600,2021-02-19,13:09:40,KOREANORTH,-1.6,-6.9,1025.2,1024.2,13.0,11.2,0.01,0.0,110000,51.3,151
289780,2021-02-19,13:09:40,KAZAKHSTAN,-8.7,-11.3,969.2,1020.4,10.9,4.5,0.00,0.0,100000,66.3,247
539290,2021-02-19,13:09:40,CHINA,-2.4,-11.6,882.4,888.7,10.2,15.5,0.00,0.0,100000,53.1,23
544010,2021-02-19,13:09:40,CHINA,-3.7,-18.3,984.6,1027.5,23.9,18.9,0.01,0.0,110000,51.5,218
353450,2021-02-19,13:09:40,KAZAKHSTAN,-2.7,-6.2,1065.1,1041.7,16.1,0.0,0.00,4.9,101000,69.7,160
475810,2021-02-19,13:09:40,JAPAN,-3.2,-8.9,1013.0,1016.2,28.8,8.9,0.02,5.9,111000,90.3,301
535290,2021-02-19,13:09:40,CHINA,-3.4,-14.9,893.0,1028.5,22.4,4.1,0.01,0.0,110000,63.4,95
475740,2021-02-19,13:09:40,JAPAN,-1.3,-8.4,1007.4,1018.2,14.0,22.0,0.03,0.0,110000,54.4,318
527070,2021-02-19,13:09:40,CHINA,-5.9,-23.0,724.8,721.2,10.8,7.6,0.00,0.0,100000,61.7,327
534870,2021-02-19,13:09:40,CHINA,-8.6,-19.9,972.0,1027.9,13.6,13.0,0.01,0.0,110000,50.2,267
475910,2021-02-19,13:09:40,JAPAN,-1.4,-6.4,1005.2,1004.1,18.0,12.9,0.08,0.5,111000,52.5,68
478210,2021-02-19,13:09:40,JAPAN,-3.0,-7.7,891.3,897.6,17.8,7.0,0.00,0.0,100000,34.3,113
576220,2021-02-19,13:09:40,CHINA,-0.9,-2.0,841.6,837.7,6.4,16.2,0.05,0.0,110000,75.6,278
560670,2021-02-19,13:09:40,CHINA,-6.5,-17.2,650.5,654.6,22.7,27.8,0.00,0.0,100000,26.7,77
512880,2021-02-19,13:09:40,CHINA,-5.0,-14.7,835.6,836.2,35.3,10.7,0.01,0.0,,82.7,253
172100,2021-02-19,13:09:40,TURKEY,-0.3,-6.2,915.8,1023.1,24.0,1.9,0.00,0.0,100000,23.6,288
286790,2021-02-19,13:09:40,KAZAKHSTAN,-8.8,-11.1,1019.1,1029.5,13.3,17.8,0.01,4.7,111000,75.3,118
537050,2021-02-19,13:09:40,CHINA,-2.4,-15.7,973.1,1028.4,25.0,15.2,0.01,0.0,110000,50.2,134
470670,2021-02-19,13:09:40,KOREANORTH,-5.1,-9.7,1050.4,1026.4,13.0,12.3,0.00,0.0,100000,14.2,248
542260,2021-02-19,13:09:40,CHINA,-5.4,-19.5,1020.3,1025.3,21.7,5.0,0.01,0.0,110000,52.2,36
470680,2021-02-19,13:09:40,KOREANORTH,-2.5,-6.5,1015.7,1024.2,12.5,14.0,0.01,0.0,110000,83.1,298
505640,2021-02-19,13:09:40,CHINA,-9.2,-13.8,1023.1,1023.6,11.9,9.0,0.01,0.0,110000,80.5,119
474810,2021-02-19,13:09:40,JAPAN,-11.3,-15.9,997.5,989.9,5.4,11.1,0.00,0.0,100000,16.0,346
170820,2021-02-19,13:09:40,TURKEY,-0.4,-5.5,1003.3,1013.1,8.6,14.8,0.05,0.5,111000,50.2,349
509530,2021-02-19,13:09:40,CHINA,-7.6,-13.7,1015.6,1022.6,12.6,15.2,0.02,0.0,110000,88.8,327
443040,2021-02-19,13:09:40,MONGOLIA,-12.1,-14.9,1022.4,1032.3,46.4,7.0,0.00,1.1,101000,76.2,298
512430,2021-02-19,13:09:40,CHINA,-5.9,-10.1,1008.0,1034.0,14.4,2.8,0.00,0.0,100000,70.5,356
507560,2021-02-19,13:09:40,CHINA,-7.7,-12.5,1009.2,1022.7,16.6,9.8,0.01,0.0,110000,50.8,7
358490,2021-02-19,13:09:40,KAZAKHSTAN,-1.9,-5.4,1013.3,1023.4,17.2,9.9,0.01,1.2,111000,52.4,157
546160,2021-02-19,13:09:40,CHINA,-2.8,-12.7,1026.6,1026.2,13.5,8.6,0.02,0.0,110000,53.4,345
547250,2021-02-19,13:09:40,CHINA,-1.8,-10.5,1028.9,1025.6,2.9,15.6,0.03,0.0,110000,52.4,16
407310,2021-02-19,13:09:40,IRAN,-0.3,-2.3,875.4,1024.1,2.8,6.1,0.00,0.0,100000,23.3,136
535930,2021-02-19,13:09:40,CHINA,-8.3,-19.3,980.3,1027.5,27.0,9.4,0.02,0.0,110000,60.9,280
345810,2021-02-19,13:09:40,KAZAKHSTAN,-2.2,-7.0,1040.0,1028.7,49.1,25.1,0.00,0.0,100000,52.9,37
476170,2021-02-19,13:09:40,JAPAN,-6.1,-10.1,953.5,1023.9,20.2,9.3,0.00,0.0,100000,17.9,192
400300,2021-02-19,13:09:40,SYRIA,-0.3,-6.1,1038.4,1017.2,10.6,3.8,0.00,0.0,100000,8.6,165
359250,2021-02-19,13:09:40,KAZAKHSTAN,-1.9,-8.2,1014.5,1028.7,27.3,3.0,0.69,0.0,110000,50.3,335
476370,2021-02-19,13:09:40,JAPAN,-2.8,-8.6,957.1,1016.1,25.4,8.1,0.21,0.0,110000,51.7,173
474050,2021-02-19,13:09:40,JAPAN,-9.7,-14.6,1009.6,1018.1,43.4,18.4,0.00,0.0,100000,85.2,28
356710,2021-02-19,13:09:40,KAZAKHSTAN,-4.1,-8.5,997.7,1028.6,17.9,20.9,0.00,3.2,101000,79.1,118
475490,2021-02-19,13:09:40,JAPAN,-1.8,-8.0,998.3,996.0,3.4,13.5,0.00,0.0,100000,31.0,42
504680,2021-02-19,13:09:40,CHINA,-14.1,-18.8,1013.4,1021.6,20.7,13.3,0.01,0.0,110000,51.0,272
526610,2021-02-19,13:09:40,CHINA,-4.8,-20.9,928.1,946.4,70.2,12.0,0.00,0.0,100000,24.7,143
544230,2021-02-19,13:09:40,CHINA,-5.3,-19.2,975.7,1023.8,18.7,9.3,0.00,0.0,100000,38.3,272
288670,2021-02-19,13:09:40,KAZAKHSTAN,-6.4,-9.9,1000.5,1030.8,21.3,12.9,0.00,23.0,101000,52.4,113
513340,2021-02-19,13:09:40,CHINA,-5.7,-8.5,1042.4,1032.1,25.8,1.0,0.01,0.0,110000,50.1,162
572900,2021-02-19,13:09:40,CHINA,-0.3,-6.6,1021.7,1026.2,21.1,4.1,0.02,0.0,110000,50.3,65
354260,2021-02-19,13:09:40,KAZAKHSTAN,-4.0,-6.5,1004.8,1022.7,31.8,10.1,0.01,5.2,111000,50.2,119
561720,2021-02-19,13:09:40,CHINA,-0.2,-13.6,777.9,783.0,37.8,6.9,0.02,0.0,110000,92.8,14
561730,2021-02-19,13:09:40,CHINA,-7.7,-21.2,661.0,668.8,28.2,16.5,0.00,0.0,100000,67.8,0
443410,2021-02-19,13:09:40,MONGOLIA,-6.7,-13.9,855.9,1021.3,44.3,8.9,0.00,0.5,101000,52.5,305
540960,2021-02-19,13:09:40,CHINA,-7.8,-13.6,1023.2,1021.7,15.6,18.2,0.02,0.0,110000,51.8,167
545390,2021-02-19,13:09:40,CHINA,-3.0,-12.3,1021.5,1026.6,22.7,9.6,0.02,0.0,110000,81.0,292
474210,2021-02-19,13:09:40,JAPAN,-4.4,-9.1,1015.6,1015.1,22.5,11.4,0.10,14.0,111000,50.4,293
171600,2021-02-19,13:09:40,TURKEY,-3.2,-12.1,905.2,876.3,15.8,5.0,0.00,0.0,100000,42.9,181
538450,2021-02-19,13:09:40,CHINA,-2.4,-13.5,934.2,1029.3,14.2,10.4,0.01,0.0,110000,77.1,238
289520,2021-02-19,13:09:40,KAZAKHSTAN,-7.0,-10.9,1045.6,1033.7,10.0,22.3,0.63,0.0,110000,50.8,170
508440,2021-02-19,13:09:40,CHINA,-5.2,-14.3,1021.8,1022.9,12.8,14.7,0.01,0.0,110000,50.7,355
369820,2021-02-19,13:09:40,KYRGYZSTAN,-13.1,-17.5,645.7,644.2,41.0,4.1,0.00,0.0,100000,87.3,281
170980,2021-02-19,13:09:40,TURKEY,-6.8,-8.6,815.6,816.1,12.9,18.4,0.07,11.5,111000,53.4,149
171270,2021-02-19,13:09:40,TURKEY,-0.2,-3.9,1028.7,1018.8,22.8,11.2,0.05,0.0,110000,52.9,122
474760,2021-02-19,13:09:40,JAPAN,-9.7,-13.3,999.9,1001.6,4.5,13.4,0.00,0.0,100000,77.3,30
471074,2021-02-19,13:09:40,KOREASOUTH,-1.2,-10.8,994.9,963.9,5.8,27.5,0.00,0.0,100000,38.8,347
471087,2021-02-19,13:09:40,KOREASOUTH,-2.4,-11.3,1025.6,1034.5,13.2,14.3,0.00,0.0,100000,83.0,14
471080,2021-02-19,13:09:40,KOREASOUTH,-1.5,-8.5,1019.1,1022.5,13.9,2.4,0.02,0.1,111000,53.6,216
471120,2021-02-19,13:09:40,KOREASOUTH,-0.8,-7.5,1018.3,1022.9,16.6,17.5,0.02,0.0,110000,54.2,253
506320,2021-02-19,13:09:40,CHINA,-14.2,-20.4,987.3,1024.0,27.2,14.1,0.01,0.0,110000,52.4,
526810,2021-02-19,13:09:40,CHINA,-4.4,-18.1,896.9,1030.3,28.5,9.4,0.00,0.0,100000,92.1,309
380620,2021-02-19,13:09:40,KAZAKHSTAN,-1.8,-7.2,1022.1,1025.7,20.7,3.8,0.01,0.3,111000,90.2,138
509830,2021-02-19,13:09:40,CHINA,-8.8,-13.3,1016.6,1020.9,17.3,2.0,0.02,0.0,110000,99.1,278
350850,2021-02-19,13:09:40,KAZAKHSTAN,-9.0,-13.1,1025.9,1032.5,30.0,19.7,0.00,1.4,101000,51.4,104
544970,2021-02-19,13:09:40,CHINA,-3.7,-12.2,1024.6,1024.3,20.2,15.5,0.01,0.0,110000,94.0,280
471110,2021-02-19,13:09:40,KOREASOUTH,-1.5,-6.7,1003.7,993.3,2.6,7.3,0.04,0.0,110000,51.4,1
547050,2021-02-19,13:09:40,CHINA,-9.0,-13.2,1039.5,1035.1,22.5,7.0,0.00,0.0,100000,4.5,242
542370,2021-02-19,13:09:40,CHINA,-7.7,-23.7,1037.2,1032.0,15.9,18.1,0.00,0.0,100000,90.8,27
470550,2021-02-19,13:09:40,KOREANORTH,-1.2,-8.4,1024.8,1022.5,11.9,5.6,0.12,0.3,111000,89.0,253
526520,2021-02-19,13:09:40,CHINA,-8.1,-20.7,883.8,1029.5,29.1,3.4,0.00,0.0,100000,72.1,285
380810,2021-02-19,13:09:40,KAZAKHSTAN,-2.1,-6.7,1034.4,1029.0,20.7,30.5,0.03,0.2,111000,53.2,67
526510,2021-02-19,13:09:40,CHINA,-8.2,-29.3,977.0,996.3,66.4,4.0,0.00,0.0,100000,29.5,335
171990,2021-02-19,13:09:40,TURKEY,-3.9,-7.9,912.0,1031.0,18.4,10.3,0.60,3.3,111000,68.5,181
353210,2021-02-19,13:09:40,KAZAKHSTAN,-5.0,-10.3,1053.8,1035.5,8.2,10.2,0.00,0.0,100000,88.1,38
548230,2021-02-19,13:09:40,CHINA,-0.5,-11.2,1022.3,1026.3,10.3,11.7,0.02,0.0,110000,51.6,351
475830,2021-02-19,13:09:40,JAPAN,-2.3,-7.9,1009.1,1011.1,3.5,13.0,0.00,0.0,100000,10.6,132
475820,2021-02-19,13:09:40,JAPAN,-2.3,-6.9,1021.1,1017.2,13.2,23.6,0.14,4.9,111000,50.5,306
510760,2021-02-19,13:09:40,CHINA,-7.7,-11.7,962.7,1032.5,30.3,2.8,0.04,0.0,110000,56.6,116
478090,2021-02-19,13:09:40,JAPAN,-0.3,-5.5,1019.1,1024.0,24.2,2.1,0.02,0.0,110000,50.9,117
171290,2021-02-19,13:09:40,TURKEY,-0.9,-5.4,968.4,1019.7,6.5,5.0,0.04,0.0,110000,51.8,177
471330,2021-02-19,13:09:40,KOREASOUTH,-0.4,-7.9,1018.7,1024.0,13.5,9.3,0.04,0.0,110000,78.6,105
471340,2021-02-19,13:09:40,KOREASOUTH,-1.6,-8.9,999.3,993.4,10.9,12.3,0.04,0.0,110000,54.9,129
506030,2021-02-19,13:09:40,CHINA,-10.2,-15.6,984.7,1027.5,30.7,2.7,0.01,0.0,110000,65.4,80
471350,2021-02-19,13:09:40,KOREASOUTH,-1.9,-9.9,1005.7,1023.0,17.7,11.7,0.04,0.0,110000,60.9,238
368215,2021-02-19,13:09:40,KAZAKHSTAN,-7.6,-10.2,1010.8,1022.3,5.1,15.2,0.00,0.0,100000,26.7,76
172440,2021-02-19,13:09:40,TURKEY,-1.0,-5.0,952.6,975.8,10.0,10.0,0.02,0.8,111000,51.4,120
470390,2021-02-19,13:09:40,KOREANORTH,-3.6,-7.9,1042.4,1024.7,12.4,0.9,0.00,0.0,100000,52.8,72
580400,2021-02-19,13:09:40,CHINA,-0.9,-7.1,1029.1,1025.7,15.9,15.6,0.02,0.0,110000,76.6,163
509490,2021-02-19,13:09:40,CHINA,-8.0,-16.6,1018.4,1022.6,7.1,17.4,0.02,0.0,110000,82.0,250
471223,2021-02-19,13:09:40,KOREASOUTH,-1.2,-3.5,1020.2,1027.9,6.7,11.1,0.00,0.0,100000,50.3,87
471220,2021-02-19,13:09:40,KOREASOUTH,-2.5,-7.4,1015.8,1015.4,17.1,7.4,0.02,0.1,111000,58.5,226
474040,2021-02-19,13:09:40,JAPAN,-6.8,-12.1,1014.2,1017.1,33.7,19.7,0.12,0.0,110000,52.0,34
525760,2021-02-19,13:09:40,CHINA,-5.9,-20.7,849.8,861.4,32.8,36.2,0.00,0.0,100000,73.2,270
511560,2021-02-19,13:09:40,CHINA,-6.7,-11.9,929.2,1031.7,23.4,5.5,0.01,0.0,110000,88.1,310
472185,2021-02-19,13:09:40,JAPAN,-6.8,-12.8,985.8,967.0,11.0,13.5,0.00,0.0,100000,24.5,43
524950,2021-02-19,13:09:40,CHINA,-5.0,-18.3,903.2,1029.7,31.4,12.4,0.00,0.0,100000,16.2,150
528560,2021-02-19,13:09:40,CHINA,-3.2,-18.8,768.1,767.8,22.0,6.2,0.03,0.0,110000,56.3,257
474330,2021-02-19,13:09:40,JAPAN,-14.4,-19.3,990.2,1014.7,29.7,14.2,0.00,0.0,100000,57.5,200
478920,2021-02-19,13:09:40,JAPAN,-0.1,-8.8,1024.3,1025.9,10.4,12.4,0.00,0.0,100000,7.1,239
475690,2021-02-19,13:09:40,JAPAN,-0.5,-7.7,1001.6,1002.4,11.4,18.3,0.00,0.0,100000,73.2,353
545340,2021-02-19,13:09:40,CHINA,-1.9,-13.8,1025.6,1025.7,13.3,0.7,0.02,0.0,110000,51.5,90
471380,2021-02-19,13:09:40,KOREASOUTH,-0.2,-8.5,1026.3,1022.3,16.1,11.0,0.12,0.0,110000,59.2,240
560290,2021-02-19,13:09:40,CHINA,-2.3,-14.8,645.5,645.4,28.6,0.0,0.04,0.0,110000,53.9,263
529960,2021-02-19,13:09:40,CHINA,-2.3,-8.3,778.1,776.4,18.4,23.0,0.03,0.0,110000,51.8,140
442290,2021-02-19,13:09:40,MONGOLIA,-10.4,-17.5,789.8,1015.2,47.5,9.5,0.00,0.0,100000,67.2,334
539230,2021-02-19,13:09:40,CHINA,-1.8,-10.7,952.7,1026.6,27.2,12.8,0.02,0.0,110000,50.4,73
543080,2021-02-19,13:09:40,CHINA,-7.0,-21.9,1020.3,1027.8,30.2,10.6,0.03,0.0,110000,58.4,63
534800,2021-02-19,13:09:40,CHINA,-9.0,-19.0,960.6,1029.9,30.8,7.2,0.01,0.0,110000,78.3,341
477420,2021-02-19,13:09:40,JAPAN,-0.7,-4.4,1024.4,1025.1,4.4,8.1,0.03,0.0,110000,51.5,47
543370,2021-02-19,13:09:40,CHINA,-5.0,-16.0,1022.8,1025.1,13.8,15.9,0.01,0.0,110000,64.5,230
543860,2021-02-19,13:09:40,CHINA,-4.5,-10.5,964.5,1025.8,20.7,6.8,0.04,0.0,110000,54.2,183
363350,2021-02-19,13:09:40,KAZAKHSTAN,-6.6,-11.1,1024.1,1031.4,46.5,19.8,0.00,0.3,101000,51.7,211
570460,2021-02-19,13:09:40,CHINA,-3.4,-10.3,817.2,825.1,22.9,25.5,0.02,0.0,110000,51.4,212
540120,2021-02-19,13:09:40,CHINA,-12.2,-16.9,937.1,1029.7,22.7,13.8,0.02,0.0,110000,50.3,169
563850,2021-02-19,13:09:40,CHINA,-5.4,-8.2,747.1,745.5,7.4,1.4,0.06,0.0,110000,50.3,61
505570,2021-02-19,13:09:40,CHINA,-14.9,-19.0,1003.4,1022.7,11.0,12.8,0.01,0.0,110000,57.4,319
548360,2021-02-19,13:09:40,CHINA,-2.0,-12.2,1032.8,1027.3,14.3,13.7,0.03,0.0,110000,53.7,170
523230,2021-02-19,13:09:40,CHINA,-5.7,-17.7,818.8,817.2,35.4,21.2,0.01,0.0,110000,50.9,266
171950,2021-02-19,13:09:40,TURKEY,-1.0,-5.7,957.2,972.9,9.3,1.7,0.07,1.8,111000,72.3,215
474410,2021-02-19,13:09:40,JAPAN,-5.7,-12.0,998.7,1001.7,14.9,11.5,0.00,0.0,100000,23.0,41
474300,2021-02-19,13:09:40,JAPAN,-5.3,-9.4,1019.4,1015.5,15.1,24.8,0.08,7.1,111000,74.0,33
474180,2021-02-19,13:09:40,JAPAN,-3.5,-14.6,1010.2,1016.0,25.9,32.9,0.07,4.6,111000,69.6,235
351880,2021-02-19,13:09:40,KAZAKHSTAN,-4.9,-8.1,1027.8,1027.7,15.5,21.1,0.19,2.2,111000,50.1,248
528420,2021-02-19,13:09:40,CHINA,-10.2,-25.0,696.5,689.8,18.8,10.3,0.01,0.0,110000,76.7,120
470200,2021-02-19,13:09:40,KOREANORTH,-6.8,-12.3,1015.1,1029.1,0.0,1.4,0.00,0.0,100000,57.1,236
508880,2021-02-19,13:09:40,CHINA,-6.7,-13.9,1014.4,1020.9,24.8,11.5,0.02,0.0,110000,60.2,167
355420,2021-02-19,13:09:40,KAZAKHSTAN,-6.6,-9.1,1016.3,1029.0,8.3,17.7,0.03,0.9,111000,88.9,150
539590,2021-02-19,13:09:40,CHINA,-0.9,-9.8,1010.1,1027.0,19.6,15.6,0.01,0.0,110000,55.0,140
359970,2021-02-19,13:09:40,KAZAKHSTAN,-6.4,-9.2,1044.6,1032.9,31.4,5.4,0.05,0.9,111000,53.6,171
443050,2021-02-19,13:09:40,MONGOLIA,-12.8,-15.9,950.6,1027.2,47.1,10.4,0.01,2.2,111000,50.6,330
536730,2021-02-19,13:09:40,CHINA,-1.7,-13.7,975.3,1028.1,17.7,3.1,0.02,0.0,110000,50.1,66
529830,2021-02-19,13:09:40,CHINA,-6.1,-13.5,817.3,838.3,12.2,7.6,0.00,0.0,100000,36.6,5
536140,2021-02-19,13:09:40,CHINA,-3.3,-14.6,926.9,1028.1,15.9,9.2,0.00,0.0,100000,2.3,121
524240,2021-02-19,13:09:40,CHINA,-4.5,-15.9,898.0,1026.1,29.5,14.1,0.02,0.7,111000,52.3,260
749347,2021-02-19,13:09:40,CHINA,-1.2,-6.6,1035.1,1037.4,8.7,11.0,0.00,0.0,100000,91.4,261
749348,2021-02-19,13:09:40,CHINA,-14.5,-18.6,1033.0,1038.4,51.5,7.7,0.00,0.0,100000,61.0,57
442820,2021-02-19,13:09:40,MONGOLIA,-12.0,-27.3,819.1,1026.2,49.9,24.8,0.00,0.0,100000,34.6,151
475160,2021-02-19,13:09:40,JAPAN,-3.3,-8.0,998.4,992.6,12.5,20.9,0.00,0.0,100000,81.2,220
543740,2021-02-19,13:09:40,CHINA,-9.7,-17.4,1007.6,1023.3,12.9,3.5,0.01,0.0,110000,51.8,55
544830,2021-02-19,13:09:40,CHINA,-10.0,-15.6,1024.5,1024.0,12.5,13.3,0.01,0.0,110000,52.6,98
357000,2021-02-19,13:09:40,KAZAKHSTAN,-1.1,-5.0,1025.9,1022.2,19.7,30.0,0.04,1.8,111000,54.9,6
552790,2021-02-19,13:09:40,CHINA,-5.4,-22.8,994.2,995.4,31.3,39.5,0.01,0.0,110000,68.0,119
538210,2021-02-19,13:09:40,CHINA,-5.9,-17.7,929.1,1028.0,20.6,6.1,0.00,0.0,100000,37.7,282
443470,2021-02-19,13:09:40,MONGOLIA,-9.0,-27.1,862.0,1009.9,25.5,19.6,0.00,0.0,100000,91.1,324
529570,2021-02-19,13:09:40,CHINA,-4.4,-17.8,723.6,717.9,24.2,15.8,0.03,0.0,110000,90.1,60
509150,2021-02-19,13:09:40,CHINA,-7.6,-13.8,945.9,1029.2,33.1,16.9,0.02,0.0,110000,52.6,274
475970,2021-02-19,13:09:40,JAPAN,-1.7,-8.0,974.3,1018.1,20.4,16.0,0.07,0.0,110000,97.0,136
475840,2021-02-19,13:09:40,JAPAN,-4.7,-9.9,1005.9,1015.1,4.0,19.0,0.10,3.7,111000,67.6,318
535130,2021-02-19,13:09:40,CHINA,-5.6,-18.6,926.0,1030.4,21.6,6.2,0.00,0.0,100000,20.6,305
475900,2021-02-19,13:09:40,JAPAN,-1.2,-7.5,1009.6,1017.5,19.4,8.6,0.10,0.9,111000,50.1,333
593530,2021-02-19,13:09:40,TAIWAN,-0.9,-2.9,763.9,1023.1,14.7,5.6,0.00,0.0,100000,49.2,82
471320,2021-02-19,13:09:40,KOREASOUTH,-3.7,-14.0,996.5,983.2,10.0,5.6,0.00,0.0,100000,67.3,214
377090,2021-02-19,13:09:40,ARMENIA,-2.7,-4.9,982.6,985.0,20.7,16.4,0.02,9.2,111000,,86
474880,2021-02-19,13:09:40,JAPAN,-4.0,-9.0,994.8,997.9,10.7,11.6,0.00,0.0,100000,98.9,337
475200,2021-02-19,13:09:40,JAPAN,-2.0,-4.7,1005.5,1018.4,14.4,11.9,0.16,0.0,110000,69.2,192
353860,2021-02-19,13:09:40,KAZAKHSTAN,-8.2,-12.3,986.7,983.1,17.8,13.9,0.00,0.0,100000,47.8,220
470460,2021-02-19,13:09:40,KOREANORTH,-1.3,-5.4,1018.9,1018.9,23.5,11.7,0.01,0.3,111000,53.8,235
347980,2021-02-19,13:09:40,KAZAKHSTAN,-2.0,-4.8,1021.1,1019.7,17.5,19.7,0.00,0.7,101000,50.1,267
571440,2021-02-19,13:09:40,CHINA,-0.3,-8.4,907.7,1021.2,6.7,18.3,0.56,0.0,110000,51.2,105
365350,2021-02-19,13:09:40,KAZAKHSTAN,-7.2,-9.0,1073.1,1035.1,33.6,8.8,0.00,0.0,100000,90.7,292
474280,2021-02-19,13:09:40,JAPAN,-3.0,-8.3,1011.6,1013.1,15.4,7.3,0.10,0.0,110000,51.9,334
528660,2021-02-19,13:09:40,CHINA,-4.3,-14.5,772.4,766.9,10.8,5.6,0.01,0.0,110000,69.7,142
477090,2021-02-19,13:09:40,JAPAN,-0.8,-8.4,1002.2,1005.0,8.3,8.2,0.00,0.0,100000,9.1,17
170900,2021-02-19,13:09:40,TURKEY,-1.6,-4.5,914.2,932.5,18.8,1.7,0.27,4.3,111000,65.7,147
523910,2021-02-19,13:09:40,CHINA,-13.2,-20.2,1002.1,1044.6,38.3,5.1,0.00,0.0,100000,10.9,359
471140,2021-02-19,13:09:40,KOREASOUTH,-2.3,-9.1,1004.7,1023.3,14.1,0.7,0.06,0.4,111000,81.0,152
383530,2021-02-19,13:09:40,KYRGYZSTAN,-0.4,-4.6,1000.1,1028.3,7.6,9.9,0.03,0.4,111000,55.6,165
522670,2021-02-19,13:09:40,CHINA,-5.7,-19.8,932.6,1029.7,28.5,10.1,0.00,0.0,100000,45.6,30
561520,2021-02-19,13:09:40,CHINA,-3.0,-11.8,662.7,666.5,28.7,13.4,0.02,0.0,110000,51.0,328
530680,2021-02-19,13:09:40,CHINA,-4.9,-14.0,932.7,1029.0,29.6,12.6,0.01,0.0,110000,51.0,88
172050,2021-02-19,13:09:40,TURKEY,-3.0,-6.9,829.4,845.4,4.9,8.0,0.22,3.3,111000,52.4,237
442870,2021-02-19,13:09:40,MONGOLIA,-8.7,-15.0,809.4,1027.9,53.1,10.8,0.00,1.6,101000,76.3,97
548080,2021-02-19,13:09:40,CHINA,-1.3,-8.7,1026.6,1026.1,2.7,9.7,0.01,0.0,110000,94.9,133
471580,2021-02-19,13:09:40,KOREASOUTH,-0.5,-5.6,1010.9,1009.2,14.3,9.3,0.00,0.0,100000,65.5,199
471560,2021-02-19,13:09:40,KOREASOUTH,-0.3,-6.7,1018.2,1022.9,14.0,12.5,0.08,0.0,110000,84.8,80
442120,2021-02-19,13:09:40,MONGOLIA,-22.1,-26.2,912.3,1037.5,54.8,4.4,0.00,9.9,101000,73.4,210
544050,2021-02-19,13:09:40,CHINA,-4.5,-19.3,1022.5,1027.2,17.0,16.2,0.01,0.0,110000,54.2,193
442140,2021-02-19,13:09:40,MONGOLIA,-10.9,-18.4,825.1,1027.5,10.9,5.1,0.00,0.0,100000,91.5,0
374320,2021-02-19,13:09:40,GEORGIA,-0.3,-3.7,952.6,955.1,31.0,8.8,0.16,5.7,111000,72.8,356
586530,2021-02-19,13:09:40,CHINA,-1.4,-3.2,914.5,1023.8,1.9,22.3,0.25,0.0,110000,51.0,124
547140,2021-02-19,13:09:40,CHINA,-1.7,-11.1,1026.4,1026.2,17.9,14.0,0.08,0.0,110000,51.5,335
471540,2021-02-19,13:09:40,KOREASOUTH,-0.4,-10.0,1011.0,1015.5,10.7,16.2,0.00,0.0,100000,69.0,187
471060,2021-02-19,13:09:40,KOREASOUTH,-1.5,-9.3,1016.0,1022.1,13.2,17.4,0.12,0.2,111000,52.5,266
475870,2021-02-19,13:09:40,JAPAN,-0.7,-5.2,1014.1,1017.0,15.1,18.1,0.21,3.7,111000,84.4,182
475850,2021-02-19,13:09:40,JAPAN,-3.5,-10.3,1010.4,1014.2,21.4,8.5,0.13,2.9,111000,64.3,201
355490,2021-02-19,13:09:40,KAZAKHSTAN,-4.4,-8.5,1027.9,1033.7,18.2,17.5,0.00,2.6,101000,97.6,153
471430,2021-02-19,13:09:40,KOREASOUTH,-0.9,-10.7,1015.6,1022.9,24.2,18.5,0.06,0.0,110000,50.1,15
525330,2021-02-19,13:09:40,CHINA,-2.4,-14.5,893.6,1027.6,30.9,6.4,0.01,0.0,110000,80.0,143
525331,2021-02-19,13:09:40,CHINA,-6.5,-11.8,974.8,995.5,2.3,10.5,0.00,0.0,100000,31.9,48
476120,2021-02-19,13:09:40,JAPAN,-0.6,-4.7,1018.3,1018.8,18.1,4.2,0.40,14.3,111000,50.4,148
510530,2021-02-19,13:09:40,CHINA,-9.4,-13.2,1025.8,1035.3,25.4,12.8,0.02,0.0,110000,53.7,198
170575,2021-02-19,13:09:40,TURKEY,-0.7,-4.1,1002.8,1003.9,8.1,15.6,0.00,0.0,100000,24.0,306
471360,2021-02-19,13:09:40,KOREASOUTH,-2.1,-9.4,1014.7,1024.4,18.3,0.1,0.08,0.0,110000,52.4,71
471370,2021-02-19,13:09:40,KOREASOUTH,-1.2,-11.9,1011.6,1021.9,12.9,5.3,0.00,0.0,100000,56.1,281
549160,2021-02-19,13:09:40,CHINA,-0.3,-9.6,1027.3,1026.4,12.7,5.0,0.01,0.0,110000,53.7,275
471650,2021-02-19,13:09:40,KOREASOUTH,-0.2,-5.3,1025.1,1024.4,18.4,11.1,0.09,0.0,110000,50.8,322
547530,2021-02-19,13:09:40,CHINA,-1.9,-10.1,1025.1,1026.5,15.9,12.4,0.07,0.0,110000,84.6,332
546560,2021-02-19,13:09:40,CHINA,-2.1,-7.7,1021.6,1024.8,25.4,30.9,0.01,0.0,110000,53.1,251
474130,2021-02-19,13:09:40,JAPAN,-6.7,-10.6,1011.5,1017.3,19.0,5.5,0.00,0.0,100000,49.5,135
474170,2021-02-19,13:09:40,JAPAN,-14.8,-18.0,1009.4,1016.4,6.7,8.3,0.05,0.0,110000,72.5,188
474020,2021-02-19,13:09:40,JAPAN,-10.4,-13.8,1011.5,1018.3,22.2,15.4,0.05,0.0,110000,54.9,209
474010,2021-02-19,13:09:40,JAPAN,-7.9,-12.8,1011.6,1015.7,15.5,15.0,0.08,15.3,111000,87.1,143
172000,2021-02-19,13:09:40,TURKEY,-0.3,-4.8,975.1,1013.5,11.6,12.7,0.10,0.5,111000,50.1,209
477560,2021-02-19,13:09:40,JAPAN,-0.1,-5.4,1002.9,1019.1,17.0,7.8,0.22,0.0,110000,85.9,154
171700,2021-02-19,13:09:40,TURKEY,-1.7,-4.8,947.3,943.3,20.8,7.6,0.02,3.9,111000,82.4,220
530830,2021-02-19,13:09:40,CHINA,-5.8,-10.8,962.6,1030.0,39.7,9.0,0.02,0.0,110000,52.3,82
561250,2021-02-19,13:09:40,CHINA,-2.5,-19.9,648.6,651.7,19.6,24.1,0.00,0.0,100000,51.3,73
171550,2021-02-19,13:09:40,TURKEY,-0.8,-7.1,899.1,1012.2,14.1,1.9,0.00,0.0,100000,76.4,182
585060,2021-02-19,13:09:40,CHINA,-0.5,-4.9,979.2,1026.7,15.1,13.3,0.16,0.0,110000,50.7,294
509630,2021-02-19,13:09:40,CHINA,-9.1,-12.8,1016.8,1022.1,12.0,5.8,0.01,0.0,110000,98.8,130
475760,2021-02-19,13:09:40,JAPAN,-3.5,-8.0,1016.8,1017.3,5.7,10.9,0.13,0.0,110000,71.3,51
475700,2021-02-19,13:09:40,JAPAN,-3.2,-7.1,1007.5,1019.5,14.4,2.9,0.16,7.8,111000,51.3,109
509780,2021-02-19,13:09:40,CHINA,-6.5,-14.2,1006.1,1021.3,25.0,6.7,0.02,0.0,110000,52.4,10
584450,2021-02-19,13:09:40,CHINA,-2.0,-6.6,875.2,950.4,18.1,31.7,0.18,0.0,110000,50.8,57
570670,2021-02-19,13:09:40,CHINA,-1.3,-7.5,991.6,1028.9,20.6,4.3,0.02,0.0,110000,52.0,132
170860,2021-02-19,13:09:40,TURKEY,-0.2,-5.1,944.7,1018.8,18.6,11.2,0.35,4.1,111000,52.1,60
476290,2021-02-19,13:09:40,JAPAN,-1.5,-8.5,1012.5,1016.1,27.3,17.8,0.04,0.0,110000,65.2,24
443140,2021-02-19,13:09:40,MONGOLIA,-9.0,-15.5,928.2,1022.1,13.5,3.8,0.00,1.5,101000,86.1,171
366220,2021-02-19,13:09:40,KAZAKHSTAN,-11.9,-16.3,1041.4,1036.3,26.8,24.6,0.00,3.0,101000,67.1,317
442590,2021-02-19,13:09:40,MONGOLIA,-7.7,-11.9,953.8,1027.0,11.6,17.7,0.00,1.6,101000,79.9,270
545110,2021-02-19,13:09:40,CHINA,-1.1,-14.0,1021.1,1025.5,18.1,7.1,0.03,0.0,110000,74.6,329
471300,2021-02-19,13:09:40,KOREASOUTH,-0.1,-8.0,1018.9,1021.4,19.4,24.0,0.13,0.2,111000,50.0,253
471310,2021-02-19,13:09:40,KOREASOUTH,-2.0,-9.1,1020.5,1024.0,21.9,15.3,0.04,0.0,110000,52.2,252
351730,2021-02-19,13:09:40,KAZAKHSTAN,-9.7,-13.4,1027.4,1032.8,26.9,20.9,0.00,5.2,101000,50.1,46
571310,2021-02-19,13:09:40,CHINA,-0.3,-6.2,981.3,1029.3,6.6,2.6,0.00,0.0,100000,99.9,188
538630,2021-02-19,13:09:40,CHINA,-1.7,-13.0,1016.9,1026.9,8.2,12.9,0.02,0.0,110000,54.5,138
538870,2021-02-19,13:09:40,CHINA,-4.3,-22.3,916.2,1026.8,32.4,4.0,0.00,0.0,100000,15.2,75
474230,2021-02-19,13:09:40,JAPAN,-4.3,-9.0,1010.1,1015.4,7.8,24.9,0.09,0.0,110000,51.1,272
474120,2021-02-19,13:09:40,JAPAN,-7.5,-12.6,1014.2,1012.4,11.1,12.3,0.14,14.8,111000,57.7,174
523130,2021-02-19,13:09:40,CHINA,-2.9,-12.8,921.5,897.5,61.7,2.5,0.00,0.0,100000,74.7,88
478290,2021-02-19,13:09:40,JAPAN,-0.6,-8.7,1001.1,1019.1,20.0,13.6,0.07,0.0,110000,50.4,224
513460,2021-02-19,13:09:40,CHINA,-8.3,-11.5,1053.5,1041.1,48.9,2.7,0.00,0.0,100000,33.1,325
471100,2021-02-19,13:09:40,KOREASOUTH,-1.6,-6.5,1008.3,1009.9,3.0,13.1,0.00,0.0,100000,98.6,206
356990,2021-02-19,13:09:40,KAZAKHSTAN,-4.0,-12.0,951.9,1029.8,27.5,0.2,0.00,3.9,101000,51.0,315
521180,2021-02-19,13:09:40,CHINA,-4.2,-17.1,829.1,828.3,32.6,10.3,0.01,0.0,110000,56.8,136
357960,2021-02-19,13:09:40,KAZAKHSTAN,-8.8,-12.7,1019.4,1033.2,42.3,27.7,0.01,1.4,111000,53.3,314
287660,2021-02-19,13:09:40,KAZAKHSTAN,-5.2,-9.5,1011.7,1027.6,6.9,14.4,0.01,3.5,111000,55.1,314
535880,2021-02-19,13:09:40,CHINA,-4.5,-11.1,755.4,756.4,19.8,44.9,0.07,0.0,110000,75.8,356
533360,2021-02-19,13:09:40,CHINA,-6.3,-17.3,909.2,1029.9,27.1,6.8,0.01,0.0,110000,54.0,175
581500,2021-02-19,13:09:40,CHINA,-0.7,-5.4,1022.1,1026.7,14.0,9.6,0.03,0.0,110000,54.3,31
354590,2021-02-19,13:09:40,KAZAKHSTAN,-3.9,-8.2,1024.6,1030.3,48.8,14.6,0.00,0.0,100000,25.8,288
540270,2021-02-19,13:09:40,CHINA,-5.9,-18.3,1001.1,1024.1,26.5,10.8,0.01,0.0,110000,67.4,126
526330,2021-02-19,13:09:40,CHINA,-12.9,-25.1,990.6,980.9,24.6,6.1,0.01,0.0,110000,53.8,217
361520,2021-02-19,13:09:40,KAZAKHSTAN,-13.2,-17.6,1043.6,1034.5,17.5,10.3,0.01,1.4,111000,50.9,116
570730,2021-02-19,13:09:40,CHINA,-0.3,-11.3,1025.0,1024.5,16.6,15.0,0.00,0.0,100000,33.4,292
560330,2021-02-19,13:09:40,CHINA,-13.5,-21.0,626.2,621.8,34.7,5.5,0.03,0.0,110000,79.1,195
354160,2021-02-19,13:09:40,KAZAKHSTAN,-3.5,-7.1,1026.7,1028.9,6.4,14.6,0.05,7.8,111000,91.2,76
535020,2021-02-19,13:09:40,CHINA,-4.6,-17.6,977.5,1029.5,21.2,11.8,0.00,0.0,100000,5.7,238
343980,2021-02-19,13:09:40,KAZAKHSTAN,-2.2,-5.0,1013.2,1013.6,20.1,21.0,0.00,7.9,101000,58.9,212
355820,2021-02-19,13:09:40,KAZAKHSTAN,-3.7,-7.9,1026.4,1032.4,25.8,15.2,0.00,2.6,101000,51.6,92
478180,2021-02-19,13:09:40,JAPAN,-1.3,-5.8,944.9,1027.9,27.5,12.9,0.00,0.0,100000,1.2,116
474830,2021-02-19,13:09:40,JAPAN,-6.3,-12.9,1005.9,1003.0,9.0,8.2,0.00,0.0,100000,67.4,263
523780,2021-02-19,13:09:40,CHINA,-4.0,-20.1,985.8,1008.3,25.5,22.5,0.00,0.0,100000,67.3,155
506580,2021-02-19,13:09:40,CHINA,-9.1,-13.4,1025.4,1022.8,10.5,7.1,0.01,0.0,110000,56.9,179
170880,2021-02-19,13:09:40,TURKEY,-6.6,-9.7,880.8,860.1,22.8,12.0,0.49,25.2,111000,50.1,3
529080,2021-02-19,13:09:40,CHINA,-8.0,-18.8,999.7,1006.2,24.8,23.5,0.01,0.0,110000,60.4,355
474790,2021-02-19,13:09:40,JAPAN,-7.9,-12.7,1001.6,997.3,6.9,13.9,0.00,0.0,100000,41.7,106
524360,2021-02-19,13:09:40,CHINA,-3.3,-17.1,863.2,1028.5,27.0,30.9,0.01,0.0,110000,51.5,317
470050,2021-02-19,13:09:40,KOREANORTH,-4.5,-8.1,900.8,898.4,13.5,9.2,0.05,6.0,111000,88.1,266
544360,2021-02-19,13:09:40,CHINA,-6.5,-18.5,1023.7,1025.4,34.9,8.9,0.01,0.0,110000,51.1,312
540260,2021-02-19,13:09:40,CHINA,-4.7,-17.7,1011.7,1024.1,25.2,23.5,0.01,0.0,110000,89.0,204
171200,2021-02-19,13:09:40,TURKEY,-2.4,-3.5,1025.8,1005.0,15.2,2.3,0.00,0.0,100000,64.4,86
477690,2021-02-19,13:09:40,JAPAN,-0.7,-8.8,1019.9,1025.3,0.0,19.8,0.00,0.0,100000,39.2,263
171880,2021-02-19,13:09:40,TURKEY,-0.4,-3.6,937.6,1016.4,22.2,2.6,0.17,0.3,111000,54.4,188
538980,2021-02-19,13:09:40,CHINA,-1.0,-9.8,1023.8,1026.8,16.1,8.7,0.02,0.0,110000,52.2,96
380190,2021-02-19,13:09:40,KAZAKHSTAN,-9.5,-12.1,1018.2,1036.1,37.6,2.1,0.05,8.2,111000,52.3,31
544490,2021-02-19,13:09:40,CHINA,-1.2,-20.2,1019.2,1015.5,39.8,29.7,0.05,0.0,110000,52.3,109
470030,2021-02-19,13:09:40,KOREANORTH,-6.0,-13.2,1015.9,1019.4,20.0,9.0,0.01,0.0,110000,51.6,74
354970,2021-02-19,13:09:40,KAZAKHSTAN,-5.7,-12.1,988.8,1033.9,29.1,13.8,0.00,4.9,101000,50.7,32
400010,2021-02-19,13:09:40,SYRIA,-0.7,-4.8,1036.6,1012.8,15.5,3.5,0.00,0.0,100000,80.7,317
170960,2021-02-19,13:09:40,TURKEY,-3.2,-5.7,891.1,905.2,17.0,16.0,0.08,8.8,111000,51.8,38
443170,2021-02-19,13:09:40,MONGOLIA,-1.8,-8.5,901.0,1031.9,25.5,1.1,0.00,3.3,101000,57.1,251
513560,2021-02-19,13:09:40,CHINA,-9.4,-11.0,1006.1,1033.1,15.6,3.0,0.00,0.0,100000,96.8,144
377890,2021-02-19,13:09:40,ARMENIA,-0.2,-4.8,985.6,1016.2,7.7,9.1,0.00,0.0,100000,40.4,299
471240,2021-02-19,13:09:40,KOREASOUTH,-2.7,-10.3,988.6,1081.8,15.6,4.2,0.00,0.0,100000,52.7,120
549450,2021-02-19,13:09:40,CHINA,-0.6,-8.8,1019.2,1026.8,21.1,5.4,0.03,0.0,110000,51.5,117
442920,2021-02-19,13:09:40,MONGOLIA,-15.0,-17.9,889.7,1030.4,22.3,5.4,0.26,3.0,111000,86.5,258
475800,2021-02-19,13:09:40,JAPAN,-3.4,-7.7,999.9,1002.1,20.8,14.9,0.00,1.9,101000,51.0,90
560800,2021-02-19,13:09:40,CHINA,-6.8,-16.9,734.3,733.0,28.4,10.4,0.02,0.0,110000,50.2,76
560790,2021-02-19,13:09:40,CHINA,-5.7,-13.9,665.4,663.3,35.5,3.4,0.02,0.0,110000,50.6,330
470990,2021-02-19,13:09:40,KOREASOUTH,-2.7,-11.4,1020.7,1024.6,10.0,2.6,0.00,0.0,100000,86.0,332
471030,2021-02-19,13:09:40,KOREASOUTH,-0.7,-5.1,1016.2,1024.6,13.6,22.1,0.00,0.0,100000,73.5,90
471025,2021-02-19,13:09:40,KOREASOUTH,-0.1,-6.9,1011.2,1015.3,1.8,7.6,0.00,0.0,100000,62.8,220
501360,2021-02-19,13:09:40,CHINA,-23.2,-28.5,968.5,1026.9,17.2,4.2,0.00,0.0,100000,56.4,79
476180,2021-02-19,13:09:40,JAPAN,-4.2,-9.5,975.5,1019.3,17.4,6.6,0.14,1.4,111000,58.9,135
171400,2021-02-19,13:09:40,TURKEY,-4.8,-7.1,871.8,855.3,7.8,15.0,0.07,18.1,111000,51.3,230
170500,2021-02-19,13:09:40,TURKEY,-0.1,-5.5,1014.0,1020.1,17.4,10.1,0.04,0.5,111000,93.7,66
471610,2021-02-19,13:09:40,KOREASOUTH,-1.2,-7.4,1001.0,1001.5,5.7,11.6,0.05,0.0,110000,93.4,339
527130,2021-02-19,13:09:40,CHINA,-5.1,-21.1,699.2,699.2,27.6,13.8,0.02,0.0,110000,63.7,61
561670,2021-02-19,13:09:40,CHINA,-0.3,-11.6,705.2,714.0,38.3,6.7,0.00,0.0,100000,54.8,176
474110,2021-02-19,13:09:40,JAPAN,-6.3,-10.6,1011.5,1015.5,14.6,20.2,0.09,0.0,110000,63.5,156
474090,2021-02-19,13:09:40,JAPAN,-10.1,-13.7,1013.9,1014.9,25.7,1.3,0.05,8.6,111000,71.8,155
533520,2021-02-19,13:09:40,CHINA,-10.5,-21.0,960.5,1032.0,26.6,8.3,0.01,0.0,110000,51.2,328
560210,2021-02-19,13:09:40,CHINA,-7.1,-20.6,616.6,613.9,29.5,4.1,0.01,0.0,110000,51.7,149
540940,2021-02-19,13:09:40,CHINA,-5.0,-10.7,1010.6,1022.2,12.2,9.8,0.02,0.0,110000,88.3,328
546620,2021-02-19,13:09:40,CHINA,-2.6,-11.6,1020.7,1025.3,3.8,12.0,0.05,0.0,110000,70.8,91
170920,2021-02-19,13:09:40,TURKEY,-0.4,-4.0,957.0,982.6,6.9,10.4,0.24,3.5,111000,51.9,121
533910,2021-02-19,13:09:40,CHINA,-5.5,-12.7,880.8,1025.9,33.6,23.4,0.01,0.0,110000,50.4,121
366390,2021-02-19,13:09:40,KAZAKHSTAN,-10.6,-14.6,1036.5,1033.0,49.4,3.3,0.00,38.4,101000,51.9,295
543110,2021-02-19,13:09:40,CHINA,-4.5,-17.3,975.6,1027.8,24.0,8.1,0.02,0.0,110000,67.1,228
513790,2021-02-19,13:09:40,CHINA,-8.8,-11.9,1021.4,1035.6,17.7,8.5,0.02,0.0,110000,50.4,352
562570,2021-02-19,13:09:40,CHINA,-2.1,-13.8,684.6,683.3,43.1,2.6,0.01,0.0,110000,53.3,81
583140,2021-02-19,13:09:40,CHINA,-0.2,-4.2,1016.5,1026.7,10.5,8.2,0.13,0.0,110000,50.9,197
475150,2021-02-19,13:09:40,JAPAN,-3.3,-7.8,999.4,1000.6,19.5,13.2,0.00,0.0,100000,44.3,301
537870,2021-02-19,13:09:40,CHINA,-4.6,-17.1,978.2,1027.6,21.6,11.3,0.01,0.0,110000,50.2,257
537980,2021-02-19,13:09:40,CHINA,-0.1,-9.5,1019.6,1025.8,14.2,3.9,0.01,0.0,110000,68.0,233
470350,2021-02-19,13:09:40,KOREANORTH,-4.0,-12.3,1037.0,1024.4,19.2,11.7,0.04,0.0,110000,51.2,97
542180,2021-02-19,13:09:40,CHINA,-7.9,-20.6,992.4,1025.1,25.0,8.4,0.01,0.0,110000,51.4,111
561160,2021-02-19,13:09:40,CHINA,-1.1,-15.5,683.7,690.0,33.6,9.8,0.01,0.0,110000,52.4,70
504340,2021-02-19,13:09:40,CHINA,-21.3,-26.7,961.4,1027.2,21.1,12.1,0.02,0.0,110000,53.2,135
350530,2021-02-19,13:09:40,KAZAKHSTAN,-5.0,-8.4,1028.5,1035.3,14.9,19.6,0.08,1.1,111000,63.6,155
476720,2021-02-19,13:09:40,JAPAN,-0.9,-6.7,1019.7,1020.7,24.9,15.3,0.00,0.0,100000,57.8,216
352290,2021-02-19,13:09:40,KAZAKHSTAN,-5.8,-9.4,1017.1,1026.4,4.7,10.3,0.28,4.0,111000,51.3,231
475450,2021-02-19,13:09:40,JAPAN,-1.8,-6.1,1002.2,1006.8,10.4,13.5,0.00,0.0,100000,93.3,131
552280,2021-02-19,13:09:40,CHINA,-1.7,-15.8,603.4,600.0,30.5,0.2,0.01,0.0,110000,85.7,117
354060,2021-02-19,13:09:40,KAZAKHSTAN,-3.5,-7.0,1027.9,1028.4,26.8,18.2,0.00,0.0,100000,86.0,119
528250,2021-02-19,13:09:40,CHINA,-3.7,-20.8,723.5,722.4,22.8,2.1,0.00,0.0,100000,11.8,166
471170,2021-02-19,13:09:40,KOREASOUTH,-1.0,-5.9,1001.9,983.1,8.9,2.7,0.07,0.0,110000,96.2,104
561460,2021-02-19,13:09:40,CHINA,-0.9,-15.2,680.4,678.4,28.6,7.1,0.01,0.0,110000,89.9,275
367440,2021-02-19,13:09:40,KAZAKHSTAN,-5.2,-8.3,1039.8,1032.8,44.9,12.3,0.00,0.9,101000,51.8,215
442840,2021-02-19,13:09:40,MONGOLIA,-10.9,-14.3,783.4,1036.3,56.3,4.6,0.00,2.8,101000,61.0,123
549380,2021-02-19,13:09:40,CHINA,-1.9,-11.1,1030.4,1027.4,12.0,7.1,0.01,0.0,110000,52.4,8
529550,2021-02-19,13:09:40,CHINA,-2.5,-16.2,694.4,684.9,32.5,12.3,0.02,0.0,110000,66.6,71
350780,2021-02-19,13:09:40,KAZAKHSTAN,-6.5,-8.1,1021.9,1033.3,9.8,15.1,0.02,8.6,111000,67.5,121
561060,2021-02-19,13:09:40,CHINA,-3.2,-15.8,619.0,617.0,29.1,13.2,0.02,0.0,110000,55.4,350
442980,2021-02-19,13:09:40,MONGOLIA,-19.2,-26.0,1056.6,1032.8,41.1,16.6,0.05,0.0,110000,82.2,355
514630,2021-02-19,13:09:40,CHINA,-6.5,-10.5,947.9,1033.3,14.0,6.6,0.05,0.0,110000,73.9,278
542590,2021-02-19,13:09:40,CHINA,-7.4,-15.1,1028.7,1024.9,19.4,4.0,0.02,0.0,110000,86.5,70
471000,2021-02-19,13:09:40,KOREASOUTH,-4.0,-9.6,922.2,1022.6,19.2,16.8,0.09,10.6,111000,52.0,226
470980,2021-02-19,13:09:40,KOREASOUTH,-2.7,-10.6,1011.3,1025.2,9.4,4.9,0.01,0.0,110000,72.0,139
532760,2021-02-19,13:09:40,CHINA,-8.7,-19.3,918.6,1028.3,25.9,16.0,0.01,0.0,110000,86.4,212
470520,2021-02-19,13:09:40,KOREANORTH,-4.3,-7.5,1017.5,,14.8,1.9,0.00,0.0,100000,24.2,100
546020,2021-02-19,13:09:40,CHINA,-1.6,-11.8,1021.8,1025.6,9.2,5.3,0.02,0.0,110000,96.0,344
474200,2021-02-19,13:09:40,JAPAN,-7.9,-12.1,1014.0,1015.7,16.2,13.0,0.02,3.6,111000,65.1,255
351910,2021-02-19,13:09:40,KAZAKHSTAN,-5.2,-15.7,1034.6,1040.6,46.3,5.3,0.00,0.0,100000,15.3,249
442190,2021-02-19,13:09:40,MONGOLIA,-6.2,-18.9,848.4,1027.8,20.1,10.9,0.00,0.0,100000,10.2,283
474740,2021-02-19,13:09:40,JAPAN,-10.4,-19.1,1009.5,1001.8,6.7,6.7,0.00,0.0,100000,53.8,175
475920,2021-02-19,13:09:40,JAPAN,-1.3,-6.1,1014.9,1017.0,21.9,16.2,0.18,2.0,111000,50.3,350
535430,2021-02-19,13:09:40,CHINA,-4.2,-16.1,881.0,1028.0,30.3,9.4,0.00,0.0,100000,69.9,4
171295,2021-02-19,13:09:40,TURKEY,-0.5,-3.0,997.3,1009.4,10.7,7.8,0.00,0.0,100000,56.8,15
478140,2021-02-19,13:09:40,JAPAN,-0.6,-6.9,1014.5,1023.1,15.8,0.2,0.00,0.0,100000,78.7,129
355760,2021-02-19,13:09:40,KAZAKHSTAN,-7.7,-11.8,1013.6,1036.2,26.1,15.1,0.01,6.9,111000,55.8,219
524460,2021-02-19,13:09:40,CHINA,-3.8,-17.6,937.2,1034.8,41.5,10.5,0.00,0.0,100000,77.2,0
535640,2021-02-19,13:09:40,CHINA,-6.4,-18.1,936.7,1030.6,20.7,7.7,0.00,0.0,100000,68.0,306
476410,2021-02-19,13:09:40,JAPAN,-1.2,-8.8,989.5,1018.2,23.0,8.2,0.17,0.0,110000,54.5,251
476390,2021-02-19,13:09:40,JAPAN,-23.3,-29.4,1000.3,997.9,44.7,40.8,0.00,0.0,100000,55.3,218
511330,2021-02-19,13:09:40,CHINA,-4.4,-10.1,992.2,1033.3,25.0,9.4,0.05,0.0,110000,89.8,108
289570,2021-02-19,13:09:40,KAZAKHSTAN,-4.0,-6.5,1027.3,1024.5,4.7,2.8,0.04,7.4,111000,53.2,52
381411,2021-02-19,13:09:40,KAZAKHSTAN,-3.2,-3.7,1013.0,991.4,1.7,29.4,0.00,0.0,100000,68.2,268
542730,2021-02-19,13:09:40,CHINA,-8.1,-14.8,1020.2,1024.9,10.4,1.5,0.00,0.0,100000,40.2,68
443520,2021-02-19,13:09:40,MONGOLIA,-8.0,-15.1,1072.2,1030.2,53.0,19.6,0.00,0.0,100000,53.3,311
476200,2021-02-19,13:09:40,JAPAN,-3.7,-8.4,927.5,1018.3,28.6,13.6,0.14,0.0,110000,52.5,95
537380,2021-02-19,13:09:40,CHINA,-3.5,-15.2,872.0,1025.0,23.7,4.9,0.00,0.0,100000,95.7,118
515420,2021-02-19,13:09:40,CHINA,-16.6,-19.2,755.0,753.0,33.1,5.8,0.00,0.0,100000,67.6,101
539750,2021-02-19,13:09:40,CHINA,-2.3,-11.8,1022.9,1028.0,8.4,11.9,0.02,0.0,110000,67.4,120
470950,2021-02-19,13:09:40,KOREASOUTH,-3.0,-9.6,1007.3,1023.7,11.2,14.1,0.05,0.0,110000,54.9,124
470500,2021-02-19,13:09:40,KOREANORTH,-5.3,-9.4,1020.3,1023.8,18.8,5.2,0.08,0.0,110000,51.1,120
542920,2021-02-19,13:09:40,CHINA,-8.5,-20.2,1005.8,1025.0,15.8,7.7,0.00,0.0,100000,54.6,231
527370,2021-02-19,13:09:40,CHINA,-1.9,-17.6,725.3,729.3,24.7,22.7,0.01,0.0,110000,76.6,338
560180,2021-02-19,13:09:40,CHINA,-3.3,-14.1,627.1,635.6,24.3,16.7,0.01,0.0,110000,87.9,57
560340,2021-02-19,13:09:40,CHINA,-9.9,-19.5,600.9,593.6,21.0,17.2,0.05,0.0,110000,54.4,310
360010,2021-02-19,13:09:40,KAZAKHSTAN,-12.3,-15.6,1023.6,1023.8,4.4,37.6,0.02,2.8,111000,55.6,233
360030,2021-02-19,13:09:40,KAZAKHSTAN,-10.3,,1020.9,1030.3,28.7,18.6,0.11,4.8,111000,75.4,179
288790,2021-02-19,13:09:40,KAZAKHSTAN,-4.6,-7.7,1032.2,1032.0,7.0,24.7,0.01,0.5,111000,51.5,96
288770,2021-02-19,13:09:40,KAZAKHSTAN,-6.8,-12.1,1016.9,1019.4,19.0,14.1,0.02,5.4,111000,93.5,82
358840,2021-02-19,13:09:40,KAZAKHSTAN,-8.5,-12.8,982.0,995.4,19.2,6.8,0.00,11.0,101000,58.9,53
471131,2021-02-19,13:09:40,KOREASOUTH,-1.4,-5.8,990.7,997.5,7.5,6.8,0.00,0.0,100000,44.2,127
531490,2021-02-19,13:09:40,CHINA,-6.4,-18.9,905.7,1027.7,30.9,15.7,0.02,0.0,110000,52.0,15
521120,2021-02-19,13:09:40,CHINA,-1.0,-16.3,1022.8,1026.0,28.3,21.0,0.00,0.0,100000,13.4,171
475420,2021-02-19,13:09:40,JAPAN,-3.3,-7.3,1003.1,1000.8,8.4,20.4,0.00,0.0,100000,90.6,98
442370,2021-02-19,13:09:40,MONGOLIA,-7.0,-12.1,845.0,1023.9,50.5,13.6,0.00,0.2,101000,77.8,28
531920,2021-02-19,13:09:40,CHINA,-4.5,-9.9,918.2,1031.9,30.8,22.7,0.01,0.0,110000,51.2,187
505270,2021-02-19,13:09:40,CHINA,-18.4,-20.8,990.2,1027.9,18.3,13.8,0.02,0.0,110000,51.4,9
475120,2021-02-19,13:09:40,JAPAN,-1.1,-6.4,1020.0,1018.9,41.3,5.9,0.00,0.0,100000,88.9,107
563740,2021-02-19,13:09:40,CHINA,-0.9,-6.2,748.3,750.7,29.5,19.0,0.03,0.0,110000,50.1,333
443540,2021-02-19,13:09:40,MONGOLIA,-6.4,-14.6,1044.3,1029.4,55.6,23.3,0.00,0.0,100000,48.8,337
364390,2021-02-19,13:09:40,KAZAKHSTAN,-7.7,-16.0,995.3,1001.2,34.8,28.6,0.01,0.7,111000,68.4,227
560650,2021-02-19,13:09:40,CHINA,-5.3,-14.8,661.0,661.1,27.0,7.4,0.02,0.0,110000,69.5,29
170672,2021-02-19,13:09:40,TURKEY,-3.7,-6.7,979.7,965.0,6.2,8.7,0.00,0.0,100000,16.1,198
170674,2021-02-19,13:09:40,TURKEY,-4.4,-11.4,989.9,995.7,6.9,27.2,0.00,0.0,100000,89.6,74
478240,2021-02-19,13:09:40,JAPAN,-0.3,-9.7,1004.2,1024.0,12.2,1.0,0.04,0.0,110000,52.7,317
287850,2021-02-19,13:09:40,KAZAKHSTAN,-4.6,-6.1,1049.9,1018.4,10.1,2.9,0.00,11.6,101000,52.6,105
477470,2021-02-19,13:09:40,JAPAN,-0.9,-3.7,1024.3,1024.0,10.7,4.5,0.00,0.0,100000,83.0,318
383410,2021-02-19,13:09:40,KAZAKHSTAN,-1.0,-4.5,994.7,1027.8,7.6,10.2,0.19,1.4,111000,72.3,278
376820,2021-02-19,13:09:40,ARMENIA,-3.7,-5.0,803.6,793.5,0.6,9.6,0.00,0.0,100000,17.4,273
537640,2021-02-19,13:09:40,CHINA,-5.4,-15.5,972.4,1028.6,19.2,2.7,0.02,0.0,110000,57.2,57
560930,2021-02-19,13:09:40,CHINA,-5.0,-9.8,1012.4,1033.1,15.8,1.5,0.02,0.0,110000,51.0,269
541610,2021-02-19,13:09:40,CHINA,-3.8,-12.1,1012.4,1023.3,13.0,13.1,0.03,0.0,110000,52.1,200
541611,2021-02-19,13:09:40,CHINA,-4.9,-13.1,1019.5,1041.3,10.9,1.1,0.00,0.0,100000,96.9,192
541570,2021-02-19,13:09:40,CHINA,-7.8,-16.3,1025.5,1023.1,12.8,6.0,0.03,0.0,110000,63.9,279
353630,2021-02-19,13:09:40,KAZAKHSTAN,-6.4,-8.8,1055.3,1043.4,14.3,19.1,0.00,0.0,100000,86.2,167
514310,2021-02-19,13:09:40,CHINA,-1.1,-5.3,975.4,1028.3,29.2,3.4,0.12,0.0,110000,53.4,244
541350,2021-02-19,13:09:40,CHINA,-8.6,-20.1,1019.4,1024.0,20.3,22.4,0.01,0.0,110000,56.4,236
361860,2021-02-19,13:09:40,KAZAKHSTAN,-2.5,-6.8,992.8,1019.9,7.1,2.1,0.00,17.0,101000,50.6,28
528360,2021-02-19,13:09:40,CHINA,-3.1,-19.3,687.3,685.9,28.8,6.0,0.01,0.0,110000,54.8,282
351080,2021-02-19,13:09:40,KAZAKHSTAN,-3.9,-6.8,1019.1,1023.8,10.9,27.8,0.01,8.6,111000,80.0,312
470690,2021-02-19,13:09:40,KOREANORTH,-0.6,-8.7,1031.5,1023.8,9.9,8.8,0.22,0.0,110000,51.3,326
470700,2021-02-19,13:09:40,KOREANORTH,-1.3,-7.7,1027.3,1021.1,12.3,15.5,0.01,0.0,110000,80.6,127
170840,2021-02-19,13:09:40,TURKEY,-2.2,-5.7,942.3,1018.5,20.7,6.2,0.10,3.5,111000,91.9,173
549290,2021-02-19,13:09:40,CHINA,-0.3,-9.7,1025.3,1024.1,22.9,2.7,0.00,0.0,100000,60.6,21
548630,2021-02-19,13:09:40,CHINA,-1.4,-9.1,1029.7,1026.6,19.4,14.5,0.05,0.0,110000,53.9,329
507450,2021-02-19,13:09:40,CHINA,-6.6,-14.5,1015.8,1022.7,15.5,4.1,0.01,0.0,110000,59.0,64
548260,2021-02-19,13:09:40,CHINA,-3.0,-13.0,870.9,873.0,24.9,25.0,0.03,0.0,110000,66.7,328
507270,2021-02-19,13:09:40,CHINA,-6.5,-11.0,914.0,1027.4,31.3,4.0,0.02,0.0,110000,58.4,156
364420,2021-02-19,13:09:40,KAZAKHSTAN,-11.0,-12.3,1012.5,989.6,19.4,32.2,0.02,2.2,111000,98.4,144
171240,2021-02-19,13:09:40,TURKEY,-1.3,-4.3,968.5,1018.9,13.2,8.9,0.08,1.2,111000,72.4,352
400830,2021-02-19,13:09:40,SYRIA,-1.7,-9.1,994.4,1023.2,19.8,22.6,0.00,0.0,100000,50.8,313
471210,2021-02-19,13:09:40,KOREASOUTH,-3.2,-12.4,994.2,1024.2,12.8,2.5,0.06,0.0,110000,60.7,115
471200,2021-02-19,13:09:40,KOREASOUTH,-2.2,-7.5,1007.7,1010.2,8.5,8.1,0.00,0.1,101000,51.6,289
471260,2021-02-19,13:09:40,KOREASOUTH,-0.1,-9.3,999.3,957.9,8.3,14.6,0.00,0.0,100000,12.7,317
298070,2021-02-19,13:09:40,KAZAKHSTAN,-11.3,-14.2,1027.6,1027.5,1.4,5.2,0.02,4.3,111000,51.9,279
443730,2021-02-19,13:09:40,MONGOLIA,-5.1,-16.1,853.5,1024.6,46.7,10.7,0.00,0.3,101000,72.5,83
443740,2021-02-19,13:09:40,MONGOLIA,-5.9,-14.8,824.4,1024.0,52.0,23.6,0.00,1.1,101000,51.7,115
539150,2021-02-19,13:09:40,CHINA,-2.4,-11.1,907.3,1029.6,23.8,11.8,0.02,0.0,110000,52.4,98
547760,2021-02-19,13:09:40,CHINA,-0.6,-6.9,1021.1,1025.6,18.6,8.1,0.04,0.0,110000,64.5,341
474240,2021-02-19,13:09:40,JAPAN,-7.7,-12.9,1018.1,1017.0,20.7,8.0,0.00,0.0,100000,2.4,304
474250,2021-02-19,13:09:40,JAPAN,-10.4,-13.6,1000.6,1001.3,3.1,5.0,0.00,0.0,100000,96.7,302
474260,2021-02-19,13:09:40,JAPAN,-5.4,-11.4,1013.1,1015.4,27.3,24.2,0.03,1.4,111000,97.4,84
563570,2021-02-19,13:09:40,CHINA,-1.4,-15.0,644.9,645.2,31.7,14.6,0.01,0.0,110000,51.5,210
543240,2021-02-19,13:09:40,CHINA,-5.1,-19.8,1023.8,1025.2,17.6,18.3,0.01,0.0,110000,50.2,355
524180,2021-02-19,13:09:40,CHINA,-0.5,-14.3,918.1,1027.1,26.9,2.9,0.01,0.0,110000,51.8,159
471750,2021-02-19,13:09:40,KOREASOUTH,-0.2,-4.7,966.1,1024.3,11.6,32.6,0.00,0.0,100000,9.0,112
470250,2021-02-19,13:09:40,KOREANORTH,-3.4,-7.3,1015.2,1020.2,9.9,8.3,0.09,0.1,111000,53.1,286
367780,2021-02-19,13:09:40,KAZAKHSTAN,-4.5,-10.2,1047.2,1031.7,26.2,6.4,0.00,0.0,100000,91.0,85
172400,2021-02-19,13:09:40,TURKEY,-1.3,-5.8,951.9,1016.0,28.6,6.7,0.09,0.5,111000,56.3,59
532310,2021-02-19,13:09:40,CHINA,-3.8,-16.0,850.9,857.9,29.1,17.7,0.00,0.0,100000,46.5,0
474340,2021-02-19,13:09:40,JAPAN,-10.3,-13.4,1004.7,1011.7,10.9,11.9,0.00,1.4,101000,91.6,42
474350,2021-02-19,13:09:40,JAPAN,-4.8,-12.2,1012.6,1006.3,34.0,8.2,0.03,0.0,110000,68.4,312
545870,2021-02-19,13:09:40,CHINA,-2.3,-9.6,1025.9,1025.4,25.1,40.6,0.00,0.0,100000,4.1,179
543420,2021-02-19,13:09:40,CHINA,-3.7,-12.2,1019.6,1024.0,8.3,7.2,0.03,0.0,110000,52.6,210
570140,2021-02-19,13:09:40,CHINA,-2.9,-7.4,1003.1,1032.8,20.0,2.9,0.00,0.0,100000,0.7,111
474900,2021-02-19,13:09:40,JAPAN,-10.7,-16.2,995.8,999.5,11.8,7.2,0.00,0.0,100000,76.7,214
474890,2021-02-19,13:09:40,JAPAN,-7.8,-13.6,1000.0,997.9,3.9,5.5,0.00,0.0,100000,31.6,14
505480,2021-02-19,13:09:40,CHINA,-16.5,-19.0,1007.9,1010.0,24.8,7.5,0.00,0.0,100000,35.8,278
442880,2021-02-19,13:09:40,MONGOLIA,-13.7,-22.4,916.7,1028.4,47.9,22.1,0.00,0.1,101000,61.7,68
546180,2021-02-19,13:09:40,CHINA,-0.4,-10.3,1022.8,1024.7,12.8,13.2,0.08,0.0,110000,51.7,242
474400,2021-02-19,13:09:40,JAPAN,-8.1,-13.8,1012.6,1017.0,19.3,0.6,0.10,0.0,110000,90.3,259
528180,2021-02-19,13:09:40,CHINA,-2.8,-22.5,753.8,753.2,27.9,11.8,0.00,0.0,100000,69.4,6
471920,2021-02-19,13:09:40,KOREASOUTH,-1.0,-8.7,1021.3,1022.4,10.2,9.8,0.10,0.0,110000,87.7,298
541150,2021-02-19,13:09:40,CHINA,-7.1,-17.2,976.0,1026.3,21.1,22.8,0.01,0.0,110000,80.6,241
470750,2021-02-19,13:09:40,KOREANORTH,-2.2,-6.6,1027.6,1023.2,35.2,11.3,0.07,0.1,111000,51.9,109
560460,2021-02-19,13:09:40,CHINA,-6.0,-16.6,671.3,672.8,22.5,5.2,0.03,0.0,110000,84.1,313
359530,2021-02-19,13:09:40,KAZAKHSTAN,-3.1,-5.2,1014.2,1028.2,24.9,19.9,0.00,3.7,101000,87.5,204
534630,2021-02-19,13:09:40,CHINA,-6.0,-15.4,930.5,1029.0,13.6,11.8,0.01,0.0,110000,53.8,172
526020,2021-02-19,13:09:40,CHINA,-3.8,-21.6,726.2,725.7,23.3,3.9,0.01,0.0,110000,62.2,33
361770,2021-02-19,13:09:40,KAZAKHSTAN,-11.0,-15.9,1023.6,1025.0,10.0,16.0,0.01,0.0,110000,51.1,216
471280,2021-02-19,13:09:40,KOREASOUTH,-1.3,-8.7,1008.6,1009.9,3.1,8.1,0.00,0.0,100000,73.5,156
571930,2021-02-19,13:09:40,CHINA,-0.4,-8.3,1009.2,1025.2,4.6,7.1,0.01,0.0,110000,52.8,11
442410,2021-02-19,13:09:40,MONGOLIA,-12.4,-15.0,1025.8,1033.1,47.1,8.4,0.00,2.1,101000,50.2,158
353760,2021-02-19,13:09:40,KAZAKHSTAN,-4.8,-8.1,991.0,1030.8,20.7,6.1,0.01,6.4,111000,59.8,336
508620,2021-02-19,13:09:40,CHINA,-17.5,-24.1,1019.9,1006.8,22.3,5.1,0.00,0.0,100000,16.6,320
368700,2021-02-19,13:09:40,KAZAKHSTAN,-1.2,-3.8,978.7,1022.9,10.2,5.2,0.05,2.2,111000,51.5,26
171500,2021-02-19,13:09:40,TURKEY,-0.6,-3.9,1021.2,1019.2,8.6,2.5,0.10,0.9,111000,57.9,293
514670,2021-02-19,13:09:40,CHINA,-0.4,-15.2,829.4,828.3,28.7,0.7,0.00,0.0,100000,70.2,18
539470,2021-02-19,13:09:40,CHINA,-2.4,-14.8,949.2,1027.1,21.7,7.6,0.01,0.0,110000,81.5,132
570060,2021-02-19,13:09:40,CHINA,-0.5,-10.7,946.7,1026.1,11.6,5.1,0.02,0.0,110000,50.7,42
509680,2021-02-19,13:09:40,CHINA,-11.8,-16.0,1017.7,1022.8,18.4,4.5,0.02,0.0,110000,50.9,234
541860,2021-02-19,13:09:40,CHINA,-9.9,-16.0,1010.5,1024.1,19.6,6.7,0.03,0.0,110000,52.3,121
524410,2021-02-19,13:09:40,CHINA,-6.1,-19.2,844.0,846.1,41.6,19.4,0.01,0.0,110000,50.0,51
350420,2021-02-19,13:09:40,KAZAKHSTAN,-3.3,-7.4,1027.0,1020.0,16.2,12.4,0.01,0.9,111000,83.1,169
522030,2021-02-19,13:09:40,CHINA,-0.2,-11.5,989.1,1027.5,36.1,2.1,0.00,0.0,100000,74.1,117
467550,2021-02-19,13:09:40,TAIWAN,-1.5,-1.9,1004.2,998.5,63.5,16.5,0.00,0.0,100000,91.7,223
350670,2021-02-19,13:09:40,KAZAKHSTAN,-6.9,-9.8,1038.4,1034.2,16.0,16.0,0.00,3.0,101000,95.0,10
477590,2021-02-19,13:09:40,JAPAN,-0.4,-6.4,1011.0,1017.9,8.5,15.6,0.29,0.0,110000,50.2,234
584370,2021-02-19,13:09:40,CHINA,-3.0,-10.2,835.7,833.6,16.2,32.9,0.14,0.0,110000,76.7,48
172500,2021-02-19,13:09:40,TURKEY,-2.0,-6.4,878.8,877.7,27.5,13.0,0.25,3.5,111000,90.5,281
540490,2021-02-19,13:09:40,CHINA,-5.7,-13.6,1028.7,1023.6,18.7,10.7,0.02,0.0,110000,69.6,218
541020,2021-02-19,13:09:40,CHINA,-12.6,-17.6,938.2,1029.7,28.0,1.6,0.01,0.0,110000,69.6,86
526740,2021-02-19,13:09:40,CHINA,-7.1,-20.1,801.2,795.7,28.6,10.9,0.00,0.0,100000,83.7,99
470410,2021-02-19,13:09:40,KOREANORTH,-3.3,-11.0,1009.5,1020.6,16.0,12.1,0.02,0.0,110000,52.5,224
471190,2021-02-19,13:09:40,KOREASOUTH,-2.1,-7.7,1024.5,1023.6,18.4,3.1,0.03,0.0,110000,80.7,307
471180,2021-02-19,13:09:40,KOREASOUTH,-3.4,-11.1,1014.1,1018.7,7.1,2.3,0.00,0.0,100000,58.5,84
470080,2021-02-19,13:09:40,KOREANORTH,-4.1,-12.5,1014.3,1020.6,13.6,13.0,0.00,0.0,100000,97.2,305
542080,2021-02-19,13:09:40,CHINA,-7.7,-14.3,912.5,1028.3,29.0,24.9,0.01,0.0,110000,73.0,70
470280,2021-02-19,13:09:40,KOREANORTH,-2.3,-9.5,1021.9,1025.7,16.9,0.8,0.02,0.0,110000,53.0,156
537230,2021-02-19,13:09:40,CHINA,-6.2,-16.8,907.8,1029.1,14.4,11.4,0.02,0.0,110000,54.1,77
470312,2021-02-19,13:09:40,CHINA,-1.9,-16.4,994.9,979.9,1.8,7.6,0.00,0.0,100000,46.4,117
542360,2021-02-19,13:09:40,CHINA,-6.2,-17.5,1019.7,1024.1,13.3,24.2,0.02,0.0,110000,51.4,241
470580,2021-02-19,13:09:40,KOREANORTH,-2.7,-8.3,1015.4,1023.6,21.9,5.4,0.01,0.0,110000,52.1,6
442070,2021-02-19,13:09:40,MONGOLIA,-15.6,-20.1,1051.3,1044.0,55.3,4.2,0.00,0.0,100000,6.1,317
171350,2021-02-19,13:09:40,TURKEY,-0.1,-4.8,922.3,1011.0,14.9,17.8,0.00,0.0,100000,28.8,194
537720,2021-02-19,13:09:40,CHINA,-2.4,-13.6,982.7,1025.6,6.6,3.3,0.01,0.0,110000,53.4,58
364280,2021-02-19,13:09:40,KAZAKHSTAN,-14.1,-16.8,1036.9,1036.8,17.7,2.9,0.01,0.9,111000,50.5,194
476380,2021-02-19,13:09:40,JAPAN,-0.8,-9.8,994.3,1016.1,16.1,2.1,0.13,0.6,111000,51.3,15
477150,2021-02-19,13:09:40,JAPAN,-0.7,-5.7,1001.8,1002.0,8.6,4.6,0.14,0.3,111000,50.1,201
471290,2021-02-19,13:09:40,KOREASOUTH,-2.2,-6.9,1020.0,1023.9,23.3,7.4,0.05,0.0,110000,51.4,158
171900,2021-02-19,13:09:40,TURKEY,-1.1,-5.1,947.5,973.3,16.2,9.2,0.13,1.7,111000,63.2,92
518860,2021-02-19,13:09:40,CHINA,-4.5,-21.0,701.4,698.4,26.8,15.6,0.00,0.0,100000,93.6,160
545270,2021-02-19,13:09:40,CHINA,-1.2,-12.1,1030.7,1025.7,17.1,1.1,0.11,0.0,110000,52.8,193
471270,2021-02-19,13:09:40,KOREASOUTH,-1.4,-7.3,1008.4,1015.2,8.5,10.6,0.01,0.2,111000,52.5,85
172410,2021-02-19,13:09:40,TURKEY,-3.1,-9.1,989.9,1045.3,11.8,11.0,0.00,0.0,100000,92.6,322
171280,2021-02-19,13:09:40,TURKEY,-1.1,-4.7,955.7,1012.1,11.1,9.0,0.09,1.6,111000,83.0,175
471070,2021-02-19,13:09:40,KOREASOUTH,-0.8,-7.0,1013.5,1016.3,13.7,13.2,0.03,0.3,111000,81.0,36
471065,2021-02-19,13:09:40,KOREASOUTH,-2.1,-7.2,1017.4,1030.9,4.9,10.4,0.00,2.8,101000,50.3,344
543770,2021-02-19,13:09:40,CHINA,-4.1,-11.7,1025.9,1025.3,11.4,5.1,0.03,0.0,110000,51.1,34
380910,2021-02-19,13:09:40,KAZAKHSTAN,-1.6,-6.8,1027.1,1030.1,43.6,10.6,0.02,1.2,111000,50.8,134
536980,2021-02-19,13:09:40,CHINA,-0.6,-12.5,1023.9,1025.5,13.6,15.0,0.04,0.0,110000,50.9,122
289840,2021-02-19,13:09:40,KAZAKHSTAN,-2.6,-6.0,1028.9,1019.0,29.6,19.4,0.00,0.0,100000,93.7,32
544710,2021-02-19,13:09:40,CHINA,-5.7,-14.4,1024.0,1025.0,15.6,24.1,0.00,0.0,100000,31.6,312
357460,2021-02-19,13:09:40,KAZAKHSTAN,-2.0,-6.1,1025.4,1027.0,15.0,17.8,0.00,0.8,101000,55.1,319
470610,2021-02-19,13:09:40,KOREANORTH,-1.1,-7.6,1016.3,1020.3,27.2,10.8,0.15,0.8,111000,69.7,9
470650,2021-02-19,13:09:40,KOREANORTH,-3.6,-8.6,1018.5,1024.4,13.9,7.6,0.01,0.0,110000,81.9,171
561820,2021-02-19,13:09:40,CHINA,-1.4,-11.2,778.6,818.4,33.8,13.5,0.07,0.0,110000,68.2,177
171890,2021-02-19,13:09:40,TURKEY,-6.4,-9.0,905.3,919.9,11.0,6.5,0.02,8.2,111000,54.3,158
477670,2021-02-19,13:09:40,JAPAN,-0.6,-6.2,1018.5,1017.7,16.7,7.8,0.14,0.0,110000,61.4,150
356330,2021-02-19,13:09:40,KAZAKHSTAN,-2.5,-4.7,1027.6,1021.5,24.3,24.5,0.00,3.3,101000,63.9,242
172480,2021-02-19,13:09:40,TURKEY,-5.1,-7.1,903.0,868.5,16.0,2.8,0.33,18.1,111000,50.4,67
543424,2021-02-19,13:09:40,CHINA,-3.5,-13.2,998.3,994.3,7.1,21.9,0.00,0.0,100000,44.7,355
527870,2021-02-19,13:09:40,CHINA,-5.7,-15.3,746.9,749.8,27.0,21.6,0.01,0.0,110000,69.5,166
514950,2021-02-19,13:09:40,CHINA,-2.5,-16.1,985.4,1032.7,31.6,38.4,0.00,0.0,100000,3.9,51
357390,2021-02-19,13:09:40,KAZAKHSTAN,-0.6,-6.8,1035.8,1028.6,46.5,12.9,0.00,3.0,101000,51.4,344
556640,2021-02-19,13:09:40,CHINA,-0.2,-19.0,602.0,602.2,24.4,29.5,0.00,0.0,100000,11.4,118
357910,2021-02-19,13:09:40,KAZAKHSTAN,-6.3,-9.5,1032.3,1036.5,50.1,6.6,0.01,4.2,111000,78.4,266
353610,2021-02-19,13:09:40,KAZAKHSTAN,-1.4,-4.2,990.7,1017.9,24.9,16.0,0.00,0.0,100000,98.2,154
548570,2021-02-19,13:09:40,CHINA,-0.6,-7.0,1024.4,1025.6,13.0,18.9,0.02,0.0,110000,89.6,163
471010,2021-02-19,13:09:40,KOREASOUTH,-2.2,-9.4,1019.1,1023.5,20.6,0.4,0.05,0.2,111000,77.1,86
471020,2021-02-19,13:09:40,KOREASOUTH,-0.1,-6.6,1004.7,1024.4,6.9,15.4,0.01,0.0,110000,50.8,344
548430,2021-02-19,13:09:40,CHINA,-1.7,-11.2,1023.8,1026.3,21.2,17.1,0.03,0.0,110000,50.7,224
475530,2021-02-19,13:09:40,JAPAN,-2.1,-6.0,1004.5,1004.0,5.7,13.1,0.00,0.0,100000,48.5,332
170673,2021-02-19,13:09:40,TURKEY,-0.9,-9.6,1012.8,978.8,12.6,14.2,0.00,0.0,100000,87.9,271
471400,2021-02-19,13:09:40,KOREASOUTH,-0.7,-6.0,1016.7,1023.9,21.1,29.7,0.03,0.0,110000,50.6,173
471410,2021-02-19,13:09:40,KOREASOUTH,-0.7,-4.9,1012.6,1015.4,9.7,20.5,0.07,0.1,111000,95.5,274
471420,2021-02-19,13:09:40,KOREASOUTH,-1.4,-9.5,1013.4,1012.9,12.1,11.2,0.00,0.0,100000,53.8,201
507880,2021-02-19,13:09:40,CHINA,-10.0,-15.7,1019.0,1019.4,22.8,12.8,0.02,0.0,110000,50.2,230
170700,2021-02-19,13:09:40,TURKEY,-0.5,-5.1,943.2,1017.1,11.1,4.7,0.14,2.0,111000,54.1,100
549060,2021-02-19,13:09:40,CHINA,-1.7,-8.4,1024.4,1026.2,10.7,10.4,0.01,0.0,110000,62.3,56
527650,2021-02-19,13:09:40,CHINA,-9.4,-21.7,714.4,714.3,22.2,1.1,0.01,0.0,110000,51.5,235
508540,2021-02-19,13:09:40,CHINA,-6.7,-12.7,1026.3,1022.3,15.7,14.7,0.01,0.0,110000,51.9,138
443850,2021-02-19,13:09:40,MONGOLIA,-2.5,-14.0,893.2,1026.2,34.1,10.5,0.00,0.0,100000,76.6,246
471530,2021-02-19,13:09:40,KOREASOUTH,-0.4,-8.1,1016.5,1017.4,8.9,13.2,0.00,0.0,100000,6.5,78
547150,2021-02-19,13:09:40,CHINA,-0.9,-9.6,1021.3,1026.7,12.7,21.2,0.05,0.0,110000,92.0,129
471520,2021-02-19,13:09:40,KOREASOUTH,-0.3,-9.6,1032.7,1021.7,12.5,20.0,0.09,0.0,110000,96.7,217
557730,2021-02-19,13:09:40,CHINA,-0.6,-9.1,620.3,621.9,18.6,15.7,0.03,0.0,110000,60.2,354
503530,2021-02-19,13:09:40,CHINA,-8.5,-18.9,1000.0,1022.8,20.4,7.5,0.00,0.0,100000,39.8,99
476400,2021-02-19,13:09:40,JAPAN,-8.6,-12.2,915.8,906.1,49.5,0.2,0.00,0.0,100000,32.2,167
353020,2021-02-19,13:09:40,KAZAKHSTAN,-3.8,-8.3,1058.3,1032.7,14.2,21.6,0.00,0.0,100000,41.1,160
353940,2021-02-19,13:09:40,KAZAKHSTAN,-4.5,-7.9,1002.1,1031.7,24.3,12.1,0.20,3.9,111000,53.9,49
476900,2021-02-19,13:09:40,JAPAN,-6.6,-11.4,867.0,861.8,25.0,16.4,0.18,0.0,110000,53.0,298
443290,2021-02-19,13:09:40,MONGOLIA,-8.4,-12.7,776.5,1029.6,21.6,13.7,0.00,2.8,101000,96.7,223
507740,2021-02-19,13:09:40,CHINA,-12.9,-17.3,1013.4,1022.0,4.1,4.7,0.01,0.0,110000,50.0,313
471460,2021-02-19,13:09:40,KOREASOUTH,-0.3,-5.3,1018.8,1023.6,12.5,7.3,0.05,0.0,110000,51.0,280
552990,2021-02-19,13:09:40,CHINA,-5.2,-19.3,1003.4,996.8,21.2,20.0,0.01,0.0,110000,68.5,177
442770,2021-02-19,13:09:40,MONGOLIA,-10.2,-20.6,1007.3,1025.9,36.7,22.9,2.35,0.0,110000,50.3,69
554720,2021-02-19,13:09:40,CHINA,-3.8,-21.7,998.2,992.4,23.5,43.6,0.01,0.0,110000,52.1,22
471064,2021-02-19,13:09:40,KOREASOUTH,-6.3,-12.3,1012.0,1011.1,15.2,0.5,0.00,0.0,100000,35.1,271
471066,2021-02-19,13:09:40,KOREASOUTH,-1.6,-8.2,1008.9,1006.7,10.3,4.0,0.00,0.1,101000,51.2,13
362080,2021-02-19,13:09:40,KAZAKHSTAN,-13.0,-17.8,1011.5,1032.0,26.6,3.1,0.00,0.0,100000,53.6,257
346910,2021-02-19,13:09:40,KAZAKHSTAN,-1.6,-4.8,1021.4,1022.7,16.2,20.3,0.02,2.2,111000,50.1,120
170671,2021-02-19,13:09:40,TURKEY,-5.8,-8.2,1016.7,1024.0,12.8,1.9,0.00,0.0,100000,0.9,233
475750,2021-02-19,13:09:40,JAPAN,-3.1,-7.1,1021.6,1016.6,10.9,16.3,0.14,22.5,111000,85.6,140
510870,2021-02-19,13:09:40,CHINA,-3.9,-7.7,928.7,1028.6,35.9,3.1,0.07,0.0,110000,97.0,4
474070,2021-02-19,13:09:40,JAPAN,-11.4,-14.9,1008.1,1014.6,14.5,12.5,0.09,16.5,111000,67.1,272
474060,2021-02-19,13:09:40,JAPAN,-7.8,-12.4,1010.4,1015.5,15.9,12.5,0.11,15.1,111000,51.2,93
544930,2021-02-19,13:09:40,CHINA,-8.0,-14.9,1021.4,1025.2,19.2,5.3,0.01,0.0,110000,72.1,19
475880,2021-02-19,13:09:40,JAPAN,-3.4,-7.2,997.0,1015.1,17.0,11.9,0.18,0.0,110000,81.9,281
534460,2021-02-19,13:09:40,CHINA,-5.1,-19.6,1005.6,1029.3,7.9,11.7,0.00,0.0,100000,42.5,240
543460,2021-02-19,13:09:40,CHINA,-2.6,-12.8,1018.7,1025.1,19.6,8.3,0.02,0.0,110000,57.6,304
363970,2021-02-19,13:09:40,KAZAKHSTAN,-10.9,-15.9,1023.6,1036.7,8.7,33.6,0.00,0.0,100000,86.1,103
514635,2021-02-19,13:09:40,CHINA,-2.5,-8.3,992.5,996.2,7.3,6.4,0.00,0.0,100000,11.8,259
352170,2021-02-19,13:09:40,KAZAKHSTAN,-3.2,-5.8,1023.3,1022.0,16.8,21.5,0.01,4.8,111000,88.7,350
536460,2021-02-19,13:09:40,CHINA,-5.6,-16.7,926.5,,8.4,7.3,0.01,0.0,110000,51.8,262
442320,2021-02-19,13:09:40,MONGOLIA,-12.2,-16.1,1041.5,1049.4,38.6,6.5,0.00,0.0,100000,78.6,66
512320,2021-02-19,13:09:40,CHINA,-5.2,-9.0,1027.4,1031.4,7.5,22.9,0.03,0.0,110000,51.5,156
527540,2021-02-19,13:09:40,CHINA,-8.6,-23.1,676.0,678.4,32.4,6.0,0.01,0.0,110000,94.8,227
571310,2021-02-19,13:09:41,CHINA,-0.3,-5.0,981.2,1029.3,6.5,2.7,0.00,0.0,100000,99.8,188
546180,2021-02-19,13:09:41,CHINA,-0.4,-10.3,1022.8,1024.8,12.7,13.2,0.08,0.0,110000,51.7,242
474400,2021-02-19,13:09:41,JAPAN,-8.1,-13.8,1012.6,1017.0,19.4,0.7,0.10,0.0,110000,90.3,258
533360,2021-02-19,13:09:41,CHINA,-6.3,-16.0,909.2,1029.9,27.0,6.9,0.01,0.0,110000,54.0,175
526520,2021-02-19,13:09:41,CHINA,-8.4,-20.7,883.8,1029.5,29.2,3.5,0.00,0.0,100000,72.1,286
380810,2021-02-19,13:09:41,KAZAKHSTAN,-2.4,-5.8,1034.3,1029.0,20.8,30.4,0.03,0.2,111000,53.2,67
526510,2021-02-19,13:09:41,CHINA,-8.0,-29.3,977.2,996.1,66.5,3.9,0.00,0.0,100000,29.4,334
354260,2021-02-19,13:09:41,KAZAKHSTAN,-4.0,-6.5,1004.8,1022.7,31.8,10.1,0.01,5.2,111000,50.2,119
442870,2021-02-19,13:09:41,MONGOLIA,-8.9,-15.0,809.4,1027.9,53.1,10.9,0.00,1.6,101000,76.3,96
360030,2021-02-19,13:09:41,KAZAKHSTAN,-10.0,-14.1,1020.9,1030.3,28.7,18.5,0.11,4.8,111000,75.4,179
526020,2021-02-19,13:09:41,CHINA,-3.8,-21.6,726.2,725.7,23.3,4.0,0.01,0.0,110000,62.2,33
361770,2021-02-19,13:09:41,KAZAKHSTAN,-11.0,-15.9,1023.6,1025.0,10.0,16.1,0.01,0.0,110000,51.1,216
513790,2021-02-19,13:09:41,CHINA,-8.8,-13.5,1021.4,1035.6,17.6,8.5,0.02,0.0,110000,50.5,352
563850,2021-02-19,13:09:41,CHINA,-5.0,-8.2,747.1,745.5,7.3,1.5,0.06,0.0,110000,50.2,61
505570,2021-02-19,13:09:41,CHINA,-15.8,-19.0,1003.3,1022.7,11.1,12.7,0.01,0.0,110000,57.4,318
548630,2021-02-19,13:09:41,CHINA,-1.4,-10.1,1029.7,1026.6,19.4,14.5,0.05,0.0,110000,54.0,329
507450,2021-02-19,13:09:41,CHINA,-6.6,-13.2,1015.8,1022.7,15.6,4.2,0.01,0.0,110000,59.0,64
542920,2021-02-19,13:09:41,CHINA,-8.7,-20.2,1005.8,1025.1,15.9,7.8,0.00,0.0,100000,54.6,231
527370,2021-02-19,13:09:41,CHINA,-2.3,-17.6,725.4,729.3,24.6,22.6,0.01,0.0,110000,76.7,338
170840,2021-02-19,13:09:41,TURKEY,-1.8,-5.7,942.3,1018.4,20.7,6.2,0.10,3.5,111000,91.8,173
549290,2021-02-19,13:09:41,CHINA,-0.3,-9.7,1025.3,1024.1,22.8,2.7,0.00,0.0,100000,60.6,21
538210,2021-02-19,13:09:41,CHINA,-5.9,-19.0,929.1,1028.0,20.5,6.0,0.00,0.0,100000,37.6,282
443470,2021-02-19,13:09:41,MONGOLIA,-8.1,-27.1,862.0,1009.9,25.4,19.4,0.00,0.0,100000,91.1,323
526610,2021-02-19,13:09:41,CHINA,-4.8,-22.6,928.1,946.3,70.2,12.0,0.00,0.0,100000,24.7,142
544230,2021-02-19,13:09:41,CHINA,-5.3,-17.3,975.7,1023.8,18.6,9.4,0.00,0.0,100000,38.3,272
442370,2021-02-19,13:09:41,MONGOLIA,-7.4,-13.6,845.0,1023.9,50.6,13.7,0.00,0.2,101000,77.8,28
545270,2021-02-19,13:09:41,CHINA,-1.2,-11.1,1030.7,1025.7,17.1,1.0,0.11,0.0,110000,52.8,194
545273,2021-02-19,13:09:41,CHINA,-0.1,-9.7,1001.0,993.4,5.6,13.1,0.00,0.0,100000,8.9,356
543740,2021-02-19,13:09:41,CHINA,-9.7,-15.7,1007.6,1023.3,12.8,3.5,0.01,0.0,110000,51.8,55
345810,2021-02-19,13:09:41,KAZAKHSTAN,-2.2,-6.2,1040.1,1028.7,49.0,25.1,0.00,0.0,100000,52.9,38
286790,2021-02-19,13:09:41,KAZAKHSTAN,-8.8,-11.1,1019.0,1029.6,13.3,17.9,0.01,4.7,111000,75.3,118
504340,2021-02-19,13:09:41,CHINA,-21.3,-26.7,961.4,1027.2,21.1,12.2,0.02,0.0,110000,53.2,135
350530,2021-02-19,13:09:41,KAZAKHSTAN,-4.7,-9.5,1028.4,1035.3,14.9,19.6,0.08,1.1,111000,63.6,155
442880,2021-02-19,13:09:41,MONGOLIA,-14.1,-22.4,916.7,1028.4,47.9,22.2,0.00,0.1,101000,61.7,68
476370,2021-02-19,13:09:41,JAPAN,-2.8,-8.6,957.1,1016.1,25.3,8.2,0.21,0.0,110000,51.7,172
509530,2021-02-19,13:09:41,CHINA,-7.6,-13.7,1015.6,1022.6,12.7,15.2,0.02,0.0,110000,88.8,327
532760,2021-02-19,13:09:41,CHINA,-8.5,-19.3,918.6,1028.3,26.0,15.9,0.01,0.0,110000,86.3,211
471074,2021-02-19,13:09:41,KOREASOUTH,-1.2,-10.1,995.1,964.3,5.9,27.6,0.00,0.0,100000,38.8,346
471087,2021-02-19,13:09:41,KOREASOUTH,-2.3,-11.3,1025.6,1034.7,13.1,14.2,0.00,0.0,100000,83.0,14
471080,2021-02-19,13:09:41,KOREASOUTH,-1.5,-7.6,1019.1,1022.5,13.8,2.5,0.02,0.1,111000,53.7,217
471120,2021-02-19,13:09:41,KOREASOUTH,-0.8,-6.6,1018.3,1022.9,16.6,17.4,0.02,0.0,110000,54.2,253
506320,2021-02-19,13:09:41,CHINA,-14.2,-19.2,987.3,1024.0,27.2,14.0,0.01,0.0,110000,52.4,186
471430,2021-02-19,13:09:41,KOREASOUTH,-0.9,-9.6,1015.6,1022.9,24.2,18.5,0.06,0.0,110000,50.2,15
172050,2021-02-19,13:09:41,TURKEY,-3.0,-5.7,829.4,845.1,5.0,8.0,0.22,3.3,111000,52.4,237
471290,2021-02-19,13:09:41,KOREASOUTH,-2.2,-6.9,1020.0,1023.9,23.4,7.5,0.05,0.0,110000,51.3,158
478210,2021-02-19,13:09:41,JAPAN,-3.1,-8.5,891.3,897.6,17.7,7.1,0.00,0.0,100000,34.3,113
289570,2021-02-19,13:09:41,KAZAKHSTAN,-4.0,-7.7,1027.4,1024.5,4.6,2.9,0.04,7.4,111000,53.2,53
528360,2021-02-19,13:09:41,CHINA,-3.1,-18.1,687.3,685.9,28.8,6.0,0.01,0.0,110000,54.8,282
537380,2021-02-19,13:09:41,CHINA,-4.2,-16.7,872.0,1025.0,23.8,4.8,0.00,0.0,100000,95.7,118
507740,2021-02-19,13:09:41,CHINA,-12.9,-19.0,1013.4,1022.0,4.1,4.7,0.01,0.0,110000,50.0,314
442410,2021-02-19,13:09:41,MONGOLIA,-12.4,-15.0,1025.8,1033.1,47.0,8.5,0.00,2.1,101000,50.2,158
544010,2021-02-19,13:09:41,CHINA,-3.8,-18.3,984.6,1027.5,23.9,18.9,0.01,0.0,110000,51.5,219
472185,2021-02-19,13:09:41,JAPAN,-6.8,-12.9,985.9,967.2,10.9,13.5,0.00,0.0,100000,24.4,43
471190,2021-02-19,13:09:41,KOREASOUTH,-2.0,-8.8,1024.5,1023.6,18.4,3.2,0.03,0.0,110000,80.7,307
471180,2021-02-19,13:09:41,KOREASOUTH,-3.5,-11.1,1014.0,1018.6,7.1,2.3,0.00,0.0,100000,58.6,84
524180,2021-02-19,13:09:41,CHINA,-0.5,-14.3,918.1,1027.1,26.8,2.8,0.01,0.0,110000,51.8,159
527130,2021-02-19,13:09:41,CHINA,-5.1,-21.1,699.2,699.2,27.6,13.9,0.02,0.0,110000,63.8,60
357910,2021-02-19,13:09:41,KAZAKHSTAN,-6.7,-10.8,1032.3,1036.5,50.0,6.6,0.01,4.2,111000,78.5,266
544360,2021-02-19,13:09:41,CHINA,-6.5,-19.9,1023.7,1025.4,34.9,8.8,0.01,0.0,110000,51.1,312
546020,2021-02-19,13:09:41,CHINA,-1.6,-12.9,1021.8,1025.6,9.3,5.2,0.02,0.0,110000,96.0,345
474200,2021-02-19,13:09:41,JAPAN,-8.5,-12.1,1014.0,1015.7,16.2,13.1,0.02,3.6,111000,65.1,255
351910,2021-02-19,13:09:41,KAZAKHSTAN,-4.7,-14.3,1034.8,1040.6,46.5,5.2,0.00,0.0,100000,15.3,249
546560,2021-02-19,13:09:41,CHINA,-2.1,-8.2,1021.6,1024.8,25.5,30.8,0.01,0.0,110000,53.1,250
470410,2021-02-19,13:09:41,KOREANORTH,-3.3,-11.0,1009.5,1020.6,15.9,12.0,0.02,0.0,110000,52.6,224
523910,2021-02-19,13:09:41,CHINA,-13.2,-22.2,1002.1,1044.6,38.2,5.0,0.00,0.0,100000,10.9,359
547140,2021-02-19,13:09:41,CHINA,-1.8,-11.1,1026.3,1026.2,17.8,13.9,0.08,0.0,110000,51.5,336
471540,2021-02-19,13:09:41,KOREASOUTH,-0.4,-10.0,1010.9,1015.1,10.6,16.3,0.00,0.0,100000,69.0,186
471060,2021-02-19,13:09:41,KOREASOUTH,-1.4,-9.3,1016.0,1022.1,13.1,17.4,0.12,0.2,111000,52.6,266
548080,2021-02-19,13:09:41,CHINA,-1.3,-8.7,1026.6,1026.1,2.8,9.8,0.01,0.0,110000,94.9,133
528180,2021-02-19,13:09:41,CHINA,-2.8,-22.5,753.8,753.2,28.0,11.7,0.00,0.0,100000,69.4,7
288670,2021-02-19,13:09:41,KAZAKHSTAN,-7.0,-9.9,1000.8,1030.8,21.4,13.0,0.00,23.0,101000,52.4,112
171890,2021-02-19,13:09:41,TURKEY,-5.9,-10.7,905.2,919.6,11.1,6.5,0.02,8.2,111000,54.4,158
477670,2021-02-19,13:09:41,JAPAN,-0.6,-5.2,1018.5,1017.7,16.6,7.8,0.14,0.0,110000,61.5,149
356330,2021-02-19,13:09:41,KAZAKHSTAN,-2.5,-4.7,1027.6,1021.5,24.3,24.4,0.00,3.3,101000,63.8,241
474050,2021-02-19,13:09:41,JAPAN,-9.7,-16.2,1009.6,1018.0,43.5,18.3,0.00,0.0,100000,85.2,27
477690,2021-02-19,13:09:41,JAPAN,-0.7,-7.7,1019.9,1025.3,0.1,19.7,0.00,0.0,100000,39.2,264
171880,2021-02-19,13:09:41,TURKEY,-0.4,-4.3,937.6,1016.4,22.2,2.7,0.17,0.3,111000,54.4,187
537720,2021-02-19,13:09:41,CHINA,-2.4,-13.6,982.7,1025.6,6.5,3.4,0.01,0.0,110000,53.5,58
470670,2021-02-19,13:09:41,KOREANORTH,-5.1,-11.1,1050.3,1026.4,13.1,12.3,0.00,0.0,100000,14.2,247
542260,2021-02-19,13:09:41,CHINA,-5.0,-18.3,1020.4,1025.3,21.6,4.9,0.01,0.0,110000,52.3,36
470680,2021-02-19,13:09:41,KOREANORTH,-2.5,-7.4,1015.6,1024.1,12.5,13.9,0.01,0.0,110000,83.0,298
475870,2021-02-19,13:09:41,JAPAN,-0.7,-5.2,1014.1,1017.0,15.2,18.2,0.21,3.7,111000,84.4,181
475850,2021-02-19,13:09:41,JAPAN,-3.5,-9.4,1010.4,1014.2,21.4,8.4,0.13,2.9,111000,64.3,202
476290,2021-02-19,13:09:41,JAPAN,-1.5,-9.7,1012.5,1016.1,27.3,17.9,0.04,0.0,110000,65.2,24
443540,2021-02-19,13:09:41,MONGOLIA,-6.5,-14.6,1044.1,1029.4,55.7,23.2,0.00,0.0,100000,48.8,337
533520,2021-02-19,13:09:41,CHINA,-10.5,-19.4,960.5,1032.0,26.5,8.2,0.01,0.0,110000,51.2,328
376820,2021-02-19,13:09:41,ARMENIA,-3.7,-6.3,803.6,793.4,0.7,9.7,0.00,0.0,100000,17.4,273
471650,2021-02-19,13:09:41,KOREASOUTH,-0.2,-6.1,1025.1,1024.4,18.3,11.2,0.09,0.0,110000,50.8,322
547530,2021-02-19,13:09:41,CHINA,-1.9,-10.1,1025.1,1026.5,15.9,12.5,0.07,0.0,110000,84.6,332
369820,2021-02-19,13:09:41,KYRGYZSTAN,-13.6,-19.4,645.7,644.3,41.0,4.2,0.00,0.0,100000,87.3,282
476200,2021-02-19,13:09:41,JAPAN,-3.7,-9.4,927.5,1018.3,28.7,13.7,0.14,0.0,110000,52.5,95
471140,2021-02-19,13:09:41,KOREASOUTH,-2.3,-9.1,1004.7,1023.3,14.1,0.8,0.06,0.4,111000,81.0,152
523130,2021-02-19,13:09:41,CHINA,-3.3,-14.3,921.5,897.5,61.8,2.5,0.00,0.0,100000,74.6,88
548430,2021-02-19,13:09:41,CHINA,-1.7,-11.2,1023.8,1026.3,21.3,17.1,0.03,0.0,110000,50.7,224
470200,2021-02-19,13:09:41,KOREANORTH,-6.8,-12.3,1015.1,1029.1,0.0,1.5,0.00,0.0,100000,57.2,236
560180,2021-02-19,13:09:41,CHINA,-2.8,-15.6,627.1,635.7,24.3,16.8,0.01,0.0,110000,88.0,56
560340,2021-02-19,13:09:41,CHINA,-10.4,-17.5,600.9,593.5,21.0,17.3,0.05,0.0,110000,54.3,310
442770,2021-02-19,13:09:41,MONGOLIA,-10.2,-19.0,1007.2,1026.0,36.8,22.9,2.35,0.0,110000,50.3,69
505640,2021-02-19,13:09:41,CHINA,-9.4,-13.8,1023.1,1023.6,11.9,8.9,0.01,0.0,110000,80.6,119
474810,2021-02-19,13:09:41,JAPAN,-11.3,-15.9,997.5,990.1,5.4,11.0,0.00,0.0,100000,16.0,346
528660,2021-02-19,13:09:41,CHINA,-4.3,-14.5,772.4,766.9,10.7,5.6,0.01,0.0,110000,69.8,141
170673,2021-02-19,13:09:41,TURKEY,-0.9,-10.1,1012.6,978.7,12.7,14.3,0.00,0.0,100000,87.9,272
354970,2021-02-19,13:09:41,KAZAKHSTAN,-6.4,-13.4,988.8,1033.9,29.1,13.8,0.00,4.9,101000,50.7,32
170980,2021-02-19,13:09:41,TURKEY,-6.0,-8.6,815.6,816.1,13.0,18.5,0.07,11.5,111000,53.4,149
354590,2021-02-19,13:09:41,KAZAKHSTAN,-3.2,-9.0,1024.6,1030.3,48.7,14.7,0.00,0.0,100000,25.8,287
526330,2021-02-19,13:09:41,CHINA,-13.9,-25.1,990.7,981.1,24.5,6.2,0.01,0.0,110000,53.8,217
361520,2021-02-19,13:09:41,KAZAKHSTAN,-13.2,-17.6,1043.6,1034.5,17.5,10.4,0.01,1.4,111000,50.9,115
514630,2021-02-19,13:09:41,CHINA,-6.5,-9.5,947.9,1033.3,14.0,6.6,0.05,0.0,110000,74.0,279
474740,2021-02-19,13:09:41,JAPAN,-10.8,-19.1,1009.5,1002.1,6.7,6.7,0.00,0.0,100000,53.8,175
524460,2021-02-19,13:09:41,CHINA,-3.8,-16.0,937.2,1034.8,41.5,10.6,0.00,0.0,100000,77.2,0
540260,2021-02-19,13:09:41,CHINA,-4.7,-16.4,1011.7,1024.1,25.3,23.4,0.01,0.0,110000,89.0,204
171270,2021-02-19,13:09:41,TURKEY,-0.7,-5.0,1028.9,1018.8,22.7,11.3,0.05,0.0,110000,52.9,122
442820,2021-02-19,13:09:41,MONGOLIA,-12.0,-28.5,819.1,1026.3,49.9,24.9,0.00,0.0,100000,34.6,151
548570,2021-02-19,13:09:41,CHINA,-0.6,-7.0,1024.4,1025.6,12.9,19.0,0.02,0.0,110000,89.6,164
561720,2021-02-19,13:09:41,CHINA,-0.2,-11.7,777.9,783.0,37.7,6.9,0.02,0.0,110000,92.7,13
561730,2021-02-19,13:09:41,CHINA,-7.7,-21.2,661.0,668.7,28.2,16.4,0.00,0.0,100000,67.8,0
171905,2021-02-19,13:09:41,TURKEY,-0.5,-2.9,979.3,1013.7,15.8,3.0,0.00,0.0,100000,33.7,248
477470,2021-02-19,13:09:41,JAPAN,-0.9,-3.7,1024.3,1024.0,10.8,4.5,0.00,0.0,100000,83.0,318
561060,2021-02-19,13:09:41,CHINA,-2.4,-15.8,619.0,617.0,29.1,13.1,0.02,0.0,110000,55.3,350
549450,2021-02-19,13:09:41,CHINA,-0.6,-8.8,1019.2,1026.8,21.2,5.4,0.03,0.0,110000,51.5,118
442320,2021-02-19,13:09:41,MONGOLIA,-11.9,-18.4,1041.8,1049.4,38.6,6.5,0.00,0.0,100000,78.6,66
534460,2021-02-19,13:09:41,CHINA,-4.2,-17.6,1005.6,1029.3,8.0,11.9,0.00,0.0,100000,42.6,241
355820,2021-02-19,13:09:41,KAZAKHSTAN,-3.7,-7.9,1026.3,1032.4,25.9,15.1,0.00,2.6,101000,51.6,93
478180,2021-02-19,13:09:41,JAPAN,-1.3,-6.8,944.9,1027.9,27.7,12.9,0.00,0.0,100000,1.1,116
471170,2021-02-19,13:09:41,KOREASOUTH,-1.0,-6.7,1001.9,983.0,8.9,2.7,0.07,0.0,110000,96.2,105
517110,2021-02-19,13:09:41,CHINA,-2.0,-10.3,800.8,795.5,25.7,3.2,0.03,0.0,110000,52.9,80
560040,2021-02-19,13:09:41,CHINA,-5.8,-18.4,998.8,1001.6,34.2,18.1,0.01,0.0,110000,55.2,201
470600,2021-02-19,13:09:41,KOREANORTH,-1.6,-6.1,1025.2,1024.2,13.0,11.1,0.01,0.0,110000,51.2,150
571930,2021-02-19,13:09:41,CHINA,-0.4,-8.3,1009.2,1025.2,4.5,7.2,0.01,0.0,110000,52.8,11
542730,2021-02-19,13:09:41,CHINA,-8.1,-16.6,1020.3,1024.8,10.3,1.6,0.00,0.0,100000,40.1,68
570230,2021-02-19,13:09:41,CHINA,-0.4,-10.2,870.0,1003.6,6.5,0.6,0.00,0.0,100000,36.1,36
357460,2021-02-19,13:09:41,KAZAKHSTAN,-2.0,-5.2,1025.4,1027.0,15.0,17.8,0.00,0.8,101000,55.1,319
470080,2021-02-19,13:09:41,KOREANORTH,-4.1,-11.5,1014.3,1020.6,13.7,13.1,0.00,0.0,100000,97.3,304
470690,2021-02-19,13:09:41,KOREANORTH,-2.3,-7.9,1031.6,1023.8,9.8,8.7,0.22,0.0,110000,51.3,325
470700,2021-02-19,13:09:41,KOREANORTH,-1.3,-7.7,1027.2,1021.2,12.3,15.4,0.01,0.0,110000,80.7,127
512880,2021-02-19,13:09:41,CHINA,-5.0,-13.5,835.6,836.2,35.2,10.8,0.01,0.0,110000,82.6,253
442120,2021-02-19,13:09:41,MONGOLIA,-22.1,-26.2,912.3,1037.5,54.9,4.3,0.00,9.9,101000,73.5,210
544050,2021-02-19,13:09:41,CHINA,-4.5,-18.0,1022.5,1027.2,17.0,16.3,0.01,0.0,110000,54.2,192
442140,2021-02-19,13:09:41,MONGOLIA,-10.9,-18.4,825.1,1027.5,10.9,5.2,0.00,0.0,100000,91.6,0
367780,2021-02-19,13:09:41,KAZAKHSTAN,-4.4,-11.7,1047.4,1031.8,26.3,6.4,0.00,0.0,100000,91.0,85
172400,2021-02-19,13:09:41,TURKEY,-0.9,-5.0,951.9,1016.0,28.6,6.7,0.09,0.5,111000,56.2,59
532310,2021-02-19,13:09:41,CHINA,-3.8,-16.0,850.9,857.9,29.1,17.8,0.00,0.0,100000,46.5,0
171240,2021-02-19,13:09:41,TURKEY,-1.6,-5.2,968.5,1018.8,13.2,8.9,0.08,1.2,111000,72.4,353
400830,2021-02-19,13:09:41,SYRIA,-1.2,-9.8,994.3,1022.8,19.8,22.7,0.00,0.0,100000,50.8,313
475160,2021-02-19,13:09:41,JAPAN,-3.3,-7.5,998.4,992.6,12.5,21.0,0.00,0.0,100000,81.2,219
541020,2021-02-19,13:09:41,CHINA,-12.6,-19.2,938.2,1029.7,28.0,1.6,0.01,0.0,110000,69.5,86
543420,2021-02-19,13:09:41,CHINA,-3.7,-12.2,1019.6,1024.0,8.4,7.3,0.03,0.0,110000,52.6,209
171350,2021-02-19,13:09:41,TURKEY,-0.1,-4.8,922.3,1011.0,14.8,17.9,0.00,0.0,100000,28.8,194
525760,2021-02-19,13:09:41,CHINA,-5.9,-20.7,849.8,861.4,32.8,36.1,0.00,0.0,100000,73.3,270
529550,2021-02-19,13:09:41,CHINA,-2.5,-17.9,694.4,684.9,32.5,12.3,0.02,0.0,110000,66.6,72
350780,2021-02-19,13:09:41,KAZAKHSTAN,-5.5,-9.1,1022.0,1033.3,9.8,15.1,,8.6,111000,67.4,122
541860,2021-02-19,13:09:41,CHINA,-9.9,-17.4,1010.5,1024.2,19.7,6.6,0.03,0.0,110000,52.3,121
524410,2021-02-19,13:09:41,CHINA,-6.1,-19.2,843.9,846.1,41.6,19.5,0.01,0.0,110000,50.0,51
380190,2021-02-19,13:09:41,KAZAKHSTAN,-9.5,-12.1,1017.8,1036.1,37.7,2.1,0.05,8.2,111000,52.3,30
544490,2021-02-19,13:09:41,CHINA,-1.4,-18.8,1019.0,1015.6,39.9,29.5,0.05,0.0,110000,52.3,109
514950,2021-02-19,13:09:41,CHINA,-1.9,-17.3,985.4,1032.7,31.7,38.3,0.00,0.0,100000,4.0,52
357390,2021-02-19,13:09:41,KAZAKHSTAN,-0.6,-6.8,1035.8,1028.6,46.4,12.8,0.00,3.0,101000,51.4,343
525330,2021-02-19,13:09:41,CHINA,-2.0,-13.1,893.6,1027.6,30.9,6.5,0.01,0.0,110000,80.0,143
525331,2021-02-19,13:09:41,CHINA,-5.7,-10.4,974.6,995.5,2.2,10.6,0.00,0.0,100000,31.9,48
366390,2021-02-19,13:09:41,KAZAKHSTAN,-10.6,-14.6,1036.4,1033.0,49.3,3.3,0.00,38.4,101000,51.9,294
442590,2021-02-19,13:09:41,MONGOLIA,-7.3,-11.9,953.7,1027.0,11.6,17.8,0.00,1.6,101000,79.9,270
368215,2021-02-19,13:09:41,KAZAKHSTAN,-7.8,-10.2,1010.6,1022.1,5.1,15.2,0.00,0.0,100000,26.8,76
171400,2021-02-19,13:09:41,TURKEY,-4.6,-6.7,871.8,855.5,7.8,15.0,0.07,18.1,111000,51.4,229
537230,2021-02-19,13:09:41,CHINA,-6.2,-18.2,907.8,1029.1,14.5,11.3,0.02,0.0,110000,54.1,76
476120,2021-02-19,13:09:41,JAPAN,-0.6,-5.5,1018.3,1018.8,18.1,4.3,0.40,14.3,111000,50.4,148
470520,2021-02-19,13:09:41,KOREANORTH,-4.3,-9.3,1017.7,1023.2,14.9,1.9,0.00,0.0,100000,24.2,100
289780,2021-02-19,13:09:41,KAZAKHSTAN,-8.7,-11.3,969.2,1020.4,10.9,4.5,0.00,0.0,100000,66.3,246
170820,2021-02-19,13:09:41,TURKEY,-0.8,-5.5,1003.3,1013.1,8.7,14.8,0.05,0.5,111000,50.2,349
471010,2021-02-19,13:09:41,KOREASOUTH,-2.2,-8.1,1019.1,1023.4,20.6,0.3,0.05,0.2,111000,77.1,86
471020,2021-02-19,13:09:41,KOREASOUTH,-0.1,-7.2,1004.7,1024.4,7.0,15.3,0.01,0.0,110000,50.8,345
471360,2021-02-19,13:09:41,KOREASOUTH,-2.1,-10.7,1014.7,1024.4,18.4,0.1,0.08,0.0,110000,52.4,71
471370,2021-02-19,13:09:41,KOREASOUTH,-1.2,-11.9,1011.6,1021.8,12.8,5.3,0.00,0.0,100000,56.0,281
350420,2021-02-19,13:09:41,KAZAKHSTAN,-2.4,-6.2,1027.0,1020.0,16.3,12.5,0.01,0.9,111000,83.2,168
522030,2021-02-19,13:09:41,CHINA,-0.2,-13.0,989.1,1027.5,36.1,2.1,0.00,0.0,100000,74.2,117
443140,2021-02-19,13:09:41,MONGOLIA,-8.6,-16.8,928.2,1022.1,13.6,3.9,0.00,1.5,101000,86.2,171
471131,2021-02-19,13:09:41,KOREASOUTH,-1.4,-6.4,991.0,997.5,7.4,6.9,0.00,0.0,100000,44.1,127
531490,2021-02-19,13:09:41,CHINA,-6.8,-17.5,905.7,1027.7,31.0,15.8,0.02,0.0,110000,51.9,16
562570,2021-02-19,13:09:41,CHINA,-1.3,-15.4,684.6,683.3,43.1,2.5,0.01,0.0,110000,53.3,81
471100,2021-02-19,13:09:41,KOREASOUTH,-1.6,-7.4,1008.3,1009.9,3.0,13.0,0.00,0.0,100000,98.6,206
475700,2021-02-19,13:09:41,JAPAN,-3.2,-7.1,1007.5,1019.5,14.3,2.8,0.16,7.8,111000,51.3,109
353450,2021-02-19,13:09:41,KAZAKHSTAN,-1.0,-4.9,1065.1,1041.7,16.2,0.2,0.00,4.9,101000,69.6,160
475810,2021-02-19,13:09:41,JAPAN,-3.2,-8.9,1013.0,1016.2,28.8,9.0,0.02,5.9,111000,90.3,301
535290,2021-02-19,13:09:41,CHINA,-3.4,-16.2,893.0,1028.5,22.4,4.0,0.01,0.0,110000,63.4,95
475740,2021-02-19,13:09:41,JAPAN,-1.3,-9.0,1007.5,1018.3,13.9,22.1,0.03,0.0,110000,54.4,318
170700,2021-02-19,13:09:41,TURKEY,-0.5,-5.1,943.2,1017.1,11.0,4.7,0.14,2.0,111000,54.1,100
549060,2021-02-19,13:09:41,CHINA,-1.7,-9.4,1024.4,1026.2,10.8,10.5,0.01,0.0,110000,62.2,55
470350,2021-02-19,13:09:41,KOREANORTH,-4.1,-11.3,1037.1,1024.4,19.2,11.6,0.04,0.0,110000,51.2,97
542180,2021-02-19,13:09:41,CHINA,-7.9,-22.1,992.4,1025.1,24.9,8.5,0.01,0.0,110000,51.4,111
471330,2021-02-19,13:09:41,KOREASOUTH,-0.4,-6.8,1018.7,1024.0,13.6,9.3,0.04,0.0,110000,78.6,105
471340,2021-02-19,13:09:41,KOREASOUTH,-1.6,-8.9,999.3,993.4,10.9,12.2,0.04,0.0,110000,54.9,128
506030,2021-02-19,13:09:41,CHINA,-10.2,-14.3,984.7,1027.5,30.7,2.7,0.01,0.0,110000,65.4,80
471350,2021-02-19,13:09:41,KOREASOUTH,-1.8,-9.9,1005.7,1023.0,17.8,11.7,0.04,0.0,110000,60.9,238
545110,2021-02-19,13:09:41,CHINA,-0.9,-14.0,1021.1,1025.5,18.1,7.0,0.03,0.0,110000,74.6,329
400010,2021-02-19,13:09:41,SYRIA,-0.4,-4.8,1036.8,1012.7,15.6,3.3,0.00,0.0,100000,80.6,318
170960,2021-02-19,13:09:41,TURKEY,-2.8,-5.7,891.1,905.2,16.9,16.0,0.08,8.8,111000,51.8,38
475920,2021-02-19,13:09:41,JAPAN,-1.3,-6.1,1014.9,1017.0,21.9,16.1,0.18,2.0,111000,50.3,351
535430,2021-02-19,13:09:41,CHINA,-4.5,-16.1,881.0,1028.0,30.3,9.5,0.00,0.0,100000,69.9,4
561160,2021-02-19,13:09:41,CHINA,-1.1,-15.5,683.7,690.0,33.6,9.9,0.01,0.0,110000,52.4,70
471580,2021-02-19,13:09:41,KOREASOUTH,-0.5,-4.8,1010.9,1009.2,14.3,9.3,0.00,0.0,100000,65.4,198
471560,2021-02-19,13:09:41,KOREASOUTH,-0.2,-6.7,1018.2,1022.9,13.9,12.6,0.08,0.0,110000,84.8,80
358490,2021-02-19,13:09:41,KAZAKHSTAN,-1.9,-5.4,1013.3,1023.4,17.1,9.8,0.01,1.2,111000,52.3,157
171295,2021-02-19,13:09:41,TURKEY,-0.5,-3.0,997.5,1008.9,10.7,7.8,0.00,0.0,100000,56.8,15
478140,2021-02-19,13:09:41,JAPAN,-0.6,-6.9,1014.5,1023.1,15.9,0.1,0.00,0.0,100000,78.8,130
355760,2021-02-19,13:09:41,KAZAKHSTAN,-7.7,-11.8,1013.7,1036.2,26.2,15.2,0.01,6.9,111000,55.7,219
365350,2021-02-19,13:09:41,KAZAKHSTAN,-7.4,-11.4,1073.3,1035.1,33.7,8.8,0.00,0.0,100000,90.7,292
474280,2021-02-19,13:09:41,JAPAN,-3.0,-7.8,1011.6,1013.0,15.3,7.2,0.10,0.0,110000,51.9,334
544830,2021-02-19,13:09:41,CHINA,-10.0,-15.6,1024.5,1024.0,12.5,13.2,0.01,0.0,110000,52.6,99
343980,2021-02-19,13:09:41,KAZAKHSTAN,-2.2,-5.0,1013.2,1013.6,20.1,21.1,0.00,7.9,101000,58.9,213
543110,2021-02-19,13:09:41,CHINA,-4.5,-17.3,975.6,1027.8,24.0,8.1,0.02,0.0,110000,67.1,228
475830,2021-02-19,13:09:41,JAPAN,-2.3,-7.3,1009.1,1011.1,3.6,13.0,0.00,0.0,100000,10.6,132
475820,2021-02-19,13:09:41,JAPAN,-2.3,-6.9,1021.1,1017.2,13.1,23.7,0.14,4.9,111000,50.4,306
510760,2021-02-19,13:09:41,CHINA,-7.4,-12.9,962.7,1032.5,30.2,2.9,0.04,0.0,110000,56.6,117
527650,2021-02-19,13:09:41,CHINA,-8.4,-19.9,714.4,714.3,22.1,1.1,0.01,0.0,110000,51.6,235
470390,2021-02-19,13:09:41,KOREANORTH,-3.7,-7.9,1042.4,1024.8,12.5,1.0,0.00,0.0,100000,52.7,73
443520,2021-02-19,13:09:41,MONGOLIA,-8.1,-16.2,1071.9,1030.2,53.1,19.7,0.00,0.0,100000,53.2,310
471210,2021-02-19,13:09:41,KOREASOUTH,-3.2,-12.4,994.2,1024.2,12.9,2.4,0.06,0.0,110000,60.7,116
471200,2021-02-19,13:09:41,KOREASOUTH,-2.3,-6.6,1007.7,1010.2,8.5,8.2,0.00,0.1,101000,51.7,288
471260,2021-02-19,13:09:41,KOREASOUTH,-0.2,-9.3,999.2,957.8,8.3,14.5,0.00,0.0,100000,12.8,318
298070,2021-02-19,13:09:41,KAZAKHSTAN,-11.3,-14.2,1027.6,1027.5,1.5,5.3,0.02,4.3,111000,52.0,278
540490,2021-02-19,13:09:41,CHINA,-5.7,-13.6,1028.8,1023.6,18.6,10.8,0.02,0.0,110000,69.6,218
443410,2021-02-19,13:09:41,MONGOLIA,-6.1,-15.3,855.9,1021.3,44.3,8.8,0.00,0.5,101000,52.5,306
530830,2021-02-19,13:09:41,CHINA,-5.8,-12.1,962.6,1030.0,39.6,8.9,0.02,0.0,110000,52.3,83
561250,2021-02-19,13:09:41,CHINA,-1.4,-18.2,648.6,651.7,19.6,24.2,0.00,0.0,100000,51.3,73
529960,2021-02-19,13:09:41,CHINA,-2.4,-7.6,778.1,776.4,18.4,23.1,0.03,0.0,110000,51.8,140
351080,2021-02-19,13:09:41,KAZAKHSTAN,-3.3,-5.8,1019.1,1023.8,10.9,27.8,0.01,8.6,111000,80.0,313
514670,2021-02-19,13:09:41,CHINA,-1.0,-13.8,829.4,828.4,28.8,0.7,0.00,0.0,100000,70.2,19
539470,2021-02-19,13:09:41,CHINA,-3.2,-14.8,949.2,1027.1,21.8,7.6,0.01,0.0,110000,81.5,132
570060,2021-02-19,13:09:41,CHINA,-1.2,-10.7,946.7,1026.1,11.7,5.2,0.02,0.0,110000,50.7,43
582030,2021-02-19,13:09:41,CHINA,-0.1,-6.6,1022.6,1025.7,19.2,16.0,0.03,0.0,110000,50.7,45
542360,2021-02-19,13:09:41,CHINA,-6.2,-16.1,1019.7,1024.1,13.2,24.3,0.02,0.0,110000,51.4,241
470580,2021-02-19,13:09:41,KOREANORTH,-2.7,-8.3,1015.4,1023.6,21.9,5.4,0.01,0.0,110000,52.1,6
543460,2021-02-19,13:09:41,CHINA,-2.6,-12.8,1018.7,1025.1,19.6,8.3,0.02,0.0,110000,57.7,304
363970,2021-02-19,13:09:41,KAZAKHSTAN,-10.9,-16.9,1023.3,1036.7,8.6,33.7,0.00,0.0,100000,86.1,103
475690,2021-02-19,13:09:41,JAPAN,-0.5,-6.9,1001.6,1002.4,11.4,18.4,0.00,0.0,100000,73.3,352
560930,2021-02-19,13:09:41,CHINA,-5.0,-9.2,,1033.0,15.9,1.4,0.02,0.0,110000,51.0,269
543080,2021-02-19,13:09:41,CHINA,-7.3,-20.4,1020.4,1027.8,30.3,10.7,0.03,0.0,110000,58.4,63
475200,2021-02-19,13:09:41,JAPAN,-2.0,-5.5,1005.5,1018.4,14.5,12.0,0.16,0.0,110000,69.2,192
353860,2021-02-19,13:09:41,KAZAKHSTAN,-8.2,-11.0,986.8,983.3,17.9,13.8,0.00,0.0,100000,47.8,220
544710,2021-02-19,13:09:41,CHINA,-5.7,-13.3,1024.0,1025.0,15.7,24.0,0.00,0.0,100000,31.6,313
470312,2021-02-19,13:09:41,CHINA,-2.1,-16.4,994.9,980.0,1.8,7.7,0.00,0.0,100000,46.4,118
527870,2021-02-19,13:09:41,CHINA,-5.7,-14.2,746.9,749.8,27.0,21.7,0.01,0.0,110000,69.5,166
476800,2021-02-19,13:09:41,JAPAN,-0.1,-5.9,997.4,1017.6,26.5,12.7,0.00,0.0,100000,95.3,249
543424,2021-02-19,13:09:41,CHINA,-3.5,-13.2,998.3,994.3,7.1,21.8,0.00,0.0,100000,44.7,355
521180,2021-02-19,13:09:41,CHINA,-4.1,-17.1,829.1,828.2,32.7,10.3,0.01,0.0,110000,56.7,136
353210,2021-02-19,13:09:41,KAZAKHSTAN,-5.0,-10.3,1054.0,1035.4,8.1,10.2,0.00,0.0,100000,88.1,38
172000,2021-02-19,13:09:41,TURKEY,-0.3,-4.0,975.1,1013.5,11.7,12.8,0.10,0.5,111000,50.0,208
477560,2021-02-19,13:09:41,JAPAN,-0.1,-4.2,1002.9,1019.1,17.0,7.8,0.22,0.0,110000,85.9,155
443850,2021-02-19,13:09:41,MONGOLIA,-2.5,-14.0,893.2,1026.3,34.0,10.6,0.00,0.0,100000,76.6,246
546160,2021-02-19,13:09:41,CHINA,-2.8,-12.7,1026.6,1026.2,13.4,8.5,0.02,0.0,110000,53.5,345
560290,2021-02-19,13:09:41,CHINA,-2.3,-16.4,645.5,645.4,28.5,0.0,0.04,0.0,110000,53.9,263
471610,2021-02-19,13:09:41,KOREASOUTH,-1.3,-8.5,1001.0,1001.4,5.8,11.6,0.05,0.0,110000,93.4,339
504680,2021-02-19,13:09:41,CHINA,-14.1,-20.1,1013.4,1021.6,20.6,13.4,0.01,0.0,110000,51.0,271
475530,2021-02-19,13:09:41,JAPAN,-2.0,-5.5,1004.5,1004.0,5.8,13.2,0.00,0.0,100000,48.5,332
537050,2021-02-19,13:09:41,CHINA,-2.4,-14.4,973.1,1028.4,25.1,15.1,0.01,0.0,110000,50.3,134
539150,2021-02-19,13:09:41,CHINA,-3.0,-11.1,907.3,1029.6,23.9,11.9,0.02,0.0,110000,52.3,99
570250,2021-02-19,13:09:41,CHINA,-0.4,-6.5,1047.6,1035.5,14.1,6.5,0.00,0.0,100000,4.2,81
534870,2021-02-19,13:09:41,CHINA,-8.2,-21.4,972.0,1027.9,13.5,13.1,0.01,0.0,110000,50.2,267
471530,2021-02-19,13:09:41,KOREASOUTH,-0.4,-7.0,1016.5,1017.4,8.8,13.3,0.00,0.0,100000,6.5,78
547150,2021-02-19,13:09:41,CHINA,-0.9,-10.9,1021.3,1026.7,12.7,21.3,0.05,0.0,110000,92.1,129
471520,2021-02-19,13:09:41,KOREASOUTH,-0.3,-8.6,1032.7,1021.7,12.6,20.1,0.09,0.0,110000,96.7,217
357000,2021-02-19,13:09:41,KAZAKHSTAN,-1.1,-5.0,1025.9,1022.2,19.6,29.9,0.04,1.8,111000,54.9,7
357960,2021-02-19,13:09:41,KAZAKHSTAN,-8.5,-12.7,1019.4,1033.2,42.2,27.8,0.01,1.4,111000,53.4,314
475490,2021-02-19,13:09:41,JAPAN,-1.8,-8.0,998.3,996.0,3.5,13.6,0.00,0.0,100000,31.0,43
474300,2021-02-19,13:09:41,JAPAN,-5.6,-9.4,1019.4,1015.5,15.0,24.8,0.08,7.1,111000,73.9,34
474180,2021-02-19,13:09:41,JAPAN,-10.6,-15.8,1010.2,1016.0,26.0,33.0,0.07,4.6,111000,69.7,235
351880,2021-02-19,13:09:41,KAZAKHSTAN,-4.9,-8.1,1027.9,1027.6,15.4,21.0,0.19,2.2,111000,50.1,247
528420,2021-02-19,13:09:41,CHINA,-10.2,-26.4,696.5,689.8,18.9,10.2,0.01,0.0,110000,76.7,120
170860,2021-02-19,13:09:41,TURKEY,-0.2,-5.9,944.7,1018.8,18.5,11.3,0.35,4.1,111000,52.0,60
507880,2021-02-19,13:09:41,CHINA,-9.5,-15.7,1018.9,1019.4,22.9,12.7,0.02,0.0,110000,50.3,229
171700,2021-02-19,13:09:41,TURKEY,-1.7,-4.8,947.4,943.2,20.7,7.5,0.02,3.9,111000,82.4,220
548360,2021-02-19,13:09:41,CHINA,-2.1,-12.2,1032.7,1027.3,14.2,13.6,0.03,0.0,110000,53.8,171
523230,2021-02-19,13:09:41,CHINA,-5.7,-19.3,818.8,817.2,35.5,21.3,0.01,0.0,110000,50.8,266
548260,2021-02-19,13:09:41,CHINA,-3.0,-12.3,870.9,873.0,24.9,24.8,0.03,0.0,110000,66.8,328
548230,2021-02-19,13:09:41,CHINA,-0.5,-12.2,1022.3,1026.3,10.3,11.7,0.02,0.0,110000,51.6,350
366220,2021-02-19,13:09:41,KAZAKHSTAN,-11.9,-16.3,1041.3,1036.3,26.7,24.5,0.00,3.0,101000,67.1,316
355490,2021-02-19,13:09:41,KAZAKHSTAN,-4.4,-7.2,1028.0,1033.7,18.2,17.4,0.00,2.6,101000,97.6,154
513560,2021-02-19,13:09:41,CHINA,-9.4,-12.4,1006.1,1033.1,15.5,3.0,0.00,0.0,100000,96.8,145
545390,2021-02-19,13:09:41,CHINA,-3.1,-12.3,1021.5,1026.6,22.7,9.6,0.02,0.0,110000,80.9,292
513460,2021-02-19,13:09:41,CHINA,-8.5,-10.3,1053.4,1041.1,48.8,2.7,0.00,0.0,100000,33.0,326
522670,2021-02-19,13:09:41,CHINA,-5.7,-21.4,932.6,1029.7,28.5,10.2,0.00,0.0,100000,45.6,30
561520,2021-02-19,13:09:41,CHINA,-3.0,-11.8,662.7,666.5,28.7,13.5,0.02,0.0,110000,51.0,327
530680,2021-02-19,13:09:41,CHINA,-4.4,-14.0,932.6,1029.0,29.6,12.7,0.01,0.0,110000,51.0,88
523780,2021-02-19,13:09:41,CHINA,-3.4,-18.7,985.8,1008.3,25.5,22.4,0.00,0.0,100000,67.3,155
506580,2021-02-19,13:09:41,CHINA,-9.7,-14.7,1025.4,1022.8,10.5,7.2,0.01,0.0,110000,56.9,179
171600,2021-02-19,13:09:41,TURKEY,-0.9,-10.2,905.1,876.3,15.7,5.0,0.00,0.0,100000,42.9,181
528560,2021-02-19,13:09:41,CHINA,-3.2,-18.8,768.1,767.8,22.0,6.3,0.03,0.0,110000,56.2,257
474330,2021-02-19,13:09:41,JAPAN,-4.3,-19.3,990.2,1014.6,29.8,14.1,0.00,0.0,100000,57.5,200
586530,2021-02-19,13:09:41,CHINA,-1.4,-2.4,914.6,1023.8,1.9,22.4,0.25,0.0,110000,51.0,123
475760,2021-02-19,13:09:41,JAPAN,-3.7,-9.0,1016.8,1017.3,5.7,10.8,0.13,0.0,110000,71.4,51
471400,2021-02-19,13:09:41,KOREASOUTH,-0.7,-6.0,1016.7,1023.9,21.1,29.8,0.03,0.0,110000,50.6,172
471410,2021-02-19,13:09:41,KOREASOUTH,-0.7,-5.6,1012.6,1015.4,9.6,20.4,0.07,0.1,111000,95.5,274
471420,2021-02-19,13:09:41,KOREASOUTH,-0.4,-10.6,1013.4,1012.9,12.1,11.3,0.00,0.0,100000,53.9,201
542370,2021-02-19,13:09:41,CHINA,-7.7,-23.7,1037.5,1032.0,15.9,18.0,0.00,0.0,100000,90.8,26
470550,2021-02-19,13:09:41,KOREANORTH,-1.2,-9.1,1024.8,1022.5,12.0,5.7,0.12,0.3,111000,89.0,253
478290,2021-02-19,13:09:41,JAPAN,-0.6,-8.7,1001.2,1019.1,19.9,13.7,0.07,0.0,110000,50.4,224
171950,2021-02-19,13:09:41,TURKEY,-1.5,-5.7,957.2,972.9,9.3,1.8,0.07,1.8,111000,72.3,215
475880,2021-02-19,13:09:41,JAPAN,-3.5,-6.4,997.0,1015.1,17.1,12.0,0.18,0.0,110000,81.9,281
521120,2021-02-19,13:09:41,CHINA,-1.8,-16.3,1022.8,1026.0,28.2,21.1,0.00,0.0,100000,13.5,172
470990,2021-02-19,13:09:41,KOREASOUTH,-2.7,-9.8,1020.7,1024.6,10.0,2.7,0.00,0.0,100000,85.9,332
471030,2021-02-19,13:09:41,KOREASOUTH,-0.7,-4.6,1016.2,1024.6,13.6,22.2,0.00,0.0,100000,73.5,90
471025,2021-02-19,13:09:41,KOREASOUTH,-0.1,-5.8,1011.2,1015.3,1.8,7.7,0.00,0.0,100000,62.8,220
501360,2021-02-19,13:09:41,CHINA,-23.2,-30.9,968.5,1026.9,17.2,4.1,0.00,0.0,100000,56.5,80
583140,2021-02-19,13:09:41,CHINA,-0.2,-4.2,1016.6,1026.7,10.6,8.1,0.13,0.0,110000,50.9,198
475150,2021-02-19,13:09:41,JAPAN,-3.5,-7.8,999.4,1000.6,19.5,13.3,0.00,0.0,100000,44.4,302
383530,2021-02-19,13:09:41,KYRGYZSTAN,-0.4,-4.6,1000.1,1028.3,7.6,9.8,0.03,0.4,111000,55.6,165
471310,2021-02-19,13:09:41,KOREASOUTH,-1.9,-8.0,1020.5,1024.0,21.8,15.2,0.04,0.0,110000,52.2,252
356710,2021-02-19,13:09:41,KAZAKHSTAN,-4.6,-8.5,997.7,1028.6,18.0,21.0,0.00,3.2,101000,79.1,117
508440,2021-02-19,13:09:41,CHINA,-4.8,-13.0,1021.8,1022.9,12.8,14.6,0.01,0.0,110000,50.7,355
474760,2021-02-19,13:09:41,JAPAN,-9.7,-14.3,999.9,1001.6,4.4,13.5,0.00,0.0,100000,77.3,30
470460,2021-02-19,13:09:41,KOREANORTH,-1.3,-5.4,1018.9,1018.9,23.5,11.7,0.01,0.3,111000,53.9,236
347980,2021-02-19,13:09:41,KAZAKHSTAN,-1.7,-4.8,1021.1,1019.7,17.5,19.6,0.00,0.7,101000,50.1,268
471064,2021-02-19,13:09:41,KOREASOUTH,-6.3,-10.8,1012.2,1011.1,15.1,0.5,0.00,0.0,100000,35.1,271
471066,2021-02-19,13:09:41,KOREASOUTH,-1.6,-7.1,1008.9,1006.7,10.4,3.9,0.00,0.1,101000,51.2,13
471050,2021-02-19,13:09:41,KOREASOUTH,-0.1,-9.3,1017.6,1021.2,23.7,5.4,0.08,0.4,111000,50.5,78
509630,2021-02-19,13:09:41,CHINA,-9.1,-12.8,1016.8,1022.1,12.0,5.9,0.01,0.0,110000,98.8,130
475450,2021-02-19,13:09:41,JAPAN,-1.7,-5.6,1002.1,1006.8,10.5,13.4,0.00,0.0,100000,93.3,130
552280,2021-02-19,13:09:41,CHINA,-1.7,-17.4,603.4,600.0,30.6,0.1,0.01,0.0,110000,85.7,116
354060,2021-02-19,13:09:41,KAZAKHSTAN,-4.0,-7.8,1027.8,1028.4,26.8,18.3,0.00,0.0,100000,86.0,119
560330,2021-02-19,13:09:41,CHINA,-13.5,-21.0,626.2,621.8,34.7,5.4,0.03,0.0,110000,79.0,196
353940,2021-02-19,13:09:41,KAZAKHSTAN,-4.8,-9.0,1002.1,1031.7,24.3,12.0,0.20,3.9,111000,53.9,49
581500,2021-02-19,13:09:41,CHINA,-0.7,-5.4,1022.1,1026.7,14.0,9.6,0.03,0.0,110000,54.4,31
527070,2021-02-19,13:09:41,CHINA,-4.8,-21.1,724.8,721.2,10.8,7.7,0.00,0.0,100000,61.7,327
544930,2021-02-19,13:09:41,CHINA,-8.0,-13.6,1021.3,1025.2,19.1,5.3,0.01,0.0,110000,72.1,19
474020,2021-02-19,13:09:41,JAPAN,-10.4,-14.8,1011.5,1018.3,22.1,15.5,0.05,0.0,110000,54.9,209
474010,2021-02-19,13:09:41,JAPAN,-7.7,-12.8,1011.6,1015.7,15.4,14.9,0.08,15.3,111000,87.1,143
470950,2021-02-19,13:09:41,KOREASOUTH,-3.0,-9.6,1007.4,1023.7,11.2,14.1,0.05,0.0,110000,54.9,124
508540,2021-02-19,13:09:41,CHINA,-6.8,-12.7,1026.3,1022.3,15.7,14.6,0.01,0.0,110000,52.0,137
560210,2021-02-19,13:09:41,CHINA,-7.8,-18.9,616.6,613.9,29.6,4.2,0.01,0.0,110000,51.7,148
540940,2021-02-19,13:09:41,CHINA,-5.0,-10.7,1010.6,1022.2,12.2,9.7,0.02,0.0,110000,88.3,328
471460,2021-02-19,13:09:41,KOREASOUTH,-0.3,-5.3,1018.8,1023.6,12.6,7.2,0.05,0.0,110000,50.9,280
170671,2021-02-19,13:09:41,TURKEY,-5.8,-8.2,1016.6,1023.8,12.7,2.0,0.00,0.0,100000,0.9,233
443170,2021-02-19,13:09:41,MONGOLIA,-5.9,-10.1,901.0,1031.8,25.5,0.9,0.00,3.3,101000,57.2,251
474210,2021-02-19,13:09:41,JAPAN,-4.2,-9.7,1015.6,1015.1,22.5,11.5,0.10,14.0,111000,50.5,292
511560,2021-02-19,13:09:41,CHINA,-6.3,-13.1,929.1,1031.7,23.3,5.6,0.01,0.0,110000,88.1,311
509830,2021-02-19,13:09:41,CHINA,-8.8,-14.4,1016.7,1020.9,17.3,2.1,0.02,0.0,110000,99.0,279
474230,2021-02-19,13:09:41,JAPAN,-4.3,-9.0,1010.1,1015.4,7.8,25.0,0.09,0.0,110000,51.2,273
474120,2021-02-19,13:09:41,JAPAN,-7.5,-11.8,1014.1,1012.5,11.1,12.4,0.14,14.8,111000,57.6,174
509780,2021-02-19,13:09:41,CHINA,-6.6,-14.2,1006.1,1021.2,25.0,6.8,0.02,0.0,110000,52.3,11
584450,2021-02-19,13:09:41,CHINA,-2.0,-6.6,875.2,950.4,18.1,31.8,0.18,0.0,110000,50.8,57
570730,2021-02-19,13:09:41,CHINA,-0.3,-10.0,1025.0,1024.5,16.7,14.9,0.00,0.0,100000,33.3,292
536140,2021-02-19,13:09:41,CHINA,-3.3,-13.3,926.9,1028.1,15.8,9.1,0.00,0.0,100000,2.3,121
541150,2021-02-19,13:09:41,CHINA,-6.8,-17.2,976.0,1026.3,21.1,22.9,0.01,0.0,110000,80.6,241
474110,2021-02-19,13:09:41,JAPAN,-6.5,-10.6,1011.5,1015.5,14.7,20.1,0.09,0.0,110000,63.5,156
474090,2021-02-19,13:09:41,JAPAN,-10.7,-13.7,1013.9,1014.9,25.8,1.4,0.05,8.6,111000,71.8,155
534800,2021-02-19,13:09:41,CHINA,-9.0,-20.4,960.6,1029.8,30.7,7.3,0.01,0.0,110000,78.3,341
443290,2021-02-19,13:09:41,MONGOLIA,-7.9,-11.3,776.5,1029.6,21.7,13.8,0.00,2.8,101000,96.7,223
170900,2021-02-19,13:09:41,TURKEY,-1.3,-4.5,914.2,932.6,18.8,1.8,0.27,4.3,111000,65.6,147
543770,2021-02-19,13:09:41,CHINA,-4.1,-10.4,1026.0,1025.3,11.3,5.1,0.03,0.0,110000,51.0,34
380910,2021-02-19,13:09:41,KAZAKHSTAN,-1.6,-5.7,1027.0,1030.1,43.7,10.6,0.02,1.2,111000,50.7,134
538980,2021-02-19,13:09:41,CHINA,-1.1,-9.8,1023.8,1026.8,16.0,8.6,0.02,0.0,110000,52.2,95
542590,2021-02-19,13:09:41,CHINA,-7.4,-15.1,1028.7,1024.9,19.4,3.9,0.02,0.0,110000,86.5,69
471000,2021-02-19,13:09:41,KOREASOUTH,-4.1,-10.9,922.2,1022.6,19.3,16.7,0.09,10.6,111000,51.9,226
470980,2021-02-19,13:09:41,KOREASOUTH,-2.8,-10.6,1011.3,1025.2,9.3,4.8,0.01,0.0,110000,72.1,139
171200,2021-02-19,13:09:41,TURKEY,-2.4,-4.7,1025.9,1005.2,15.3,2.3,0.00,0.0,100000,64.4,87
442920,2021-02-19,13:09:41,MONGOLIA,-15.0,-17.9,889.7,1030.4,22.3,5.5,0.26,3.0,111000,86.5,258
474410,2021-02-19,13:09:41,JAPAN,-5.7,-11.6,998.7,1001.6,15.0,11.6,0.00,0.0,100000,23.0,41
570460,2021-02-19,13:09:41,CHINA,-3.6,-11.0,817.2,825.1,23.0,25.6,0.02,0.0,110000,51.4,212
540120,2021-02-19,13:09:41,CHINA,-12.2,-18.3,937.1,1029.7,22.7,13.9,0.02,0.0,110000,50.3,
529080,2021-02-19,13:09:41,CHINA,-7.8,-18.8,999.7,1006.2,24.7,23.6,0.01,0.0,110000,60.4,354
474790,2021-02-19,13:09:41,JAPAN,-7.9,-11.7,1001.6,997.3,7.0,14.0,0.00,0.0,100000,41.7,106
288790,2021-02-19,13:09:41,KAZAKHSTAN,-4.9,-7.7,1032.2,1032.0,7.1,24.7,0.01,0.5,111000,51.5,95
288770,2021-02-19,13:09:41,KAZAKHSTAN,-6.8,-12.1,1016.9,1019.4,19.0,14.1,0.02,5.4,111000,93.5,82
474130,2021-02-19,13:09:41,JAPAN,-6.7,-9.9,1011.5,1017.3,19.0,5.5,0.00,0.0,100000,49.5,135
474170,2021-02-19,13:09:41,JAPAN,-14.8,-18.0,1009.4,1016.4,6.8,8.3,0.05,0.0,110000,72.6,188
471750,2021-02-19,13:09:41,KOREASOUTH,-0.2,-3.8,966.1,1024.3,11.6,32.7,0.00,0.0,100000,9.0,112
470250,2021-02-19,13:09:41,KOREANORTH,-3.5,-7.3,1015.2,1020.2,10.0,8.2,0.09,0.1,111000,53.1,286
471240,2021-02-19,13:09:41,KOREASOUTH,-2.8,-9.4,988.9,1082.2,15.6,4.1,0.00,0.0,100000,52.7,120
538450,2021-02-19,13:09:41,CHINA,-2.4,-12.2,934.2,1029.3,14.3,10.4,0.01,0.0,110000,77.2,238
289520,2021-02-19,13:09:41,KAZAKHSTAN,-7.1,-12.2,1045.7,1033.7,10.1,22.3,0.63,0.0,110000,50.8,170
471280,2021-02-19,13:09:41,KOREASOUTH,-1.4,-8.7,1008.7,1009.9,3.1,8.2,0.00,0.0,100000,73.5,157
364420,2021-02-19,13:09:41,KAZAKHSTAN,-11.0,-11.4,1012.5,989.5,19.6,32.4,0.02,2.2,111000,98.4,144
170575,2021-02-19,13:09:41,TURKEY,-0.7,-4.1,1002.8,1003.9,8.1,15.5,0.00,0.0,100000,24.0,306
549160,2021-02-19,13:09:41,CHINA,-0.3,-8.4,1027.4,1026.4,12.7,5.1,0.01,0.0,110000,53.8,275
474040,2021-02-19,13:09:41,JAPAN,-6.8,-12.1,1014.2,1017.1,33.7,19.8,0.12,0.0,110000,52.0,34
561460,2021-02-19,13:09:41,CHINA,-0.9,-15.2,680.4,678.4,28.5,7.0,0.01,0.0,110000,89.9,275
367440,2021-02-19,13:09:41,KAZAKHSTAN,-4.6,-9.5,1039.7,1032.8,45.0,12.4,0.00,0.9,101000,51.9,215
476180,2021-02-19,13:09:41,JAPAN,-4.2,-10.6,975.6,1019.3,17.4,6.5,0.14,1.4,111000,59.0,136
476900,2021-02-19,13:09:41,JAPAN,-6.6,-11.4,867.0,861.7,24.9,16.5,0.18,0.0,110000,53.0,297
528250,2021-02-19,13:09:41,CHINA,-3.0,-19.3,723.6,722.4,22.8,2.0,0.00,0.0,100000,11.8,167
507270,2021-02-19,13:09:41,CHINA,-6.5,-11.0,914.0,1027.4,31.2,3.9,0.02,0.0,110000,58.4,156
377090,2021-02-19,13:09:41,ARMENIA,-2.3,-5.9,982.5,984.9,20.7,16.5,0.02,9.2,111000,51.6,86
360010,2021-02-19,13:09:41,KAZAKHSTAN,-11.8,-16.4,1023.4,1023.8,4.3,37.5,0.02,2.8,111000,55.6,233
513340,2021-02-19,13:09:41,CHINA,-5.7,-8.5,1042.3,1032.1,25.8,1.0,0.01,0.0,110000,50.1,162
572900,2021-02-19,13:09:41,CHINA,-0.3,-6.6,1021.7,1026.2,21.1,4.1,0.02,0.0,110000,50.3,65
470500,2021-02-19,13:09:41,KOREANORTH,-5.3,-10.6,1020.3,1023.8,18.8,5.1,0.08,0.0,110000,51.1,120
170920,2021-02-19,13:09:41,TURKEY,-0.1,-3.3,957.0,982.5,6.8,10.4,0.24,3.5,111000,51.8,120
533910,2021-02-19,13:09:41,CHINA,-5.5,-12.7,880.8,1025.9,33.5,23.3,0.01,0.0,110000,50.3,120
524950,2021-02-19,13:09:41,CHINA,-4.6,-19.7,903.2,1029.7,31.4,12.4,0.00,0.0,100000,16.2,150
471110,2021-02-19,13:09:41,KOREASOUTH,-1.5,-7.5,1003.6,993.4,2.6,7.3,0.04,0.0,110000,51.4,1
547050,2021-02-19,13:09:41,CHINA,-9.0,-14.5,1039.7,1035.1,22.4,6.9,0.00,0.0,100000,4.5,242
470030,2021-02-19,13:09:41,KOREANORTH,-6.0,-13.2,1015.9,1019.4,19.9,9.1,0.01,0.0,110000,51.5,73
514310,2021-02-19,13:09:41,CHINA,-0.5,-4.1,975.4,1028.3,29.3,3.3,0.12,0.0,110000,53.4,244
547250,2021-02-19,13:09:41,CHINA,-1.8,-11.7,1028.9,1025.6,2.9,15.7,0.03,0.0,110000,52.5,16
474830,2021-02-19,13:09:41,JAPAN,-6.3,-12.9,1005.9,1003.0,8.9,8.3,0.00,0.0,100000,67.4,263
570140,2021-02-19,13:09:41,CHINA,-2.0,-8.9,1003.4,1032.9,20.0,2.8,0.00,0.0,100000,0.8,111
475750,2021-02-19,13:09:41,JAPAN,-3.1,-7.1,1021.6,1016.6,10.8,16.3,0.14,22.5,111000,85.6,140
510870,2021-02-19,13:09:41,CHINA,-3.9,-6.8,928.7,1028.7,36.0,3.1,0.07,0.0,110000,97.0,5
171990,2021-02-19,13:09:41,TURKEY,-4.3,-7.9,912.0,1030.9,18.4,10.2,0.60,3.3,111000,68.5,181
524240,2021-02-19,13:09:41,CHINA,-3.6,-15.9,898.0,1026.1,29.5,14.0,0.02,0.7,111000,52.2,261
749347,2021-02-19,13:09:41,CHINA,-1.2,-6.6,1035.1,1037.4,8.8,11.1,0.00,0.0,100000,91.4,261
749348,2021-02-19,13:09:41,CHINA,-14.5,-18.2,1033.0,1038.4,51.4,7.6,0.00,0.0,100000,61.0,57
540270,2021-02-19,13:09:41,CHINA,-5.9,-16.9,1001.1,1024.1,26.6,10.9,0.01,0.0,110000,67.4,125
170672,2021-02-19,13:09:41,TURKEY,-3.7,-6.7,979.7,964.8,6.2,8.7,0.00,0.0,100000,16.1,199
170674,2021-02-19,13:09:41,TURKEY,-4.4,-11.4,989.9,995.7,6.8,27.1,0.00,0.0,100000,89.5,74
478240,2021-02-19,13:09:41,JAPAN,-0.3,-8.4,1004.2,1024.0,12.3,1.0,0.04,0.0,110000,52.7,316
358840,2021-02-19,13:09:41,KAZAKHSTAN,-8.5,-12.8,982.1,995.3,19.1,6.7,0.00,11.0,101000,58.9,53
383410,2021-02-19,13:09:41,KAZAKHSTAN,-1.0,-3.6,994.7,1027.8,7.7,10.2,0.19,1.4,111000,72.4,278
508880,2021-02-19,13:09:41,CHINA,-6.7,-13.9,1014.4,1020.8,24.7,11.4,0.02,0.0,110000,60.2,166
355420,2021-02-19,13:09:41,KAZAKHSTAN,-6.6,-10.4,1016.3,1029.0,8.3,17.8,0.03,0.9,111000,88.9,150
442840,2021-02-19,13:09:41,MONGOLIA,-10.9,-14.3,783.4,1036.4,56.4,4.5,0.00,2.8,101000,61.1,123
287850,2021-02-19,13:09:41,KAZAKHSTAN,-4.6,-6.1,1049.8,1018.4,10.0,2.9,0.00,11.6,101000,52.6,105
351730,2021-02-19,13:09:41,KAZAKHSTAN,-9.7,-12.4,1027.4,1032.8,27.0,20.9,0.00,5.2,101000,50.1,46
353760,2021-02-19,13:09:41,KAZAKHSTAN,-5.5,-8.1,991.0,1030.8,20.8,6.2,0.01,6.4,111000,59.8,336
539290,2021-02-19,13:09:41,CHINA,-2.0,-12.3,882.4,888.7,10.2,15.6,0.00,0.0,100000,53.2,22
172440,2021-02-19,13:09:41,TURKEY,-1.0,-5.0,952.6,975.8,10.0,10.1,0.02,0.8,111000,51.3,119
526810,2021-02-19,13:09:41,CHINA,-4.4,-18.1,896.8,1030.3,28.6,9.5,0.00,0.0,100000,92.1,309
380620,2021-02-19,13:09:41,KAZAKHSTAN,-1.8,-6.2,1022.1,1025.7,20.6,3.7,0.01,0.3,111000,90.2,138
474070,2021-02-19,13:09:41,JAPAN,-11.4,-16.1,1008.1,1014.6,14.5,12.5,0.09,16.5,111000,67.1,272
474060,2021-02-19,13:09:41,JAPAN,-7.8,-12.4,1010.4,1015.5,15.9,12.4,0.11,15.1,111000,51.3,93
535640,2021-02-19,13:09:41,CHINA,-5.6,-18.1,936.7,1030.6,20.7,7.7,0.00,0.0,100000,68.0,306
476410,2021-02-19,13:09:41,JAPAN,-1.2,-8.8,989.5,1018.2,23.0,8.2,0.17,0.0,110000,54.5,251
476390,2021-02-19,13:09:41,JAPAN,-23.3,-29.4,1000.4,997.9,44.6,40.5,0.00,0.0,100000,55.2,218
511330,2021-02-19,13:09:41,CHINA,-4.7,-9.0,992.2,1033.3,24.9,9.5,0.05,0.0,110000,89.8,109
352170,2021-02-19,13:09:41,KAZAKHSTAN,-3.0,-5.8,1023.3,1022.0,16.9,21.6,0.01,4.8,111000,88.7,349
538630,2021-02-19,13:09:41,CHINA,-1.7,-11.8,1016.9,1026.9,8.2,13.0,0.02,0.0,110000,54.5,138
538870,2021-02-19,13:09:41,CHINA,-4.3,-19.8,916.2,1026.8,32.4,4.1,0.00,0.0,100000,15.2,76
570670,2021-02-19,13:09:41,CHINA,-1.3,-7.5,991.6,1028.9,20.6,4.2,0.02,0.0,110000,51.9,132
570710,2021-02-19,13:09:41,CHINA,-0.3,-8.8,1029.4,1025.8,19.4,10.6,0.03,0.0,110000,50.4,308
356990,2021-02-19,13:09:41,KAZAKHSTAN,-4.0,-10.7,951.9,1029.8,27.5,0.2,0.00,3.9,101000,51.0,315
381411,2021-02-19,13:09:41,KAZAKHSTAN,-3.2,-3.7,1012.9,991.3,1.7,29.5,0.00,0.0,100000,68.2,268
287660,2021-02-19,13:09:41,KAZAKHSTAN,-5.3,-8.4,1011.7,1027.6,6.8,14.4,0.01,3.5,111000,55.1,314
529570,2021-02-19,13:09:41,CHINA,-3.9,-19.8,723.6,717.9,24.3,15.7,0.03,0.0,110000,90.0,60
475420,2021-02-19,13:09:41,JAPAN,-3.2,-7.3,1003.1,1000.8,8.4,20.4,0.00,0.0,100000,90.6,98
552990,2021-02-19,13:09:41,CHINA,-5.2,-17.5,1003.4,996.9,21.2,19.8,0.01,0.0,110000,68.5,178
552790,2021-02-19,13:09:41,CHINA,-5.0,-22.8,994.2,995.3,31.4,39.4,0.01,0.0,110000,68.0,119
475970,2021-02-19,13:09:41,JAPAN,-1.8,-8.0,974.3,1018.1,20.5,15.9,0.07,0.0,110000,97.0,136
570360,2021-02-19,13:09:41,CHINA,-0.4,-6.8,1006.0,1025.1,1.6,11.4,0.02,0.0,110000,66.6,22
359970,2021-02-19,13:09:41,KAZAKHSTAN,-5.9,-10.3,1044.7,1032.9,31.5,5.5,0.05,0.9,111000,53.6,171
443050,2021-02-19,13:09:41,MONGOLIA,-12.8,-15.9,950.6,1027.2,47.0,10.3,0.01,2.2,111000,50.6,329
536730,2021-02-19,13:09:41,CHINA,-1.7,-15.1,975.3,1028.1,17.7,3.2,0.02,0.0,110000,50.2,66
529830,2021-02-19,13:09:41,CHINA,-5.2,-13.5,817.3,838.3,12.3,7.5,0.00,0.0,100000,36.7,5
541610,2021-02-19,13:09:41,CHINA,-4.0,-10.9,1012.4,1023.3,13.0,13.0,0.03,0.0,110000,52.2,199
541611,2021-02-19,13:09:41,CHINA,-4.9,-11.6,1019.5,1041.2,10.8,1.0,0.00,0.0,100000,96.9,192
541570,2021-02-19,13:09:41,CHINA,-7.8,-16.3,1025.5,1023.1,12.8,6.1,0.03,0.0,110000,64.0,279
442980,2021-02-19,13:09:41,MONGOLIA,-19.2,-25.0,1056.6,1032.8,41.2,16.6,0.05,0.0,110000,82.2,355
477150,2021-02-19,13:09:41,JAPAN,-0.7,-6.7,1001.8,1001.9,8.5,4.7,0.14,0.3,111000,50.1,201
442190,2021-02-19,13:09:41,MONGOLIA,-7.1,-18.9,848.4,1027.7,20.1,11.0,0.00,0.0,100000,10.1,283
476720,2021-02-19,13:09:41,JAPAN,-0.9,-5.4,1019.7,1020.7,24.8,15.3,0.00,0.0,100000,57.8,217
352290,2021-02-19,13:09:41,KAZAKHSTAN,-5.8,-9.4,1017.1,1026.4,4.8,10.4,0.28,4.0,111000,51.3,231
536980,2021-02-19,13:09:41,CHINA,-0.6,-12.5,1023.9,1025.5,13.5,15.1,0.04,0.0,110000,51.0,122
289840,2021-02-19,13:09:41,KAZAKHSTAN,-2.6,-6.8,1029.0,1019.0,29.8,19.5,0.00,0.0,100000,93.7,32
471920,2021-02-19,13:09:41,KOREASOUTH,-1.2,-8.7,1021.3,1022.4,10.3,9.8,0.10,0.0,110000,87.7,298
540960,2021-02-19,13:09:41,CHINA,-7.5,-13.6,1023.3,1021.7,15.7,18.3,0.02,0.0,110000,51.8,167
443040,2021-02-19,13:09:41,MONGOLIA,-12.1,-16.4,1022.3,1032.2,46.3,7.1,0.00,1.1,101000,76.3,299
512430,2021-02-19,13:09:41,CHINA,-5.9,-10.1,1008.0,1034.0,14.4,2.8,0.00,0.0,100000,70.6,356
474900,2021-02-19,13:09:41,JAPAN,-11.3,-17.2,995.7,999.5,11.7,7.2,0.00,0.0,100000,76.7,214
474890,2021-02-19,13:09:41,JAPAN,-7.8,-12.9,1000.0,998.0,4.0,5.4,0.00,0.0,100000,31.7,15
505480,2021-02-19,13:09:41,CHINA,-16.3,-19.0,1007.8,1010.0,24.7,7.5,0.00,0.0,100000,35.8,278
534630,2021-02-19,13:09:41,CHINA,-6.0,-16.7,930.5,1029.0,13.7,11.8,0.01,0.0,110000,53.7,172
560650,2021-02-19,13:09:41,CHINA,-4.7,-14.8,661.0,661.1,27.1,7.3,0.02,0.0,110000,69.5,29
543860,2021-02-19,13:09:41,CHINA,-4.4,-10.5,964.5,1025.8,20.8,6.9,0.04,0.0,110000,54.2,183
363350,2021-02-19,13:09:41,KAZAKHSTAN,-6.0,-12.4,1024.0,1031.4,46.5,19.7,0.00,0.3,101000,51.7,211
580400,2021-02-19,13:09:41,CHINA,-0.9,-7.1,1029.1,1025.7,15.9,15.6,0.02,0.0,110000,76.6,163
510530,2021-02-19,13:09:41,CHINA,-9.3,-14.3,1025.8,1035.3,25.3,12.7,0.02,0.0,110000,53.7,198
476170,2021-02-19,13:09:41,JAPAN,-5.9,-11.3,953.5,1023.9,20.1,9.3,0.00,0.0,100000,17.8,192
350850,2021-02-19,13:09:41,KAZAKHSTAN,-9.0,-13.1,1025.9,1032.5,30.1,19.8,0.00,1.4,101000,51.3,104
544970,2021-02-19,13:09:41,CHINA,-3.7,-13.3,1024.6,1024.3,20.1,15.4,0.01,0.0,110000,94.0,280
505270,2021-02-19,13:09:41,CHINA,-18.5,-20.8,990.2,1027.9,18.4,13.8,0.02,0.0,110000,51.5,8
475120,2021-02-19,13:09:41,JAPAN,-1.1,-6.4,1019.9,1018.9,41.2,6.0,0.00,0.0,100000,88.9,108
563740,2021-02-19,13:09:41,CHINA,-0.2,-6.2,748.3,750.7,29.5,18.9,0.03,0.0,110000,50.2,333
524360,2021-02-19,13:09:41,CHINA,-2.8,-15.7,863.2,1028.5,27.0,30.9,0.01,0.0,110000,51.5,317
470050,2021-02-19,13:09:41,KOREANORTH,-5.4,-9.5,900.8,898.4,13.6,9.1,0.05,6.0,111000,88.1,266
507560,2021-02-19,13:09:41,CHINA,-7.5,-12.5,1009.2,1022.7,16.6,9.8,0.01,0.0,110000,50.7,6
512320,2021-02-19,13:09:41,CHINA,-5.2,-9.9,1027.4,1031.3,7.6,23.0,0.03,0.0,110000,51.5,155
535880,2021-02-19,13:09:41,CHINA,-4.4,-11.1,755.4,756.5,19.8,44.8,0.07,0.0,110000,75.8,356
170880,2021-02-19,13:09:41,TURKEY,-7.0,-8.9,880.8,860.1,22.7,12.0,0.49,25.2,111000,50.1,3
531920,2021-02-19,13:09:41,CHINA,-5.3,-11.4,918.2,1031.9,30.9,22.8,0.01,0.0,110000,51.2,187
476400,2021-02-19,13:09:41,JAPAN,-8.1,-12.2,915.8,906.2,49.6,0.3,0.00,0.0,100000,32.2,166
353020,2021-02-19,13:09:41,KAZAKHSTAN,-3.8,-8.3,1058.2,1032.7,14.2,21.7,0.00,0.0,100000,41.1,160
554720,2021-02-19,13:09:41,CHINA,-4.2,-21.7,998.1,992.5,23.5,43.5,0.01,0.0,110000,52.0,21
470750,2021-02-19,13:09:41,KOREANORTH,-2.3,-6.6,1027.6,1023.2,35.2,11.2,0.07,0.1,111000,51.9,109
474240,2021-02-19,13:09:41,JAPAN,-7.4,-12.9,1018.1,1017.0,20.5,7.9,0.00,0.0,100000,2.3,304
474250,2021-02-19,13:09:41,JAPAN,-10.4,-13.6,1000.6,1001.2,3.0,4.9,0.00,0.0,100000,96.7,301
474260,2021-02-19,13:09:41,JAPAN,-5.6,-10.6,1013.1,1015.5,27.4,24.3,0.03,1.4,111000,97.4,85
563570,2021-02-19,13:09:41,CHINA,-0.4,-15.0,644.9,645.2,31.6,14.5,0.01,0.0,110000,51.5,210
475910,2021-02-19,13:09:41,JAPAN,-1.4,-5.6,1005.2,1004.1,18.0,13.0,0.08,0.5,111000,52.5,69
509490,2021-02-19,13:09:41,CHINA,-8.2,-16.6,1018.4,1022.6,7.2,17.4,0.02,0.0,110000,82.1,250
549380,2021-02-19,13:09:41,CHINA,-1.9,-11.1,1030.3,1027.3,12.0,7.0,0.01,0.0,110000,52.4,8
477420,2021-02-19,13:09:41,JAPAN,-0.7,-3.4,1024.4,1025.1,4.3,8.0,0.03,0.0,110000,51.5,46
515420,2021-02-19,13:09:41,CHINA,-16.3,-19.2,755.0,753.0,33.0,5.7,0.00,0.0,100000,67.6,101
539750,2021-02-19,13:09:41,CHINA,-3.1,-11.8,1022.9,1028.0,8.4,11.9,0.02,0.0,110000,67.5,121
471070,2021-02-19,13:09:41,KOREASOUTH,-0.8,-7.8,1013.6,1016.3,13.7,13.3,0.03,0.3,111000,81.1,36
471065,2021-02-19,13:09:41,KOREASOUTH,-2.1,-7.2,1017.4,1030.7,4.8,10.3,0.00,2.8,101000,50.3,344
362080,2021-02-19,13:09:41,KAZAKHSTAN,-13.0,-19.1,1011.5,1032.0,26.5,3.1,0.00,0.0,100000,53.6,258
346910,2021-02-19,13:09:41,KAZAKHSTAN,-1.6,-4.8,1021.4,1022.7,16.3,20.4,0.02,2.2,111000,50.1,120
564440,2021-02-19,13:09:41,CHINA,-0.5,-5.8,734.9,734.6,27.5,9.2,0.07,0.0,110000,52.0,304
443730,2021-02-19,13:09:41,MONGOLIA,-4.6,-16.1,853.5,1024.6,46.7,10.6,0.00,0.3,101000,72.4,83
443740,2021-02-19,13:09:41,MONGOLIA,-5.2,-14.8,824.4,1024.1,52.0,23.7,0.00,1.1,101000,51.6,115
350670,2021-02-19,13:09:41,KAZAKHSTAN,-6.9,-10.8,1038.4,1034.2,15.9,15.9,0.00,3.0,101000,95.0,10
535930,2021-02-19,13:09:41,CHINA,-8.0,-19.3,980.3,1027.5,27.1,9.5,0.02,0.0,110000,61.0,280
353630,2021-02-19,13:09:41,KAZAKHSTAN,-6.4,-9.7,1055.1,1043.3,14.4,19.2,0.00,0.0,100000,86.1,167
508620,2021-02-19,13:09:41,CHINA,-18.0,-22.2,1019.7,1006.8,22.4,5.0,0.00,0.0,100000,16.6,321
368700,2021-02-19,13:09:41,KAZAKHSTAN,-0.9,-3.8,978.7,1022.9,10.3,5.2,0.05,2.2,111000,51.5,26
171500,2021-02-19,13:09:41,TURKEY,-0.6,-4.8,1021.2,1019.2,8.5,2.4,0.10,0.9,111000,57.8,293
474340,2021-02-19,13:09:41,JAPAN,-10.3,-14.6,1004.6,1011.7,10.9,11.8,0.00,1.4,101000,91.6,42
474350,2021-02-19,13:09:41,JAPAN,-4.9,-11.1,1012.6,1006.3,33.9,8.1,0.03,0.0,110000,68.4,312
545870,2021-02-19,13:09:41,CHINA,-2.3,-8.9,1025.9,1025.4,25.1,40.5,0.00,0.0,100000,4.1,179
509680,2021-02-19,13:09:41,CHINA,-11.7,-17.6,1017.7,1022.8,18.3,4.6,0.02,0.0,110000,50.9,233
170500,2021-02-19,13:09:41,TURKEY,-0.1,-5.5,1014.0,1020.1,17.3,10.0,0.04,0.5,111000,93.7,66
354160,2021-02-19,13:09:41,KAZAKHSTAN,-3.5,-6.0,1026.7,1028.9,6.5,14.5,0.05,7.8,111000,91.2,76
535020,2021-02-19,13:09:41,CHINA,-3.9,-19.1,977.5,1029.5,21.1,11.7,0.00,0.0,100000,5.7,238
471380,2021-02-19,13:09:41,KOREASOUTH,-0.2,-9.4,1026.3,1022.3,16.2,11.0,0.12,,110000,59.2,240
541350,2021-02-19,13:09:41,CHINA,-8.3,-20.1,1019.5,1024.0,20.2,22.3,0.01,0.0,110000,56.4,235
361860,2021-02-19,13:09:41,KAZAKHSTAN,-2.7,-5.0,992.7,1019.9,7.2,2.1,0.00,17.0,101000,50.5,28
477590,2021-02-19,13:09:41,JAPAN,-0.4,-5.3,1011.0,1017.9,8.6,15.6,0.29,0.0,110000,50.3,234
474880,2021-02-19,13:09:41,JAPAN,-4.0,-9.6,994.8,997.9,10.8,11.5,0.00,0.0,100000,98.9,337
536460,2021-02-19,13:09:41,CHINA,-5.6,-18.1,926.5,1028.0,8.3,7.2,0.01,0.0,110000,51.7,261
171550,2021-02-19,13:09:41,TURKEY,-1.3,-6.1,899.1,1012.2,14.2,1.9,0.00,0.0,100000,76.5,182
585060,2021-02-19,13:09:41,CHINA,-0.5,-4.2,979.2,1026.7,15.2,13.4,0.16,0.0,110000,50.6,294
561820,2021-02-19,13:09:41,CHINA,-2.1,-9.7,778.6,818.4,33.9,13.5,0.07,0.0,110000,68.3,178
509150,2021-02-19,13:09:41,CHINA,-7.6,-13.8,945.9,1029.2,33.1,16.9,0.02,0.0,110000,52.6,274
526740,2021-02-19,13:09:41,CHINA,-7.7,-20.1,801.1,795.7,28.6,10.8,0.00,0.0,100000,83.6,99
471270,2021-02-19,13:09:41,KOREASOUTH,-1.4,-7.3,1008.4,1015.2,8.6,10.7,0.01,0.2,111000,52.5,85
172410,2021-02-19,13:09:41,TURKEY,-3.2,-8.2,989.7,1045.0,11.8,11.1,0.00,0.0,100000,,322
560800,2021-02-19,13:09:41,CHINA,-6.8,-16.9,734.3,733.0,28.5,10.5,0.02,0.0,110000,50.1,76
560790,2021-02-19,13:09:41,CHINA,-5.7,-13.9,665.4,663.3,35.4,3.3,0.02,0.0,110000,50.6,330
518860,2021-02-19,13:09:41,CHINA,-4.5,-21.0,701.4,698.4,26.9,15.5,0.00,0.0,100000,93.6,160
545340,2021-02-19,13:09:41,CHINA,-2.1,-13.8,1025.6,1025.7,13.4,0.8,0.02,0.0,110000,51.4,90
478090,2021-02-19,13:09:41,JAPAN,-0.3,-5.5,1019.1,1024.0,24.1,2.1,0.02,0.0,110000,50.9,117
171290,2021-02-19,13:09:41,TURKEY,-0.7,-5.4,968.4,1019.7,6.6,5.1,0.04,0.0,110000,51.8,177
467550,2021-02-19,13:09:41,TAIWAN,-1.5,-1.9,1004.1,998.6,63.2,16.4,0.00,0.0,100000,91.7,224
171900,2021-02-19,13:09:41,TURKEY,-0.8,-5.1,947.5,973.3,16.2,9.3,0.13,1.7,111000,63.2,92
542080,2021-02-19,13:09:41,CHINA,-7.7,-15.8,912.5,1028.3,29.1,24.8,0.01,0.0,110000,73.0,70
470280,2021-02-19,13:09:41,KOREANORTH,-2.3,-9.5,1021.9,1025.7,16.8,0.8,0.02,0.0,110000,53.0,155
543370,2021-02-19,13:09:41,CHINA,-5.1,-16.0,1022.8,1025.1,13.7,15.8,0.01,0.0,110000,64.5,230
543240,2021-02-19,13:09:41,CHINA,-5.1,-18.2,1023.8,1025.2,17.6,18.3,0.01,0.0,110000,50.2,354
172500,2021-02-19,13:09:41,TURKEY,-2.0,-5.7,878.8,877.8,27.6,13.0,0.25,3.5,111000,90.5,280
557730,2021-02-19,13:09:41,CHINA,-0.6,-10.9,620.3,621.9,18.7,15.5,0.03,0.0,110000,60.2,353
503530,2021-02-19,13:09:41,CHINA,-8.3,-17.9,1000.0,1022.8,20.4,7.5,0.00,0.0,100000,39.8,99
171280,2021-02-19,13:09:41,TURKEY,-1.1,-4.7,955.7,1012.1,11.2,9.0,0.09,1.6,111000,83.0,175
353610,2021-02-19,13:09:41,KAZAKHSTAN,-1.4,-4.2,990.6,1018.0,24.8,16.0,0.00,0.0,100000,98.2,154
477090,2021-02-19,13:09:41,JAPAN,-0.8,-9.0,1002.2,1005.0,8.4,8.3,0.00,0.0,100000,9.2,17
576220,2021-02-19,13:09:41,CHINA,-0.9,-1.3,841.6,837.6,6.3,16.3,0.05,0.0,110000,75.5,277
560670,2021-02-19,13:09:41,CHINA,-6.5,-17.2,650.5,654.6,22.7,27.7,0.00,0.0,100000,26.7,76
364390,2021-02-19,13:09:41,KAZAKHSTAN,-7.2,-14.7,995.3,1001.2,34.8,28.7,0.01,0.7,111000,68.4,227
514635,2021-02-19,13:09:41,CHINA,-6.2,-8.3,992.4,996.1,7.3,6.3,0.00,0.0,100000,11.8,259
547760,2021-02-19,13:09:41,CHINA,-0.6,-6.9,1021.1,1025.6,18.7,8.2,0.04,0.0,110000,64.5,341
359530,2021-02-19,13:09:41,KAZAKHSTAN,-3.0,-6.3,1014.2,1028.2,25.0,19.9,0.00,3.7,101000,87.5,204
470610,2021-02-19,13:09:41,KOREANORTH,-1.1,-7.6,1016.4,1020.3,27.2,10.7,0.15,0.8,111000,69.7,8
470650,2021-02-19,13:09:41,KOREANORTH,-3.6,-8.6,1018.6,1024.4,13.9,7.5,0.01,0.0,110000,81.8,171
476380,2021-02-19,13:09:41,JAPAN,-0.8,-9.8,994.3,1016.1,16.0,2.0,0.13,0.6,111000,51.2,16
374320,2021-02-19,13:09:41,GEORGIA,-0.3,-3.7,952.5,955.1,30.9,8.8,0.16,5.7,111000,72.8,357
537640,2021-02-19,13:09:41,CHINA,-6.3,-16.8,972.5,1028.6,19.2,2.8,0.02,0.0,110000,57.1,57
593530,2021-02-19,13:09:41,TAIWAN,-1.0,-2.9,763.9,1023.1,14.8,5.5,0.00,0.0,100000,49.1,82
471320,2021-02-19,13:09:41,KOREASOUTH,-3.7,-14.0,996.4,983.1,10.0,5.5,0.00,0.0,100000,67.2,214
584370,2021-02-19,13:09:41,CHINA,-0.9,-11.0,835.7,833.5,16.2,33.0,0.14,0.0,110000,76.6,49
475800,2021-02-19,13:09:41,JAPAN,-3.2,-7.1,999.8,1002.1,20.8,14.8,0.00,1.9,101000,51.0,90
364280,2021-02-19,13:09:41,KAZAKHSTAN,-14.1,-18.4,1036.9,1036.8,17.7,2.9,0.01,0.9,111000,50.5,195
546620,2021-02-19,13:09:41,CHINA,-2.5,,1020.7,1025.3,3.8,12.1,0.05,0.0,110000,70.8,91
475840,2021-02-19,13:09:41,JAPAN,-4.9,-9.0,1005.9,1015.1,4.0,19.0,0.10,3.7,111000,67.6,318
535130,2021-02-19,13:09:41,CHINA,-5.6,-18.6,926.0,1030.4,21.7,6.1,0.00,0.0,100000,20.6,305
475900,2021-02-19,13:09:41,JAPAN,-1.2,-7.5,1009.6,1017.5,19.4,8.7,0.10,0.9,111000,50.1,333
471223,2021-02-19,13:09:41,KOREASOUTH,-1.2,-2.6,1020.1,1027.9,6.8,11.2,0.00,0.0,100000,50.2,87
471220,2021-02-19,13:09:41,KOREASOUTH,-2.5,-7.4,1015.8,1015.4,17.1,7.3,0.02,0.1,111000,58.6,227
359250,2021-02-19,13:09:41,KAZAKHSTAN,-1.9,-8.2,1014.5,1028.7,27.4,2.9,0.69,0.0,110000,50.3,335
172480,2021-02-19,13:09:41,TURKEY,-4.8,-7.1,903.0,868.6,16.1,2.8,0.33,18.1,111000,50.3,67
539230,2021-02-19,13:09:41,CHINA,-1.4,-11.6,952.8,1026.6,27.2,12.8,0.02,0.0,110000,50.4,74
442070,2021-02-19,13:09:41,MONGOLIA,-14.8,-20.1,1051.2,1044.0,55.3,4.1,0.00,0.0,100000,6.1,317
560460,2021-02-19,13:09:41,CHINA,-6.0,-16.6,671.3,672.8,22.5,5.3,0.03,0.0,110000,84.1,313
537870,2021-02-19,13:09:41,CHINA,-4.8,-17.1,978.2,1027.6,21.5,11.2,0.01,0.0,110000,50.1,258
537980,2021-02-19,13:09:41,CHINA,-0.1,-9.5,1019.7,1025.8,14.2,3.8,0.01,0.0,110000,68.0,233
442290,2021-02-19,13:09:41,MONGOLIA,-11.2,-19.0,789.8,1015.0,47.4,9.5,0.00,0.0,100000,67.2,333
527540,2021-02-19,13:09:41,CHINA,-9.4,-21.6,676.0,678.4,32.3,6.1,0.01,0.0,110000,94.7,226
477690,2021-02-19,13:09:42,JAPAN,-0.8,-7.7,1019.9,1025.3,0.0,19.8,0.00,0.0,100000,39.2,264
171880,2021-02-19,13:09:42,TURKEY,-0.4,-4.3,937.6,1016.4,22.2,2.7,0.17,0.3,111000,54.4,188
518860,2021-02-19,13:09:42,CHINA,-4.5,-22.5,701.4,698.4,26.8,15.4,0.00,0.0,100000,93.6,161
570140,2021-02-19,13:09:42,CHINA,-2.0,-8.9,1003.1,1032.8,20.1,2.8,0.00,0.0,100000,0.8,111
541860,2021-02-19,13:09:42,CHINA,-10.3,-17.4,1010.4,1024.2,19.7,6.5,0.03,0.0,110000,52.2,122
524410,2021-02-19,13:09:42,CHINA,-6.1,-19.2,843.9,846.1,41.6,19.6,0.01,0.0,110000,50.1,51
353210,2021-02-19,13:09:42,KAZAKHSTAN,-4.7,-10.3,1054.1,1035.4,8.2,10.2,0.00,0.0,100000,88.1,38
170500,2021-02-19,13:09:42,TURKEY,-0.1,-5.5,1014.1,1020.1,17.4,10.1,0.04,0.5,111000,93.7,67
471223,2021-02-19,13:09:42,KOREASOUTH,-1.1,-2.6,1020.0,1027.9,6.9,11.3,0.00,0.0,100000,50.2,88
471220,2021-02-19,13:09:42,KOREASOUTH,-2.6,-7.4,1015.8,1015.4,17.0,7.2,0.02,0.1,111000,58.6,227
357460,2021-02-19,13:09:42,KAZAKHSTAN,-2.0,-6.1,1025.4,1027.0,15.0,17.8,0.00,0.8,101000,55.1,319
535640,2021-02-19,13:09:42,CHINA,-5.6,-19.8,936.6,1030.6,20.8,7.6,0.00,0.0,100000,68.0,306
476410,2021-02-19,13:09:42,JAPAN,-1.3,-8.8,989.5,1018.2,23.1,8.3,0.17,0.0,110000,54.4,251
476390,2021-02-19,13:09:42,JAPAN,-22.4,-30.1,1000.3,997.9,44.7,40.2,0.00,0.0,100000,55.2,218
511330,2021-02-19,13:09:42,CHINA,-4.4,-10.1,992.2,1033.3,25.0,9.5,0.05,0.0,110000,89.8,108
471074,2021-02-19,13:09:42,KOREASOUTH,-1.2,-10.8,994.9,964.8,5.9,27.7,0.00,0.0,100000,38.9,346
471087,2021-02-19,13:09:42,KOREASOUTH,-2.4,-11.3,1025.6,1034.5,13.2,14.3,0.00,0.0,100000,83.0,14
471080,2021-02-19,13:09:42,KOREASOUTH,-1.5,-7.6,1019.1,1022.5,13.8,2.5,0.02,0.1,111000,53.7,217
471120,2021-02-19,13:09:42,KOREASOUTH,-0.8,-7.5,1018.3,1023.0,16.6,17.5,0.02,0.0,110000,54.2,253
506320,2021-02-19,13:09:42,CHINA,-14.2,-19.2,987.2,1024.0,27.1,13.9,0.01,0.0,110000,52.4,186
287660,2021-02-19,13:09:42,KAZAKHSTAN,-5.2,-9.5,1011.7,1027.6,6.8,14.4,0.01,3.5,111000,55.1,315
529830,2021-02-19,13:09:42,CHINA,-6.1,-12.0,817.3,838.4,12.3,7.5,0.00,0.0,100000,36.7,4
171700,2021-02-19,13:09:42,TURKEY,-1.0,-4.8,947.4,943.3,20.6,7.6,0.02,3.9,111000,82.4,220
526610,2021-02-19,13:09:42,CHINA,-4.8,-20.9,928.1,946.4,70.2,12.0,0.00,0.0,100000,24.6,143
544230,2021-02-19,13:09:42,CHINA,-5.3,-19.2,975.7,1023.8,18.7,9.4,0.00,0.0,100000,38.3,273
289570,2021-02-19,13:09:42,KAZAKHSTAN,-4.1,-6.5,1027.3,1024.5,4.7,3.0,0.04,7.4,111000,53.1,53
443540,2021-02-19,13:09:42,MONGOLIA,-6.5,-14.6,1043.9,1029.4,55.7,23.3,0.00,0.0,100000,48.7,337
367780,2021-02-19,13:09:42,KAZAKHSTAN,-4.5,-11.7,1047.2,1031.8,26.4,6.4,0.00,0.0,100000,91.1,86
172400,2021-02-19,13:09:42,TURKEY,-0.9,-5.8,951.9,1016.0,28.6,6.6,0.09,0.5,111000,56.2,59
532310,2021-02-19,13:09:42,CHINA,-3.8,-14.7,850.9,857.9,29.1,17.9,0.00,0.0,100000,46.5,0
509680,2021-02-19,13:09:42,CHINA,-3.3,-17.6,1017.6,1022.8,18.3,4.5,0.02,0.0,110000,50.9,234
171270,2021-02-19,13:09:42,TURKEY,-0.7,-5.0,1028.7,1018.8,22.8,11.2,0.05,0.0,110000,52.9,122
354260,2021-02-19,13:09:42,KAZAKHSTAN,-4.3,-6.5,1004.8,1022.6,31.8,10.0,0.01,5.2,111000,50.3,119
476800,2021-02-19,13:09:42,JAPAN,-0.1,-5.9,997.3,1017.5,26.4,12.8,0.00,0.0,100000,95.2,249
548630,2021-02-19,13:09:42,CHINA,-1.4,-9.1,1029.7,1026.6,19.4,14.5,0.05,0.0,110000,54.0,329
507450,2021-02-19,13:09:42,CHINA,-6.6,-14.5,1015.8,1022.7,15.5,4.3,0.01,0.0,110000,59.0,63
443140,2021-02-19,13:09:42,MONGOLIA,-8.6,-16.8,928.2,1022.0,13.5,4.0,0.00,1.5,101000,86.1,171
442980,2021-02-19,13:09:42,MONGOLIA,-18.7,-26.0,1056.6,1032.8,41.2,16.6,0.05,0.0,110000,82.1,355
470690,2021-02-19,13:09:42,KOREANORTH,-2.3,-7.9,1031.6,1023.8,9.9,8.6,0.22,0.0,110000,51.3,326
470700,2021-02-19,13:09:42,KOREANORTH,-1.4,-7.7,1027.1,1021.2,12.3,15.5,0.01,0.0,110000,80.6,128
475870,2021-02-19,13:09:42,JAPAN,-0.6,-5.9,1014.1,1017.0,15.2,18.3,0.21,3.7,111000,84.5,181
475850,2021-02-19,13:09:42,JAPAN,-3.4,-10.3,1010.4,1014.1,21.5,8.3,0.13,2.9,111000,64.2,201
580400,2021-02-19,13:09:42,CHINA,-0.9,-8.0,1029.0,1025.7,16.0,15.6,0.02,0.0,110000,76.6,162
546160,2021-02-19,13:09:42,CHINA,-2.8,-11.6,1026.6,1026.2,13.5,8.6,0.02,0.0,110000,53.5,345
513560,2021-02-19,13:09:42,CHINA,-9.4,-12.4,1006.1,1033.1,15.6,3.0,0.00,0.0,100000,96.7,145
507270,2021-02-19,13:09:42,CHINA,-6.5,-9.3,914.0,1027.4,31.2,3.8,0.02,0.0,110000,58.4,156
476380,2021-02-19,13:09:42,JAPAN,-0.8,-9.8,994.3,1016.1,16.0,1.9,0.13,0.6,111000,51.3,16
442290,2021-02-19,13:09:42,MONGOLIA,-11.2,-17.5,789.8,1015.2,47.3,9.5,0.00,0.0,100000,67.2,334
560800,2021-02-19,13:09:42,CHINA,-7.7,-16.9,734.3,733.0,28.4,10.4,0.02,0.0,110000,50.2,75
560790,2021-02-19,13:09:42,CHINA,-6.6,-15.7,665.4,663.3,35.5,3.2,0.02,0.0,110000,50.6,331
377090,2021-02-19,13:09:42,ARMENIA,-2.3,-4.9,982.4,985.0,20.7,16.6,0.02,9.2,111000,51.5,86
443040,2021-02-19,13:09:42,MONGOLIA,-12.1,-14.9,1022.4,1032.2,46.3,7.2,0.00,1.1,101000,76.3,299
512430,2021-02-19,13:09:42,CHINA,-6.1,-10.1,1008.0,1034.0,14.3,2.7,0.00,0.0,100000,70.5,356
474110,2021-02-19,13:09:42,JAPAN,-6.5,-10.6,1011.5,1015.5,14.7,20.2,0.09,0.0,110000,63.5,155
474090,2021-02-19,13:09:42,JAPAN,-10.7,-13.7,1013.9,1014.9,25.7,1.5,0.05,8.6,111000,71.8,155
470390,2021-02-19,13:09:42,KOREANORTH,-3.6,-9.4,1042.4,1024.8,12.4,0.9,0.00,0.0,100000,52.7,72
511560,2021-02-19,13:09:42,CHINA,-6.7,-11.9,929.1,1031.7,23.3,5.6,0.01,0.0,110000,88.0,311
471240,2021-02-19,13:09:42,KOREASOUTH,-2.8,-9.4,989.1,1082.7,15.5,4.2,0.00,0.0,100000,52.8,120
172440,2021-02-19,13:09:42,TURKEY,-1.0,-5.0,952.6,975.8,10.1,10.0,0.02,0.8,111000,51.4,120
357000,2021-02-19,13:09:42,KAZAKHSTAN,-0.8,-4.1,1025.9,1022.2,19.6,30.0,0.04,1.8,111000,54.9,6
535880,2021-02-19,13:09:42,CHINA,-4.5,-10.2,755.4,756.5,19.8,44.9,0.07,0.0,110000,75.8,356
533520,2021-02-19,13:09:42,CHINA,-9.9,-21.0,960.5,1032.0,26.6,8.3,0.01,0.0,110000,51.2,328
552990,2021-02-19,13:09:42,CHINA,-5.2,-17.5,1003.4,996.8,21.2,19.7,0.01,0.0,110000,68.5,178
171600,2021-02-19,13:09:42,TURKEY,-2.5,-10.2,905.2,876.3,15.8,5.0,0.00,0.0,100000,42.9,181
470312,2021-02-19,13:09:42,CHINA,-1.9,-16.4,994.9,979.9,1.9,7.8,0.00,0.0,100000,46.4,117
356990,2021-02-19,13:09:42,KAZAKHSTAN,-4.0,-12.0,951.9,1029.8,27.5,0.2,0.00,3.9,101000,51.0,315
358490,2021-02-19,13:09:42,KAZAKHSTAN,-1.9,-6.4,1013.4,1023.4,17.1,9.9,0.01,1.2,111000,52.3,157
400300,2021-02-19,13:09:42,SYRIA,-0.3,-4.7,1038.2,1017.2,10.7,3.8,0.00,0.0,100000,8.7,165
523780,2021-02-19,13:09:42,CHINA,-4.0,-20.1,985.8,1008.3,25.6,22.3,0.00,0.0,100000,67.3,155
506580,2021-02-19,13:09:42,CHINA,-9.1,-14.7,1025.4,1022.8,10.4,7.3,0.01,0.0,110000,56.9,180
581500,2021-02-19,13:09:42,CHINA,-0.7,-6.2,1022.2,1026.7,14.0,9.6,0.03,0.0,110000,54.4,31
475200,2021-02-19,13:09:42,JAPAN,-2.0,-5.5,1005.5,1018.4,14.4,12.1,0.16,0.0,110000,69.1,191
353860,2021-02-19,13:09:42,KAZAKHSTAN,-7.4,-11.0,986.7,983.6,18.0,13.9,0.00,0.0,100000,47.8,220
570670,2021-02-19,13:09:42,CHINA,-1.3,-7.5,991.6,1028.9,20.5,4.2,0.02,0.0,110000,52.0,131
171900,2021-02-19,13:09:42,TURKEY,-0.8,-5.1,947.5,973.3,16.3,9.2,0.13,1.7,111000,63.2,93
508620,2021-02-19,13:09:42,CHINA,-18.0,-22.2,1019.9,1006.8,22.3,5.1,0.00,0.0,100000,16.6,320
368700,2021-02-19,13:09:42,KAZAKHSTAN,-0.9,-3.8,978.7,1022.9,10.2,5.2,0.05,2.2,111000,51.6,26
171500,2021-02-19,13:09:42,TURKEY,-0.6,-4.8,1021.2,1019.2,8.6,2.3,0.10,0.9,111000,57.8,293
524950,2021-02-19,13:09:42,CHINA,-4.6,-19.7,903.2,1029.7,31.4,12.5,0.00,0.0,100000,16.2,150
289780,2021-02-19,13:09:42,KAZAKHSTAN,-8.7,-12.1,969.2,1020.4,10.8,4.5,0.00,0.0,100000,66.3,246
443850,2021-02-19,13:09:42,MONGOLIA,-2.5,-14.0,893.2,1026.2,33.9,10.7,0.00,0.0,100000,76.6,246
509530,2021-02-19,13:09:42,CHINA,-7.8,-13.7,1015.6,1022.6,12.6,15.1,0.02,0.0,110000,88.8,327
170671,2021-02-19,13:09:42,TURKEY,-5.5,-8.2,1016.7,1024.0,12.8,1.9,0.00,0.0,100000,1.0,233
471310,2021-02-19,13:09:42,KOREASOUTH,-1.9,-8.0,1020.5,1024.0,21.9,15.1,0.04,0.0,110000,52.1,252
362080,2021-02-19,13:09:42,KAZAKHSTAN,-13.4,-17.8,1011.5,1032.0,26.6,3.1,0.00,0.0,100000,53.6,258
346910,2021-02-19,13:09:42,KAZAKHSTAN,-1.6,-5.7,1021.4,1022.7,16.2,20.5,0.02,2.2,111000,50.2,120
478090,2021-02-19,13:09:42,JAPAN,-0.3,-6.7,1019.1,1024.0,24.0,2.1,0.02,0.0,110000,50.9,117
171290,2021-02-19,13:09:42,TURKEY,-0.9,-5.4,968.3,1019.7,6.6,5.2,0.04,0.0,110000,51.8,177
526740,2021-02-19,13:09:42,CHINA,-7.7,-20.1,801.2,795.7,28.6,10.9,0.00,0.0,100000,83.7,99
527650,2021-02-19,13:09:42,CHINA,-8.4,-21.7,714.4,714.3,22.2,1.1,0.01,0.0,110000,51.6,235
504340,2021-02-19,13:09:42,CHINA,-21.1,-24.4,961.4,1027.2,21.0,12.2,0.02,0.0,110000,53.2,135
350530,2021-02-19,13:09:42,KAZAKHSTAN,-5.0,-8.4,1028.4,1035.3,14.9,19.6,0.08,1.1,111000,63.6,155
508880,2021-02-19,13:09:42,CHINA,-6.7,-13.9,1014.3,1020.8,24.7,11.3,0.02,0.0,110000,60.2,167
355420,2021-02-19,13:09:42,KAZAKHSTAN,-6.6,-9.1,1016.3,1029.0,8.2,17.7,0.03,0.9,111000,88.9,150
541150,2021-02-19,13:09:42,CHINA,-6.8,-17.2,976.0,1026.3,21.1,22.8,0.01,0.0,110000,80.6,241
442190,2021-02-19,13:09:42,MONGOLIA,-6.2,-18.9,848.3,1027.8,20.1,11.1,0.00,0.0,100000,10.1,283
542360,2021-02-19,13:09:42,CHINA,-6.2,-16.1,1019.7,1024.1,13.3,24.2,0.02,0.0,110000,51.3,241
470580,2021-02-19,13:09:42,KOREANORTH,-2.7,-9.4,1015.4,1023.6,21.9,5.4,0.01,0.0,110000,52.0,5
172480,2021-02-19,13:09:42,TURKEY,-5.1,-7.1,903.1,868.5,16.0,2.8,0.33,18.1,111000,50.3,67
560460,2021-02-19,13:09:42,CHINA,-6.0,-16.6,671.3,672.9,22.5,5.2,0.03,0.0,110000,84.0,313
442120,2021-02-19,13:09:42,MONGOLIA,-22.1,-26.2,912.3,1037.5,54.8,4.4,0.00,9.9,101000,73.5,210
544050,2021-02-19,13:09:42,CHINA,-4.5,-19.3,1022.5,1027.2,17.0,16.3,0.01,0.0,110000,54.2,193
442140,2021-02-19,13:09:42,MONGOLIA,-3.8,-19.9,825.1,1027.5,10.8,5.3,0.00,0.0,100000,91.5,0
505270,2021-02-19,13:09:42,CHINA,-18.5,-20.8,990.2,1027.9,18.4,13.9,0.02,0.0,110000,51.4,9
475120,2021-02-19,13:09:42,JAPAN,-1.1,-6.4,1019.9,1018.9,41.2,6.1,0.00,0.0,100000,88.9,107
563740,2021-02-19,13:09:42,CHINA,-0.9,-7.1,748.3,750.7,29.5,19.0,0.03,0.0,110000,50.2,333
383410,2021-02-19,13:09:42,KAZAKHSTAN,-1.0,-3.6,994.7,1027.8,7.6,10.2,0.19,1.4,111000,72.3,278
170980,2021-02-19,13:09:42,TURKEY,-6.8,-10.2,815.6,816.1,12.9,18.6,0.07,11.5,111000,53.4,149
442870,2021-02-19,13:09:42,MONGOLIA,-8.9,-13.5,809.5,1027.9,53.0,10.8,0.00,1.6,101000,76.3,96
369820,2021-02-19,13:09:42,KYRGYZSTAN,-13.1,-17.5,645.7,644.4,41.1,4.1,0.00,0.0,100000,87.3,281
471360,2021-02-19,13:09:42,KOREASOUTH,-2.1,-10.7,1014.7,1024.4,18.3,0.1,0.08,0.0,110000,52.3,70
471370,2021-02-19,13:09:42,KOREASOUTH,-1.2,-10.5,1011.7,1021.9,12.9,5.2,0.00,0.0,100000,56.1,281
471100,2021-02-19,13:09:42,KOREASOUTH,-1.6,-7.4,1008.3,1009.9,3.0,12.9,0.00,0.0,100000,98.5,207
547140,2021-02-19,13:09:42,CHINA,-1.7,-11.1,1026.3,1026.2,17.9,14.0,0.08,0.0,110000,51.5,335
471540,2021-02-19,13:09:42,KOREASOUTH,-0.4,-11.0,1010.8,1015.5,10.6,16.3,0.00,0.0,100000,69.0,186
471060,2021-02-19,13:09:42,KOREASOUTH,-1.5,-9.3,1016.0,1022.1,13.2,17.3,0.12,0.2,111000,52.6,266
534630,2021-02-19,13:09:42,CHINA,-6.5,-16.7,930.5,1029.0,13.7,11.8,0.01,0.0,110000,53.7,172
577760,2021-02-19,13:09:42,CHINA,-0.4,-1.6,972.2,1024.0,12.5,23.1,0.29,0.0,110000,73.9,251
368215,2021-02-19,13:09:42,KAZAKHSTAN,-7.6,-11.3,1010.4,1021.8,5.1,15.2,0.00,0.0,100000,26.8,76
471110,2021-02-19,13:09:42,KOREASOUTH,-1.5,-7.5,1003.7,993.3,2.7,7.3,0.04,0.0,110000,51.4,2
547050,2021-02-19,13:09:42,CHINA,-9.0,-14.5,1039.8,1035.1,22.5,7.0,0.00,0.0,100000,4.6,242
523910,2021-02-19,13:09:42,CHINA,-13.2,-20.2,1002.1,1044.6,38.3,5.1,0.00,0.0,100000,10.9,359
354970,2021-02-19,13:09:42,KAZAKHSTAN,-6.4,-13.4,988.9,1033.9,29.2,13.8,0.00,4.9,101000,50.7,33
548570,2021-02-19,13:09:42,CHINA,-0.6,-7.0,1024.3,1025.6,12.9,18.9,0.02,0.0,110000,89.6,164
546020,2021-02-19,13:09:42,CHINA,-1.6,-11.8,1021.7,1025.6,9.3,5.3,0.02,0.0,110000,96.1,345
474200,2021-02-19,13:09:42,JAPAN,-8.5,-12.9,1014.0,1015.7,16.1,13.2,0.02,3.6,111000,65.1,256
351910,2021-02-19,13:09:42,KAZAKHSTAN,-5.2,-15.7,1034.6,1040.6,46.7,5.2,0.00,0.0,100000,15.3,249
471380,2021-02-19,13:09:42,KOREASOUTH,-0.2,-9.4,1026.3,1022.3,16.2,11.1,0.12,0.0,110000,59.3,240
442590,2021-02-19,13:09:42,MONGOLIA,-7.3,-11.9,953.7,1027.0,11.6,17.9,0.00,1.6,101000,79.9,270
515420,2021-02-19,13:09:42,CHINA,-16.3,-20.7,755.0,752.9,33.1,5.8,0.00,0.0,100000,67.6,101
539750,2021-02-19,13:09:42,CHINA,-2.3,-11.8,1022.9,1028.0,8.4,11.9,0.02,0.0,110000,67.4,120
475920,2021-02-19,13:09:42,JAPAN,-1.4,-6.8,1014.9,1017.0,21.8,16.2,0.18,2.0,111000,50.3,351
535430,2021-02-19,13:09:42,CHINA,-4.5,-17.2,881.0,1028.0,30.3,9.5,0.00,0.0,100000,69.9,4
470460,2021-02-19,13:09:42,KOREANORTH,-1.3,-6.3,1018.9,1018.9,23.6,11.6,0.01,0.3,111000,53.9,236
347980,2021-02-19,13:09:42,KAZAKHSTAN,-2.0,-5.6,1021.1,1019.7,17.5,19.5,0.00,0.7,101000,50.1,267
471290,2021-02-19,13:09:42,KOREASOUTH,-2.2,-7.9,1020.1,1023.9,23.3,7.4,0.05,0.0,110000,51.4,158
537230,2021-02-19,13:09:42,CHINA,-5.5,-16.8,907.8,1029.1,14.5,11.4,0.02,0.0,110000,54.1,76
170880,2021-02-19,13:09:42,TURKEY,-7.0,-9.7,880.8,860.1,22.8,12.1,0.49,25.2,111000,50.2,3
442840,2021-02-19,13:09:42,MONGOLIA,-10.9,-14.3,783.4,1036.4,56.4,4.5,0.00,2.8,101000,61.1,122
172100,2021-02-19,13:09:42,TURKEY,-0.3,-6.2,915.8,1023.1,23.9,1.9,0.00,0.0,100000,23.6,288
383530,2021-02-19,13:09:42,KYRGYZSTAN,-0.7,-4.6,1000.1,1028.3,7.7,9.9,0.03,0.4,111000,55.6,164
170700,2021-02-19,13:09:42,TURKEY,-0.9,-4.1,943.2,1017.1,11.0,4.7,0.14,2.0,111000,54.2,100
549060,2021-02-19,13:09:42,CHINA,-1.7,-9.4,1024.4,1026.2,10.7,10.5,0.01,0.0,110000,62.2,56
471280,2021-02-19,13:09:42,KOREASOUTH,-0.4,-8.7,1008.6,1009.9,3.1,8.3,0.00,0.0,100000,73.5,157
171295,2021-02-19,13:09:42,TURKEY,-0.9,-3.0,997.7,1008.4,10.7,7.7,0.00,0.0,100000,56.9,15
478140,2021-02-19,13:09:42,JAPAN,-0.6,-6.9,1014.5,1023.1,15.9,0.1,0.00,0.0,100000,78.7,129
355760,2021-02-19,13:09:42,KAZAKHSTAN,-7.7,-11.8,1013.6,1036.2,26.2,15.3,0.01,6.9,111000,55.8,219
513460,2021-02-19,13:09:42,CHINA,-8.5,-11.5,1053.3,1041.2,48.9,2.7,0.00,0.0,100000,33.0,325
470670,2021-02-19,13:09:42,KOREANORTH,-5.1,-11.1,1050.2,1026.4,13.1,12.3,0.00,0.0,100000,14.3,247
542260,2021-02-19,13:09:42,CHINA,-5.0,-19.5,1020.4,1025.3,21.6,4.9,0.01,0.0,110000,52.2,36
470680,2021-02-19,13:09:42,KOREANORTH,-2.5,-6.5,1015.5,1024.1,12.5,13.8,0.01,0.0,110000,83.0,297
172000,2021-02-19,13:09:42,TURKEY,-0.3,-4.0,975.2,1013.5,11.6,12.9,0.10,0.5,111000,50.0,209
477560,2021-02-19,13:09:42,JAPAN,-0.3,-5.4,1002.9,1019.1,17.0,7.9,0.22,0.0,110000,85.9,154
475450,2021-02-19,13:09:42,JAPAN,-1.7,-5.6,1002.2,1006.8,10.4,13.5,0.00,0.0,100000,93.3,131
552280,2021-02-19,13:09:42,CHINA,-1.7,-15.8,603.4,600.0,30.5,0.2,0.01,0.0,110000,85.7,117
354060,2021-02-19,13:09:42,KAZAKHSTAN,-3.5,-7.0,1027.8,1028.4,26.9,18.2,0.00,0.0,100000,86.0,119
476400,2021-02-19,13:09:42,JAPAN,-8.6,-12.2,915.8,906.1,49.7,0.2,0.00,0.0,100000,32.2,166
353020,2021-02-19,13:09:42,KAZAKHSTAN,-3.8,-8.3,1058.1,1032.7,14.3,21.6,0.00,0.0,100000,41.2,161
350850,2021-02-19,13:09:42,KAZAKHSTAN,-8.9,-14.2,1025.8,1032.5,30.0,19.8,0.00,1.4,101000,51.3,104
544970,2021-02-19,13:09:42,CHINA,-3.5,-13.3,1024.6,1024.3,20.1,15.3,0.01,0.0,110000,94.0,280
477090,2021-02-19,13:09:42,JAPAN,-0.8,-9.0,1002.2,1005.0,8.4,8.2,0.00,0.0,100000,9.1,16
364280,2021-02-19,13:09:42,KAZAKHSTAN,-14.5,-18.4,1036.9,1036.8,17.7,2.9,0.01,0.9,111000,50.5,194
360010,2021-02-19,13:09:42,KAZAKHSTAN,-12.3,-15.6,1023.6,1023.8,4.4,37.3,0.02,2.8,111000,55.7,233
470410,2021-02-19,13:09:42,KOREANORTH,-3.3,-9.8,1009.5,1020.6,16.0,11.9,0.02,0.0,110000,52.6,224
512880,2021-02-19,13:09:42,CHINA,-5.0,-14.7,835.6,836.2,35.2,10.8,0.01,0.0,110000,82.7,253
535930,2021-02-19,13:09:42,CHINA,-8.3,-19.3,980.3,1027.5,27.0,9.5,0.02,0.0,110000,61.0,280
471330,2021-02-19,13:09:42,KOREASOUTH,-0.5,-7.9,1018.7,1024.0,13.6,9.3,0.04,0.0,110000,78.5,105
471340,2021-02-19,13:09:42,KOREASOUTH,-1.6,-8.9,999.4,993.4,10.9,12.2,0.04,0.0,110000,55.0,129
506030,2021-02-19,13:09:42,CHINA,-10.5,-15.6,984.7,1027.5,30.6,2.6,0.01,0.0,110000,65.4,80
471350,2021-02-19,13:09:42,KOREASOUTH,-1.9,-9.9,1005.8,1023.0,17.8,11.8,0.04,0.0,110000,60.9,238
442920,2021-02-19,13:09:42,MONGOLIA,-15.0,-19.8,889.7,1030.4,22.2,5.5,0.26,3.0,111000,86.6,258
470500,2021-02-19,13:09:42,KOREANORTH,-5.3,-10.6,1020.2,1023.8,18.8,5.0,0.08,0.0,110000,51.1,120
525330,2021-02-19,13:09:42,CHINA,-2.4,-14.5,893.6,1027.6,30.9,6.4,0.01,0.0,110000,80.0,143
525331,2021-02-19,13:09:42,CHINA,-5.7,-10.4,974.5,995.6,2.3,10.5,0.00,0.0,100000,32.0,48
359970,2021-02-19,13:09:42,KAZAKHSTAN,-5.9,-10.3,1044.6,1032.9,31.4,5.5,0.05,0.9,111000,53.6,171
443050,2021-02-19,13:09:42,MONGOLIA,-13.0,-17.1,950.6,1027.2,47.0,10.4,0.01,2.2,111000,50.6,330
536730,2021-02-19,13:09:42,CHINA,-1.7,-15.1,975.3,1028.1,17.7,3.1,0.02,0.0,110000,50.2,66
474300,2021-02-19,13:09:42,JAPAN,-5.6,-9.4,1019.4,1015.5,14.9,24.7,0.08,7.1,111000,73.9,33
474180,2021-02-19,13:09:42,JAPAN,-10.6,-15.8,1010.2,1016.0,26.0,33.1,0.07,4.6,111000,69.7,235
351880,2021-02-19,13:09:42,KAZAKHSTAN,-4.4,-7.0,1027.8,1027.7,15.5,20.9,0.19,2.2,111000,50.1,247
528420,2021-02-19,13:09:42,CHINA,-10.2,-26.4,696.6,689.8,18.8,10.0,0.01,0.0,110000,76.7,120
352170,2021-02-19,13:09:42,KAZAKHSTAN,-3.0,-6.8,1023.3,1022.0,16.8,21.7,0.01,4.8,111000,88.7,349
171350,2021-02-19,13:09:42,TURKEY,-0.1,-6.0,922.3,1011.0,14.9,17.8,0.00,0.0,100000,28.8,194
548230,2021-02-19,13:09:42,CHINA,-0.5,-11.2,1022.3,1026.3,10.3,11.7,0.02,0.0,110000,51.6,350
442820,2021-02-19,13:09:42,MONGOLIA,-12.0,-28.5,819.1,1026.2,49.9,24.9,0.00,0.0,100000,34.6,151
542080,2021-02-19,13:09:42,CHINA,-7.7,-14.3,912.5,1028.3,29.1,24.7,0.01,0.0,110000,73.0,70
470280,2021-02-19,13:09:42,KOREANORTH,-2.3,-8.2,1021.9,1025.7,16.9,0.9,0.02,0.0,110000,53.0,156
528560,2021-02-19,13:09:42,CHINA,-2.6,-18.8,768.1,767.8,22.1,6.4,0.03,0.0,110000,56.3,256
474330,2021-02-19,13:09:42,JAPAN,-14.8,-17.6,990.2,1014.6,30.0,14.2,0.00,0.0,100000,57.4,200
471010,2021-02-19,13:09:42,KOREASOUTH,-2.2,-8.1,1019.1,1023.5,20.6,0.3,0.05,0.2,111000,77.1,86
471020,2021-02-19,13:09:42,KOREASOUTH,-0.1,-7.2,1004.7,1024.4,7.0,15.2,0.01,0.0,110000,50.8,344
475880,2021-02-19,13:09:42,JAPAN,-3.4,-6.4,997.1,1015.1,17.1,12.0,0.18,0.0,110000,81.9,281
171280,2021-02-19,13:09:42,TURKEY,-1.1,-4.7,955.7,1012.1,11.3,8.9,0.09,1.6,111000,83.0,175
530830,2021-02-19,13:09:42,CHINA,-5.8,-12.1,962.6,1030.0,39.6,9.0,0.02,0.0,110000,52.3,82
561250,2021-02-19,13:09:42,CHINA,-1.4,-18.2,648.6,651.7,19.7,24.3,0.00,0.0,100000,51.3,73
354590,2021-02-19,13:09:42,KAZAKHSTAN,-3.9,-9.0,1024.6,1030.3,48.8,14.8,0.00,0.0,100000,25.7,287
366220,2021-02-19,13:09:42,KAZAKHSTAN,-12.5,-16.3,1041.4,1036.3,26.8,24.4,0.00,3.0,101000,67.1,317
356710,2021-02-19,13:09:42,KAZAKHSTAN,-4.1,-7.4,997.7,1028.6,18.0,21.1,0.00,3.2,101000,79.0,118
172050,2021-02-19,13:09:42,TURKEY,-3.0,-5.7,829.5,844.9,4.9,8.0,0.22,3.3,111000,52.5,238
475530,2021-02-19,13:09:42,JAPAN,-2.1,-6.0,1004.4,1004.0,5.7,13.2,0.00,0.0,100000,48.5,332
586530,2021-02-19,13:09:42,CHINA,-1.4,-3.2,914.5,1023.8,2.0,22.3,0.25,0.0,110000,51.0,123
364390,2021-02-19,13:09:42,KAZAKHSTAN,-7.2,-16.0,995.3,1001.3,34.8,28.8,0.01,0.7,111000,68.4,227
170672,2021-02-19,13:09:42,TURKEY,-3.7,-5.7,979.7,964.7,6.2,8.8,0.00,0.0,100000,16.0,199
170674,2021-02-19,13:09:42,TURKEY,-3.7,-10.1,989.9,995.7,6.7,27.0,0.00,0.0,100000,89.5,74
478240,2021-02-19,13:09:42,JAPAN,-0.3,-8.4,1004.2,1024.0,12.2,1.0,0.04,0.0,110000,52.7,317
561060,2021-02-19,13:09:42,CHINA,-3.2,-15.8,619.0,617.0,29.2,13.0,0.02,0.0,110000,55.4,351
476290,2021-02-19,13:09:42,JAPAN,-1.5,-9.7,1012.5,1016.1,27.3,17.8,0.04,0.0,110000,65.2,24
474410,2021-02-19,13:09:42,JAPAN,-5.7,-12.0,998.7,1001.7,15.0,11.7,0.00,0.0,100000,23.1,41
570360,2021-02-19,13:09:42,CHINA,-0.4,-7.8,1005.9,1025.1,1.6,11.4,0.02,0.0,110000,66.7,22
540960,2021-02-19,13:09:42,CHINA,-7.8,-13.6,1023.3,1021.7,15.6,18.2,0.02,0.0,110000,51.8,167
471064,2021-02-19,13:09:42,KOREASOUTH,-6.3,-10.8,1012.5,1011.1,15.2,0.5,0.00,0.0,100000,35.1,271
471066,2021-02-19,13:09:42,KOREASOUTH,-1.6,-7.1,1008.9,1006.7,10.3,3.9,0.00,0.1,101000,51.2,13
471050,2021-02-19,13:09:42,KOREASOUTH,-0.1,-8.4,1017.6,1021.2,23.7,5.5,0.08,0.4,111000,50.5,78
543110,2021-02-19,13:09:42,CHINA,-4.5,-15.9,975.6,1027.8,24.1,8.2,0.02,0.0,110000,67.1,228
171950,2021-02-19,13:09:42,TURKEY,-1.0,-4.6,957.2,972.9,9.2,1.7,0.07,1.8,111000,72.3,215
524360,2021-02-19,13:09:42,CHINA,-2.8,-17.1,863.2,1028.5,27.0,30.9,0.01,0.0,110000,51.5,317
470050,2021-02-19,13:09:42,KOREANORTH,-4.5,-8.1,900.8,898.4,13.7,9.1,0.05,6.0,111000,88.1,266
357960,2021-02-19,13:09:42,KAZAKHSTAN,-8.5,-12.7,1019.4,1033.2,42.3,27.7,0.01,1.4,111000,53.4,314
474230,2021-02-19,13:09:42,JAPAN,-4.7,-9.4,1010.1,1015.4,7.8,25.1,0.09,0.0,110000,51.1,273
474120,2021-02-19,13:09:42,JAPAN,-7.5,-11.8,1014.2,1012.4,11.1,12.3,0.14,14.8,111000,57.6,174
470350,2021-02-19,13:09:42,KOREANORTH,-4.1,-11.3,1037.0,1024.4,19.3,11.7,0.04,0.0,110000,51.2,97
542180,2021-02-19,13:09:42,CHINA,-7.9,-20.6,992.4,1025.1,25.0,8.4,0.01,0.0,110000,51.4,111
543860,2021-02-19,13:09:42,CHINA,-4.4,-12.0,964.5,1025.8,20.8,6.8,0.04,0.0,110000,54.2,183
363350,2021-02-19,13:09:42,KAZAKHSTAN,-6.0,-12.4,1024.1,1031.4,46.4,19.6,0.00,0.3,101000,51.7,211
583140,2021-02-19,13:09:42,CHINA,-0.2,-5.2,1016.5,1026.7,10.5,8.2,0.13,0.0,110000,51.0,197
475150,2021-02-19,13:09:42,JAPAN,-3.5,-7.8,999.4,1000.6,19.4,13.2,0.00,0.0,100000,44.3,302
170673,2021-02-19,13:09:42,TURKEY,-0.6,-10.1,1012.4,978.5,12.6,14.4,0.00,0.0,100000,87.9,272
543370,2021-02-19,13:09:42,CHINA,-5.1,-16.0,1022.8,1025.1,13.8,15.9,0.01,0.0,110000,64.5,230
366390,2021-02-19,13:09:42,KAZAKHSTAN,-10.6,-14.6,1036.4,1033.0,49.3,3.3,0.00,38.4,101000,51.9,295
443170,2021-02-19,13:09:42,MONGOLIA,-5.9,-10.1,901.0,1031.9,25.5,1.1,0.00,3.3,101000,57.1,251
545390,2021-02-19,13:09:42,CHINA,-3.1,-13.4,1021.5,1026.5,22.7,9.6,0.02,0.0,110000,80.9,291
548080,2021-02-19,13:09:42,CHINA,-1.3,-9.8,1026.7,1026.1,2.7,9.7,0.01,0.0,110000,94.9,134
561460,2021-02-19,13:09:42,CHINA,-2.0,-13.6,680.4,678.4,28.6,6.9,0.01,0.0,110000,89.9,275
367440,2021-02-19,13:09:42,KAZAKHSTAN,-5.2,-9.5,1039.8,1032.8,45.0,12.4,0.00,0.9,101000,51.9,216
528250,2021-02-19,13:09:42,CHINA,-3.0,-19.3,723.6,722.5,22.7,1.9,0.00,0.0,100000,11.8,166
471400,2021-02-19,13:09:42,KOREASOUTH,-0.6,-5.2,1016.7,1023.9,21.1,29.7,0.03,0.0,,50.5,173
471410,2021-02-19,13:09:42,KOREASOUTH,-0.7,-4.9,1012.6,1015.4,9.6,20.3,0.07,0.1,111000,95.5,274
471420,2021-02-19,13:09:42,KOREASOUTH,-1.4,-10.6,1013.4,1012.9,12.0,11.4,0.00,0.0,100000,53.8,201
571440,2021-02-19,13:09:42,CHINA,-0.3,-8.4,907.6,1021.3,6.7,18.3,0.56,0.0,110000,51.1,104
526810,2021-02-19,13:09:42,CHINA,-3.8,-16.7,896.9,1030.3,28.7,9.6,0.00,0.0,100000,92.1,309
380620,2021-02-19,13:09:42,KAZAKHSTAN,-1.8,-6.2,1022.1,1025.8,20.6,3.7,0.01,0.3,111000,90.1,138
478290,2021-02-19,13:09:42,JAPAN,-0.6,-8.7,1001.1,1019.1,19.9,13.8,0.07,0.0,110000,50.4,224
476720,2021-02-19,13:09:42,JAPAN,-0.9,-5.4,1019.7,1020.7,24.7,15.3,0.00,0.0,100000,57.8,216
352290,2021-02-19,13:09:42,KAZAKHSTAN,-5.8,-8.3,1017.1,1026.4,4.8,10.4,0.28,4.0,111000,51.3,231
475800,2021-02-19,13:09:42,JAPAN,-3.2,-7.7,999.9,1002.1,20.8,14.7,0.00,1.9,101000,51.0,91
542590,2021-02-19,13:09:42,CHINA,-7.4,-13.5,1028.7,1024.9,19.3,4.0,0.02,0.0,110000,86.5,69
471000,2021-02-19,13:09:42,KOREASOUTH,-4.0,-10.9,922.2,1022.6,19.2,16.6,0.09,10.6,111000,51.9,227
470980,2021-02-19,13:09:42,KOREASOUTH,-2.8,-10.6,1011.3,1025.2,9.4,4.8,0.01,0.0,110000,72.1,139
523130,2021-02-19,13:09:42,CHINA,-2.9,-14.3,921.5,897.5,61.9,2.5,0.00,0.0,100000,74.6,88
524460,2021-02-19,13:09:42,CHINA,-3.2,-17.6,937.1,1034.8,41.5,10.5,0.00,0.0,100000,77.2,0
286790,2021-02-19,13:09:42,KAZAKHSTAN,-8.8,-11.1,1019.1,1029.6,13.3,18.0,0.01,4.7,111000,75.3,119
532760,2021-02-19,13:09:42,CHINA,-8.5,-19.3,918.6,1028.3,25.9,15.8,0.01,0.0,110000,86.4,212
560930,2021-02-19,13:09:42,CHINA,-5.0,-9.8,1012.4,1033.1,15.9,1.4,0.02,0.0,110000,51.1,269
545270,2021-02-19,13:09:42,CHINA,-1.2,-11.1,1030.6,1025.7,17.1,1.0,0.11,0.0,110000,52.8,193
475160,2021-02-19,13:09:42,JAPAN,-3.3,-7.5,998.4,992.5,12.5,21.1,0.00,0.0,100000,81.2,220
539290,2021-02-19,13:09:42,CHINA,-2.0,-11.6,882.4,888.7,10.2,15.7,0.00,0.0,100000,53.1,22
471131,2021-02-19,13:09:42,KOREASOUTH,-1.4,-6.4,991.2,997.5,7.4,7.0,0.00,0.0,100000,44.1,127
531490,2021-02-19,13:09:42,CHINA,-6.4,-17.5,905.7,1027.7,31.0,15.9,0.02,0.0,110000,51.9,16
560210,2021-02-19,13:09:42,CHINA,-7.1,-20.6,616.6,614.0,29.5,4.1,0.01,0.0,110000,51.7,149
540940,2021-02-19,13:09:42,CHINA,-5.0,-12.1,1010.6,1022.2,12.2,9.6,0.02,0.0,110000,88.3,328
288790,2021-02-19,13:09:42,KAZAKHSTAN,-4.6,-8.8,1032.3,1032.0,7.1,24.6,0.01,0.5,111000,51.5,95
288770,2021-02-19,13:09:42,KAZAKHSTAN,-6.7,-12.1,1016.9,1019.4,19.0,14.1,0.02,5.4,111000,93.5,82
509780,2021-02-19,13:09:42,CHINA,-6.6,-14.2,1006.1,1021.2,25.1,6.9,0.02,0.0,110000,52.3,11
584450,2021-02-19,13:09:42,CHINA,-2.0,-6.6,875.2,950.4,18.2,31.9,0.18,0.0,110000,50.8,57
539230,2021-02-19,13:09:42,CHINA,-1.4,-11.6,952.8,1026.6,27.1,12.9,0.02,0.0,110000,50.4,73
521120,2021-02-19,13:09:42,CHINA,-1.8,-17.8,1022.8,1026.0,28.1,21.0,0.00,0.0,100000,13.5,172
584370,2021-02-19,13:09:42,CHINA,-3.0,-11.0,835.7,833.5,16.1,32.9,0.14,0.0,110000,76.7,48
471460,2021-02-19,13:09:42,KOREASOUTH,-0.1,-6.3,1018.8,1023.6,12.7,7.3,0.05,0.0,110000,50.9,280
508540,2021-02-19,13:09:42,CHINA,-6.8,-12.7,1026.3,1022.3,15.8,14.6,0.01,0.0,110000,52.0,138
528180,2021-02-19,13:09:42,CHINA,-1.2,-22.5,753.8,753.2,27.9,11.6,0.00,0.0,100000,69.4,7
477470,2021-02-19,13:09:42,JAPAN,-0.9,-4.7,1024.3,1024.0,10.8,4.5,0.00,0.0,100000,82.9,318
544930,2021-02-19,13:09:42,CHINA,-8.0,-13.6,1021.4,1025.2,19.1,5.4,0.01,0.0,110000,72.1,19
170920,2021-02-19,13:09:42,TURKEY,-0.4,-3.3,957.0,982.5,6.8,10.5,0.24,3.5,111000,51.8,121
533910,2021-02-19,13:09:42,CHINA,-5.5,-12.7,880.8,1025.9,33.6,23.1,0.01,0.0,110000,50.4,120
476180,2021-02-19,13:09:42,JAPAN,-4.1,-9.5,975.6,1019.3,17.4,6.5,0.14,1.4,111000,59.0,136
359250,2021-02-19,13:09:42,KAZAKHSTAN,-1.9,-8.2,1014.5,1028.7,27.4,3.0,0.69,0.0,110000,50.3,335
690110,2021-02-19,13:09:42,IRAQ,-0.4,-6.0,877.8,1019.3,43.5,16.8,0.00,0.0,100000,80.3,332
471920,2021-02-19,13:09:42,KOREASOUTH,-1.0,-8.7,1021.3,1022.4,10.2,9.9,0.10,0.0,110000,87.7,298
475750,2021-02-19,13:09:42,JAPAN,-3.1,-7.8,1021.6,1016.5,10.8,16.2,0.14,22.5,111000,85.6,139
510870,2021-02-19,13:09:42,CHINA,-3.9,-6.8,928.7,1028.7,36.1,3.1,0.07,0.0,110000,97.0,5
442410,2021-02-19,13:09:42,MONGOLIA,-12.4,-16.3,1025.8,1033.1,47.1,8.4,0.00,2.1,101000,50.2,159
477590,2021-02-19,13:09:42,JAPAN,-0.4,-5.3,1011.0,1017.9,8.6,15.7,0.29,0.0,110000,50.2,234
365350,2021-02-19,13:09:42,KAZAKHSTAN,-7.2,-9.0,1073.6,1035.1,33.8,8.8,0.00,0.0,100000,90.7,293
474280,2021-02-19,13:09:42,JAPAN,-3.3,-8.3,1011.6,1013.0,15.4,7.3,0.10,0.0,110000,51.8,334
351730,2021-02-19,13:09:42,KAZAKHSTAN,-9.7,-12.4,1027.4,1032.8,26.9,21.0,0.00,5.2,101000,50.1,46
475420,2021-02-19,13:09:42,JAPAN,-3.3,-7.3,1003.1,1000.7,8.4,20.4,0.00,0.0,100000,90.5,98
537380,2021-02-19,13:09:42,CHINA,-3.5,-16.7,872.0,1025.0,23.7,4.8,0.00,0.0,100000,95.7,117
543420,2021-02-19,13:09:42,CHINA,-3.7,-12.2,1019.6,1024.0,8.3,7.2,0.03,0.0,110000,52.6,210
536980,2021-02-19,13:09:42,CHINA,-0.6,-12.5,1024.0,1025.5,13.6,15.0,0.04,0.0,110000,51.0,122
289840,2021-02-19,13:09:42,KAZAKHSTAN,-2.6,-6.0,1028.9,1019.1,29.6,19.5,0.00,0.0,100000,93.7,31
442880,2021-02-19,13:09:42,MONGOLIA,-14.1,-22.4,916.6,1028.4,47.9,22.3,0.00,0.1,101000,61.7,68
374320,2021-02-19,13:09:42,GEORGIA,-0.3,-3.7,952.5,955.1,30.9,8.8,0.16,5.7,111000,72.8,356
472185,2021-02-19,13:09:42,JAPAN,-6.8,-12.8,986.0,967.3,10.9,13.5,0.00,0.0,100000,24.5,43
544010,2021-02-19,13:09:42,CHINA,-3.8,-18.3,984.6,1027.5,23.8,18.8,0.01,0.0,110000,51.4,218
442370,2021-02-19,13:09:42,MONGOLIA,-7.0,-12.1,845.0,1024.0,50.7,13.8,0.00,0.2,101000,77.8,28
476370,2021-02-19,13:09:42,JAPAN,-2.8,-8.6,957.1,1016.1,25.4,8.1,0.21,0.0,110000,51.8,172
471270,2021-02-19,13:09:42,KOREASOUTH,-1.4,-7.3,1008.4,1015.2,8.6,10.6,0.01,0.2,111000,52.5,85
172410,2021-02-19,13:09:42,TURKEY,-3.2,-8.2,989.6,1044.8,11.9,11.0,0.00,0.0,100000,92.6,321
527540,2021-02-19,13:09:42,CHINA,-9.4,-23.1,676.0,678.4,32.4,6.0,0.01,0.0,110000,94.8,227
543240,2021-02-19,13:09:42,CHINA,-5.1,-18.2,1023.8,1025.2,17.6,18.3,0.01,0.0,110000,50.2,354
514950,2021-02-19,13:09:42,CHINA,-2.5,-16.1,985.4,1032.7,31.7,38.4,0.00,0.0,100000,4.0,52
357390,2021-02-19,13:09:42,KAZAKHSTAN,-0.6,-6.8,1035.9,1028.6,46.5,12.9,0.00,3.0,101000,51.4,343
514635,2021-02-19,13:09:42,CHINA,-6.2,-9.1,992.5,996.2,7.3,6.4,0.00,0.0,100000,11.7,260
442320,2021-02-19,13:09:42,MONGOLIA,-11.9,-16.1,1041.5,1049.4,38.6,6.4,0.00,0.0,100000,78.6,66
544360,2021-02-19,13:09:42,CHINA,-6.5,-19.9,1023.7,1025.4,35.0,8.8,0.01,0.0,110000,51.1,312
470990,2021-02-19,13:09:42,KOREASOUTH,-2.7,-11.4,1020.7,1024.6,9.9,2.6,0.00,0.0,100000,85.9,332
471030,2021-02-19,13:09:42,KOREASOUTH,-0.7,-4.6,1016.2,1024.6,13.7,22.3,0.00,0.0,100000,73.5,90
471025,2021-02-19,13:09:42,KOREASOUTH,-0.1,-5.8,1011.2,1015.4,1.7,7.6,0.00,0.0,100000,62.7,220
501360,2021-02-19,13:09:42,CHINA,-23.2,-30.9,968.5,1026.9,17.3,4.0,0.00,0.0,100000,56.5,80
343980,2021-02-19,13:09:42,KAZAKHSTAN,-2.1,-5.0,1013.2,1013.6,20.2,21.2,0.00,7.9,101000,58.9,213
474130,2021-02-19,13:09:42,JAPAN,-7.0,-9.9,1011.5,1017.3,19.0,5.4,0.00,0.0,100000,49.4,135
474170,2021-02-19,13:09:42,JAPAN,-14.8,-18.0,1009.5,1016.4,6.7,8.4,0.05,0.0,110000,72.6,188
504680,2021-02-19,13:09:42,CHINA,-14.1,-20.1,1013.4,1021.6,20.6,13.5,0.01,0.0,110000,51.1,272
547250,2021-02-19,13:09:42,CHINA,-1.8,-11.7,1028.9,1025.6,2.9,15.6,0.03,0.0,110000,52.5,17
538980,2021-02-19,13:09:42,CHINA,-1.1,-10.9,1023.8,1026.8,16.0,8.7,0.02,0.0,110000,52.2,95
548360,2021-02-19,13:09:42,CHINA,-2.1,-13.3,1032.8,1027.3,14.2,13.5,0.03,0.0,110000,53.7,170
523230,2021-02-19,13:09:42,CHINA,-5.7,-19.3,818.8,817.1,35.5,21.2,0.01,0.0,110000,50.8,266
476120,2021-02-19,13:09:42,JAPAN,-0.6,-4.7,1018.3,1018.8,18.0,4.3,0.40,14.3,111000,50.4,148
170860,2021-02-19,13:09:42,TURKEY,-0.5,-5.1,944.7,1018.8,18.6,11.2,0.35,4.1,111000,52.1,60
543424,2021-02-19,13:09:42,CHINA,-3.5,-12.0,998.3,994.3,7.1,21.8,0.00,0.0,100000,44.7,356
507880,2021-02-19,13:09:42,CHINA,-9.5,-15.7,1018.9,1019.4,22.9,12.6,0.02,0.0,110000,50.2,230
171550,2021-02-19,13:09:42,TURKEY,-1.3,-6.1,899.1,1012.2,14.1,1.9,0.00,0.0,100000,76.4,182
585060,2021-02-19,13:09:42,CHINA,-0.5,-4.2,979.2,1026.7,15.3,13.3,0.16,0.0,110000,50.6,295
443290,2021-02-19,13:09:42,MONGOLIA,-7.9,-12.7,776.5,1029.6,21.7,13.7,0.00,2.8,101000,96.8,222
471530,2021-02-19,13:09:42,KOREASOUTH,-0.4,-7.0,1016.5,1017.4,8.8,13.2,0.00,0.0,100000,6.5,78
547150,2021-02-19,13:09:42,CHINA,-0.9,-10.9,1021.3,1026.7,12.8,21.2,0.05,0.0,110000,92.1,129
471520,2021-02-19,13:09:42,KOREASOUTH,-0.3,-9.6,1032.7,1021.7,12.6,20.0,0.09,0.0,110000,96.8,218
474830,2021-02-19,13:09:42,JAPAN,-6.3,-13.4,1006.0,1003.0,9.0,8.3,0.00,0.0,100000,67.4,264
170820,2021-02-19,13:09:42,TURKEY,-1.3,-5.5,1003.2,1013.1,8.6,14.8,0.05,0.5,111000,50.2,350
548430,2021-02-19,13:09:42,CHINA,-1.6,-9.9,1023.8,1026.3,21.3,17.0,0.03,0.0,110000,50.7,225
529080,2021-02-19,13:09:42,CHINA,-8.0,-17.2,999.8,1006.2,24.6,23.8,0.01,0.0,110000,60.3,354
474790,2021-02-19,13:09:42,JAPAN,-7.5,-12.7,1001.6,997.2,7.0,13.9,0.00,0.0,100000,41.7,106
527070,2021-02-19,13:09:42,CHINA,-4.8,-21.1,724.8,721.2,10.8,7.6,0.00,0.0,100000,61.7,327
549160,2021-02-19,13:09:42,CHINA,-0.2,-8.4,1027.4,1026.4,12.7,5.0,0.01,0.0,110000,53.7,275
470520,2021-02-19,13:09:42,KOREANORTH,-4.2,-7.5,1017.5,1023.2,14.9,1.9,0.00,0.0,100000,24.2,100
471430,2021-02-19,13:09:42,KOREASOUTH,-1.0,-9.6,1015.6,1023.0,24.1,18.5,0.06,0.0,110000,50.1,15
560650,2021-02-19,13:09:42,CHINA,-5.3,-14.8,661.0,661.1,27.0,7.4,0.02,0.0,110000,69.5,29
546560,2021-02-19,13:09:42,CHINA,-2.1,-7.7,1021.6,1024.8,25.6,30.7,0.01,0.0,110000,53.0,251
355490,2021-02-19,13:09:42,KAZAKHSTAN,-3.5,-8.5,1028.1,1033.7,18.3,17.3,0.00,2.6,101000,97.5,154
540270,2021-02-19,13:09:42,CHINA,-5.9,-18.3,1001.1,1024.1,26.5,10.8,0.01,0.0,110000,67.4,126
509630,2021-02-19,13:09:42,CHINA,-9.3,-14.4,1016.8,1022.1,12.0,6.0,0.01,0.0,110000,98.7,131
474210,2021-02-19,13:09:42,JAPAN,-4.4,-9.1,1015.6,1015.1,22.5,11.6,0.10,14.0,111000,50.5,292
475760,2021-02-19,13:09:42,JAPAN,-3.7,-8.0,1016.8,1017.3,5.8,10.9,0.13,0.0,110000,71.4,51
360030,2021-02-19,13:09:42,KAZAKHSTAN,-10.3,-14.1,1020.9,1030.3,28.7,18.6,0.11,4.8,111000,75.3,179
471140,2021-02-19,13:09:42,KOREASOUTH,-2.3,-10.5,1004.7,1023.3,14.1,0.8,0.06,0.4,111000,81.0,152
171200,2021-02-19,13:09:42,TURKEY,-2.0,-4.7,1025.8,1005.4,15.2,2.4,0.00,0.0,100000,64.4,86
522670,2021-02-19,13:09:42,CHINA,-4.9,-19.8,932.6,1029.7,28.4,10.1,0.00,0.0,100000,45.7,30
561520,2021-02-19,13:09:42,CHINA,-3.0,-9.9,662.7,666.5,28.7,13.6,0.02,0.0,110000,51.0,327
530680,2021-02-19,13:09:42,CHINA,-4.4,-14.0,932.7,1029.0,29.5,12.8,0.01,0.0,110000,51.0,88
474020,2021-02-19,13:09:42,JAPAN,-10.1,-13.8,1011.5,1018.3,22.2,15.6,0.05,0.0,110000,54.9,209
474010,2021-02-19,13:09:42,JAPAN,-7.9,-12.3,1011.6,1015.7,15.5,15.0,0.08,15.3,111000,87.1,143
357910,2021-02-19,13:09:42,KAZAKHSTAN,-6.7,-9.5,1032.3,1036.5,50.1,6.6,0.01,4.2,111000,78.5,266
353630,2021-02-19,13:09:42,KAZAKHSTAN,-7.6,-8.8,1055.3,1043.4,14.3,19.3,0.00,0.0,100000,86.2,167
509830,2021-02-19,13:09:42,CHINA,-8.7,-13.3,1016.6,1020.9,17.3,2.2,0.02,0.0,110000,99.0,278
543770,2021-02-19,13:09:42,CHINA,-4.1,-11.7,1026.0,1025.3,11.3,5.1,0.03,0.0,110000,51.0,34
380910,2021-02-19,13:09:42,KAZAKHSTAN,-2.1,-5.7,1027.1,1030.1,43.6,10.7,0.02,1.2,111000,50.7,134
545110,2021-02-19,13:09:42,CHINA,-0.9,-15.2,1021.1,1025.5,18.1,7.1,0.03,0.0,110000,74.6,329
526330,2021-02-19,13:09:42,CHINA,-13.9,-23.3,990.8,980.9,24.6,6.1,0.01,0.0,110000,53.7,217
361520,2021-02-19,13:09:42,KAZAKHSTAN,-13.2,-16.5,1043.6,1034.5,17.5,10.4,0.01,1.4,111000,50.9,116
534800,2021-02-19,13:09:42,CHINA,-9.0,-20.4,960.6,1029.8,30.7,7.2,0.01,0.0,110000,78.3,341
560330,2021-02-19,13:09:42,CHINA,-13.5,-22.5,626.2,621.8,34.7,5.3,0.03,0.0,110000,79.0,195
443520,2021-02-19,13:09:42,MONGOLIA,-8.1,-16.2,1071.5,1030.2,53.0,19.9,0.00,0.0,100000,53.2,311
505640,2021-02-19,13:09:42,CHINA,-9.4,-15.6,1023.1,1023.6,11.9,9.0,0.01,0.0,110000,80.5,119
474810,2021-02-19,13:09:42,JAPAN,-10.7,-15.9,997.6,989.9,5.3,10.9,0.00,0.0,100000,16.0,345
474740,2021-02-19,13:09:42,JAPAN,-10.4,-19.5,1009.5,1001.8,6.7,6.7,0.00,0.0,100000,53.9,176
353610,2021-02-19,13:09:42,KAZAKHSTAN,-1.4,-2.7,990.7,1018.0,24.7,16.0,0.00,0.0,100000,98.2,154
376820,2021-02-19,13:09:42,ARMENIA,-4.0,-5.0,803.6,793.5,0.6,9.6,0.00,0.0,100000,17.4,273
536140,2021-02-19,13:09:42,CHINA,-2.7,-14.6,926.9,1028.1,15.9,9.1,0.00,0.0,100000,2.3,121
546180,2021-02-19,13:09:42,CHINA,-0.4,-9.1,1022.8,1024.8,12.7,13.2,0.08,0.0,110000,51.7,242
474400,2021-02-19,13:09:42,JAPAN,-8.4,-12.9,1012.6,1017.0,19.3,0.6,0.10,0.0,110000,90.3,258
442770,2021-02-19,13:09:42,MONGOLIA,-10.1,-19.0,1007.0,1026.0,36.7,23.0,2.35,0.0,110000,50.3,69
561730,2021-02-19,13:09:42,CHINA,-7.7,-19.0,661.0,668.6,28.2,16.3,0.00,0.0,100000,67.8,0
350420,2021-02-19,13:09:42,KAZAKHSTAN,-2.4,-7.4,1027.1,1020.1,16.4,12.4,0.01,0.9,111000,83.2,168
522030,2021-02-19,13:09:42,CHINA,-0.9,-13.0,989.1,1027.5,36.1,2.1,0.00,0.0,100000,74.2,117
512320,2021-02-19,13:09:42,CHINA,-5.2,-9.9,1027.4,1031.4,7.5,22.9,0.03,0.0,110000,51.5,155
470030,2021-02-19,13:09:42,KOREANORTH,-6.0,-13.2,1015.9,1019.4,20.0,9.0,0.01,0.0,110000,51.5,73
563850,2021-02-19,13:09:42,CHINA,-5.0,-8.2,747.1,745.5,7.2,1.4,0.06,0.0,110000,50.3,61
505570,2021-02-19,13:09:42,CHINA,-15.8,-20.6,1003.3,1022.7,11.0,12.8,0.01,0.0,110000,57.5,318
527870,2021-02-19,13:09:42,CHINA,-5.7,-14.2,746.9,749.8,27.0,21.6,0.01,0.0,110000,69.5,166
471580,2021-02-19,13:09:42,KOREASOUTH,-0.5,-4.8,1010.9,1009.2,14.3,9.3,0.00,0.0,100000,65.5,198
471560,2021-02-19,13:09:42,KOREASOUTH,-0.1,-6.7,1018.2,1022.9,13.9,12.5,0.08,0.0,110000,84.8,80
508440,2021-02-19,13:09:42,CHINA,-4.8,-14.3,1021.8,1022.9,12.8,14.7,0.01,0.0,110000,50.7,355
475700,2021-02-19,13:09:42,JAPAN,-3.2,-7.1,1007.5,1019.5,14.3,2.9,0.16,7.8,111000,51.3,109
541350,2021-02-19,13:09:42,CHINA,-8.3,-20.1,1019.5,1024.0,20.3,22.2,0.01,0.0,110000,56.4,235
361860,2021-02-19,13:09:42,KAZAKHSTAN,-2.7,-5.0,992.6,1019.9,7.1,2.0,0.00,17.0,101000,50.6,28
542370,2021-02-19,13:09:42,CHINA,-7.4,-23.7,1037.8,1032.0,15.9,18.1,0.00,0.0,100000,90.8,27
470550,2021-02-19,13:09:42,KOREANORTH,-1.2,-8.4,1024.8,1022.5,11.9,5.8,0.12,0.3,111000,89.1,253
470750,2021-02-19,13:09:42,KOREANORTH,-2.2,-5.5,1027.6,1023.2,35.2,11.3,0.07,0.1,111000,51.9,110
171400,2021-02-19,13:09:42,TURKEY,-4.6,-7.1,871.8,855.3,7.8,15.0,0.07,18.1,111000,51.3,230
478210,2021-02-19,13:09:42,JAPAN,-3.0,-8.5,891.3,897.7,17.8,7.2,0.00,0.0,100000,34.3,113
476900,2021-02-19,13:09:42,JAPAN,-6.5,-11.4,867.0,861.7,25.0,16.4,0.18,0.0,110000,53.0,297
170900,2021-02-19,13:09:42,TURKEY,-1.3,-5.4,914.2,932.6,18.9,1.7,0.27,4.3,111000,65.6,147
529960,2021-02-19,13:09:42,CHINA,-2.4,-8.3,778.1,776.4,18.4,23.2,0.03,0.0,110000,51.9,140
171990,2021-02-19,13:09:42,TURKEY,-3.9,-8.8,912.0,1031.0,18.5,10.1,0.60,3.3,111000,68.5,181
353940,2021-02-19,13:09:42,KAZAKHSTAN,-4.8,-9.0,1002.1,1031.7,24.3,12.1,0.20,3.9,111000,54.0,49
540260,2021-02-19,13:09:42,CHINA,-4.6,-16.4,1011.7,1024.1,25.3,23.5,0.01,0.0,110000,89.0,204
513790,2021-02-19,13:09:42,CHINA,-8.8,-13.5,1021.4,1035.6,17.7,8.4,0.02,0.0,110000,50.5,352
552790,2021-02-19,13:09:42,CHINA,-5.0,-23.9,994.2,995.4,31.4,39.3,0.01,0.0,110000,68.0,118
524240,2021-02-19,13:09:42,CHINA,-4.5,-15.9,898.0,1026.0,29.6,14.1,0.02,0.7,111000,52.3,260
749347,2021-02-19,13:09:42,CHINA,-1.2,-6.6,1035.1,1037.4,8.7,11.0,0.00,0.0,100000,91.4,261
749348,2021-02-19,13:09:42,CHINA,-14.7,-18.6,1033.0,1038.4,51.3,7.7,0.00,0.0,100000,60.9,57
526520,2021-02-19,13:09:42,CHINA,-8.1,-20.7,883.8,1029.5,29.2,3.4,0.00,0.0,100000,72.1,285
380810,2021-02-19,13:09:42,KAZAKHSTAN,-2.4,-6.7,1034.3,1029.0,20.7,30.3,0.03,0.2,111000,53.1,68
526510,2021-02-19,13:09:42,CHINA,-8.2,-29.3,977.0,995.9,66.4,3.9,0.00,0.0,100000,29.5,334
507740,2021-02-19,13:09:42,CHINA,-12.9,-19.0,1013.4,1022.0,4.1,4.7,0.01,0.0,110000,50.0,313
561160,2021-02-19,13:09:42,CHINA,-1.1,-14.1,683.7,690.0,33.6,9.9,0.01,0.0,110000,52.4,71
170575,2021-02-19,13:09:42,TURKEY,-0.7,-3.3,1002.8,1003.9,8.1,15.5,0.00,0.0,100000,24.0,306
287850,2021-02-19,13:09:42,KAZAKHSTAN,-4.6,-7.1,1049.9,1018.4,9.9,2.9,0.00,11.6,101000,52.5,105
470950,2021-02-19,13:09:42,KOREASOUTH,-3.1,-9.6,1007.4,1023.7,11.1,14.0,0.05,0.0,110000,54.9,124
570730,2021-02-19,13:09:42,CHINA,-0.3,-11.3,1025.0,1024.5,16.6,14.9,0.00,0.0,100000,33.4,291
471070,2021-02-19,13:09:42,KOREASOUTH,-0.8,-7.8,1013.6,1016.3,13.7,13.4,0.03,0.3,111000,81.1,36
471065,2021-02-19,13:09:42,KOREASOUTH,-2.1,-7.9,1017.4,1030.4,4.9,10.3,0.00,2.8,101000,50.3,344
564440,2021-02-19,13:09:42,CHINA,-0.5,-6.7,734.9,734.6,27.5,9.1,0.07,0.0,110000,52.0,305
543460,2021-02-19,13:09:42,CHINA,-2.6,-11.5,1018.7,1025.1,19.6,8.4,0.02,0.0,110000,57.6,305
363970,2021-02-19,13:09:42,KAZAKHSTAN,-11.3,-16.9,1023.6,1036.7,8.7,33.9,0.00,0.0,100000,86.1,102
475970,2021-02-19,13:09:42,JAPAN,-1.8,-8.0,974.3,1018.1,20.4,16.0,0.07,0.0,110000,97.0,136
527130,2021-02-19,13:09:42,CHINA,-5.1,-19.6,699.2,699.3,27.7,14.0,0.02,0.0,110000,63.7,61
474050,2021-02-19,13:09:42,JAPAN,-10.3,-14.6,1009.5,1018.1,43.6,18.2,0.00,0.0,100000,85.2,27
514310,2021-02-19,13:09:42,CHINA,-0.5,-5.3,975.4,1028.3,29.2,3.3,0.12,0.0,110000,53.4,244
471610,2021-02-19,13:09:42,KOREASOUTH,-1.3,-7.4,1001.0,1001.5,5.8,11.6,0.05,0.0,110000,93.3,340
538450,2021-02-19,13:09:42,CHINA,-2.4,-13.5,934.2,1029.3,14.3,10.4,0.01,0.0,110000,77.1,238
289520,2021-02-19,13:09:42,KAZAKHSTAN,-2.2,-10.9,1045.6,1033.7,10.0,22.2,0.63,0.0,110000,50.8,170
534460,2021-02-19,13:09:42,CHINA,-4.2,-17.6,1005.6,1029.3,8.1,12.1,0.00,0.0,100000,42.6,241
533360,2021-02-19,13:09:42,CHINA,-6.3,-17.3,909.2,1029.9,27.1,7.0,0.01,0.0,110000,54.1,175
540490,2021-02-19,13:09:42,CHINA,-5.7,-14.9,1028.8,1023.6,18.7,10.7,0.02,0.0,110000,69.6,218
549450,2021-02-19,13:09:42,CHINA,-0.6,-8.8,1019.2,1026.8,21.2,5.4,0.03,0.0,110000,51.4,118
514630,2021-02-19,13:09:42,CHINA,-6.5,-9.5,947.9,1033.3,14.0,6.7,0.05,0.0,110000,73.9,279
557730,2021-02-19,13:09:42,CHINA,-0.6,-10.9,620.3,621.9,18.6,15.4,0.03,0.0,110000,60.2,354
503530,2021-02-19,13:09:42,CHINA,-8.3,-17.9,1000.0,1022.8,20.4,7.5,0.00,0.0,100000,39.8,98
507560,2021-02-19,13:09:42,CHINA,-7.7,-12.5,1009.2,1022.7,16.5,9.7,0.01,0.0,110000,50.8,7
364420,2021-02-19,13:09:42,KAZAKHSTAN,-11.1,-12.3,1012.5,989.6,19.4,32.2,0.02,2.2,111000,98.4,145
528660,2021-02-19,13:09:42,CHINA,-3.5,-15.9,772.5,766.9,10.7,5.6,0.01,0.0,110000,69.8,141
560180,2021-02-19,13:09:42,CHINA,-3.3,-15.6,627.1,635.6,24.4,16.7,0.01,0.0,110000,88.0,57
560340,2021-02-19,13:09:42,CHINA,-9.9,-17.5,600.9,593.5,21.1,17.2,0.05,0.0,110000,54.4,310
471190,2021-02-19,13:09:42,KOREASOUTH,-2.1,-8.8,1024.5,1023.6,18.5,3.2,0.03,0.0,110000,80.6,307
471180,2021-02-19,13:09:42,KOREASOUTH,-3.5,-9.4,1013.9,1018.7,7.1,2.3,0.00,0.0,100000,58.6,84
359530,2021-02-19,13:09:42,KAZAKHSTAN,-3.1,-5.2,1014.2,1028.2,25.1,19.9,0.00,3.7,101000,87.5,204
548260,2021-02-19,13:09:42,CHINA,-3.0,-12.3,870.9,873.0,24.9,24.7,0.03,0.0,110000,66.8,328
542730,2021-02-19,13:09:42,CHINA,-7.9,-14.8,1020.3,1024.9,10.4,1.5,0.00,0.0,100000,40.1,68
400010,2021-02-19,13:09:42,SYRIA,-0.7,-5.9,1036.9,1012.7,15.5,3.5,0.00,0.0,100000,80.6,317
170960,2021-02-19,13:09:42,TURKEY,-2.8,-6.9,891.0,905.2,16.9,16.1,0.08,8.8,111000,51.8,38
537050,2021-02-19,13:09:42,CHINA,-1.8,-15.7,973.1,1028.4,25.1,15.0,0.01,0.0,110000,50.2,134
529550,2021-02-19,13:09:42,CHINA,-3.3,-16.2,694.4,684.8,32.4,12.3,0.02,0.0,110000,66.7,72
350780,2021-02-19,13:09:42,KAZAKHSTAN,-5.5,-9.1,1021.9,1033.3,9.8,15.1,0.02,8.6,111000,67.4,122
528360,2021-02-19,13:09:42,CHINA,-3.1,-18.1,687.3,686.0,28.8,6.0,0.01,0.0,110000,54.8,282
554720,2021-02-19,13:09:42,CHINA,-4.2,-20.3,998.2,992.4,23.5,43.6,0.01,0.0,110000,52.1,21
345810,2021-02-19,13:09:42,KAZAKHSTAN,-2.2,-6.2,1040.0,1028.7,49.1,25.0,0.00,0.0,100000,52.9,37
442070,2021-02-19,13:09:42,MONGOLIA,-15.6,-21.6,1051.0,1044.0,55.2,4.0,0.00,0.0,100000,6.1,317
513340,2021-02-19,13:09:42,CHINA,-5.8,-8.5,1042.4,1032.1,25.8,1.0,0.01,0.0,110000,50.1,162
572900,2021-02-19,13:09:42,CHINA,-0.3,-7.6,1021.7,1026.2,21.2,4.1,0.02,0.0,110000,50.2,65
539150,2021-02-19,13:09:42,CHINA,-2.4,-12.2,907.3,1029.6,23.8,11.8,0.02,0.0,110000,52.3,99
570250,2021-02-19,13:09:42,CHINA,-0.4,-6.5,1047.7,1035.5,14.0,6.5,0.00,0.0,100000,4.2,80
478920,2021-02-19,13:09:42,JAPAN,-0.1,-7.5,1024.3,1025.9,10.6,12.6,0.00,0.0,100000,7.1,239
288670,2021-02-19,13:09:42,KAZAKHSTAN,-7.0,-8.7,1001.2,1030.9,21.4,12.9,0.00,23.0,101000,52.4,113
471650,2021-02-19,13:09:42,KOREASOUTH,-0.2,-5.3,1025.0,1024.4,18.4,11.1,0.09,0.0,110000,50.8,322
547530,2021-02-19,13:09:42,CHINA,-2.0,-10.1,1025.1,1026.5,15.8,12.6,0.07,0.0,110000,84.6,332
470610,2021-02-19,13:09:42,KOREANORTH,-1.1,-8.3,1016.5,1020.3,27.2,10.7,0.15,0.8,111000,69.7,9
470650,2021-02-19,13:09:42,KOREANORTH,-3.6,-8.6,1018.5,1024.4,13.8,7.4,0.01,0.0,110000,81.8,170
524180,2021-02-19,13:09:42,CHINA,-0.5,-14.3,918.1,1027.1,26.9,2.9,0.01,0.0,110000,51.8,159
470200,2021-02-19,13:09:42,KOREANORTH,-6.8,-12.3,1015.1,1029.1,0.0,1.4,0.00,0.0,100000,57.2,236
443410,2021-02-19,13:09:42,MONGOLIA,-6.1,-13.9,855.9,1021.3,44.3,8.9,0.00,0.5,101000,52.6,305
474070,2021-02-19,13:09:42,JAPAN,-12.2,-14.9,1008.1,1014.6,14.5,12.5,0.09,16.5,111000,67.1,272
474060,2021-02-19,13:09:42,JAPAN,-8.3,-12.4,1010.4,1015.5,15.8,12.5,0.11,15.1,111000,51.2,93
517110,2021-02-19,13:09:42,CHINA,-2.0,-10.3,800.8,795.4,25.7,3.2,0.03,0.0,110000,52.8,79
560040,2021-02-19,13:09:42,CHINA,-5.9,-16.6,998.8,1001.7,34.1,18.2,0.01,0.0,110000,55.2,201
470600,2021-02-19,13:09:42,KOREANORTH,-1.6,-6.1,1025.2,1024.2,13.0,11.2,0.01,0.0,110000,51.3,150
350670,2021-02-19,13:09:42,KAZAKHSTAN,-6.9,-9.8,1038.4,1034.2,15.9,16.0,0.00,3.0,101000,95.0,10
531920,2021-02-19,13:09:42,CHINA,-5.3,-9.9,918.2,1031.9,30.9,22.7,0.01,0.0,110000,51.2,187
172500,2021-02-19,13:09:42,TURKEY,-2.0,-6.4,878.8,877.7,27.7,13.1,0.25,3.5,111000,90.5,281
544710,2021-02-19,13:09:42,CHINA,-5.5,-14.4,1024.0,1025.0,15.7,24.1,0.00,0.0,100000,31.6,312
474900,2021-02-19,13:09:42,JAPAN,-10.7,-17.2,995.8,999.6,11.8,7.2,0.00,0.0,100000,76.7,215
474890,2021-02-19,13:09:42,JAPAN,-7.3,-13.6,1000.0,998.0,4.0,5.3,0.00,0.0,100000,31.6,15
505480,2021-02-19,13:09:42,CHINA,-16.3,-21.0,1007.9,1010.0,24.7,7.5,0.00,0.0,100000,35.8,278
470080,2021-02-19,13:09:42,KOREANORTH,-4.1,-11.5,1014.3,1020.6,13.8,13.1,0.00,0.0,100000,97.2,305
562570,2021-02-19,13:09:42,CHINA,-2.1,-15.4,684.6,683.3,43.2,2.4,0.01,0.0,110000,53.4,81
443730,2021-02-19,13:09:42,MONGOLIA,-4.6,-17.6,853.5,1024.6,46.8,10.7,0.00,0.3,101000,72.5,83
443740,2021-02-19,13:09:42,MONGOLIA,-5.2,-16.4,824.4,1024.1,52.0,23.8,0.00,1.1,101000,51.6,115
536460,2021-02-19,13:09:42,CHINA,-5.6,-18.1,926.5,1028.0,8.4,7.3,0.01,0.0,110000,51.7,261
474040,2021-02-19,13:09:42,JAPAN,-6.4,-12.1,1014.2,1017.1,33.8,19.7,0.12,0.0,110000,52.0,34
509490,2021-02-19,13:09:42,CHINA,-8.2,-16.6,1018.4,1022.6,7.1,17.4,0.02,0.0,110000,82.0,250
509150,2021-02-19,13:09:42,CHINA,-7.6,-13.8,945.9,1029.2,33.0,16.9,0.02,0.0,110000,52.6,274
475910,2021-02-19,13:09:42,JAPAN,-1.4,-6.4,1005.2,1004.2,18.0,12.9,0.08,0.5,111000,52.5,69
570460,2021-02-19,13:09:42,CHINA,-3.6,-10.3,817.2,825.0,23.0,25.7,0.02,0.0,110000,51.4,212
540120,2021-02-19,13:09:42,CHINA,-12.2,-16.9,937.1,1029.7,22.8,13.8,0.02,0.0,110000,50.3,168
537870,2021-02-19,13:09:42,CHINA,-4.6,-15.7,978.2,1027.6,21.6,11.2,0.01,0.0,110000,50.1,257
537980,2021-02-19,13:09:42,CHINA,-0.1,-9.5,1019.6,1025.8,14.2,3.9,0.01,0.0,110000,68.0,234
544830,2021-02-19,13:09:42,CHINA,-10.0,-15.6,1024.5,1024.0,12.4,13.1,0.01,0.0,110000,52.6,99
474340,2021-02-19,13:09:42,JAPAN,-10.3,-14.6,1004.6,1011.7,10.8,11.9,0.00,1.4,101000,91.5,42
474350,2021-02-19,13:09:42,JAPAN,-4.8,-11.1,1012.5,1006.3,34.0,8.0,0.03,0.0,110000,68.4,313
545870,2021-02-19,13:09:42,CHINA,-2.3,-8.9,1025.9,1025.4,25.1,40.6,0.00,0.0,100000,4.1,179
546620,2021-02-19,13:09:42,CHINA,-2.6,-11.6,1020.7,1025.3,3.7,12.0,0.05,0.0,110000,70.8,91
538630,2021-02-19,13:09:42,CHINA,-1.7,-13.0,1016.9,1026.9,8.2,13.1,0.02,0.0,110000,54.5,138
538870,2021-02-19,13:09:42,CHINA,-4.4,-22.3,916.2,1026.8,32.3,4.0,0.00,0.0,100000,15.2,75
525760,2021-02-19,13:09:42,CHINA,-5.9,-19.5,849.8,861.4,32.7,35.9,0.00,0.0,100000,73.2,271
510530,2021-02-19,13:09:42,CHINA,-9.4,-14.3,1025.8,1035.3,25.2,12.6,0.02,0.0,110000,53.7,198
170840,2021-02-19,13:09:42,TURKEY,-2.2,-6.8,942.3,1018.4,20.6,6.1,0.10,3.5,111000,91.8,173
549290,2021-02-19,13:09:42,CHINA,-0.3,-9.7,1025.3,1024.1,22.8,2.8,0.00,0.0,100000,60.6,21
476200,2021-02-19,13:09:42,JAPAN,-3.7,-8.4,927.5,1018.3,28.7,13.6,0.14,0.0,110000,52.6,95
541020,2021-02-19,13:09:42,CHINA,-12.6,-19.2,938.2,1029.7,28.0,1.6,0.01,0.0,110000,69.5,85
521180,2021-02-19,13:09:42,CHINA,-4.1,-17.1,829.1,828.3,32.6,10.2,0.01,0.0,110000,56.7,137
467550,2021-02-19,13:09:42,TAIWAN,-1.5,-1.6,1004.2,998.6,63.5,16.3,0.00,0.0,100000,91.6,223
475830,2021-02-19,13:09:42,JAPAN,-2.1,-7.3,1009.1,1011.1,3.5,13.0,0.00,0.0,100000,10.6,132
475820,2021-02-19,13:09:42,JAPAN,-2.3,-7.5,1021.0,1017.2,13.2,23.8,0.14,4.9,111000,50.4,306
510760,2021-02-19,13:09:42,CHINA,-7.7,-12.9,962.7,1032.5,30.3,2.9,0.04,0.0,110000,56.6,116
351080,2021-02-19,13:09:42,KAZAKHSTAN,-3.3,-5.8,1019.1,1023.8,10.9,27.8,0.01,8.6,111000,79.9,313
381411,2021-02-19,13:09:42,KAZAKHSTAN,-3.2,-3.7,1013.0,991.3,1.7,29.4,0.00,0.0,100000,68.2,268
526020,2021-02-19,13:09:42,CHINA,-3.8,-19.7,726.2,725.7,23.3,4.1,0.01,0.0,110000,62.2,33
361770,2021-02-19,13:09:42,KAZAKHSTAN,-11.2,-15.9,1023.6,1025.0,9.9,16.1,0.01,0.0,110000,51.1,217
471170,2021-02-19,13:09:42,KOREASOUTH,-1.0,-5.9,1001.9,982.9,8.9,2.7,0.07,0.0,110000,96.1,105
576220,2021-02-19,13:09:42,CHINA,-1.2,-2.0,841.6,837.5,6.4,16.2,0.05,0.0,110000,75.5,277
560670,2021-02-19,13:09:42,CHINA,-6.5,-17.2,650.5,654.7,22.7,27.6,0.00,0.0,100000,26.7,76
474240,2021-02-19,13:09:42,JAPAN,-7.4,-11.6,1018.1,1017.1,20.4,8.0,0.00,0.0,100000,2.3,303
474250,2021-02-19,13:09:42,JAPAN,-9.8,-13.6,1000.6,1001.3,3.1,5.0,0.00,0.0,100000,96.7,301
474260,2021-02-19,13:09:42,JAPAN,-5.6,-11.4,1013.1,1015.5,27.3,24.5,0.03,1.4,111000,97.4,84
563570,2021-02-19,13:09:42,CHINA,-1.4,-16.9,644.9,645.2,31.7,14.4,0.01,0.0,110000,51.5,210
477150,2021-02-19,13:09:42,JAPAN,-0.7,-5.7,1001.8,1001.9,8.5,4.8,0.14,0.3,111000,50.2,201
543740,2021-02-19,13:09:42,CHINA,-9.6,-15.7,1007.6,1023.3,12.9,3.5,0.01,0.0,110000,51.8,55
474880,2021-02-19,13:09:42,JAPAN,-3.9,-9.6,994.9,997.9,10.8,11.4,0.00,0.0,100000,98.8,338
593530,2021-02-19,13:09:42,TAIWAN,-0.9,-1.8,763.9,1023.1,14.7,5.5,0.00,0.0,100000,49.1,82
471320,2021-02-19,13:09:42,KOREASOUTH,-3.8,-12.4,996.3,983.0,9.9,5.5,0.00,0.0,100000,67.3,214
538210,2021-02-19,13:09:42,CHINA,-5.1,-17.7,929.2,1028.0,20.5,6.1,0.00,0.0,100000,37.7,282
443470,2021-02-19,13:09:42,MONGOLIA,-8.1,-26.0,862.0,1009.9,25.5,19.6,0.00,0.0,100000,91.1,324
355820,2021-02-19,13:09:42,KAZAKHSTAN,-2.8,-7.9,1026.2,1032.4,25.8,15.0,0.00,2.6,101000,51.6,92
478180,2021-02-19,13:09:42,JAPAN,-1.3,-6.8,944.9,1027.9,27.5,12.8,0.00,0.0,100000,1.1,117
545340,2021-02-19,13:09:42,CHINA,-1.9,-12.6,1025.6,1025.7,13.3,0.7,0.02,0.0,110000,51.5,90
171890,2021-02-19,13:09:42,TURKEY,-5.9,-9.0,905.3,919.4,11.2,6.5,0.02,8.2,111000,54.4,158
477670,2021-02-19,13:09:42,JAPAN,-0.6,-5.2,1018.6,1017.7,16.7,7.7,0.14,0.0,110000,61.5,150
356330,2021-02-19,13:09:42,KAZAKHSTAN,-2.5,-6.2,1027.6,1021.5,24.3,24.5,0.00,3.3,101000,63.9,241
471750,2021-02-19,13:09:42,KOREASOUTH,-0.2,-4.7,966.1,1024.3,11.6,32.8,0.00,0.0,100000,9.0,112
470250,2021-02-19,13:09:42,KOREANORTH,-3.4,-7.3,1015.2,1020.2,9.9,8.3,0.09,0.1,111000,53.1,285
353450,2021-02-19,13:09:42,KAZAKHSTAN,-3.4,-6.2,1065.0,1041.7,16.4,0.0,0.00,4.9,101000,69.7,160
475810,2021-02-19,13:09:42,JAPAN,-3.4,-8.1,1013.0,1016.2,28.8,9.1,0.02,5.9,111000,90.3,301
535290,2021-02-19,13:09:42,CHINA,-3.4,-14.9,893.0,1028.5,22.3,3.9,0.01,0.0,110000,63.5,95
475740,2021-02-19,13:09:42,JAPAN,-1.3,-9.0,1007.4,1018.2,14.0,22.2,0.03,0.0,110000,54.4,318
354160,2021-02-19,13:09:42,KAZAKHSTAN,-2.9,-7.1,1026.7,1028.9,6.4,14.4,0.05,7.8,111000,91.2,76
535020,2021-02-19,13:09:42,CHINA,-4.6,-19.1,977.5,1029.5,21.1,11.7,0.00,0.0,100000,5.8,238
547760,2021-02-19,13:09:42,CHINA,-0.6,-6.5,1021.1,1025.6,18.6,8.4,0.04,0.0,110000,64.5,342
561820,2021-02-19,13:09:42,CHINA,-1.4,-11.2,778.6,818.4,34.0,13.6,0.07,0.0,110000,68.2,178
549380,2021-02-19,13:09:42,CHINA,-2.0,-11.1,1030.4,1027.3,12.1,7.1,0.01,0.0,110000,52.5,7
377890,2021-02-19,13:09:42,ARMENIA,-0.2,-4.8,985.6,1016.2,7.6,9.2,0.00,0.0,100000,40.4,299
514670,2021-02-19,13:09:42,CHINA,-0.4,-13.8,829.4,828.4,28.7,0.8,0.00,0.0,100000,70.2,19
539470,2021-02-19,13:09:42,CHINA,-3.2,-14.8,949.2,1027.1,21.8,7.7,0.01,0.0,110000,81.5,132
570060,2021-02-19,13:09:42,CHINA,-0.5,-10.7,946.7,1026.1,11.6,5.1,0.02,0.0,110000,50.6,42
541610,2021-02-19,13:09:42,CHINA,-4.0,-12.1,1012.4,1023.3,13.0,13.1,0.03,0.0,110000,52.1,200
541611,2021-02-19,13:09:42,CHINA,-4.6,-11.6,1019.5,1041.1,10.9,0.8,0.00,0.0,100000,96.9,192
541570,2021-02-19,13:09:42,CHINA,-2.9,-15.1,1025.5,1023.1,12.8,6.2,0.03,0.0,110000,64.0,279
560290,2021-02-19,13:09:42,CHINA,-3.3,-14.8,645.5,645.4,28.6,0.0,0.04,0.0,110000,53.9,263
571930,2021-02-19,13:09:42,CHINA,-0.4,-8.3,1009.3,1025.2,4.6,7.1,0.01,0.0,110000,52.8,12
477420,2021-02-19,13:09:42,JAPAN,-0.7,-4.4,1024.4,1025.1,4.4,8.1,0.03,0.0,110000,51.4,47
537720,2021-02-19,13:09:42,CHINA,-2.4,-13.6,982.7,1025.6,6.6,3.3,0.01,0.0,110000,53.4,58
475840,2021-02-19,13:09:42,JAPAN,-4.9,-9.9,1005.9,1015.1,4.0,19.1,0.10,3.7,111000,67.6,318
535130,2021-02-19,13:09:42,CHINA,-5.6,-17.3,926.0,1030.4,21.7,6.2,0.00,0.0,100000,20.5,305
475900,2021-02-19,13:09:42,JAPAN,-1.2,-7.5,1009.5,1017.5,19.5,8.6,0.10,0.9,111000,50.0,333
471210,2021-02-19,13:09:42,KOREASOUTH,-3.2,-12.4,994.2,1024.2,12.8,2.4,0.06,0.0,110000,60.6,115
471200,2021-02-19,13:09:42,KOREASOUTH,-2.3,-7.5,1007.7,1010.2,8.5,8.1,0.00,0.1,101000,51.6,288
471260,2021-02-19,13:09:42,KOREASOUTH,-0.1,-7.9,999.3,957.8,8.3,14.6,0.00,0.0,100000,12.8,317
298070,2021-02-19,13:09:42,KAZAKHSTAN,-11.3,-15.2,1027.7,1027.5,1.4,5.3,0.02,4.3,111000,51.9,279
171240,2021-02-19,13:09:42,TURKEY,-1.3,-4.3,968.5,1018.8,13.3,8.9,0.08,1.2,111000,72.4,352
400830,2021-02-19,13:09:42,SYRIA,-1.2,-9.8,994.4,1023.2,19.8,22.8,0.00,0.0,100000,50.8,313
475490,2021-02-19,13:09:42,JAPAN,-1.8,-7.4,998.3,996.0,3.4,13.5,0.00,0.0,100000,31.1,43
534870,2021-02-19,13:09:42,CHINA,-8.2,-21.4,972.0,1027.9,13.5,13.0,0.01,0.0,110000,50.2,267
380190,2021-02-19,13:09:42,KAZAKHSTAN,-9.5,-13.3,1018.2,1036.1,37.6,2.0,0.05,8.2,111000,52.2,31
544490,2021-02-19,13:09:42,CHINA,-1.4,-18.8,1019.2,1015.6,40.0,29.7,0.05,0.0,110000,52.4,110
476170,2021-02-19,13:09:42,JAPAN,-5.9,-10.1,953.4,1023.9,20.0,9.3,0.00,0.0,100000,17.9,192
537640,2021-02-19,13:09:42,CHINA,-5.4,-16.8,972.5,1028.6,19.3,2.7,0.02,0.0,110000,57.2,57
474760,2021-02-19,13:09:42,JAPAN,-10.5,-14.3,999.9,1001.6,4.5,13.4,0.00,0.0,100000,77.3,30
475690,2021-02-19,13:09:42,JAPAN,-0.5,-6.9,1001.6,1002.4,11.4,18.3,0.00,0.0,100000,73.2,352
358840,2021-02-19,13:09:42,KAZAKHSTAN,-8.5,-12.8,982.0,995.2,19.2,6.8,0.00,11.0,101000,58.8,53
543080,2021-02-19,13:09:42,CHINA,-7.3,-21.9,1020.3,1027.8,30.3,10.6,0.03,0.0,110000,58.4,63
542920,2021-02-19,13:09:42,CHINA,-8.7,-21.8,1005.8,1025.0,16.0,7.9,0.00,,100000,54.5,231
527370,2021-02-19,13:09:42,CHINA,-2.3,-18.9,725.4,729.3,24.7,22.7,0.01,0.0,110000,76.7,337
529570,2021-02-19,13:09:42,CHINA,-3.9,-17.8,723.6,717.9,24.3,15.6,0.03,0.0,110000,90.1,60
353760,2021-02-19,13:09:42,KAZAKHSTAN,-4.8,-9.2,991.1,1030.8,20.8,6.1,0.01,6.4,111000,59.8,335
476900,2021-02-19,13:09:43,JAPAN,-6.6,-10.5,867.0,861.6,25.0,16.3,0.18,0.0,110000,53.0,297
289780,2021-02-19,13:09:43,KAZAKHSTAN,-8.8,-12.1,969.2,1020.4,10.9,4.6,0.00,0.0,100000,66.3,246
477690,2021-02-19,13:09:43,JAPAN,-0.7,-7.7,1019.9,1025.3,0.1,19.7,0.00,0.0,100000,39.2,264
171880,2021-02-19,13:09:43,TURKEY,-0.1,-3.6,937.6,1016.4,22.2,2.7,0.17,0.3,111000,54.3,187
543860,2021-02-19,13:09:43,CHINA,-4.4,-12.0,964.5,1025.8,20.8,6.9,0.04,0.0,110000,54.3,184
363350,2021-02-19,13:09:43,KAZAKHSTAN,-6.0,-12.4,1024.2,1031.4,46.5,19.5,0.00,0.3,101000,51.7,211
477150,2021-02-19,13:09:43,JAPAN,-0.6,-6.7,1001.8,1001.9,8.5,4.9,0.14,0.3,111000,50.2,200
524240,2021-02-19,13:09:43,CHINA,-3.6,-15.9,898.0,1026.0,29.5,14.0,0.02,0.7,111000,52.3,260
749347,2021-02-19,13:09:43,CHINA,-1.2,-6.6,1035.1,1037.4,8.8,11.0,0.00,0.0,100000,91.5,262
749348,2021-02-19,13:09:43,CHINA,-14.7,-18.2,1033.0,1038.4,51.4,7.7,0.00,0.0,100000,60.9,56
547140,2021-02-19,13:09:43,CHINA,-1.8,-11.1,1026.3,1026.2,17.8,14.0,0.08,0.0,110000,51.5,336
471540,2021-02-19,13:09:43,KOREASOUTH,-0.4,-11.0,1010.9,1015.8,10.5,16.3,0.00,0.0,100000,69.0,186
471060,2021-02-19,13:09:43,KOREASOUTH,-1.5,-9.3,1016.0,1022.1,13.3,17.4,0.12,0.2,111000,52.6,267
476200,2021-02-19,13:09:43,JAPAN,-3.7,-8.4,927.5,1018.3,28.7,13.5,0.14,0.0,110000,52.5,95
359970,2021-02-19,13:09:43,KAZAKHSTAN,-5.9,-9.2,1044.7,1032.9,31.3,5.5,0.05,0.9,111000,53.6,171
443050,2021-02-19,13:09:43,MONGOLIA,-13.0,-17.1,950.6,1027.2,47.0,10.3,0.01,2.2,111000,50.6,330
536730,2021-02-19,13:09:43,CHINA,-1.7,-13.7,975.3,1028.1,17.7,3.2,0.02,0.0,110000,50.2,66
475490,2021-02-19,13:09:43,JAPAN,-1.8,-8.0,998.3,995.9,3.5,13.6,0.00,0.0,100000,31.1,43
561720,2021-02-19,13:09:43,CHINA,-0.2,-11.7,777.9,782.9,37.6,6.9,0.02,0.0,110000,92.7,13
561730,2021-02-19,13:09:43,CHINA,-6.3,-21.2,661.0,668.7,28.3,16.2,0.00,0.0,100000,67.8,0
544830,2021-02-19,13:09:43,CHINA,-10.0,-17.2,1024.5,1024.0,12.4,13.2,0.01,0.0,110000,52.6,99
474050,2021-02-19,13:09:43,JAPAN,-9.7,-14.6,1009.5,1018.0,43.5,18.2,0.00,0.0,100000,85.2,27
350420,2021-02-19,13:09:43,KAZAKHSTAN,-2.4,-7.4,1027.1,1020.0,16.3,12.3,0.01,0.9,111000,83.2,168
522030,2021-02-19,13:09:43,CHINA,-0.9,-11.5,989.1,1027.5,36.2,2.1,0.00,0.0,100000,74.2,118
471380,2021-02-19,13:09:43,KOREASOUTH,-0.2,-8.5,1026.3,1022.3,16.3,11.0,0.12,0.0,110000,59.2,239
475910,2021-02-19,13:09:43,JAPAN,-1.4,-5.6,1005.2,1004.1,17.9,12.8,0.08,0.5,111000,52.5,69
527540,2021-02-19,13:09:43,CHINA,-9.4,-21.6,676.0,678.4,32.4,6.1,0.01,0.0,110000,94.7,227
287850,2021-02-19,13:09:43,KAZAKHSTAN,-4.9,-7.1,1049.8,1018.4,9.9,2.9,0.00,11.6,101000,52.5,105
570670,2021-02-19,13:09:43,CHINA,-0.4,-8.8,991.6,1028.9,20.6,4.2,0.02,0.0,110000,52.0,132
366220,2021-02-19,13:09:43,KAZAKHSTAN,-12.5,-16.3,1041.4,1036.3,26.9,24.4,0.00,3.0,101000,67.1,316
471170,2021-02-19,13:09:43,KOREASOUTH,-1.0,-6.7,1001.9,982.7,8.9,2.8,0.07,0.0,110000,96.2,105
570140,2021-02-19,13:09:43,CHINA,-2.0,-7.4,1002.8,1032.9,20.2,2.8,0.00,0.0,100000,0.8,111
523130,2021-02-19,13:09:43,CHINA,-2.9,-14.3,921.5,897.5,61.8,2.5,0.00,0.0,100000,74.6,88
360030,2021-02-19,13:09:43,KAZAKHSTAN,-10.0,-12.9,1020.9,1030.3,28.6,18.5,0.11,4.8,111000,75.4,179
543770,2021-02-19,13:09:43,CHINA,-4.1,-10.4,1026.1,1025.3,11.2,5.0,0.03,0.0,110000,51.0,35
380910,2021-02-19,13:09:43,KAZAKHSTAN,-2.1,-6.8,1027.1,1030.1,43.7,10.8,0.02,1.2,111000,50.7,134
526610,2021-02-19,13:09:43,CHINA,-4.8,-20.9,928.1,946.3,70.2,12.0,0.00,0.0,100000,24.6,142
544230,2021-02-19,13:09:43,CHINA,-5.3,-19.2,975.7,1023.8,18.8,9.5,0.00,0.0,100000,38.3,272
172480,2021-02-19,13:09:43,TURKEY,-5.1,-7.1,903.0,868.6,16.1,2.8,0.33,18.1,111000,50.3,67
560210,2021-02-19,13:09:43,CHINA,-7.1,-20.6,616.6,614.0,29.5,4.2,0.01,0.0,110000,51.6,149
540940,2021-02-19,13:09:43,CHINA,-5.0,-10.7,1010.6,1022.2,12.1,9.6,0.02,0.0,110000,88.3,328
288670,2021-02-19,13:09:43,KAZAKHSTAN,-7.0,-8.7,1001.5,1030.8,21.4,13.0,0.00,23.0,101000,52.4,112
537380,2021-02-19,13:09:43,CHINA,-3.5,-15.2,872.1,1025.1,23.8,4.8,0.00,0.0,100000,95.7,118
442070,2021-02-19,13:09:43,MONGOLIA,-14.8,-21.6,1051.2,1044.0,55.3,4.1,0.00,0.0,100000,6.1,318
528660,2021-02-19,13:09:43,CHINA,-4.3,-14.6,772.4,766.9,10.6,5.6,0.01,0.0,110000,69.8,141
513460,2021-02-19,13:09:43,CHINA,-8.3,-11.5,1053.4,1041.2,48.9,2.7,0.00,0.0,100000,33.0,325
476120,2021-02-19,13:09:43,JAPAN,-0.6,-4.7,1018.3,1018.8,18.1,4.4,0.40,14.3,111000,50.4,148
548570,2021-02-19,13:09:43,CHINA,-0.6,-7.0,1024.4,1025.6,12.9,18.8,0.02,0.0,110000,89.7,164
171990,2021-02-19,13:09:43,TURKEY,-3.9,-7.9,912.1,1031.1,18.5,10.2,0.60,3.3,111000,68.6,181
358840,2021-02-19,13:09:43,KAZAKHSTAN,-9.7,-11.3,981.9,995.0,19.2,6.8,0.00,11.0,101000,58.9,53
357960,2021-02-19,13:09:43,KAZAKHSTAN,-8.5,-12.7,1019.4,1033.2,42.4,27.8,0.01,1.4,111000,53.4,315
475800,2021-02-19,13:09:43,JAPAN,-3.4,-7.1,999.9,1002.1,20.8,14.6,0.00,1.9,101000,51.0,91
383410,2021-02-19,13:09:43,KAZAKHSTAN,-1.0,-3.6,994.7,1027.8,7.6,10.3,0.19,1.4,111000,72.3,278
475450,2021-02-19,13:09:43,JAPAN,-1.8,-6.1,1002.2,1006.8,10.4,13.6,0.00,0.0,100000,93.4,131
552280,2021-02-19,13:09:43,CHINA,-1.7,-17.4,603.4,600.0,30.6,0.1,0.01,0.0,110000,85.7,116
354060,2021-02-19,13:09:43,KAZAKHSTAN,-4.0,-7.8,1027.8,1028.4,26.8,18.1,0.00,0.0,100000,86.0,119
470030,2021-02-19,13:09:43,KOREANORTH,-6.0,-14.3,1015.9,1019.4,20.0,9.1,0.01,0.0,110000,51.5,73
528250,2021-02-19,13:09:43,CHINA,-3.0,-20.8,723.6,722.4,22.7,1.8,0.00,0.0,100000,11.8,167
475970,2021-02-19,13:09:43,JAPAN,-1.7,-9.1,974.3,1018.1,20.5,16.1,0.07,0.0,110000,96.9,136
514630,2021-02-19,13:09:43,CHINA,-6.8,-9.5,947.9,1033.3,14.0,6.6,0.05,0.0,110000,73.9,279
171350,2021-02-19,13:09:43,TURKEY,-0.7,-4.8,922.3,1011.0,14.8,17.7,0.00,0.0,100000,28.8,194
576220,2021-02-19,13:09:43,CHINA,-0.9,-1.3,841.6,837.6,6.3,16.3,0.05,0.0,110000,75.5,277
560670,2021-02-19,13:09:43,CHINA,-6.5,-17.2,650.5,654.6,22.7,27.7,0.00,0.0,100000,26.7,76
534460,2021-02-19,13:09:43,CHINA,-4.2,-17.6,1005.6,1029.3,8.2,12.3,0.00,0.0,100000,42.6,241
172500,2021-02-19,13:09:43,TURKEY,-1.7,-5.7,878.8,877.7,27.6,13.0,0.25,3.5,111000,90.5,281
354970,2021-02-19,13:09:43,KAZAKHSTAN,-6.4,-12.1,988.8,1033.9,29.2,13.7,0.00,4.9,101000,50.6,33
470990,2021-02-19,13:09:43,KOREASOUTH,-2.7,-11.4,1020.7,1024.6,10.0,2.6,0.00,0.0,100000,85.9,331
471030,2021-02-19,13:09:43,KOREASOUTH,-0.7,-5.1,1016.2,1024.6,13.7,22.2,0.00,0.0,100000,73.5,90
471025,2021-02-19,13:09:43,KOREASOUTH,-0.1,-6.9,1011.1,1015.3,1.7,7.7,0.00,0.0,100000,62.7,220
501360,2021-02-19,13:09:43,CHINA,-22.6,-28.5,968.5,1026.9,17.4,4.0,0.00,0.0,100000,56.5,80
343980,2021-02-19,13:09:43,KAZAKHSTAN,-2.2,-5.0,1013.2,1013.6,20.1,21.1,0.00,7.9,101000,58.9,213
354260,2021-02-19,13:09:43,KAZAKHSTAN,-4.0,-6.5,1004.8,1022.6,31.9,9.9,0.01,5.2,111000,50.2,119
504680,2021-02-19,13:09:43,CHINA,-14.1,-20.1,1013.4,1021.6,20.6,13.5,0.01,0.0,110000,51.1,272
508880,2021-02-19,13:09:43,CHINA,-6.2,-13.9,1014.3,1020.8,24.7,11.4,0.02,0.0,110000,60.2,167
355420,2021-02-19,13:09:43,KAZAKHSTAN,-6.6,-9.1,1016.3,1029.0,8.3,17.6,0.03,0.9,111000,88.9,150
471610,2021-02-19,13:09:43,KOREASOUTH,-1.2,-8.5,1001.1,1001.4,5.8,11.5,0.05,0.0,110000,93.4,340
533520,2021-02-19,13:09:43,CHINA,-10.5,-19.4,960.5,1032.0,26.6,8.2,0.01,0.0,110000,51.2,329
355490,2021-02-19,13:09:43,KAZAKHSTAN,-3.5,-7.2,1028.2,1033.7,18.4,17.4,0.00,2.6,101000,97.5,154
443410,2021-02-19,13:09:43,MONGOLIA,-6.1,-13.9,855.9,1021.3,44.4,8.8,0.00,0.5,101000,52.6,306
470500,2021-02-19,13:09:43,KOREANORTH,-5.3,-10.6,1020.1,1023.8,18.7,5.1,0.08,0.0,110000,51.2,121
471580,2021-02-19,13:09:43,KOREASOUTH,-0.6,-5.6,1010.9,1009.2,14.4,9.3,0.00,0.0,100000,65.5,198
471560,2021-02-19,13:09:43,KOREASOUTH,-0.2,-6.7,1018.2,1022.9,13.8,12.4,0.08,0.0,110000,84.8,80
546020,2021-02-19,13:09:43,CHINA,-1.5,-11.8,1021.8,1025.6,9.3,5.2,0.02,0.0,110000,96.0,345
474200,2021-02-19,13:09:43,JAPAN,-8.5,-12.1,1014.1,1015.7,16.0,13.1,0.02,3.6,111000,65.0,256
351910,2021-02-19,13:09:43,KAZAKHSTAN,-4.7,-14.3,1034.4,1040.6,46.5,5.1,0.00,0.0,100000,15.3,248
442840,2021-02-19,13:09:43,MONGOLIA,-11.3,-14.3,783.3,1036.4,56.4,4.5,0.00,2.8,101000,61.1,123
540960,2021-02-19,13:09:43,CHINA,-7.5,-14.9,1023.3,1021.7,15.7,18.3,0.02,0.0,110000,51.8,167
525760,2021-02-19,13:09:43,CHINA,-6.5,-20.7,849.8,861.4,32.8,36.1,0.00,0.0,100000,73.3,271
470200,2021-02-19,13:09:43,KOREANORTH,-1.8,-11.2,1015.1,1029.1,0.0,1.3,0.00,0.0,100000,57.2,236
478920,2021-02-19,13:09:43,JAPAN,-0.1,-7.5,1024.3,1025.9,10.5,12.7,0.00,0.0,100000,7.1,240
548080,2021-02-19,13:09:43,CHINA,-1.3,-8.7,1026.7,1026.1,2.8,9.6,0.01,0.0,110000,94.8,133
377090,2021-02-19,13:09:43,ARMENIA,-2.3,-4.9,982.3,984.9,20.6,16.7,0.02,9.2,111000,51.6,86
476370,2021-02-19,13:09:43,JAPAN,-2.8,-9.9,957.1,1016.1,25.3,8.0,0.21,0.0,110000,51.8,172
543740,2021-02-19,13:09:43,CHINA,-9.7,-17.4,1007.6,1023.3,12.9,3.5,0.01,0.0,110000,51.9,55
541350,2021-02-19,13:09:43,CHINA,-8.6,-18.8,1019.5,1024.0,20.3,22.1,0.01,0.0,110000,56.4,235
361860,2021-02-19,13:09:43,KAZAKHSTAN,-2.5,-5.0,992.5,1019.8,7.2,2.0,0.00,17.0,101000,50.5,28
542920,2021-02-19,13:09:43,CHINA,-8.7,-20.2,1005.9,1025.0,15.9,8.0,0.00,0.0,100000,54.6,230
527370,2021-02-19,13:09:43,CHINA,-1.9,-17.6,725.4,729.3,24.6,22.8,0.01,0.0,110000,76.7,337
475880,2021-02-19,13:09:43,JAPAN,-3.4,-6.4,997.0,1015.1,17.2,12.0,0.18,0.0,110000,81.9,282
504340,2021-02-19,13:09:43,CHINA,-21.1,-26.7,961.4,1027.2,21.0,12.2,0.02,0.0,110000,53.3,135
350530,2021-02-19,13:09:43,KAZAKHSTAN,-5.0,-8.4,1028.3,1035.3,14.8,19.6,0.08,1.1,111000,63.7,156
531920,2021-02-19,13:09:43,CHINA,-5.3,-11.4,918.2,1031.9,30.9,22.8,0.01,0.0,110000,51.2,186
513340,2021-02-19,13:09:43,CHINA,-5.7,-8.5,1042.4,1032.1,25.8,1.0,0.01,0.0,110000,50.1,162
572900,2021-02-19,13:09:43,CHINA,-0.3,-7.6,1021.7,1026.2,21.3,4.1,0.02,0.0,110000,50.2,65
381411,2021-02-19,13:09:43,KAZAKHSTAN,-3.2,-3.0,1012.9,991.3,1.8,29.5,0.00,0.0,100000,68.2,268
543420,2021-02-19,13:09:43,CHINA,-3.7,-13.5,1019.6,1024.0,8.3,7.2,0.03,0.0,110000,52.6,209
512320,2021-02-19,13:09:43,CHINA,-5.2,-9.0,1027.4,1031.4,7.5,23.0,0.03,0.0,110000,51.6,155
442320,2021-02-19,13:09:43,MONGOLIA,-12.2,-16.1,1041.3,1049.4,38.6,6.4,0.00,0.0,100000,78.7,66
507270,2021-02-19,13:09:43,CHINA,-6.5,-11.0,914.0,1027.4,31.2,3.9,0.02,0.0,110000,58.4,156
586530,2021-02-19,13:09:43,CHINA,-1.3,-2.4,914.5,1023.8,2.1,22.1,0.25,0.0,110000,51.0,123
475870,2021-02-19,13:09:43,JAPAN,-0.6,-5.2,1014.1,1017.1,15.2,18.4,0.21,3.7,111000,84.5,181
475850,2021-02-19,13:09:43,JAPAN,-3.4,-9.4,1010.4,1014.1,21.4,8.3,0.13,2.9,111000,64.3,202
474410,2021-02-19,13:09:43,JAPAN,-6.1,-12.0,998.8,1001.7,15.0,11.8,0.00,0.0,100000,23.1,42
524360,2021-02-19,13:09:43,CHINA,-2.8,-15.7,863.2,1028.5,27.1,30.9,0.01,0.0,110000,51.6,316
470050,2021-02-19,13:09:43,KOREANORTH,-5.4,-9.5,900.8,898.4,13.7,9.0,0.05,6.0,111000,88.1,265
471140,2021-02-19,13:09:43,KOREASOUTH,-2.3,-9.1,1004.7,1023.3,14.1,0.8,0.06,0.4,111000,81.0,152
549160,2021-02-19,13:09:43,CHINA,-0.3,-9.6,1027.4,1026.4,12.8,5.0,0.01,0.0,110000,53.7,275
474230,2021-02-19,13:09:43,JAPAN,-4.3,-9.4,1010.1,1015.4,7.8,25.2,0.09,0.0,110000,51.2,273
474120,2021-02-19,13:09:43,JAPAN,-7.5,-12.6,1014.2,1012.4,11.1,12.2,0.14,14.8,111000,57.6,175
505640,2021-02-19,13:09:43,CHINA,-9.2,-13.8,1023.0,1023.5,11.9,8.9,0.01,0.0,110000,80.6,118
474810,2021-02-19,13:09:43,JAPAN,-11.3,-15.0,997.6,989.8,5.3,11.0,0.00,0.0,100000,16.0,345
471530,2021-02-19,13:09:43,KOREASOUTH,-0.5,-8.1,1016.5,1017.4,8.8,13.1,0.00,0.0,100000,6.5,78
547150,2021-02-19,13:09:43,CHINA,-0.9,-9.6,1021.4,1026.7,12.8,21.2,0.05,0.0,110000,92.1,129
471520,2021-02-19,13:09:43,KOREASOUTH,-0.3,-9.6,1032.6,1021.7,12.6,19.9,0.09,0.0,110000,96.8,217
353610,2021-02-19,13:09:43,KAZAKHSTAN,-0.7,-2.7,990.8,1018.0,24.6,16.0,0.00,0.0,100000,98.2,155
476400,2021-02-19,13:09:43,JAPAN,-8.6,-12.2,915.8,906.2,49.8,0.3,0.00,0.0,100000,32.2,166
353020,2021-02-19,13:09:43,KAZAKHSTAN,-3.5,-9.3,1058.2,1032.7,14.3,21.7,0.00,0.0,100000,41.1,161
356990,2021-02-19,13:09:43,KAZAKHSTAN,-4.3,-10.7,951.8,1029.7,27.5,0.2,0.00,3.9,101000,51.0,315
474020,2021-02-19,13:09:43,JAPAN,-10.4,-14.8,1011.5,1018.4,22.2,15.5,0.05,0.0,110000,54.9,209
474010,2021-02-19,13:09:43,JAPAN,-7.9,-12.8,1011.6,1015.7,15.4,14.9,0.08,15.3,111000,87.1,143
471270,2021-02-19,13:09:43,KOREASOUTH,-1.4,-7.3,1008.4,1015.2,8.7,10.6,0.01,0.2,111000,52.5,85
172410,2021-02-19,13:09:43,TURKEY,-3.1,-8.2,989.7,1045.0,11.8,10.9,0.00,0.0,100000,92.6,322
475920,2021-02-19,13:09:43,JAPAN,-1.3,-6.8,1014.9,1017.0,21.7,16.3,0.18,2.0,111000,50.3,351
535430,2021-02-19,13:09:43,CHINA,-4.2,-16.1,880.9,1028.0,30.2,9.5,0.00,0.0,100000,69.9,4
544710,2021-02-19,13:09:43,CHINA,-5.5,-13.3,1024.0,1025.0,15.8,24.1,0.00,0.0,100000,31.6,312
509530,2021-02-19,13:09:43,CHINA,-7.6,-13.7,1015.6,1022.6,12.6,15.2,0.02,0.0,110000,88.7,326
474740,2021-02-19,13:09:43,JAPAN,-10.4,-19.5,1009.5,1001.5,6.7,6.7,0.00,0.0,100000,53.8,175
529080,2021-02-19,13:09:43,CHINA,-7.8,-18.8,999.7,1006.1,24.6,24.0,0.01,0.0,110000,60.3,354
474790,2021-02-19,13:09:43,JAPAN,-7.5,-11.7,1001.6,997.2,7.1,13.8,0.00,0.0,100000,41.8,106
581500,2021-02-19,13:09:43,CHINA,-0.7,-5.4,1022.2,1026.7,14.0,9.6,0.03,0.0,110000,54.4,31
540260,2021-02-19,13:09:43,CHINA,-4.7,-16.4,1011.7,1024.1,25.4,23.5,0.01,0.0,110000,89.0,204
538980,2021-02-19,13:09:43,CHINA,-1.1,-9.8,1023.8,1026.8,15.9,8.8,0.02,0.0,110000,52.2,95
561060,2021-02-19,13:09:43,CHINA,-3.3,-14.3,619.0,617.0,29.1,12.9,0.02,0.0,110000,55.3,350
442290,2021-02-19,13:09:43,MONGOLIA,-11.2,-19.0,789.8,1015.3,47.4,9.4,0.00,0.0,100000,67.2,334
583140,2021-02-19,13:09:43,CHINA,-0.2,-5.2,1016.6,1026.7,10.4,8.1,0.13,0.0,110000,51.0,197
475150,2021-02-19,13:09:43,JAPAN,-3.5,-7.8,999.4,1000.6,19.3,13.3,0.00,0.0,100000,44.3,302
376820,2021-02-19,13:09:43,ARMENIA,-3.7,-6.3,803.5,793.4,0.7,9.7,0.00,0.0,100000,17.4,273
547250,2021-02-19,13:09:43,CHINA,-1.8,-11.7,1028.9,1025.6,2.9,15.7,0.03,0.0,110000,52.5,17
554720,2021-02-19,13:09:43,CHINA,-4.2,-21.7,998.1,992.5,23.4,43.5,0.01,0.0,110000,52.1,21
537870,2021-02-19,13:09:43,CHINA,-4.8,-17.1,978.2,1027.6,21.5,11.2,0.01,0.0,110000,50.1,258
537980,2021-02-19,13:09:43,CHINA,-0.1,-9.5,1019.6,1025.8,14.2,3.8,0.01,0.0,110000,68.0,233
362080,2021-02-19,13:09:43,KAZAKHSTAN,-13.4,-17.8,1011.6,1032.1,26.6,3.1,0.00,0.0,100000,53.5,258
346910,2021-02-19,13:09:43,KAZAKHSTAN,-1.4,-5.7,1021.4,1022.7,16.2,20.4,0.02,2.2,111000,50.2,121
540270,2021-02-19,13:09:43,CHINA,-5.9,-18.3,1001.0,1024.1,26.5,10.7,0.01,0.0,110000,67.4,125
357000,2021-02-19,13:09:43,KAZAKHSTAN,-1.1,-5.0,1025.9,1022.2,19.6,29.9,0.04,1.8,111000,54.9,7
560930,2021-02-19,13:09:43,CHINA,-5.0,-9.2,1012.3,1033.0,15.9,1.4,0.02,0.0,110000,51.1,269
471750,2021-02-19,13:09:43,KOREASOUTH,-0.2,-3.8,966.1,1024.3,11.7,32.9,0.00,0.0,100000,9.0,111
470250,2021-02-19,13:09:43,KOREANORTH,-3.5,-7.3,1015.2,1020.2,10.0,8.3,0.09,0.1,111000,53.0,286
541150,2021-02-19,13:09:43,CHINA,-7.1,-18.5,976.0,1026.3,21.1,22.9,0.01,0.0,110000,80.6,241
537050,2021-02-19,13:09:43,CHINA,-2.4,-14.4,973.1,1028.4,25.1,15.1,0.01,0.0,110000,50.2,133
474880,2021-02-19,13:09:43,JAPAN,-4.0,-9.6,994.9,997.9,10.9,11.3,0.00,0.0,100000,98.9,337
367780,2021-02-19,13:09:43,KAZAKHSTAN,-4.4,-10.2,1046.9,1031.8,26.5,6.4,0.00,0.0,100000,91.0,86
172400,2021-02-19,13:09:43,TURKEY,-0.9,-5.0,951.9,1016.0,28.5,6.5,0.09,0.5,111000,56.2,58
532310,2021-02-19,13:09:43,CHINA,-3.8,-14.7,850.9,857.9,29.1,17.8,0.00,0.0,100000,46.6,0
359250,2021-02-19,13:09:43,KAZAKHSTAN,-1.9,-8.2,1014.5,1028.7,27.5,3.1,0.69,0.0,110000,50.2,335
171280,2021-02-19,13:09:43,TURKEY,-1.5,-4.7,955.7,1012.1,11.3,9.0,0.09,1.6,111000,82.9,174
474040,2021-02-19,13:09:43,JAPAN,-6.4,-12.1,1014.2,1017.1,33.7,19.6,0.12,0.0,110000,52.0,33
546180,2021-02-19,13:09:43,CHINA,-0.4,-10.3,1022.8,1024.8,12.6,13.2,0.08,0.0,110000,51.6,241
474400,2021-02-19,13:09:43,JAPAN,-8.4,-13.8,1012.6,1017.0,19.4,0.7,0.10,0.0,110000,90.2,258
467550,2021-02-19,13:09:43,TAIWAN,-1.5,-1.9,1004.3,998.6,63.7,16.4,0.00,0.0,100000,91.6,223
474240,2021-02-19,13:09:43,JAPAN,-7.4,-11.6,1018.2,1017.0,20.5,8.0,0.00,0.0,100000,2.3,303
474250,2021-02-19,13:09:43,JAPAN,-10.4,-13.6,1000.6,1001.3,3.0,4.9,0.00,0.0,100000,96.6,301
474260,2021-02-19,13:09:43,JAPAN,-5.6,-10.6,1013.1,1015.5,27.4,24.3,0.03,1.4,111000,97.4,84
563570,2021-02-19,13:09:43,CHINA,-0.4,-15.1,644.9,645.2,31.6,14.5,0.01,0.0,110000,51.5,210
508540,2021-02-19,13:09:43,CHINA,-6.8,-12.7,1026.3,1022.3,15.7,14.6,0.01,0.0,110000,52.0,137
442590,2021-02-19,13:09:43,MONGOLIA,-7.3,-11.9,953.7,1027.0,11.6,17.8,0.00,1.6,101000,79.8,270
353630,2021-02-19,13:09:43,KAZAKHSTAN,-7.6,-8.8,1055.1,1043.4,14.4,19.4,0.00,0.0,100000,86.2,167
584370,2021-02-19,13:09:43,CHINA,-3.0,-10.2,835.7,833.5,16.2,33.0,0.14,0.0,110000,76.7,48
407310,2021-02-19,13:09:43,IRAN,-0.3,-3.1,875.4,1024.1,2.8,6.1,0.00,0.0,100000,23.2,136
471010,2021-02-19,13:09:43,KOREASOUTH,-2.2,-8.1,1019.1,1023.5,20.5,0.2,0.05,0.2,111000,77.1,86
471020,2021-02-19,13:09:43,KOREASOUTH,-0.1,-7.2,1004.7,1024.4,7.0,15.3,0.01,0.0,110000,50.8,345
171900,2021-02-19,13:09:43,TURKEY,-0.8,-5.1,947.5,973.3,16.3,9.3,0.13,1.7,111000,63.1,92
543080,2021-02-19,13:09:43,CHINA,-7.3,-20.4,1020.3,1027.8,30.4,10.5,0.03,0.0,110000,58.5,63
543240,2021-02-19,13:09:43,CHINA,-5.0,-18.2,1023.9,1025.2,17.5,18.2,0.01,0.0,110000,50.1,354
476800,2021-02-19,13:09:43,JAPAN,-0.1,-5.9,997.3,1017.6,26.5,12.9,0.00,0.0,100000,95.2,249
471240,2021-02-19,13:09:43,KOREASOUTH,-2.8,-10.3,989.3,1082.2,15.6,4.1,0.00,0.0,100000,52.8,119
471360,2021-02-19,13:09:43,KOREASOUTH,-2.1,-10.7,1014.7,1024.4,18.3,0.1,0.08,0.0,110000,52.4,71
471370,2021-02-19,13:09:43,KOREASOUTH,-1.2,-10.5,1011.7,1021.8,12.9,5.2,0.00,0.0,100000,56.0,282
508440,2021-02-19,13:09:43,CHINA,-4.8,-13.0,1021.8,1022.9,12.7,14.6,0.01,0.0,110000,50.6,355
561820,2021-02-19,13:09:43,CHINA,-1.4,-9.7,778.6,818.4,33.9,13.5,0.07,0.0,110000,68.3,178
360010,2021-02-19,13:09:43,KAZAKHSTAN,-12.3,-16.4,1023.9,1023.8,4.5,37.5,0.02,2.8,111000,55.6,234
442920,2021-02-19,13:09:43,MONGOLIA,-14.2,-17.9,889.7,1030.4,22.2,5.5,0.26,3.0,111000,86.5,258
170673,2021-02-19,13:09:43,TURKEY,-0.9,-9.6,1012.6,978.4,12.5,14.5,0.00,0.0,100000,87.9,272
475760,2021-02-19,13:09:43,JAPAN,-3.7,-9.0,1016.8,1017.3,5.9,11.0,0.13,0.0,110000,71.4,51
522670,2021-02-19,13:09:43,CHINA,-4.9,-19.8,932.6,1029.7,28.5,10.1,0.00,0.0,100000,45.7,30
561520,2021-02-19,13:09:43,CHINA,-3.0,-11.8,662.7,666.5,28.7,13.5,0.02,0.0,110000,51.0,327
530680,2021-02-19,13:09:43,CHINA,-1.3,-14.0,932.7,1029.0,29.5,12.9,0.01,0.0,110000,51.1,88
476290,2021-02-19,13:09:43,JAPAN,-1.5,-8.5,1012.5,1016.1,27.4,17.7,0.04,0.0,110000,65.2,25
170980,2021-02-19,13:09:43,TURKEY,-6.0,-10.2,815.6,816.1,13.0,18.5,0.07,11.5,111000,53.4,149
593530,2021-02-19,13:09:43,TAIWAN,-0.9,-2.9,763.9,1023.1,14.8,5.5,0.00,0.0,100000,49.1,81
471320,2021-02-19,13:09:43,KOREASOUTH,-3.7,-14.0,996.2,983.0,10.0,5.5,0.00,0.0,100000,67.3,214
442980,2021-02-19,13:09:43,MONGOLIA,-18.7,-25.0,1056.6,1032.8,41.2,16.7,0.05,0.0,110000,82.1,355
170700,2021-02-19,13:09:43,TURKEY,-0.5,-4.1,943.2,1017.1,10.9,4.7,0.14,2.0,111000,54.1,100
549060,2021-02-19,13:09:43,CHINA,-1.7,-8.4,1024.4,1026.2,10.6,10.6,0.01,0.0,110000,62.2,56
475530,2021-02-19,13:09:43,JAPAN,-2.0,-6.0,1004.4,1004.0,5.8,13.2,0.00,0.0,100000,48.5,332
171700,2021-02-19,13:09:43,TURKEY,-1.7,-4.8,947.4,943.3,20.6,7.5,0.02,3.9,111000,82.4,220
471210,2021-02-19,13:09:43,KOREASOUTH,-3.1,-12.4,994.2,1024.2,12.9,2.4,0.06,0.0,110000,60.6,116
471200,2021-02-19,13:09:43,KOREASOUTH,-2.2,-7.5,1007.7,1010.2,8.6,8.1,0.00,0.1,101000,51.6,288
471260,2021-02-19,13:09:43,KOREASOUTH,-0.1,-7.9,999.2,957.8,8.3,14.5,0.00,0.0,100000,12.8,318
298070,2021-02-19,13:09:43,KAZAKHSTAN,-11.3,-14.2,1027.7,1027.5,1.4,5.4,0.02,4.3,111000,51.9,278
170820,2021-02-19,13:09:43,TURKEY,-1.3,-4.5,1003.3,1013.1,8.6,14.8,0.05,0.5,111000,50.1,349
442870,2021-02-19,13:09:43,MONGOLIA,-8.9,-13.5,809.4,1027.9,53.0,10.9,0.00,1.6,101000,76.3,96
560800,2021-02-19,13:09:43,CHINA,-6.8,-16.9,734.3,733.0,28.5,10.3,0.02,0.0,110000,50.2,76
560790,2021-02-19,13:09:43,CHINA,-6.6,-15.7,665.4,663.3,35.5,3.1,0.02,0.0,110000,50.6,331
545340,2021-02-19,13:09:43,CHINA,-2.1,-13.8,1025.6,1025.7,13.4,0.7,0.02,0.0,110000,51.4,90
535880,2021-02-19,13:09:43,CHINA,-4.5,-11.1,755.4,756.5,19.8,45.1,0.07,0.0,110000,75.8,356
545110,2021-02-19,13:09:43,CHINA,-1.1,-14.0,1021.0,1025.5,18.2,7.2,0.03,0.0,110000,74.6,329
383530,2021-02-19,13:09:43,KYRGYZSTAN,-0.7,-3.5,1000.1,1028.3,7.7,10.0,0.03,0.4,111000,55.6,165
383531,2021-02-19,13:09:43,KYRGYZSTAN,-0.1,-1.2,990.7,984.0,2.0,13.4,0.00,0.0,100000,63.4,3
509680,2021-02-19,13:09:43,CHINA,-11.8,-16.0,1017.6,1022.8,18.2,4.6,,0.0,110000,50.9,234
443290,2021-02-19,13:09:43,MONGOLIA,-8.4,-12.7,776.5,1029.6,21.8,13.6,0.00,2.8,101000,96.8,222
475840,2021-02-19,13:09:43,JAPAN,-4.7,-9.9,1005.9,1015.1,4.0,19.0,0.10,3.7,111000,67.6,319
535130,2021-02-19,13:09:43,CHINA,-5.6,-18.6,926.0,1030.4,21.8,6.1,0.00,0.0,100000,20.5,304
475900,2021-02-19,13:09:43,JAPAN,-1.2,-7.5,1009.5,1017.5,19.5,8.6,0.10,0.9,111000,50.0,333
548430,2021-02-19,13:09:43,CHINA,-1.7,-9.9,1023.9,1026.3,21.4,17.1,0.03,0.0,110000,50.7,224
471400,2021-02-19,13:09:43,KOREASOUTH,-0.7,-5.2,1016.7,1023.9,21.1,29.8,0.03,0.0,110000,50.5,172
471410,2021-02-19,13:09:43,KOREASOUTH,-0.7,-4.9,1012.6,1015.4,9.5,20.4,0.07,0.1,111000,95.6,275
471420,2021-02-19,13:09:43,KOREASOUTH,-1.4,-10.6,1013.4,1012.9,12.1,11.3,0.00,0.0,100000,53.8,201
170671,2021-02-19,13:09:43,TURKEY,-5.5,-8.2,1016.6,1023.8,12.8,1.8,0.00,0.0,100000,0.9,234
369820,2021-02-19,13:09:43,KYRGYZSTAN,-13.1,-17.5,645.7,644.3,41.2,4.2,0.00,0.0,100000,87.2,281
443850,2021-02-19,13:09:43,MONGOLIA,-3.1,-15.4,893.2,1026.3,33.8,10.8,0.00,0.0,100000,76.6,246
172000,2021-02-19,13:09:43,TURKEY,-0.3,-4.8,975.2,1013.5,11.7,12.8,0.10,0.5,111000,50.0,208
477560,2021-02-19,13:09:43,JAPAN,-0.1,-4.2,1002.9,1019.1,16.9,7.8,0.22,0.0,110000,85.9,155
475830,2021-02-19,13:09:43,JAPAN,-2.3,-7.9,1009.0,1011.1,3.5,13.1,0.00,0.0,100000,10.6,132
475820,2021-02-19,13:09:43,JAPAN,-2.5,-6.9,1021.1,1017.2,13.1,23.9,0.14,4.9,111000,50.4,306
510760,2021-02-19,13:09:43,CHINA,-7.7,-12.9,962.8,1032.5,30.3,3.0,0.04,0.0,110000,56.7,116
509830,2021-02-19,13:09:43,CHINA,-8.8,-14.4,1016.7,1021.0,17.3,2.3,0.02,0.0,110000,99.0,278
547760,2021-02-19,13:09:43,CHINA,-0.6,-6.9,1021.1,1025.6,18.5,8.5,0.04,0.0,110000,,342
542370,2021-02-19,13:09:43,CHINA,-7.4,-22.2,1037.5,1032.1,15.8,18.1,0.00,0.0,100000,90.8,27
470550,2021-02-19,13:09:43,KOREANORTH,-1.2,-9.1,1024.8,1022.5,11.9,5.7,0.12,0.3,111000,89.1,254
471064,2021-02-19,13:09:43,KOREASOUTH,-6.3,-12.3,1012.2,1011.1,15.1,0.5,0.00,0.0,100000,35.1,271
471066,2021-02-19,13:09:43,KOREASOUTH,-1.4,-7.1,1009.0,1006.7,10.3,3.8,0.00,0.1,101000,51.2,14
471050,2021-02-19,13:09:43,KOREASOUTH,-0.1,-8.4,1017.6,1021.2,23.6,5.4,0.08,0.4,111000,50.5,78
545390,2021-02-19,13:09:43,CHINA,-3.1,-13.4,1021.5,1026.5,22.8,9.6,0.02,0.0,110000,80.9,292
172440,2021-02-19,13:09:43,TURKEY,-0.6,-5.0,952.6,975.8,10.1,10.1,0.02,0.8,111000,51.4,120
540490,2021-02-19,13:09:43,CHINA,-5.7,-13.6,1028.8,1023.6,18.7,10.8,0.02,0.0,110000,69.7,218
563850,2021-02-19,13:09:43,CHINA,-5.0,-8.2,747.1,745.5,7.3,1.3,0.06,0.0,110000,50.3,61
505570,2021-02-19,13:09:43,CHINA,-14.9,-19.0,1003.3,1022.7,11.1,12.7,0.01,0.0,110000,57.4,318
538450,2021-02-19,13:09:43,CHINA,-2.4,-12.2,934.3,1029.3,14.3,10.3,0.01,0.0,110000,77.1,237
289520,2021-02-19,13:09:43,KAZAKHSTAN,-7.1,-12.2,1045.6,1033.8,10.0,22.1,0.63,0.0,110000,50.8,170
171950,2021-02-19,13:09:43,TURKEY,-1.5,-5.7,957.2,972.9,9.3,1.6,0.07,1.8,111000,72.4,215
470750,2021-02-19,13:09:43,KOREANORTH,-2.3,-5.5,1027.7,1023.2,35.2,11.3,0.07,0.1,111000,51.9,109
477420,2021-02-19,13:09:43,JAPAN,-0.7,-3.4,1024.4,1025.1,4.3,8.0,0.03,0.0,110000,51.5,47
478290,2021-02-19,13:09:43,JAPAN,-0.6,-7.2,1001.2,1019.1,19.8,13.7,0.07,0.0,110000,50.4,224
477590,2021-02-19,13:09:43,JAPAN,-0.4,-6.4,1011.0,1017.9,8.6,15.6,0.29,0.0,110000,50.2,235
478210,2021-02-19,13:09:43,JAPAN,-3.0,-8.5,891.3,897.6,17.9,7.1,0.00,0.0,100000,34.4,113
536140,2021-02-19,13:09:43,CHINA,-3.3,-13.3,926.9,1028.0,15.8,9.0,0.00,0.0,100000,2.3,121
357910,2021-02-19,13:09:43,KAZAKHSTAN,-6.7,-9.5,1032.2,1036.5,50.0,6.6,0.01,4.2,111000,78.5,266
171200,2021-02-19,13:09:43,TURKEY,-2.0,-3.5,1025.8,1005.2,15.3,2.3,0.00,0.0,100000,64.4,87
350850,2021-02-19,13:09:43,KAZAKHSTAN,-9.0,-13.1,1025.8,1032.5,30.0,19.9,0.00,1.4,101000,51.3,105
544970,2021-02-19,13:09:43,CHINA,-3.5,-12.2,1024.6,1024.3,20.1,15.2,0.01,0.0,110000,94.0,280
561670,2021-02-19,13:09:43,CHINA,-0.3,-13.3,,714.0,38.4,6.8,0.00,0.0,100000,54.8,177
536980,2021-02-19,13:09:43,CHINA,-0.6,-12.5,1023.9,1025.5,13.5,15.0,0.04,0.0,110000,51.0,122
289840,2021-02-19,13:09:43,KAZAKHSTAN,-2.9,-6.8,1028.9,1019.0,29.5,19.5,0.00,0.0,100000,93.7,31
470390,2021-02-19,13:09:43,KOREANORTH,-3.6,-9.4,1042.4,1024.8,12.5,0.9,0.00,0.0,100000,52.7,73
170920,2021-02-19,13:09:43,TURKEY,-0.4,-4.0,957.1,982.5,6.8,10.5,0.24,3.5,111000,51.8,120
533910,2021-02-19,13:09:43,CHINA,-5.5,-12.7,880.8,1025.9,33.5,23.0,0.01,0.0,110000,50.3,120
475750,2021-02-19,13:09:43,JAPAN,-3.1,-7.1,1021.6,1016.6,10.8,16.1,0.14,22.5,111000,85.6,140
510870,2021-02-19,13:09:43,CHINA,-3.9,-7.7,928.7,1028.7,36.2,3.2,0.07,0.0,110000,96.9,5
171400,2021-02-19,13:09:43,TURKEY,-4.6,-7.1,871.7,855.5,7.8,14.9,0.07,18.1,111000,51.3,230
171890,2021-02-19,13:09:43,TURKEY,-6.4,-9.0,905.3,919.6,11.3,6.6,0.02,8.2,111000,54.4,157
477670,2021-02-19,13:09:43,JAPAN,-0.7,-6.2,1018.6,1017.7,16.7,7.8,0.14,0.0,110000,61.5,150
356330,2021-02-19,13:09:43,KAZAKHSTAN,-1.5,-6.2,1027.6,1021.5,24.3,24.6,0.00,3.3,101000,63.8,241
545270,2021-02-19,13:09:43,CHINA,-1.2,-12.1,1030.7,1025.7,17.0,1.0,0.11,0.0,110000,52.9,193
443170,2021-02-19,13:09:43,MONGOLIA,-5.9,-8.5,900.9,1032.0,25.5,1.3,0.00,3.3,101000,,252
542360,2021-02-19,13:09:43,CHINA,-6.2,-17.5,1019.7,1024.1,13.3,24.1,0.02,0.0,110000,51.3,240
470580,2021-02-19,13:09:43,KOREANORTH,-2.9,-8.3,1015.3,1023.7,21.9,5.4,0.01,0.0,110000,52.1,5
353940,2021-02-19,13:09:43,KAZAKHSTAN,-4.6,-9.0,1002.1,1031.7,24.3,12.2,0.20,3.9,111000,54.0,49
543110,2021-02-19,13:09:43,CHINA,-4.5,-17.3,975.7,1027.8,24.0,8.1,0.02,0.0,110000,67.2,229
170575,2021-02-19,13:09:43,TURKEY,-0.7,-3.3,1002.7,1003.9,8.2,15.5,0.00,0.0,100000,23.9,306
577760,2021-02-19,13:09:43,CHINA,-0.4,-2.3,972.2,1024.0,12.5,23.2,0.29,0.0,110000,73.9,251
368215,2021-02-19,13:09:43,KAZAKHSTAN,-7.6,-10.2,1010.3,1021.5,5.2,15.2,0.00,0.0,100000,26.8,77
570730,2021-02-19,13:09:43,CHINA,-0.2,-10.0,1025.1,1024.5,16.7,14.8,0.00,0.0,100000,33.4,291
470350,2021-02-19,13:09:43,KOREANORTH,-4.0,-11.3,1037.1,1024.4,19.2,11.8,0.04,0.0,110000,51.2,97
542180,2021-02-19,13:09:43,CHINA,-7.9,-22.1,992.4,1025.1,25.0,8.5,0.01,0.0,110000,51.4,111
470950,2021-02-19,13:09:43,KOREASOUTH,-3.0,-10.9,1007.4,1023.7,11.0,14.1,0.05,0.0,110000,54.9,125
561460,2021-02-19,13:09:43,CHINA,-2.0,-15.2,680.4,678.4,28.5,6.8,0.01,0.0,110000,89.8,275
367440,2021-02-19,13:09:43,KAZAKHSTAN,-5.2,-9.5,1039.9,1032.8,45.0,12.5,0.00,0.9,101000,51.9,216
536460,2021-02-19,13:09:43,CHINA,-6.4,-18.1,926.5,1028.0,8.4,7.4,0.01,0.0,110000,51.7,261
537640,2021-02-19,13:09:43,CHINA,-5.4,-16.8,972.5,1028.6,19.2,2.7,0.02,0.0,110000,57.2,57
171295,2021-02-19,13:09:43,TURKEY,-0.5,-3.0,997.5,1007.9,10.8,7.7,0.00,0.0,100000,56.9,15
478140,2021-02-19,13:09:43,JAPAN,-0.6,-5.6,1014.5,1023.1,16.0,0.1,0.00,0.0,100000,78.7,129
355760,2021-02-19,13:09:43,KAZAKHSTAN,-7.7,-10.5,1013.7,1036.2,26.3,15.2,0.01,6.9,111000,55.8,218
358490,2021-02-19,13:09:43,KAZAKHSTAN,-1.4,-6.4,1013.3,1023.4,17.1,9.8,0.01,1.2,111000,52.3,158
509780,2021-02-19,13:09:43,CHINA,-6.6,-13.0,1006.0,1021.2,25.0,6.9,0.02,0.0,110000,52.3,11
584450,2021-02-19,13:09:43,CHINA,-2.0,-6.6,875.2,950.4,18.1,32.1,0.18,0.0,110000,50.7,57
560330,2021-02-19,13:09:43,CHINA,-13.5,-22.5,626.2,621.8,34.6,5.2,0.03,0.0,110000,79.0,195
442820,2021-02-19,13:09:43,MONGOLIA,-12.0,-28.5,819.1,1026.1,49.8,24.9,0.00,0.0,100000,34.6,151
476720,2021-02-19,13:09:43,JAPAN,-0.9,-6.7,1019.8,1020.7,24.8,15.2,0.00,0.0,100000,57.8,217
352290,2021-02-19,13:09:43,KAZAKHSTAN,-5.8,-8.3,1017.1,1026.4,4.9,10.5,0.28,4.0,111000,51.3,231
350670,2021-02-19,13:09:43,KAZAKHSTAN,-7.3,-10.8,1038.4,1034.2,15.8,16.0,0.00,3.0,101000,95.0,11
170880,2021-02-19,13:09:43,TURKEY,-7.0,-9.7,880.8,860.1,22.9,12.0,0.49,25.2,111000,50.2,3
171270,2021-02-19,13:09:43,TURKEY,-0.2,-5.0,1028.9,1018.8,22.8,11.3,0.05,0.0,110000,53.0,123
366390,2021-02-19,13:09:43,KAZAKHSTAN,-10.2,-14.6,1036.4,1033.0,49.2,3.3,0.00,38.4,101000,51.9,294
528360,2021-02-19,13:09:43,CHINA,-2.8,-18.1,687.3,685.9,28.8,5.9,0.01,0.0,110000,54.8,283
442410,2021-02-19,13:09:43,MONGOLIA,-12.4,-16.3,1025.8,1033.1,47.0,8.3,0.00,2.1,101000,50.2,158
470690,2021-02-19,13:09:43,KOREANORTH,-2.3,-8.7,1031.7,1023.8,10.0,8.7,0.22,0.0,110000,51.2,326
470700,2021-02-19,13:09:43,KOREANORTH,-1.4,-6.7,1027.2,1021.2,12.3,15.6,0.01,0.0,110000,80.7,127
526740,2021-02-19,13:09:43,CHINA,-7.7,-18.7,801.1,795.7,28.6,10.8,0.00,0.0,100000,83.7,100
570460,2021-02-19,13:09:43,CHINA,-3.4,-11.0,817.2,825.0,23.1,25.6,0.02,0.0,110000,51.3,212
540120,2021-02-19,13:09:43,CHINA,-12.2,-18.3,937.1,1029.7,,13.7,0.02,0.0,110000,50.2,168
474900,2021-02-19,13:09:43,JAPAN,-11.3,-17.2,995.8,999.6,11.8,7.1,0.00,0.0,100000,76.7,214
474890,2021-02-19,13:09:43,JAPAN,-7.8,-12.9,1000.0,998.0,4.1,5.4,0.00,0.0,100000,31.6,15
505480,2021-02-19,13:09:43,CHINA,-16.3,-21.0,1007.9,1010.1,24.7,7.5,0.00,0.0,100000,35.7,278
524950,2021-02-19,13:09:43,CHINA,-4.6,-18.3,903.2,1029.7,31.5,12.6,0.00,0.0,100000,16.2,151
549380,2021-02-19,13:09:43,CHINA,-2.0,-11.1,1030.3,1027.3,12.2,7.1,0.01,0.0,110000,52.5,8
529550,2021-02-19,13:09:43,CHINA,-2.5,-17.9,694.4,684.8,32.5,12.3,0.02,0.0,110000,66.6,72
350780,2021-02-19,13:09:43,KAZAKHSTAN,-6.5,-8.1,1022.0,1033.3,9.8,15.1,0.02,8.6,111000,67.4,122
526810,2021-02-19,13:09:43,CHINA,-3.8,-16.7,896.9,1030.3,28.6,9.6,0.00,0.0,100000,92.1,309
380620,2021-02-19,13:09:43,KAZAKHSTAN,-2.4,-7.2,1022.1,1025.7,20.6,3.6,0.01,0.3,111000,90.1,138
537230,2021-02-19,13:09:43,CHINA,-6.2,-16.8,907.8,1029.1,14.6,11.3,0.02,0.0,110000,54.0,76
471920,2021-02-19,13:09:43,KOREASOUTH,-1.0,-10.0,1021.3,1022.4,10.2,9.9,0.10,0.0,110000,87.8,298
170672,2021-02-19,13:09:43,TURKEY,-3.7,-5.7,979.7,964.8,6.3,8.8,0.00,0.0,100000,16.1,199
170674,2021-02-19,13:09:43,TURKEY,-3.7,-10.1,989.9,995.7,6.7,26.9,0.00,0.0,100000,89.5,73
478240,2021-02-19,13:09:43,JAPAN,-0.3,-8.4,1004.2,1024.0,12.2,1.0,0.04,0.0,110000,52.7,317
505270,2021-02-19,13:09:43,CHINA,-18.5,-22.3,990.2,1027.9,18.5,13.8,0.02,0.0,110000,51.5,9
475120,2021-02-19,13:09:43,JAPAN,-1.1,-6.4,1019.9,1018.9,41.1,6.0,0.00,0.0,100000,88.9,108
563740,2021-02-19,13:09:43,CHINA,-0.2,-6.2,748.3,750.7,29.6,19.1,0.03,0.0,110000,50.2,334
542730,2021-02-19,13:09:43,CHINA,-8.1,-16.6,1020.3,1024.8,10.3,1.4,0.00,0.0,100000,40.1,68
442190,2021-02-19,13:09:43,MONGOLIA,-7.1,-18.9,848.4,1027.7,20.2,11.2,0.00,0.0,100000,10.1,283
509490,2021-02-19,13:09:43,CHINA,-8.0,-15.2,1018.4,1022.6,7.2,17.4,0.02,0.0,110000,82.1,250
512880,2021-02-19,13:09:43,CHINA,-5.0,-13.5,835.6,836.2,35.1,10.9,0.01,0.0,110000,82.7,253
539290,2021-02-19,13:09:43,CHINA,-2.4,-11.6,882.4,888.7,10.2,15.8,0.00,0.0,100000,53.2,22
560460,2021-02-19,13:09:43,CHINA,-6.0,-15.0,671.3,672.8,22.5,5.3,0.03,0.0,110000,84.1,312
544010,2021-02-19,13:09:43,CHINA,-3.7,-18.3,984.7,1027.5,23.8,18.7,0.01,0.0,110000,51.4,218
475420,2021-02-19,13:09:43,JAPAN,-3.2,-6.8,1003.1,1000.8,8.5,20.5,0.00,0.0,100000,90.5,97
471290,2021-02-19,13:09:43,KOREASOUTH,-2.2,-7.9,1020.0,1023.9,23.4,7.3,0.05,0.0,110000,51.4,158
538210,2021-02-19,13:09:43,CHINA,-5.1,-19.0,,1028.0,20.4,6.1,0.00,0.0,100000,37.7,283
443470,2021-02-19,13:09:43,MONGOLIA,-9.0,-27.1,861.9,1010.0,25.4,19.4,0.00,0.0,100000,91.2,323
353760,2021-02-19,13:09:43,KAZAKHSTAN,-4.8,-8.1,991.0,1030.8,,6.0,0.01,6.4,111000,59.8,335
535930,2021-02-19,13:09:43,CHINA,-8.3,-20.8,980.3,1027.5,27.0,9.6,0.02,0.0,110000,61.0,279
443540,2021-02-19,13:09:43,MONGOLIA,-6.5,-14.6,1044.1,1029.4,55.8,23.2,0.00,0.0,100000,48.7,337
443730,2021-02-19,13:09:43,MONGOLIA,-4.6,-16.1,853.5,1024.6,46.7,10.8,0.00,0.3,101000,72.5,83
443740,2021-02-19,13:09:43,MONGOLIA,-5.9,-14.8,824.4,1024.1,52.1,23.7,0.00,1.1,101000,51.6,115
364420,2021-02-19,13:09:43,KAZAKHSTAN,-11.0,-11.4,1012.5,989.7,19.6,32.4,0.02,2.2,111000,98.3,144
514310,2021-02-19,13:09:43,CHINA,-0.5,-5.3,975.3,1028.3,29.3,3.2,0.12,0.0,110000,53.4,243
170840,2021-02-19,13:09:43,TURKEY,-2.2,-6.8,942.3,1018.4,20.7,6.2,0.10,3.5,111000,91.8,173
549290,2021-02-19,13:09:43,CHINA,-0.3,-9.7,1025.3,1024.1,22.7,2.7,0.00,0.0,100000,60.6,21
364390,2021-02-19,13:09:43,KAZAKHSTAN,-7.7,-14.7,995.3,1001.3,34.8,28.7,0.01,0.7,111000,68.4,227
517110,2021-02-19,13:09:43,CHINA,-1.6,-9.2,800.8,795.5,25.8,3.3,0.03,0.0,110000,52.8,80
560040,2021-02-19,13:09:43,CHINA,-5.9,-16.6,998.8,1001.6,34.0,18.4,0.01,0.0,110000,55.2,201
470600,2021-02-19,13:09:43,KOREANORTH,-1.6,-6.9,1025.2,1024.2,12.9,11.2,0.01,0.0,110000,51.3,150
525330,2021-02-19,13:09:43,CHINA,-2.0,-14.5,893.7,1027.6,30.9,6.5,0.01,0.0,110000,80.0,143
525331,2021-02-19,13:09:43,CHINA,-5.7,-10.4,974.3,995.5,2.2,10.5,0.00,0.0,100000,32.0,49
514670,2021-02-19,13:09:43,CHINA,-1.0,-13.8,829.4,828.4,28.7,0.9,0.00,0.0,100000,70.2,19
539470,2021-02-19,13:09:43,CHINA,-3.2,-13.8,949.2,1027.1,21.9,7.8,0.01,0.0,110000,81.4,131
570060,2021-02-19,13:09:43,CHINA,-0.5,-9.7,946.7,1026.1,11.6,5.2,0.02,0.0,110000,50.7,43
539230,2021-02-19,13:09:43,CHINA,-1.4,-10.7,952.9,1026.6,27.1,12.8,0.02,0.0,110000,50.4,74
355820,2021-02-19,13:09:43,KAZAKHSTAN,-2.8,-7.9,1026.3,1032.4,25.9,15.1,0.00,2.6,101000,51.6,93
478180,2021-02-19,13:09:43,JAPAN,-1.3,-5.8,944.9,1027.9,27.4,12.8,0.00,0.0,100000,1.1,116
543460,2021-02-19,13:09:43,CHINA,-2.6,-12.8,1018.7,1025.1,19.5,8.3,0.02,0.0,110000,57.6,305
363970,2021-02-19,13:09:43,KAZAKHSTAN,-10.9,-16.9,1023.9,1036.7,8.6,34.1,0.00,0.0,100000,86.1,103
511560,2021-02-19,13:09:43,CHINA,-6.3,-11.9,929.1,1031.7,23.3,5.6,0.01,0.0,110000,88.1,311
509150,2021-02-19,13:09:43,CHINA,-7.6,-13.8,945.9,1029.2,33.1,17.0,0.02,0.0,110000,52.6,274
510530,2021-02-19,13:09:43,CHINA,-9.4,-14.3,1025.8,1035.2,25.2,12.6,0.02,0.0,110000,53.7,197
353450,2021-02-19,13:09:43,KAZAKHSTAN,-2.7,-6.2,1065.0,1041.8,16.5,0.0,0.00,4.9,101000,69.6,160
475810,2021-02-19,13:09:43,JAPAN,-3.2,-8.1,1013.0,1016.2,28.7,9.2,0.02,5.9,111000,90.4,301
535290,2021-02-19,13:09:43,CHINA,-3.4,-16.2,893.0,1028.5,22.4,4.0,0.01,0.0,110000,63.5,94
475740,2021-02-19,13:09:43,JAPAN,-1.3,-9.0,1007.5,1018.2,13.9,22.1,0.03,0.0,110000,54.4,318
549450,2021-02-19,13:09:43,CHINA,-0.6,-8.1,1019.2,1026.8,21.3,5.5,0.03,0.0,110000,51.5,118
475690,2021-02-19,13:09:43,JAPAN,-0.5,-7.7,1001.6,1002.5,11.4,18.2,0.00,0.0,100000,73.3,352
359530,2021-02-19,13:09:43,KAZAKHSTAN,-3.1,-6.3,1014.2,1028.3,25.0,19.8,0.00,3.7,101000,87.5,205
442120,2021-02-19,13:09:43,MONGOLIA,-22.1,-24.7,912.3,1037.5,54.8,4.4,0.00,9.9,101000,73.5,210
544050,2021-02-19,13:09:43,CHINA,-4.5,-19.3,1022.5,1027.2,17.1,16.3,0.01,0.0,110000,54.2,192
442140,2021-02-19,13:09:43,MONGOLIA,-9.9,-18.4,825.1,1027.5,10.9,5.2,0.00,0.0,100000,91.6,0
352170,2021-02-19,13:09:43,KAZAKHSTAN,-3.2,-6.8,1023.3,1022.0,16.9,21.7,0.01,4.8,111000,88.7,349
475160,2021-02-19,13:09:43,JAPAN,-3.3,-7.5,998.4,992.5,12.6,21.2,0.00,0.0,100000,81.2,220
475200,2021-02-19,13:09:43,JAPAN,-2.0,-5.5,1005.5,1018.4,14.4,12.0,0.16,0.0,110000,69.2,191
353860,2021-02-19,13:09:43,KAZAKHSTAN,-8.2,-12.3,986.6,983.9,18.0,13.8,0.00,0.0,100000,47.8,221
515420,2021-02-19,13:09:43,CHINA,-16.6,-20.7,755.0,753.0,33.1,5.7,0.00,0.0,100000,67.6,101
539750,2021-02-19,13:09:43,CHINA,-3.1,-11.8,1022.9,1028.0,8.4,11.9,0.02,0.0,110000,67.4,120
529570,2021-02-19,13:09:43,CHINA,-4.4,-17.8,723.6,717.9,24.4,15.7,0.03,0.0,110000,90.1,61
354160,2021-02-19,13:09:43,KAZAKHSTAN,-2.9,-6.1,1026.7,1028.9,6.5,14.5,0.05,7.8,111000,91.2,75
535020,2021-02-19,13:09:43,CHINA,-3.9,-19.1,977.5,1029.5,21.0,11.6,0.00,0.0,100000,5.8,238
514950,2021-02-19,13:09:43,CHINA,-1.9,-17.3,985.4,1032.7,31.8,38.5,0.00,0.0,100000,4.0,52
357390,2021-02-19,13:09:43,KAZAKHSTAN,-1.2,-5.7,1035.8,1028.6,46.4,12.9,0.00,3.0,101000,51.4,343
556640,2021-02-19,13:09:43,CHINA,-0.5,-20.9,602.0,602.3,24.6,29.6,0.00,0.0,100000,11.4,118
345810,2021-02-19,13:09:43,KAZAKHSTAN,-2.2,-6.2,1040.1,1028.7,49.1,24.9,0.00,0.0,100000,53.0,37
364280,2021-02-19,13:09:43,KAZAKHSTAN,-14.1,-18.4,1036.9,1036.8,17.7,2.9,0.01,0.9,111000,50.4,194
527130,2021-02-19,13:09:43,CHINA,-4.6,-19.6,699.2,699.3,27.7,14.0,0.02,0.0,110000,63.8,61
560650,2021-02-19,13:09:43,CHINA,-5.3,-16.7,661.0,661.1,27.0,7.5,0.02,0.0,110000,69.5,29
470610,2021-02-19,13:09:43,KOREANORTH,-1.2,-7.6,1016.4,1020.3,27.2,10.7,0.15,0.8,111000,69.6,9
470650,2021-02-19,13:09:43,KOREANORTH,-3.6,-8.6,1018.5,1024.4,13.9,7.5,0.01,0.0,110000,81.8,170
170500,2021-02-19,13:09:43,TURKEY,-0.1,-5.5,1014.1,1020.1,17.3,10.1,0.04,0.5,111000,93.7,67
286790,2021-02-19,13:09:43,KAZAKHSTAN,-8.5,-12.1,1019.0,1029.6,13.3,17.9,0.01,4.7,111000,75.3,118
524460,2021-02-19,13:09:43,CHINA,-3.8,-17.6,937.2,1034.8,41.6,10.6,0.00,0.0,100000,77.2,0
470080,2021-02-19,13:09:43,KOREANORTH,-4.1,-12.5,1014.3,1020.6,13.8,13.2,0.00,0.0,100000,97.2,305
377890,2021-02-19,13:09:43,ARMENIA,-0.2,-5.8,985.6,1016.2,7.6,9.1,0.00,0.0,100000,40.4,299
474110,2021-02-19,13:09:43,JAPAN,-6.3,-10.6,1011.6,1015.5,14.7,20.1,0.09,0.0,110000,63.5,156
474090,2021-02-19,13:09:43,JAPAN,-10.7,-13.7,1013.9,1014.9,25.8,1.4,0.05,8.6,111000,71.8,155
513790,2021-02-19,13:09:43,CHINA,-9.4,-11.9,1021.4,1035.6,17.6,8.3,0.02,0.0,110000,50.5,353
475700,2021-02-19,13:09:43,JAPAN,-3.2,-7.1,1007.4,1019.5,14.3,2.8,0.16,7.8,111000,51.3,109
571440,2021-02-19,13:09:43,CHINA,-0.3,-7.5,907.6,1021.2,6.7,18.4,0.56,0.0,110000,51.2,104
546560,2021-02-19,13:09:43,CHINA,-2.1,-8.2,1021.6,1024.8,25.6,30.5,0.01,0.0,110000,53.0,251
507880,2021-02-19,13:09:43,CHINA,-9.5,-15.7,1018.9,1019.4,22.9,12.5,0.02,0.0,110000,50.3,230
172050,2021-02-19,13:09:43,TURKEY,-3.0,-6.9,829.4,845.1,4.8,7.9,0.22,3.3,111000,52.5,238
471430,2021-02-19,13:09:43,KOREASOUTH,-1.0,-10.7,1015.6,1023.0,24.1,18.5,0.06,0.0,110000,50.2,16
509630,2021-02-19,13:09:43,CHINA,-9.3,-12.8,1016.7,1022.1,12.0,5.9,0.01,0.0,110000,98.8,131
470520,2021-02-19,13:09:43,KOREANORTH,-4.2,-7.5,1017.3,1023.2,15.0,1.9,0.00,0.0,100000,24.2,101
171600,2021-02-19,13:09:43,TURKEY,-2.5,-10.2,905.1,876.3,15.7,5.1,0.00,0.0,100000,42.9,182
356710,2021-02-19,13:09:43,KAZAKHSTAN,-4.6,-8.5,997.6,1028.6,18.0,21.0,0.00,3.2,101000,79.1,118
471280,2021-02-19,13:09:43,KOREASOUTH,-1.3,-7.6,1008.7,1009.9,3.1,8.2,0.00,0.0,100000,73.6,157
474830,2021-02-19,13:09:43,JAPAN,-6.3,-12.9,1006.0,1003.0,9.0,8.3,0.00,0.0,100000,67.4,263
534870,2021-02-19,13:09:43,CHINA,-8.2,-21.4,972.0,1027.9,13.4,13.1,0.01,0.0,110000,50.2,268
546160,2021-02-19,13:09:43,CHINA,-2.8,-11.6,1026.6,1026.2,13.5,8.7,0.02,0.0,110000,53.5,345
442770,2021-02-19,13:09:43,MONGOLIA,-10.2,-19.0,1006.9,1026.1,36.8,22.9,2.35,0.0,110000,50.4,70
170860,2021-02-19,13:09:43,TURKEY,-0.2,-5.1,944.7,1018.8,18.6,11.3,0.35,4.1,111000,52.1,59
357460,2021-02-19,13:09:43,KAZAKHSTAN,-2.0,-5.2,1025.4,1027.0,15.0,17.8,0.00,0.8,101000,55.0,319
552990,2021-02-19,13:09:43,CHINA,-4.6,-19.3,1003.4,996.9,21.2,19.8,0.01,0.0,110000,68.5,178
443140,2021-02-19,13:09:43,MONGOLIA,-9.0,-16.8,928.2,1022.0,13.5,3.9,0.00,1.5,101000,86.2,171
474210,2021-02-19,13:09:43,JAPAN,-4.4,-9.7,1015.6,1015.1,22.5,11.7,0.10,14.0,111000,50.5,292
368590,2021-02-19,13:09:43,KAZAKHSTAN,-0.6,-5.8,1010.2,1026.4,33.4,12.8,0.01,1.5,111000,54.2,245
471110,2021-02-19,13:09:43,KOREASOUTH,-1.5,-6.7,1003.6,993.4,2.8,7.3,0.04,0.0,110000,51.5,2
547050,2021-02-19,13:09:43,CHINA,-2.9,-13.2,1040.0,1035.1,22.4,6.9,0.00,0.0,100000,4.6,242
471300,2021-02-19,13:09:43,KOREASOUTH,-0.1,-8.9,1018.9,1021.4,19.4,24.1,0.13,0.2,111000,50.0,254
471310,2021-02-19,13:09:43,KOREASOUTH,-0.5,-9.1,1020.5,1024.0,21.9,15.1,0.04,0.0,110000,52.2,252
471330,2021-02-19,13:09:43,KOREASOUTH,-0.4,-7.9,1018.7,1024.0,13.7,9.3,0.04,0.0,110000,78.5,105
471340,2021-02-19,13:09:43,KOREASOUTH,-1.6,-8.9,999.3,993.4,10.9,12.1,0.04,0.0,110000,54.9,129
506030,2021-02-19,13:09:43,CHINA,-10.2,-14.3,984.7,1027.5,30.7,2.5,0.01,0.0,110000,65.3,80
471350,2021-02-19,13:09:43,KOREASOUTH,-1.9,-9.9,1005.7,1023.0,17.9,11.7,0.04,0.0,110000,60.8,238
471100,2021-02-19,13:09:43,KOREASOUTH,-1.5,-7.4,1008.3,1009.9,3.1,13.0,0.00,0.0,100000,98.5,206
474300,2021-02-19,13:09:43,JAPAN,-5.3,-10.1,1019.4,1015.5,15.0,24.8,0.08,7.1,111000,73.9,34
474180,2021-02-19,13:09:43,JAPAN,-10.6,-15.8,1010.2,1016.0,26.0,33.1,0.07,4.6,111000,69.7,235
351880,2021-02-19,13:09:43,KAZAKHSTAN,-5.0,-8.1,1027.9,1027.7,15.4,20.8,0.19,2.2,111000,50.2,247
528420,2021-02-19,13:09:43,CHINA,-10.2,-25.0,696.5,689.8,18.9,10.2,0.01,0.0,110000,76.7,120
471074,2021-02-19,13:09:43,KOREASOUTH,-1.2,-10.8,995.1,965.3,5.9,27.9,0.00,0.0,100000,38.8,346
471087,2021-02-19,13:09:43,KOREASOUTH,-2.3,-10.4,1025.6,1034.7,13.1,14.2,0.00,0.0,100000,83.0,14
471080,2021-02-19,13:09:43,KOREASOUTH,-1.5,-8.5,1019.1,1022.5,13.7,2.5,0.02,0.1,111000,53.7,217
471120,2021-02-19,13:09:43,KOREASOUTH,-0.7,-6.6,1018.3,1022.9,16.5,17.5,0.02,0.0,110000,54.3,252
506320,2021-02-19,13:09:43,CHINA,-14.2,-20.4,987.2,1024.0,27.2,14.0,0.01,0.0,110000,52.5,186
548360,2021-02-19,13:09:43,CHINA,-2.0,-13.3,1032.7,1027.3,14.1,13.6,0.03,0.0,110000,53.8,170
523230,2021-02-19,13:09:43,CHINA,-6.2,-17.7,818.8,817.1,35.5,21.3,0.01,0.0,110000,50.8,266
543424,2021-02-19,13:09:43,CHINA,-3.5,-12.0,998.3,994.3,7.1,21.7,0.00,0.0,100000,44.6,356
535640,2021-02-19,13:09:43,CHINA,-5.6,-18.1,936.7,1030.6,20.8,7.7,0.00,0.0,100000,68.0,306
476410,2021-02-19,13:09:43,JAPAN,-1.3,-8.8,989.5,1018.2,23.1,8.2,0.17,0.0,110000,54.4,250
476390,2021-02-19,13:09:43,JAPAN,-23.3,-29.4,1000.3,997.9,44.7,40.5,0.00,0.0,100000,55.2,218
511330,2021-02-19,13:09:43,CHINA,-4.4,-9.0,992.2,1033.3,24.9,9.5,0.05,0.0,110000,89.8,109
562570,2021-02-19,13:09:43,CHINA,-1.3,-15.4,684.6,683.3,43.2,2.3,0.01,0.0,110000,53.4,81
471131,2021-02-19,13:09:43,KOREASOUTH,-1.4,-5.8,991.0,997.5,7.4,6.9,0.00,0.0,100000,44.1,127
531490,2021-02-19,13:09:43,CHINA,-6.8,-18.9,905.7,1027.7,31.0,16.0,0.02,0.0,110000,51.9,16
552790,2021-02-19,13:09:43,CHINA,-5.0,-23.9,994.2,995.3,31.4,39.4,0.01,0.0,110000,68.0,118
542590,2021-02-19,13:09:43,CHINA,-7.4,-15.1,1028.7,1024.9,19.4,4.0,0.02,0.0,110000,86.5,69
471000,2021-02-19,13:09:43,KOREASOUTH,-4.0,-9.6,922.2,1022.6,19.3,16.7,0.09,10.6,111000,51.9,226
470980,2021-02-19,13:09:43,KOREASOUTH,-2.8,-10.6,1011.3,1025.2,9.4,4.8,0.01,0.0,110000,72.1,139
523910,2021-02-19,13:09:43,CHINA,-13.6,-22.2,1002.1,1044.6,38.4,5.0,0.00,0.0,100000,10.9,359
560180,2021-02-19,13:09:43,CHINA,-2.8,-14.1,627.1,635.6,24.4,16.6,0.01,0.0,110000,88.0,56
560340,2021-02-19,13:09:43,CHINA,-9.9,-19.5,600.9,593.4,21.1,17.3,0.05,0.0,110000,54.4,310
354590,2021-02-19,13:09:43,KAZAKHSTAN,-3.9,-8.2,1024.6,1030.3,48.7,14.7,0.00,0.0,100000,25.8,287
170900,2021-02-19,13:09:43,TURKEY,-1.6,-5.4,914.2,932.6,19.0,1.7,0.27,4.3,111000,65.6,148
523780,2021-02-19,13:09:43,CHINA,-4.0,-18.7,985.8,1008.3,25.6,22.2,0.00,0.0,100000,67.3,155
506580,2021-02-19,13:09:43,CHINA,-9.1,-14.7,1025.4,1022.8,10.4,7.3,0.01,0.0,110000,56.9,179
527070,2021-02-19,13:09:43,CHINA,-5.9,-21.1,724.8,721.2,10.7,7.7,0.00,0.0,100000,61.7,326
532760,2021-02-19,13:09:43,CHINA,-8.5,-18.0,918.6,1028.3,26.0,15.9,0.01,0.0,110000,86.3,211
474760,2021-02-19,13:09:43,JAPAN,-10.5,-13.3,999.9,1001.6,4.5,13.5,,0.0,100000,77.3,30
530830,2021-02-19,13:09:43,CHINA,-6.2,-12.1,962.6,1030.0,39.6,8.9,0.02,0.0,110000,52.3,83
561250,2021-02-19,13:09:43,CHINA,-2.5,-19.9,648.6,651.7,19.7,24.2,0.00,0.0,100000,51.3,73
513560,2021-02-19,13:09:43,CHINA,-9.9,-12.4,1006.1,1033.1,15.7,2.9,0.00,0.0,100000,96.7,145
534800,2021-02-19,13:09:43,CHINA,-9.0,-20.4,960.6,1029.8,30.7,7.3,0.01,0.0,110000,78.3,342
548230,2021-02-19,13:09:43,CHINA,-0.5,-11.2,1022.3,1026.3,10.4,11.7,0.02,0.0,110000,51.6,350
508620,2021-02-19,13:09:43,CHINA,-18.0,-22.2,1020.1,1006.8,22.3,5.1,0.00,0.0,100000,16.7,321
368700,2021-02-19,13:09:43,KAZAKHSTAN,-1.2,-3.8,978.7,1022.9,10.3,5.2,0.05,2.2,111000,51.5,25
171500,2021-02-19,13:09:43,TURKEY,-0.5,-3.9,1021.2,1019.2,8.6,2.4,0.10,0.9,111000,57.8,293
470670,2021-02-19,13:09:43,KOREANORTH,-5.1,-9.7,1050.3,1026.4,13.1,12.2,0.00,0.0,100000,14.3,247
542260,2021-02-19,13:09:43,CHINA,-5.0,-18.3,1020.4,1025.3,21.5,4.8,0.01,0.0,110000,52.2,35
470680,2021-02-19,13:09:43,KOREANORTH,-2.5,-6.5,1015.4,1024.1,12.6,13.8,0.01,0.0,110000,83.0,297
353210,2021-02-19,13:09:43,KAZAKHSTAN,-5.0,-10.3,1054.2,1035.4,8.1,10.1,0.00,0.0,100000,88.2,37
526520,2021-02-19,13:09:43,CHINA,-8.4,-19.2,883.8,1029.4,29.2,3.5,0.00,0.0,100000,72.1,286
380810,2021-02-19,13:09:43,KAZAKHSTAN,-2.1,-5.8,1034.3,1029.0,20.8,30.2,0.03,0.2,111000,53.2,68
526510,2021-02-19,13:09:43,CHINA,-8.0,-29.3,977.2,995.6,66.4,3.9,0.00,0.0,100000,29.5,334
541020,2021-02-19,13:09:43,CHINA,-12.6,-17.6,938.2,1029.7,28.0,1.7,0.01,0.0,110000,69.5,85
474070,2021-02-19,13:09:43,JAPAN,-11.4,-14.9,1008.2,1014.6,14.4,12.5,0.09,16.5,111000,67.2,271
474060,2021-02-19,13:09:43,JAPAN,-7.8,-11.5,1010.4,1015.5,15.9,12.6,0.11,15.1,111000,51.3,93
289570,2021-02-19,13:09:43,KAZAKHSTAN,-4.0,-7.7,1027.2,1024.5,4.7,2.9,0.04,7.4,111000,53.2,53
351080,2021-02-19,13:09:43,KAZAKHSTAN,-3.9,-6.8,1019.1,1023.8,11.0,27.8,0.01,8.6,111000,80.0,313
476380,2021-02-19,13:09:43,JAPAN,-0.8,-8.6,994.3,1016.1,16.0,2.0,0.13,0.6,111000,51.3,16
476170,2021-02-19,13:09:43,JAPAN,-6.1,-10.1,953.5,1024.0,20.1,9.2,0.00,0.0,100000,17.9,192
529830,2021-02-19,13:09:43,CHINA,-5.2,-12.0,817.3,838.4,12.3,7.5,0.00,0.0,100000,36.7,4
561160,2021-02-19,13:09:43,CHINA,-1.1,-15.5,683.7,690.0,33.7,10.0,0.01,0.0,110000,52.3,71
470460,2021-02-19,13:09:43,KOREANORTH,-1.3,-6.3,1018.9,1018.8,23.5,11.7,0.01,0.3,111000,53.9,236
347980,2021-02-19,13:09:43,KAZAKHSTAN,-2.0,-4.8,1021.0,1019.7,17.6,19.5,0.00,0.7,101000,50.1,268
580400,2021-02-19,13:09:43,CHINA,-0.9,-7.1,1029.0,1025.7,15.9,15.5,0.02,0.0,110000,76.6,163
507740,2021-02-19,13:09:43,CHINA,-12.9,-19.0,1013.4,1022.0,4.1,4.7,0.01,0.0,110000,50.0,313
288790,2021-02-19,13:09:43,KAZAKHSTAN,-4.6,-8.8,1032.2,1032.0,7.1,24.7,0.01,0.5,111000,51.5,95
288770,2021-02-19,13:09:43,KAZAKHSTAN,-6.7,-12.1,1016.9,1019.4,19.0,14.1,0.02,5.4,111000,93.5,82
533360,2021-02-19,13:09:43,CHINA,-6.0,-16.0,909.2,1029.9,27.1,7.1,0.01,0.0,110000,54.0,176
471223,2021-02-19,13:09:43,KOREASOUTH,-1.2,-2.6,1020.1,1027.9,7.0,11.2,0.00,0.0,100000,50.2,87
471220,2021-02-19,13:09:43,KOREASOUTH,-2.5,-7.4,1015.8,1015.4,17.0,7.3,0.02,0.1,111000,58.6,227
478090,2021-02-19,13:09:43,JAPAN,-0.3,-6.7,1019.0,1024.0,24.0,2.2,0.02,0.0,110000,50.9,117
171290,2021-02-19,13:09:43,TURKEY,-0.7,-4.5,968.4,1019.7,6.7,5.3,0.04,0.0,110000,51.8,176
476180,2021-02-19,13:09:43,JAPAN,-4.2,-9.5,975.6,1019.3,17.5,6.5,0.14,1.4,111000,59.0,136
471460,2021-02-19,13:09:43,KOREASOUTH,-0.1,-5.3,1018.8,1023.6,12.6,7.3,0.05,0.0,110000,50.9,280
442370,2021-02-19,13:09:43,MONGOLIA,-7.4,-12.1,845.0,1024.0,50.6,13.8,0.00,0.2,101000,77.8,27
471190,2021-02-19,13:09:43,KOREASOUTH,-2.1,-7.7,1024.5,1023.6,18.5,3.3,0.03,0.0,110000,80.7,307
471180,2021-02-19,13:09:43,KOREASOUTH,-3.4,-11.1,1013.7,1018.7,7.1,2.3,0.00,0.0,100000,58.6,84
474340,2021-02-19,13:09:43,JAPAN,-10.1,-13.4,1004.6,1011.7,10.9,11.8,0.00,1.4,101000,91.6,41
474350,2021-02-19,13:09:43,JAPAN,-4.9,-11.1,1012.6,1006.3,34.1,8.1,0.03,0.0,110000,68.4,313
545870,2021-02-19,13:09:43,CHINA,-2.3,-9.6,1025.9,1025.4,25.1,40.7,0.00,0.0,100000,4.2,178
514635,2021-02-19,13:09:43,CHINA,-6.2,-8.3,992.4,996.3,7.2,6.3,0.00,0.0,100000,11.8,259
543370,2021-02-19,13:09:43,CHINA,-5.1,-17.2,1022.8,1025.1,13.8,16.0,0.01,0.0,110000,64.6,230
171550,2021-02-19,13:09:43,TURKEY,-1.3,-7.1,899.1,1012.2,14.1,1.8,0.00,0.0,100000,76.4,183
585060,2021-02-19,13:09:43,CHINA,-0.5,-4.9,979.2,1026.7,15.3,13.2,0.16,0.0,110000,50.6,294
521180,2021-02-19,13:09:43,CHINA,-4.1,-15.8,829.1,828.2,32.7,10.3,0.01,0.0,110000,56.7,137
470312,2021-02-19,13:09:43,CHINA,-1.9,-18.0,994.9,979.8,1.8,7.9,0.00,0.0,100000,46.3,117
365350,2021-02-19,13:09:43,KAZAKHSTAN,-7.4,-9.0,1073.3,1035.2,33.9,8.8,0.00,0.0,100000,90.6,292
474280,2021-02-19,13:09:43,JAPAN,-3.3,-8.3,1011.6,1013.0,15.4,7.5,0.10,0.0,110000,51.8,334
521120,2021-02-19,13:09:43,CHINA,-1.8,-16.3,1022.8,1026.0,28.1,21.1,0.00,0.0,100000,13.5,172
539150,2021-02-19,13:09:43,CHINA,-2.4,-11.1,907.3,1029.6,23.9,11.7,0.02,0.0,110000,52.3,99
570250,2021-02-19,13:09:43,CHINA,-0.4,-6.5,1047.7,1035.5,14.0,6.5,0.00,0.0,100000,4.2,80
474130,2021-02-19,13:09:43,JAPAN,-6.7,-9.9,1011.5,1017.3,19.0,5.3,0.00,0.0,100000,49.5,135
474170,2021-02-19,13:09:43,JAPAN,-14.8,-18.0,1009.5,1016.4,6.8,8.5,0.05,0.0,110000,72.6,188
380190,2021-02-19,13:09:43,KAZAKHSTAN,-9.5,-13.3,1018.5,1036.1,37.4,2.1,0.05,8.2,111000,52.2,31
544490,2021-02-19,13:09:43,CHINA,-1.4,-20.2,1019.0,1015.7,39.9,29.5,0.05,0.0,110000,52.4,109
526330,2021-02-19,13:09:43,CHINA,-12.9,-25.1,990.7,981.1,24.7,6.2,0.01,0.0,110000,53.7,217
361520,2021-02-19,13:09:43,KAZAKHSTAN,-12.9,-16.5,1043.6,1034.5,17.5,10.5,0.01,1.4,111000,51.0,116
542080,2021-02-19,13:09:43,CHINA,-7.7,-15.8,912.5,1028.3,29.1,24.6,0.01,0.0,110000,73.1,70
470280,2021-02-19,13:09:43,KOREANORTH,-2.6,-9.5,1021.9,1025.7,16.8,0.9,0.02,0.0,110000,52.9,155
548260,2021-02-19,13:09:43,CHINA,-3.0,-13.0,870.9,873.1,24.9,24.5,0.03,0.0,110000,66.8,328
518860,2021-02-19,13:09:43,CHINA,-4.5,-22.6,701.4,698.4,26.7,15.3,0.00,0.0,100000,93.6,161
443520,2021-02-19,13:09:43,MONGOLIA,-8.0,-15.1,1071.9,1030.2,53.0,20.0,0.00,0.0,100000,53.2,310
529960,2021-02-19,13:09:43,CHINA,-2.4,-8.3,778.1,776.4,18.5,23.1,0.03,0.0,110000,51.9,140
477470,2021-02-19,13:09:43,JAPAN,-0.9,-4.7,1024.3,1024.0,10.9,4.5,0.00,0.0,100000,82.9,318
527650,2021-02-19,13:09:43,CHINA,-9.4,-19.9,714.5,714.4,22.1,1.2,0.01,0.0,110000,51.6,235
471650,2021-02-19,13:09:43,KOREASOUTH,-0.2,-6.1,1025.1,1024.4,18.4,11.0,0.09,0.0,110000,50.8,322
547530,2021-02-19,13:09:43,CHINA,-1.9,-10.1,1025.1,1026.5,15.9,12.7,0.07,0.0,110000,84.6,332
557730,2021-02-19,13:09:43,CHINA,-0.6,-10.9,620.3,621.9,18.6,15.5,0.03,0.0,110000,60.1,353
503530,2021-02-19,13:09:43,CHINA,-8.3,-17.9,1000.0,1022.8,20.4,7.6,0.00,0.0,100000,39.8,99
443040,2021-02-19,13:09:43,MONGOLIA,-11.8,-16.4,1022.4,1032.2,46.3,7.1,0.00,1.1,101000,76.3,299
512430,2021-02-19,13:09:43,CHINA,-5.9,-9.2,1008.0,1034.0,14.2,2.7,0.00,0.0,100000,70.5,356
507560,2021-02-19,13:09:43,CHINA,-7.7,-12.5,1009.2,1022.7,16.5,9.6,0.01,0.0,110000,50.8,6
537720,2021-02-19,13:09:43,CHINA,-2.4,-13.6,982.7,1025.6,6.6,3.2,0.01,0.0,110000,53.5,58
544930,2021-02-19,13:09:43,CHINA,-8.0,-14.9,1021.3,1025.2,19.0,5.3,0.01,0.0,110000,72.2,18
470410,2021-02-19,13:09:43,KOREANORTH,-3.2,-11.0,1009.5,1020.6,16.0,11.8,0.02,0.0,110000,52.6,224
524180,2021-02-19,13:09:43,CHINA,-0.5,-15.9,918.1,1027.1,26.9,2.9,0.01,0.0,110000,51.9,160
471070,2021-02-19,13:09:43,KOREASOUTH,-0.8,-7.0,1013.6,1016.3,13.8,13.5,0.03,0.3,111000,81.1,36
471065,2021-02-19,13:09:43,KOREASOUTH,-2.1,-7.9,1017.4,1030.7,5.0,10.3,0.00,2.8,101000,50.4,344
538630,2021-02-19,13:09:43,CHINA,-2.4,-13.0,1016.9,1027.0,8.1,13.2,0.02,0.0,110000,54.5,138
538870,2021-02-19,13:09:43,CHINA,-4.3,-22.3,916.2,1026.9,32.4,4.1,0.00,0.0,100000,15.2,76
548630,2021-02-19,13:09:43,CHINA,-1.4,-9.1,1029.7,1026.6,19.4,14.5,0.05,0.0,110000,54.0,330
507450,2021-02-19,13:09:43,CHINA,-6.6,-14.5,1015.8,1022.7,15.5,4.2,0.01,0.0,110000,58.9,64
582030,2021-02-19,13:09:43,CHINA,-0.1,-5.7,1022.6,1025.7,19.2,16.0,0.03,0.0,110000,50.6,44
546620,2021-02-19,13:09:43,CHINA,-2.5,-11.6,1020.7,1025.3,3.8,11.9,0.05,0.0,110000,70.7,91
374320,2021-02-19,13:09:43,GEORGIA,-0.3,-3.7,952.5,955.1,30.8,8.8,0.16,5.7,111000,72.9,357
472185,2021-02-19,13:09:43,JAPAN,-6.4,-12.9,985.9,967.5,10.8,13.5,0.00,0.0,100000,24.5,43
442880,2021-02-19,13:09:43,MONGOLIA,-13.7,-22.4,916.6,1028.4,47.8,22.2,0.00,0.1,101000,61.7,69
527870,2021-02-19,13:09:43,CHINA,-5.7,-15.3,746.9,749.8,27.0,21.7,0.01,0.0,110000,69.5,166
526020,2021-02-19,13:09:43,CHINA,-3.3,-21.6,726.2,725.7,23.3,4.2,0.01,0.0,110000,62.1,33
361770,2021-02-19,13:09:43,KAZAKHSTAN,-11.0,-14.6,1023.7,1025.0,9.9,16.1,0.01,0.0,110000,51.1,217
541860,2021-02-19,13:09:43,CHINA,-10.3,-17.4,1010.5,1024.2,19.8,6.4,0.03,0.0,110000,52.2,122
524410,2021-02-19,13:09:43,CHINA,-6.1,-19.2,843.9,846.1,41.6,19.5,0.01,0.0,110000,50.0,51
528180,2021-02-19,13:09:43,CHINA,-3.7,-21.0,753.8,753.2,27.9,11.7,0.00,0.0,100000,69.4,7
534630,2021-02-19,13:09:43,CHINA,-6.5,-16.7,930.5,1029.0,13.7,11.7,0.01,0.0,110000,53.7,172
171240,2021-02-19,13:09:43,TURKEY,-1.6,-4.3,968.5,1018.8,13.4,8.9,0.08,1.2,111000,72.3,353
400830,2021-02-19,13:09:43,SYRIA,-1.7,-9.8,994.3,1022.8,19.8,22.7,0.00,0.0,100000,50.8,313
528560,2021-02-19,13:09:43,CHINA,-3.2,-18.8,768.1,767.8,22.0,6.3,0.03,0.0,110000,56.2,257
474330,2021-02-19,13:09:43,JAPAN,-14.4,-17.6,990.2,1014.6,29.8,14.1,0.00,0.0,100000,57.4,200
351730,2021-02-19,13:09:43,KAZAKHSTAN,-9.5,-12.4,1027.4,1032.8,26.8,21.1,0.00,5.2,101000,50.1,47
287660,2021-02-19,13:09:43,KAZAKHSTAN,-5.2,-9.5,1011.8,1027.6,6.8,14.5,0.01,3.5,111000,55.0,315
477090,2021-02-19,13:09:43,JAPAN,-0.8,-9.0,1002.2,1005.0,8.5,8.3,0.00,0.0,100000,9.2,16
541610,2021-02-19,13:09:43,CHINA,-4.0,-10.9,1012.4,1023.3,13.0,13.1,0.03,0.0,110000,52.2,199
541611,2021-02-19,13:09:43,CHINA,-4.6,-11.6,1019.5,1041.2,10.9,1.0,0.00,0.0,100000,96.8,192
541570,2021-02-19,13:09:43,CHINA,-8.0,-16.3,1025.5,1023.1,12.8,6.2,0.03,0.0,110000,64.0,279
544360,2021-02-19,13:09:43,CHINA,-6.5,-19.9,1023.7,1025.4,35.0,8.8,0.01,0.0,110000,51.0,312
400010,2021-02-19,13:09:43,SYRIA,-0.4,-5.9,1037.1,1012.6,15.6,3.3,0.00,0.0,100000,80.6,318
170960,2021-02-19,13:09:43,TURKEY,-2.8,-6.9,891.0,905.2,16.8,16.2,0.08,8.8,111000,51.8,37
571930,2021-02-19,13:09:43,CHINA,-0.4,-7.3,1009.2,1025.2,4.5,7.2,0.01,0.0,110000,52.7,12
560290,2021-02-19,13:09:43,CHINA,-3.3,-14.8,645.5,645.4,28.5,0.0,0.04,0.0,110000,53.9,264
560930,2021-02-19,13:09:44,CHINA,-5.0,-9.2,1012.4,,15.8,1.4,0.02,0.0,110000,51.1,268
505640,2021-02-19,13:09:44,CHINA,-9.2,-15.6,1023.0,1023.5,11.9,8.9,0.01,0.0,110000,80.5,119
474810,2021-02-19,13:09:44,JAPAN,-10.7,-15.0,997.7,989.9,5.3,11.1,0.00,0.0,100000,16.0,345
478290,2021-02-19,13:09:44,JAPAN,-0.6,-7.2,1001.2,1019.1,19.9,13.6,0.07,0.0,110000,50.4,224
549380,2021-02-19,13:09:44,CHINA,-2.0,-11.1,1030.4,1027.3,12.2,7.1,0.01,0.0,110000,52.5,8
474900,2021-02-19,13:09:44,JAPAN,-11.3,-16.2,995.8,999.6,11.9,7.2,0.00,0.0,100000,76.7,214
474890,2021-02-19,13:09:44,JAPAN,-7.3,-12.9,1000.0,998.0,4.0,5.3,0.00,0.0,100000,31.6,16
505480,2021-02-19,13:09:44,CHINA,-16.5,-19.0,1007.9,1010.1,24.7,7.5,0.00,0.0,100000,35.8,278
353610,2021-02-19,13:09:44,KAZAKHSTAN,-1.4,-4.2,990.7,1017.9,24.7,16.0,0.00,0.0,100000,98.3,155
171280,2021-02-19,13:09:44,TURKEY,-1.1,-4.7,955.8,1012.1,11.4,9.0,0.09,1.6,111000,82.9,174
554720,2021-02-19,13:09:44,CHINA,-3.8,-21.7,998.2,992.4,23.5,43.6,0.01,0.0,110000,52.1,21
527540,2021-02-19,13:09:44,CHINA,-8.6,-23.1,676.0,678.4,32.5,6.2,0.01,0.0,110000,94.7,227
471280,2021-02-19,13:09:44,KOREASOUTH,-1.4,-7.6,1008.6,1009.9,3.1,8.1,0.00,0.0,100000,73.6,157
526520,2021-02-19,13:09:44,CHINA,-8.1,-20.7,883.8,1029.4,29.1,3.5,0.00,0.0,100000,72.2,285
380810,2021-02-19,13:09:44,KAZAKHSTAN,-2.4,-6.7,1034.4,1029.0,20.7,30.2,0.03,0.2,111000,53.1,68
526510,2021-02-19,13:09:44,CHINA,-8.2,-29.3,977.0,995.4,66.3,3.9,0.00,0.0,100000,29.5,333
475760,2021-02-19,13:09:44,JAPAN,-3.7,-9.0,1016.8,1017.3,5.8,10.9,0.13,0.0,110000,71.3,51
170920,2021-02-19,13:09:44,TURKEY,-0.1,-3.3,957.1,982.5,6.8,10.5,0.24,3.5,111000,51.8,120
533910,2021-02-19,13:09:44,CHINA,-5.5,-13.9,880.8,1025.9,33.6,22.9,0.01,0.0,110000,50.4,121
525330,2021-02-19,13:09:44,CHINA,-2.4,-13.1,893.7,1027.6,31.0,6.6,0.01,0.0,110000,79.9,144
525331,2021-02-19,13:09:44,CHINA,-6.5,-11.8,974.2,995.5,2.3,10.4,0.00,0.0,100000,32.0,49
172440,2021-02-19,13:09:44,TURKEY,-1.0,-5.0,952.6,975.8,10.1,10.0,0.02,0.8,111000,51.4,120
170575,2021-02-19,13:09:44,TURKEY,-0.7,-3.3,1002.8,1003.9,8.1,15.5,0.00,0.0,100000,24.0,306
515420,2021-02-19,13:09:44,CHINA,-16.3,-20.7,755.0,752.9,33.2,5.6,0.00,0.0,100000,67.6,101
539750,2021-02-19,13:09:44,CHINA,-3.1,-11.8,1022.8,1027.9,8.5,12.0,0.02,0.0,110000,67.4,120
510530,2021-02-19,13:09:44,CHINA,-9.4,-13.2,1025.8,1035.2,25.1,12.6,0.02,0.0,110000,53.7,197
356990,2021-02-19,13:09:44,KAZAKHSTAN,-4.0,-12.0,951.9,1029.7,27.5,0.2,0.00,3.9,101000,51.0,315
289570,2021-02-19,13:09:44,KAZAKHSTAN,-4.0,-6.5,1027.3,1024.5,4.7,3.0,0.04,7.4,111000,53.1,53
524460,2021-02-19,13:09:44,CHINA,-3.8,-17.6,937.2,1034.8,41.5,10.5,0.00,0.0,100000,77.2,0
442070,2021-02-19,13:09:44,MONGOLIA,-14.8,-20.1,1051.0,1044.0,55.3,4.0,0.00,0.0,100000,6.2,318
513790,2021-02-19,13:09:44,CHINA,-9.4,-11.9,,1035.6,17.7,8.4,0.02,0.0,110000,50.5,352
351080,2021-02-19,13:09:44,KAZAKHSTAN,-3.3,-6.8,1019.0,1023.8,10.9,27.8,0.01,8.6,111000,79.9,313
170860,2021-02-19,13:09:44,TURKEY,-0.2,-5.1,944.7,1018.8,18.6,11.2,0.35,4.1,111000,52.1,60
471360,2021-02-19,13:09:44,KOREASOUTH,-2.1,-9.4,1014.7,1024.4,18.2,0.1,0.08,0.0,110000,52.4,71
471370,2021-02-19,13:09:44,KOREASOUTH,-1.4,-10.5,1011.7,1021.9,12.9,5.2,0.00,0.0,100000,56.0,281
534870,2021-02-19,13:09:44,CHINA,-8.6,-19.9,972.0,1027.9,13.5,13.0,0.01,0.0,110000,50.2,267
570730,2021-02-19,13:09:44,CHINA,-0.3,-10.0,1025.0,1024.5,16.6,14.7,0.00,0.0,100000,33.4,291
471074,2021-02-19,13:09:44,KOREASOUTH,-1.2,-10.1,995.3,964.8,5.9,27.7,0.00,0.0,100000,38.8,346
471087,2021-02-19,13:09:44,KOREASOUTH,-2.3,-10.4,1025.6,1034.5,13.1,14.1,0.00,0.0,100000,83.0,14
471080,2021-02-19,13:09:44,KOREASOUTH,-1.5,-7.6,1019.1,1022.5,13.8,2.4,0.02,0.1,111000,53.6,218
471120,2021-02-19,13:09:44,KOREASOUTH,-0.8,-6.6,1018.3,1022.9,16.6,17.6,0.02,0.0,110000,54.3,252
506320,2021-02-19,13:09:44,CHINA,-14.2,-19.2,987.2,1024.0,27.2,14.1,0.01,0.0,110000,52.5,186
400010,2021-02-19,13:09:44,SYRIA,-0.4,-5.9,1036.9,1012.6,15.6,3.1,0.00,0.0,100000,80.7,318
170960,2021-02-19,13:09:44,TURKEY,-3.2,-6.9,891.0,905.2,16.7,16.3,0.08,8.8,111000,51.8,38
442920,2021-02-19,13:09:44,MONGOLIA,-14.2,-19.8,889.7,1030.4,22.1,5.5,0.26,3.0,111000,86.5,258
476180,2021-02-19,13:09:44,JAPAN,-4.2,-10.6,975.6,1019.3,17.4,6.5,0.14,1.4,111000,59.0,136
523910,2021-02-19,13:09:44,CHINA,-13.6,-20.2,1002.1,1044.6,38.3,4.9,0.00,0.0,100000,10.8,359
513560,2021-02-19,13:09:44,CHINA,-9.4,-12.4,1006.1,1033.2,15.8,2.9,0.00,0.0,100000,96.7,145
527070,2021-02-19,13:09:44,CHINA,-5.9,-21.1,724.8,721.2,10.7,7.8,0.00,0.0,100000,61.7,327
529960,2021-02-19,13:09:44,CHINA,-2.3,-7.6,778.1,776.4,18.4,23.0,0.03,0.0,110000,51.9,140
541860,2021-02-19,13:09:44,CHINA,-10.3,-17.4,1010.5,1024.1,19.9,6.5,0.03,0.0,110000,52.2,122
524410,2021-02-19,13:09:44,CHINA,-5.7,-20.5,844.0,846.1,41.6,19.6,0.01,0.0,110000,50.1,51
442980,2021-02-19,13:09:44,MONGOLIA,-19.2,-25.0,1056.6,1032.8,41.2,16.8,0.05,0.0,110000,82.1,355
359530,2021-02-19,13:09:44,KAZAKHSTAN,-3.1,-5.2,1014.2,1028.2,24.9,19.7,0.00,3.7,101000,87.5,205
471100,2021-02-19,13:09:44,KOREASOUTH,-1.6,-7.4,1008.4,1009.9,3.1,13.1,0.00,0.0,100000,98.5,206
521180,2021-02-19,13:09:44,CHINA,-4.2,-17.1,829.1,828.3,32.7,10.2,0.01,0.0,110000,56.7,137
470950,2021-02-19,13:09:44,KOREASOUTH,-3.1,-10.9,1007.3,1023.7,11.1,14.0,0.05,0.0,110000,54.9,124
537230,2021-02-19,13:09:44,CHINA,-5.5,-16.8,907.8,1029.1,14.5,11.3,0.02,0.0,110000,54.1,76
476800,2021-02-19,13:09:44,JAPAN,-0.1,-5.9,997.3,1017.5,26.5,13.0,0.00,0.0,100000,95.2,249
442120,2021-02-19,13:09:44,MONGOLIA,-22.1,-26.2,912.3,1037.5,54.8,4.4,0.00,9.9,101000,73.6,210
544050,2021-02-19,13:09:44,CHINA,-4.5,-18.0,1022.4,1027.2,17.0,16.3,0.01,0.0,110000,54.1,193
442140,2021-02-19,13:09:44,MONGOLIA,-9.9,-19.9,825.1,1027.5,10.9,5.1,0.00,0.0,100000,91.5,1
345810,2021-02-19,13:09:44,KAZAKHSTAN,-2.2,-7.0,1040.2,1028.7,49.1,24.9,0.00,0.0,100000,53.0,37
442880,2021-02-19,13:09:44,MONGOLIA,-14.1,-22.4,916.6,1028.4,47.8,22.3,0.00,0.1,101000,61.8,69
538450,2021-02-19,13:09:44,CHINA,-1.7,-13.5,934.3,1029.3,14.3,10.3,0.01,0.0,110000,77.1,238
289520,2021-02-19,13:09:44,KAZAKHSTAN,-7.1,-10.9,1045.6,1033.7,9.9,22.2,0.63,0.0,110000,50.8,170
368590,2021-02-19,13:09:44,KAZAKHSTAN,-0.6,-5.8,1010.2,1026.4,33.4,12.8,0.01,1.5,111000,54.2,245
471110,2021-02-19,13:09:44,KOREASOUTH,-1.5,-6.7,1003.5,993.5,2.7,7.3,0.04,0.0,110000,51.5,2
547050,2021-02-19,13:09:44,CHINA,-9.2,-14.5,1039.8,1035.1,22.4,6.9,0.00,0.0,100000,4.6,242
475530,2021-02-19,13:09:44,JAPAN,-2.1,-5.5,1004.4,1004.0,5.7,13.1,0.00,0.0,100000,48.5,333
475700,2021-02-19,13:09:44,JAPAN,-3.2,-7.1,1007.4,1019.5,14.4,2.7,0.16,7.8,111000,51.3,108
546560,2021-02-19,13:09:44,CHINA,-2.1,-7.7,1021.6,1024.8,25.7,30.7,0.01,0.0,110000,53.0,251
369820,2021-02-19,13:09:44,KYRGYZSTAN,-13.1,-19.4,645.7,644.4,41.3,4.1,0.00,0.0,100000,87.2,281
350850,2021-02-19,13:09:44,KAZAKHSTAN,-8.9,-13.1,1025.7,1032.5,30.0,20.0,0.00,1.4,101000,51.3,104
544970,2021-02-19,13:09:44,CHINA,-3.5,-12.2,1024.6,1024.3,20.1,15.3,0.01,0.0,110000,94.1,280
476120,2021-02-19,13:09:44,JAPAN,-0.6,-4.7,1018.3,1018.8,18.1,4.3,0.40,14.3,111000,50.4,148
475840,2021-02-19,13:09:44,JAPAN,-4.9,-9.9,1005.9,1015.1,3.9,19.1,0.10,3.7,111000,67.7,319
535130,2021-02-19,13:09:44,CHINA,-5.6,-18.6,925.9,1030.4,21.9,6.1,0.00,0.0,100000,20.5,305
475900,2021-02-19,13:09:44,JAPAN,-1.2,-6.8,1009.4,1017.5,19.6,8.6,0.10,0.9,111000,50.0,333
534460,2021-02-19,13:09:44,CHINA,-5.1,-19.6,1005.6,1029.3,8.3,12.1,0.00,0.0,100000,42.6,241
475450,2021-02-19,13:09:44,JAPAN,-1.7,-6.1,1002.3,1006.8,10.3,13.7,0.00,0.0,100000,93.3,131
552280,2021-02-19,13:09:44,CHINA,-1.7,-17.4,603.4,600.0,30.5,0.0,0.01,0.0,110000,85.7,117
354060,2021-02-19,13:09:44,KAZAKHSTAN,-4.0,-7.0,1027.8,1028.4,26.9,18.0,0.00,0.0,100000,86.0,119
508440,2021-02-19,13:09:44,CHINA,-4.8,-13.0,1021.8,1022.9,12.8,14.7,0.01,0.0,110000,50.6,355
561160,2021-02-19,13:09:44,CHINA,-1.7,-15.5,683.7,690.0,33.6,10.1,0.01,0.0,110000,52.4,71
529550,2021-02-19,13:09:44,CHINA,-2.5,-16.2,694.4,684.8,32.5,12.4,0.02,0.0,110000,66.6,72
350780,2021-02-19,13:09:44,KAZAKHSTAN,-6.5,-9.1,1022.1,1033.3,9.9,15.0,0.02,8.6,111000,67.3,121
474070,2021-02-19,13:09:44,JAPAN,-11.4,-14.9,1008.1,1014.5,14.5,12.4,0.09,16.5,111000,67.1,272
474060,2021-02-19,13:09:44,JAPAN,-8.3,-11.5,1010.4,1015.5,15.9,12.8,0.11,15.1,111000,51.3,93
474240,2021-02-19,13:09:44,JAPAN,-7.4,-11.6,1018.1,1017.1,20.7,8.0,0.00,0.0,100000,2.3,303
474250,2021-02-19,13:09:44,JAPAN,-9.8,-13.6,1000.5,1001.3,3.0,5.0,0.00,0.0,100000,96.7,301
474260,2021-02-19,13:09:44,JAPAN,-5.6,-11.4,1013.1,1015.5,27.5,24.2,0.03,1.4,111000,97.4,84
563570,2021-02-19,13:09:44,CHINA,-1.4,-16.9,644.9,645.2,31.7,14.4,0.01,0.0,110000,51.5,209
540260,2021-02-19,13:09:44,CHINA,-4.7,-16.4,1011.7,1024.1,25.3,23.5,0.01,0.0,110000,89.1,204
552790,2021-02-19,13:09:44,CHINA,-5.0,-22.8,994.2,995.3,31.4,39.3,0.01,0.0,110000,68.0,118
471064,2021-02-19,13:09:44,KOREASOUTH,-6.3,-10.8,1012.0,1011.1,15.1,0.4,0.00,0.0,100000,35.1,271
471066,2021-02-19,13:09:44,KOREASOUTH,-1.6,-7.1,1009.0,1006.6,10.3,3.7,0.00,0.1,101000,51.2,14
532760,2021-02-19,13:09:44,CHINA,-8.5,-18.0,918.6,1028.3,26.0,16.0,0.01,0.0,110000,86.4,211
509680,2021-02-19,13:09:44,CHINA,-11.8,-16.0,1017.6,1022.8,18.2,4.7,0.02,0.0,110000,50.9,234
544930,2021-02-19,13:09:44,CHINA,-7.8,-13.6,1021.4,1025.2,19.1,5.4,0.01,0.0,110000,72.1,19
357460,2021-02-19,13:09:44,KAZAKHSTAN,-2.0,-6.1,1025.3,1027.0,14.9,17.8,0.00,0.8,101000,55.1,319
544010,2021-02-19,13:09:44,CHINA,-3.8,-17.0,984.7,1027.5,23.7,18.8,0.01,0.0,110000,51.4,218
539290,2021-02-19,13:09:44,CHINA,-2.0,-12.3,882.4,888.7,10.2,15.9,0.00,0.0,100000,53.2,21
548080,2021-02-19,13:09:44,CHINA,-1.3,-8.7,1026.7,1026.1,2.7,9.6,0.01,0.0,110000,94.8,134
477420,2021-02-19,13:09:44,JAPAN,-0.7,-3.4,1024.4,1025.1,4.4,8.0,0.03,0.0,110000,51.5,47
467550,2021-02-19,13:09:44,TAIWAN,-1.5,-1.9,1004.3,998.5,63.5,16.3,0.00,0.0,100000,91.6,223
353630,2021-02-19,13:09:44,KAZAKHSTAN,-7.6,-9.7,1054.9,1043.4,14.3,19.3,0.00,0.0,100000,86.2,167
543460,2021-02-19,13:09:44,CHINA,-2.5,-12.8,1018.7,1025.2,19.6,8.4,0.02,0.0,110000,57.6,305
363970,2021-02-19,13:09:44,KAZAKHSTAN,-10.9,-15.9,1024.2,1036.8,8.4,33.9,0.00,0.0,100000,86.1,102
471750,2021-02-19,13:09:44,KOREASOUTH,-0.2,-4.7,966.1,1024.3,11.6,33.0,0.00,0.0,100000,9.0,111
470250,2021-02-19,13:09:44,KOREANORTH,-3.4,-7.3,1015.2,1020.2,9.9,8.3,0.09,0.1,111000,53.1,286
537720,2021-02-19,13:09:44,CHINA,-2.4,-13.6,982.7,1025.6,6.7,3.2,0.01,0.0,110000,53.4,58
171350,2021-02-19,13:09:44,TURKEY,-0.1,-4.8,922.3,1011.0,14.9,17.8,0.00,0.0,100000,28.8,194
511560,2021-02-19,13:09:44,CHINA,-6.3,-13.1,929.1,1031.7,23.3,5.5,0.01,0.0,110000,88.1,312
514670,2021-02-19,13:09:44,CHINA,-1.0,-13.8,829.4,828.4,28.6,0.8,0.00,0.0,100000,70.2,19
539470,2021-02-19,13:09:44,CHINA,-2.4,-14.8,949.2,1027.1,21.8,7.8,0.01,0.0,110000,81.5,131
570060,2021-02-19,13:09:44,CHINA,-0.5,-10.7,946.7,1026.1,11.6,5.2,0.02,0.0,110000,50.7,42
544710,2021-02-19,13:09:44,CHINA,-5.7,-13.3,1024.0,1025.0,15.8,24.1,0.00,0.0,100000,31.6,312
471070,2021-02-19,13:09:44,KOREASOUTH,-0.8,-7.0,1013.6,1016.3,13.7,13.6,0.03,0.3,111000,81.1,36
471065,2021-02-19,13:09:44,KOREASOUTH,-2.1,-7.9,1017.4,1030.9,5.0,10.4,0.00,2.8,101000,50.3,344
475160,2021-02-19,13:09:44,JAPAN,-3.2,-7.5,998.4,992.5,12.5,21.3,0.00,0.0,100000,81.2,220
171600,2021-02-19,13:09:44,TURKEY,-2.5,-12.1,905.2,876.3,15.8,5.1,0.00,0.0,100000,42.9,182
355820,2021-02-19,13:09:44,KAZAKHSTAN,-3.7,-6.4,1026.4,1032.4,25.8,15.0,0.00,2.6,101000,51.5,93
478180,2021-02-19,13:09:44,JAPAN,-1.3,-6.8,944.9,1027.9,27.3,12.8,0.00,0.0,100000,1.2,117
474740,2021-02-19,13:09:44,JAPAN,-10.4,-19.5,1009.5,1001.3,6.8,6.7,0.00,0.0,100000,53.9,175
170700,2021-02-19,13:09:44,TURKEY,-0.5,-4.1,943.2,1017.1,10.8,4.7,0.14,2.0,111000,54.1,100
549060,2021-02-19,13:09:44,CHINA,-1.7,-8.4,1024.4,1026.2,10.6,10.5,0.01,0.0,110000,62.3,56
546160,2021-02-19,13:09:44,CHINA,-2.8,-12.7,1026.6,1026.2,13.5,8.8,0.02,0.0,110000,53.6,344
366390,2021-02-19,13:09:44,KAZAKHSTAN,-10.6,-13.2,1036.4,1033.0,49.3,3.3,0.00,38.4,101000,51.9,294
474410,2021-02-19,13:09:44,JAPAN,-5.7,-12.0,998.8,1001.8,14.9,11.7,0.00,0.0,100000,23.1,42
507880,2021-02-19,13:09:44,CHINA,-10.0,-14.4,1019.0,1019.4,22.9,12.6,0.02,0.0,110000,50.2,230
443140,2021-02-19,13:09:44,MONGOLIA,-9.0,-16.8,928.2,1022.0,13.4,4.0,0.00,1.5,101000,86.1,171
541350,2021-02-19,13:09:44,CHINA,-8.3,-18.8,1019.5,1024.0,20.3,22.2,0.01,0.0,110000,56.4,235
361860,2021-02-19,13:09:44,KAZAKHSTAN,-2.5,-5.0,992.4,1019.8,7.2,2.0,0.00,17.0,101000,50.6,28
474830,2021-02-19,13:09:44,JAPAN,-6.3,-13.4,1006.0,1003.0,9.0,8.2,0.00,0.0,100000,67.4,263
471530,2021-02-19,13:09:44,KOREASOUTH,-0.4,-8.1,1016.5,1017.4,8.8,13.2,0.00,0.0,100000,6.4,77
547150,2021-02-19,13:09:44,CHINA,-0.9,-9.6,1021.3,1026.7,12.9,21.1,0.05,0.0,110000,92.2,129
471520,2021-02-19,13:09:44,KOREASOUTH,-0.3,-9.6,1032.6,1021.7,12.6,19.8,0.09,0.0,110000,96.8,217
170980,2021-02-19,13:09:44,TURKEY,-6.0,-10.2,815.6,816.1,12.9,18.6,0.07,11.5,111000,53.4,150
534800,2021-02-19,13:09:44,CHINA,-9.2,-19.0,960.6,1029.9,30.7,7.4,0.01,0.0,110000,78.3,342
476290,2021-02-19,13:09:44,JAPAN,-1.5,-9.7,1012.5,1016.1,27.5,17.6,0.04,0.0,110000,65.2,25
443290,2021-02-19,13:09:44,MONGOLIA,-7.9,-12.7,776.5,1029.6,21.8,13.7,0.00,2.8,101000,96.8,222
471580,2021-02-19,13:09:44,KOREASOUTH,-0.5,-5.6,1010.9,1009.2,14.4,9.3,0.00,0.0,100000,65.5,198
471560,2021-02-19,13:09:44,KOREASOUTH,-0.3,-5.7,1018.2,1022.9,13.8,12.4,0.08,0.0,110000,84.8,80
172480,2021-02-19,13:09:44,TURKEY,-5.1,-7.7,903.0,868.8,16.0,2.8,0.33,18.1,111000,50.3,67
514310,2021-02-19,13:09:44,CHINA,-0.5,-5.3,975.4,1028.3,29.3,3.3,0.12,0.0,110000,53.4,244
475910,2021-02-19,13:09:44,JAPAN,-1.4,-6.4,1005.2,1004.2,18.0,12.7,0.08,0.5,111000,52.5,69
513460,2021-02-19,13:09:44,CHINA,-8.5,-10.3,1053.3,1041.2,49.0,2.8,0.00,0.0,100000,33.0,325
170672,2021-02-19,13:09:44,TURKEY,-3.7,-6.7,979.7,965.0,6.2,8.9,0.00,0.0,100000,16.1,200
170674,2021-02-19,13:09:44,TURKEY,-3.7,-11.4,989.9,995.7,6.7,27.0,0.00,0.0,100000,89.4,74
478240,2021-02-19,13:09:44,JAPAN,-0.3,-9.7,1004.2,1024.0,12.2,1.0,0.04,0.0,110000,52.7,317
350670,2021-02-19,13:09:44,KAZAKHSTAN,-7.3,-9.8,1038.4,1034.2,15.9,16.1,0.00,3.0,101000,95.0,11
170671,2021-02-19,13:09:44,TURKEY,-5.5,-8.8,1016.7,1023.7,12.8,1.7,0.00,0.0,100000,0.9,234
477150,2021-02-19,13:09:44,JAPAN,-0.7,-6.7,1001.8,1002.0,8.5,4.8,0.14,0.3,111000,50.2,200
584370,2021-02-19,13:09:44,CHINA,-3.0,-10.2,835.7,833.5,16.1,33.1,0.14,0.0,110000,76.7,48
171270,2021-02-19,13:09:44,TURKEY,-0.2,-3.9,1028.7,1018.8,22.9,11.4,0.05,0.0,110000,53.0,123
547140,2021-02-19,13:09:44,CHINA,-1.8,-10.0,1026.3,1026.2,17.9,14.0,0.08,0.0,110000,51.5,336
471540,2021-02-19,13:09:44,KOREASOUTH,-0.4,-11.0,1010.8,1016.2,10.5,16.3,0.00,0.0,100000,69.0,187
471060,2021-02-19,13:09:44,KOREASOUTH,-1.5,-9.3,1016.0,1022.1,13.2,17.3,0.12,0.2,111000,52.6,267
383530,2021-02-19,13:09:44,KYRGYZSTAN,-0.7,-3.5,1000.1,1028.3,7.7,9.9,0.03,0.4,111000,55.6,165
383531,2021-02-19,13:09:44,KYRGYZSTAN,-0.1,-0.2,990.8,984.2,2.1,13.3,0.00,0.0,100000,63.3,4
548260,2021-02-19,13:09:44,CHINA,-3.0,-13.0,870.9,873.1,25.0,24.4,0.03,0.0,110000,66.9,329
470030,2021-02-19,13:09:44,KOREANORTH,-6.0,-14.3,1015.9,1019.4,20.1,9.2,0.01,0.0,110000,51.4,73
471240,2021-02-19,13:09:44,KOREASOUTH,-2.8,-9.4,989.6,1081.8,15.5,4.2,0.00,0.0,100000,52.8,119
376820,2021-02-19,13:09:44,ARMENIA,-3.7,-5.0,803.5,793.5,0.6,9.6,0.00,0.0,100000,17.5,274
474130,2021-02-19,13:09:44,JAPAN,-7.0,-9.9,1011.5,1017.3,18.9,5.4,0.00,0.0,100000,49.4,135
474170,2021-02-19,13:09:44,JAPAN,-14.2,-18.0,1009.5,1016.4,6.7,8.4,0.05,0.0,110000,72.6,188
352170,2021-02-19,13:09:44,KAZAKHSTAN,-3.2,-6.8,,1022.0,16.9,21.8,0.01,4.8,111000,88.7,348
507560,2021-02-19,13:09:44,CHINA,-7.7,-11.3,1009.2,1022.7,16.5,9.7,0.01,0.0,110000,50.8,6
539150,2021-02-19,13:09:44,CHINA,-2.4,-12.2,907.3,1029.6,23.8,11.7,0.02,0.0,110000,52.4,99
540270,2021-02-19,13:09:44,CHINA,-5.5,-18.3,1001.0,1024.1,26.4,10.7,0.01,0.0,110000,67.4,125
477590,2021-02-19,13:09:44,JAPAN,-0.4,-6.4,1011.0,1017.9,8.6,15.7,0.29,0.0,110000,50.2,235
475800,2021-02-19,13:09:44,JAPAN,-3.4,-7.7,999.9,1002.0,20.9,14.4,0.00,1.9,101000,50.9,91
535930,2021-02-19,13:09:44,CHINA,-8.0,-20.8,980.3,1027.5,26.9,9.7,0.02,0.0,110000,60.9,279
471650,2021-02-19,13:09:44,KOREASOUTH,-0.2,-6.1,1025.0,1024.4,18.4,11.1,0.09,0.0,110000,50.8,322
547530,2021-02-19,13:09:44,CHINA,-2.0,-10.1,1025.1,1026.5,15.9,12.7,0.07,0.0,110000,84.5,332
561460,2021-02-19,13:09:44,CHINA,-0.9,-15.2,680.4,678.4,28.5,6.9,0.01,0.0,110000,89.8,274
367440,2021-02-19,13:09:44,KAZAKHSTAN,-4.6,-8.3,1040.0,1032.8,44.9,12.4,0.00,0.9,101000,52.0,216
529830,2021-02-19,13:09:44,CHINA,-6.1,-13.5,817.3,838.4,12.3,7.5,0.00,0.0,100000,36.7,4
171550,2021-02-19,13:09:44,TURKEY,-0.8,-7.1,899.1,1012.2,14.0,1.8,0.00,0.0,100000,76.4,183
585060,2021-02-19,13:09:44,CHINA,-0.2,-4.9,979.2,1026.7,15.4,13.3,0.16,0.0,110000,50.6,295
478090,2021-02-19,13:09:44,JAPAN,-0.3,-5.5,1019.0,1023.9,24.0,2.3,0.02,0.0,110000,50.9,117
171290,2021-02-19,13:09:44,TURKEY,-0.9,-5.4,968.4,1019.7,6.8,5.2,0.04,0.0,110000,51.8,176
471210,2021-02-19,13:09:44,KOREASOUTH,-3.2,-12.4,994.2,1024.2,12.8,2.5,0.06,0.0,110000,60.6,116
471200,2021-02-19,13:09:44,KOREASOUTH,-2.3,-6.6,1007.7,1010.2,8.6,8.0,0.00,0.1,101000,51.6,288
471260,2021-02-19,13:09:44,KOREASOUTH,-0.2,-7.9,999.1,957.8,8.3,14.6,0.00,0.0,100000,12.9,317
298070,2021-02-19,13:09:44,KAZAKHSTAN,-11.3,-14.2,1027.7,1027.5,1.4,5.5,0.02,4.3,111000,51.9,278
508880,2021-02-19,13:09:44,CHINA,-6.2,-13.9,1014.3,1020.8,24.8,11.5,0.02,0.0,110000,60.2,167
355420,2021-02-19,13:09:44,KAZAKHSTAN,-2.5,-10.4,1016.3,1029.0,8.3,17.5,0.03,0.9,111000,88.9,150
476170,2021-02-19,13:09:44,JAPAN,-5.9,-11.3,953.5,1023.9,20.2,9.2,0.00,0.0,100000,17.9,191
470410,2021-02-19,13:09:44,KOREANORTH,-3.2,-9.8,1009.5,1020.6,16.0,11.7,0.02,0.0,110000,52.6,224
541150,2021-02-19,13:09:44,CHINA,-6.8,-18.5,976.0,1026.3,21.1,22.9,0.01,0.0,110000,80.6,240
471190,2021-02-19,13:09:44,KOREASOUTH,-2.0,-8.8,1024.5,1023.6,18.6,3.4,0.03,0.0,110000,80.7,308
471180,2021-02-19,13:09:44,KOREASOUTH,-3.4,-9.4,1013.6,1018.7,7.2,2.4,0.00,0.0,100000,58.6,84
544830,2021-02-19,13:09:44,CHINA,-10.2,-15.6,1024.5,1024.0,12.3,13.3,0.01,0.0,110000,52.6,99
528180,2021-02-19,13:09:44,CHINA,-3.7,-21.0,753.8,753.3,27.8,11.6,0.00,0.0,100000,69.3,8
537380,2021-02-19,13:09:44,CHINA,-4.2,-15.2,872.0,1025.0,23.7,4.9,0.00,0.0,100000,95.7,117
354160,2021-02-19,13:09:44,KAZAKHSTAN,-3.5,-6.1,1026.7,1028.9,6.4,14.6,0.05,7.8,111000,91.3,76
535020,2021-02-19,13:09:44,CHINA,-4.6,-17.6,977.5,1029.5,21.0,11.5,0.00,0.0,100000,5.8,238
470610,2021-02-19,13:09:44,KOREANORTH,-1.1,-8.3,1016.5,1020.3,27.2,10.7,0.15,0.8,111000,69.6,9
470650,2021-02-19,13:09:44,KOREANORTH,-3.6,-9.6,1018.4,1024.4,13.8,7.4,0.01,0.0,110000,81.7,170
504340,2021-02-19,13:09:44,CHINA,-21.3,-26.7,961.4,1027.2,20.9,12.1,0.02,0.0,110000,53.2,135
350530,2021-02-19,13:09:44,KAZAKHSTAN,-4.7,-9.5,1028.3,1035.3,14.9,19.7,0.08,1.1,111000,63.6,156
509530,2021-02-19,13:09:44,CHINA,-7.8,-12.3,1015.6,1022.6,12.6,15.2,0.02,0.0,110000,88.8,327
530830,2021-02-19,13:09:44,CHINA,-5.8,-12.1,962.6,1030.0,39.7,8.8,0.02,0.0,110000,52.3,82
561250,2021-02-19,13:09:44,CHINA,-1.4,-19.9,648.6,651.7,19.8,24.1,0.00,0.0,100000,51.3,74
471270,2021-02-19,13:09:44,KOREASOUTH,-1.4,-6.2,1008.4,1015.3,8.7,10.5,0.01,0.2,111000,52.5,85
172410,2021-02-19,13:09:44,TURKEY,-3.1,-8.2,989.6,1045.3,11.8,11.0,0.00,0.0,100000,92.6,321
543370,2021-02-19,13:09:44,CHINA,-5.0,-17.2,1022.8,1025.1,13.9,16.1,0.01,0.0,110000,64.6,230
364390,2021-02-19,13:09:44,KAZAKHSTAN,-7.2,-14.7,995.3,1001.3,34.8,28.8,0.01,0.7,111000,68.4,227
528560,2021-02-19,13:09:44,CHINA,-2.6,-17.4,768.1,767.8,22.0,6.2,0.03,0.0,110000,56.2,257
474330,2021-02-19,13:09:44,JAPAN,-4.6,-17.6,990.2,1014.5,29.7,14.1,0.00,0.0,100000,57.4,199
477090,2021-02-19,13:09:44,JAPAN,-0.8,-8.4,1002.2,1005.0,8.4,8.2,0.00,0.0,100000,9.1,16
442410,2021-02-19,13:09:44,MONGOLIA,-12.4,-16.3,1025.8,1033.1,47.0,8.3,0.00,2.1,101000,50.2,159
377090,2021-02-19,13:09:44,ARMENIA,-2.3,-5.9,982.4,985.0,20.7,16.6,0.02,9.2,111000,51.5,85
514635,2021-02-19,13:09:44,CHINA,-6.2,-9.1,992.5,996.2,7.3,6.3,0.00,0.0,100000,11.8,259
512320,2021-02-19,13:09:44,CHINA,-5.3,-9.0,1027.4,1031.4,7.4,23.1,0.03,0.0,110000,51.6,156
442590,2021-02-19,13:09:44,MONGOLIA,-7.3,-11.9,953.7,1027.0,11.6,17.7,0.00,1.6,101000,79.8,270
527650,2021-02-19,13:09:44,CHINA,-9.4,-21.7,714.4,714.3,22.2,1.3,0.01,0.0,110000,51.5,235
288790,2021-02-19,13:09:44,KAZAKHSTAN,-4.9,-8.8,1032.3,1032.0,7.0,24.7,0.01,0.5,111000,51.5,95
288770,2021-02-19,13:09:44,KAZAKHSTAN,-6.7,-12.1,1016.9,1019.4,19.1,14.1,0.02,5.4,111000,93.5,82
476400,2021-02-19,13:09:44,JAPAN,-8.1,-12.2,915.8,906.1,49.9,0.2,0.00,0.0,100000,32.3,167
353020,2021-02-19,13:09:44,KAZAKHSTAN,-3.5,-9.3,1058.1,1032.7,14.4,21.8,0.00,0.0,100000,41.2,161
522670,2021-02-19,13:09:44,CHINA,-4.9,-21.4,932.6,1029.7,28.5,10.1,0.00,0.0,100000,45.7,29
561520,2021-02-19,13:09:44,CHINA,-3.8,-11.8,662.7,666.5,28.6,13.6,0.02,0.0,110000,50.9,328
530680,2021-02-19,13:09:44,CHINA,-4.4,-14.0,932.7,1029.0,29.5,13.0,0.01,0.0,110000,51.1,88
289780,2021-02-19,13:09:44,KAZAKHSTAN,-8.7,-11.3,969.2,1020.4,10.9,4.5,0.00,0.0,100000,66.3,247
471400,2021-02-19,13:09:44,KOREASOUTH,-0.7,-6.0,1016.7,1024.0,21.1,29.7,0.03,0.0,110000,50.5,172
471410,2021-02-19,13:09:44,KOREASOUTH,-0.7,-4.9,1012.7,1015.4,9.5,20.5,0.07,0.1,111000,95.5,274
471420,2021-02-19,13:09:44,KOREASOUTH,-0.5,-10.6,1013.4,1012.9,12.1,11.4,0.00,0.0,100000,53.8,201
471460,2021-02-19,13:09:44,KOREASOUTH,-0.1,-6.3,1018.8,1023.6,12.7,7.4,0.05,0.0,110000,50.8,280
442870,2021-02-19,13:09:44,MONGOLIA,-8.7,-13.5,809.5,1028.0,52.9,11.0,0.00,1.6,101000,76.2,96
507740,2021-02-19,13:09:44,CHINA,-12.4,-17.3,1013.4,1022.0,4.1,4.6,0.01,0.0,110000,50.0,313
476720,2021-02-19,13:09:44,JAPAN,-0.9,-6.7,1019.7,1020.7,24.7,15.3,0.00,0.0,100000,57.9,216
352290,2021-02-19,13:09:44,KAZAKHSTAN,-5.1,-8.3,1017.1,1026.4,4.8,10.6,0.28,4.0,111000,51.3,231
536140,2021-02-19,13:09:44,CHINA,-3.3,-13.3,926.9,1028.0,15.9,9.1,0.00,0.0,100000,2.3,121
563850,2021-02-19,13:09:44,CHINA,-5.4,-7.4,747.1,745.5,7.2,1.2,0.06,0.0,110000,50.3,61
505570,2021-02-19,13:09:44,CHINA,-15.8,-20.6,1003.4,1022.7,11.1,12.8,0.01,0.0,110000,57.5,318
548360,2021-02-19,13:09:44,CHINA,-2.0,-12.2,1032.8,1027.3,14.1,13.5,0.03,0.0,110000,53.7,170
523230,2021-02-19,13:09:44,CHINA,-6.2,-17.7,818.8,817.1,35.5,21.4,0.01,0.0,110000,50.8,266
443410,2021-02-19,13:09:44,MONGOLIA,-6.1,-13.9,855.9,1021.3,44.5,8.9,0.00,0.5,101000,52.6,306
470750,2021-02-19,13:09:44,KOREANORTH,-2.2,-6.6,1027.6,1023.2,35.1,11.3,0.07,0.1,111000,51.9,110
366220,2021-02-19,13:09:44,KAZAKHSTAN,-11.9,-16.3,1041.4,1036.3,27.0,24.4,0.00,3.0,101000,67.1,316
526610,2021-02-19,13:09:44,CHINA,-5.7,-22.6,928.1,946.2,70.2,12.0,0.00,0.0,100000,24.6,142
544230,2021-02-19,13:09:44,CHINA,-5.3,-17.3,975.7,1023.8,18.7,9.5,0.00,0.0,100000,38.3,273
542370,2021-02-19,13:09:44,CHINA,-7.4,-23.7,1037.8,1032.1,15.9,18.1,0.00,0.0,100000,90.9,27
470550,2021-02-19,13:09:44,KOREANORTH,-1.2,-9.1,1024.8,1022.5,11.9,5.6,0.12,0.3,111000,89.1,254
545390,2021-02-19,13:09:44,CHINA,-3.0,-12.3,1021.5,1026.5,22.8,9.5,0.02,0.0,110000,81.0,292
475870,2021-02-19,13:09:44,JAPAN,-0.6,-5.2,1014.1,1017.1,15.1,18.5,0.21,3.7,111000,84.5,182
475850,2021-02-19,13:09:44,JAPAN,-3.5,-10.3,1010.4,1014.1,21.5,8.2,0.13,2.9,111000,64.2,202
586530,2021-02-19,13:09:44,CHINA,-1.3,-3.2,914.5,1023.8,2.0,22.0,0.25,0.0,110000,51.0,123
474230,2021-02-19,13:09:44,JAPAN,-4.3,-9.4,1010.1,1015.4,7.7,25.1,0.09,0.0,110000,51.2,272
474120,2021-02-19,13:09:44,JAPAN,-7.1,-11.8,1014.3,1012.4,11.1,12.2,0.14,14.8,111000,57.6,175
354590,2021-02-19,13:09:44,KAZAKHSTAN,-3.9,-9.0,1024.6,1030.4,48.7,14.6,0.00,0.0,100000,25.7,287
561820,2021-02-19,13:09:44,CHINA,-2.1,-11.2,778.6,818.4,33.8,13.5,0.07,0.0,110000,68.3,179
529570,2021-02-19,13:09:44,CHINA,-3.9,-17.8,723.6,717.9,24.4,15.8,0.03,0.0,110000,90.1,61
475970,2021-02-19,13:09:44,JAPAN,-1.8,-9.1,974.3,1018.1,20.5,16.2,0.07,0.0,110000,96.9,135
583140,2021-02-19,13:09:44,CHINA,-0.2,-4.2,1016.6,1026.7,10.4,8.2,0.13,0.0,110000,51.0,197
475150,2021-02-19,13:09:44,JAPAN,-3.5,-7.8,999.4,1000.6,19.4,13.2,0.00,0.0,100000,44.3,301
509830,2021-02-19,13:09:44,CHINA,-8.7,-13.3,1016.7,1021.0,17.2,2.2,0.02,0.0,110000,99.0,278
471310,2021-02-19,13:09:44,KOREASOUTH,-2.0,-9.1,1020.5,1024.0,21.9,15.0,0.04,0.0,110000,52.2,253
546020,2021-02-19,13:09:44,CHINA,-1.6,-11.8,1021.7,1025.6,9.2,5.2,0.02,0.0,110000,96.1,345
474200,2021-02-19,13:09:44,JAPAN,-8.5,-12.1,1014.0,1015.7,16.1,13.0,0.02,3.6,111000,65.1,256
351910,2021-02-19,13:09:44,KAZAKHSTAN,-5.2,-14.3,1034.2,1040.6,46.3,5.0,0.00,0.0,100000,15.3,248
470390,2021-02-19,13:09:44,KOREANORTH,-3.7,-9.4,1042.4,1024.8,12.5,0.9,0.00,0.0,100000,52.7,73
357960,2021-02-19,13:09:44,KAZAKHSTAN,-8.5,-11.7,1019.4,1033.2,42.3,27.9,0.01,1.4,111000,53.3,314
171890,2021-02-19,13:09:44,TURKEY,-6.4,-9.0,905.3,919.9,11.2,6.5,0.02,8.2,111000,54.5,157
477670,2021-02-19,13:09:44,JAPAN,-0.6,-6.2,1018.6,1017.7,16.7,7.7,0.14,0.0,110000,61.5,150
356330,2021-02-19,13:09:44,KAZAKHSTAN,-1.5,-6.2,1027.6,1021.5,24.3,24.7,0.00,3.3,101000,63.9,241
548230,2021-02-19,13:09:44,CHINA,-0.5,-12.2,1022.3,1026.3,10.3,11.7,0.02,0.0,110000,51.6,350
171240,2021-02-19,13:09:44,TURKEY,-1.6,-5.2,968.5,1018.8,13.4,8.9,0.08,1.2,111000,72.4,353
400830,2021-02-19,13:09:44,SYRIA,-1.2,-9.1,994.4,1023.2,19.9,22.6,0.00,0.0,100000,50.8,313
443040,2021-02-19,13:09:44,MONGOLIA,-12.1,-14.9,1022.4,1032.2,46.3,7.2,0.00,1.1,101000,76.3,298
512430,2021-02-19,13:09:44,CHINA,-6.1,,1008.0,1034.0,14.3,2.6,0.00,0.0,100000,70.5,355
477690,2021-02-19,13:09:44,JAPAN,-0.7,-8.8,1019.9,1025.3,0.2,19.6,0.00,0.0,100000,39.2,263
171880,2021-02-19,13:09:44,TURKEY,-0.1,-4.3,937.6,1016.4,22.2,2.8,0.17,0.3,111000,54.4,188
171990,2021-02-19,13:09:44,TURKEY,-3.9,-8.8,912.1,1031.0,18.6,10.3,0.60,3.3,111000,68.6,180
545110,2021-02-19,13:09:44,CHINA,-0.9,-15.2,1021.1,1025.5,18.3,7.3,0.03,0.0,110000,74.6,329
354970,2021-02-19,13:09:44,KAZAKHSTAN,-6.4,-13.4,988.9,1033.9,29.3,13.7,0.00,4.9,101000,50.7,33
521120,2021-02-19,13:09:44,CHINA,-1.0,-16.3,1022.9,1026.0,28.0,21.0,0.00,0.0,100000,13.6,173
543110,2021-02-19,13:09:44,CHINA,-4.5,-15.9,975.6,1027.8,24.0,8.1,0.02,0.0,110000,67.1,228
343980,2021-02-19,13:09:44,KAZAKHSTAN,-2.1,-5.0,1013.2,1013.6,20.1,21.2,0.00,7.9,101000,58.9,213
549450,2021-02-19,13:09:44,CHINA,-0.6,-8.1,1019.2,1026.8,21.2,5.6,0.03,0.0,110000,51.4,118
526810,2021-02-19,13:09:44,CHINA,-4.4,-16.7,896.9,1030.3,28.5,9.7,0.00,0.0,100000,92.1,310
380620,2021-02-19,13:09:44,KAZAKHSTAN,-1.8,-7.2,1022.1,1025.7,20.6,3.7,0.01,0.3,111000,90.1,138
533360,2021-02-19,13:09:44,CHINA,-6.0,-17.3,909.2,1029.9,27.2,7.1,0.01,0.0,110000,54.1,175
514630,2021-02-19,13:09:44,CHINA,-6.5,-10.5,947.9,1033.3,14.0,6.6,0.05,0.0,110000,73.9,279
360030,2021-02-19,13:09:44,KAZAKHSTAN,-10.0,-12.9,1021.0,1030.3,28.5,18.4,0.11,4.8,111000,75.3,179
538980,2021-02-19,13:09:44,CHINA,-1.1,-9.8,1023.8,1026.8,16.0,8.7,0.02,0.0,110000,52.1,94
540960,2021-02-19,13:09:44,CHINA,-7.8,-14.9,1023.3,1021.7,15.6,18.2,0.02,0.0,110000,51.7,167
561060,2021-02-19,13:09:44,CHINA,-2.4,-14.3,619.0,617.0,29.1,12.8,0.02,0.0,110000,55.3,350
470500,2021-02-19,13:09:44,KOREANORTH,-5.3,-9.4,1020.2,1023.8,18.8,5.2,0.08,0.0,110000,51.2,120
570140,2021-02-19,13:09:44,CHINA,-2.0,-8.9,1003.1,1032.9,20.2,2.8,0.00,0.0,100000,0.9,111
443540,2021-02-19,13:09:44,MONGOLIA,-6.4,-14.6,1043.9,1029.4,55.7,23.3,0.00,0.0,100000,48.7,336
581500,2021-02-19,13:09:44,CHINA,-0.7,-5.4,1022.2,1026.7,14.0,9.5,0.03,0.0,110000,54.3,31
171950,2021-02-19,13:09:44,TURKEY,-1.5,-4.6,957.2,972.9,9.2,1.7,0.07,1.8,111000,72.4,
546620,2021-02-19,13:09:44,CHINA,-2.6,-10.9,1020.7,1025.3,3.7,12.0,0.05,0.0,110000,70.8,91
359970,2021-02-19,13:09:44,KAZAKHSTAN,-6.4,-10.3,1044.6,1032.9,31.2,5.4,0.05,0.9,111000,53.6,172
443050,2021-02-19,13:09:44,MONGOLIA,-13.0,-15.9,950.6,1027.2,47.1,10.2,0.01,2.2,111000,50.6,330
536730,2021-02-19,13:09:44,CHINA,-1.7,-13.7,975.3,1028.1,17.8,3.1,0.02,0.0,110000,50.2,66
552990,2021-02-19,13:09:44,CHINA,-5.2,-17.5,1003.4,996.8,21.2,19.7,0.01,0.0,110000,68.6,177
471610,2021-02-19,13:09:44,KOREASOUTH,-1.2,-8.5,1001.0,1001.5,5.8,11.6,0.05,0.0,110000,93.4,340
570670,2021-02-19,13:09:44,CHINA,-1.3,-7.5,991.6,1028.9,20.5,4.2,0.02,0.0,110000,52.0,131
170900,2021-02-19,13:09:44,TURKEY,-1.6,-4.5,914.2,932.7,19.0,1.7,0.27,,111000,65.7,148
542590,2021-02-19,13:09:44,CHINA,-7.4,-15.1,1028.8,1024.9,19.3,4.1,0.02,0.0,110000,86.5,70
471000,2021-02-19,13:09:44,KOREASOUTH,-4.1,-10.9,922.2,1022.6,19.2,16.8,0.09,10.6,111000,52.0,227
470980,2021-02-19,13:09:44,KOREASOUTH,-2.8,-10.6,1011.3,1025.2,9.4,4.9,0.01,0.0,110000,72.1,139
360010,2021-02-19,13:09:44,KAZAKHSTAN,-11.8,-15.6,1024.1,1023.8,4.5,37.3,0.02,2.8,111000,55.6,234
287850,2021-02-19,13:09:44,KAZAKHSTAN,-4.6,-7.1,1049.9,1018.4,9.9,2.9,0.00,11.6,101000,52.5,105
442840,2021-02-19,13:09:44,MONGOLIA,-10.9,-14.3,783.3,1036.4,56.4,4.4,0.00,2.8,101000,61.0,123
357000,2021-02-19,13:09:44,KAZAKHSTAN,-1.1,-4.1,1025.9,1022.2,19.7,29.8,0.04,1.8,111000,54.8,6
287660,2021-02-19,13:09:44,KAZAKHSTAN,-5.3,-9.5,1011.7,1027.6,6.8,14.5,0.01,3.5,111000,55.1,315
443730,2021-02-19,13:09:44,MONGOLIA,-5.1,-17.6,853.5,1024.6,46.7,10.9,0.00,0.3,101000,72.5,83
443740,2021-02-19,13:09:44,MONGOLIA,-5.3,-14.8,824.5,1024.1,52.0,23.6,0.00,1.1,101000,51.7,115
476200,2021-02-19,13:09:44,JAPAN,-3.7,-8.4,927.5,1018.3,28.7,13.4,0.14,0.0,110000,52.6,95
472185,2021-02-19,13:09:44,JAPAN,-6.8,-12.8,986.0,967.6,10.9,13.5,0.00,0.0,100000,24.5,44
533520,2021-02-19,13:09:44,CHINA,-9.9,-19.4,960.5,1032.0,26.7,8.1,0.01,0.0,110000,51.2,328
527130,2021-02-19,13:09:44,CHINA,-5.1,-21.1,699.2,699.3,27.8,14.0,0.02,0.0,110000,63.8,61
470990,2021-02-19,13:09:44,KOREASOUTH,-2.7,-9.8,1020.7,1024.6,9.9,2.5,0.00,0.0,100000,85.9,332
471030,2021-02-19,13:09:44,KOREASOUTH,-0.7,-5.1,1016.2,1024.6,13.7,22.1,0.00,0.0,100000,73.5,90
471025,2021-02-19,13:09:44,KOREASOUTH,-0.1,-6.9,1011.2,1015.3,1.6,7.6,0.00,0.0,100000,62.7,219
501360,2021-02-19,13:09:44,CHINA,-22.6,-30.9,968.5,1026.9,17.3,3.9,0.00,0.0,100000,56.4,80
524360,2021-02-19,13:09:44,CHINA,-2.8,-17.1,863.2,1028.5,27.1,30.8,0.01,0.0,110000,51.5,317
470050,2021-02-19,13:09:44,KOREANORTH,-5.4,-8.1,900.8,898.4,13.7,9.1,0.05,6.0,111000,88.1,265
580400,2021-02-19,13:09:44,CHINA,-0.9,-7.1,1029.0,1025.7,15.9,15.6,0.02,0.0,110000,76.6,163
560210,2021-02-19,13:09:44,CHINA,-7.1,-18.9,616.6,614.0,29.5,4.1,0.01,0.0,110000,51.6,149
540940,2021-02-19,13:09:44,CHINA,-5.0,-12.1,1010.6,1022.2,12.2,9.6,0.02,0.0,110000,88.4,329
524950,2021-02-19,13:09:44,CHINA,-4.6,-18.3,903.2,1029.6,31.6,12.5,0.00,0.0,100000,16.2,150
475200,2021-02-19,13:09:44,JAPAN,-2.0,-5.5,1005.5,1018.4,14.3,11.9,0.16,0.0,110000,69.2,191
353860,2021-02-19,13:09:44,KAZAKHSTAN,-8.2,-11.0,986.7,984.1,18.1,13.9,0.00,0.0,100000,47.8,221
476380,2021-02-19,13:09:44,JAPAN,-0.8,-9.8,994.3,1016.1,16.0,1.9,0.13,0.6,111000,51.3,17
443520,2021-02-19,13:09:44,MONGOLIA,-8.1,-16.2,1071.5,1030.2,53.0,20.1,0.00,0.0,100000,53.2,310
509780,2021-02-19,13:09:44,CHINA,-6.6,-14.2,1006.1,1021.2,25.1,6.9,0.02,0.0,110000,52.2,10
584450,2021-02-19,13:09:44,CHINA,-2.0,-7.4,875.2,950.4,18.1,31.9,0.18,0.0,110000,50.8,57
474340,2021-02-19,13:09:44,JAPAN,-10.3,-14.6,1004.6,1011.7,10.8,11.9,0.00,1.4,101000,91.6,42
474350,2021-02-19,13:09:44,JAPAN,-4.9,-12.2,1012.5,1006.4,34.0,8.0,0.03,0.0,110000,68.4,313
545870,2021-02-19,13:09:44,CHINA,-2.3,-9.6,1025.9,1025.4,25.1,40.9,0.00,0.0,100000,4.1,179
477470,2021-02-19,13:09:44,JAPAN,-0.9,-4.7,1024.3,1024.0,10.8,4.6,0.00,0.0,100000,82.9,318
582030,2021-02-19,13:09:44,CHINA,-0.1,-5.7,1022.6,1025.7,19.2,16.0,0.03,0.0,110000,50.6,45
368215,2021-02-19,13:09:44,KAZAKHSTAN,-7.8,-11.3,1010.1,1021.3,5.3,15.2,0.00,0.0,100000,26.7,76
442190,2021-02-19,13:09:44,MONGOLIA,-6.2,-17.5,848.3,1027.8,20.1,11.3,0.00,0.0,100000,10.0,283
471380,2021-02-19,13:09:44,KOREASOUTH,-0.2,-9.4,1026.3,1022.3,16.2,11.0,0.12,0.0,110000,59.2,240
470460,2021-02-19,13:09:44,KOREANORTH,-1.4,-6.3,1018.8,1018.9,23.6,11.7,0.01,0.3,111000,53.9,236
347980,2021-02-19,13:09:44,KAZAKHSTAN,-2.0,-5.6,1021.0,1019.7,17.6,19.5,0.00,0.7,101000,50.1,268
509490,2021-02-19,13:09:44,CHINA,-8.2,-15.2,1018.4,1022.6,7.2,17.5,0.02,0.0,110000,82.0,250
359250,2021-02-19,13:09:44,KAZAKHSTAN,-1.4,-7.1,1014.4,1028.7,27.6,3.2,0.69,0.0,110000,50.3,335
470080,2021-02-19,13:09:44,KOREANORTH,-4.1,-12.5,1014.3,1020.6,13.9,13.3,0.00,0.0,100000,97.2,305
442370,2021-02-19,13:09:44,MONGOLIA,-7.0,-12.1,845.0,1024.0,50.7,13.9,0.00,0.2,101000,77.8,
470200,2021-02-19,13:09:44,KOREANORTH,-6.9,-11.2,1015.1,1029.1,0.0,1.2,0.00,0.0,100000,57.1,236
171900,2021-02-19,13:09:44,TURKEY,-1.1,-4.3,947.6,973.3,16.3,9.2,0.13,1.7,111000,63.2,93
531920,2021-02-19,13:09:44,CHINA,-5.3,-11.4,918.2,1031.9,30.8,22.9,0.01,0.0,110000,51.2,186
362080,2021-02-19,13:09:44,KAZAKHSTAN,-13.0,-17.8,1011.5,1032.1,26.6,3.1,0.00,0.0,100000,53.5,258
346910,2021-02-19,13:09:44,KAZAKHSTAN,-1.6,-4.8,1021.4,1022.7,16.1,20.3,0.02,2.2,111000,50.2,120
367780,2021-02-19,13:09:44,KAZAKHSTAN,-4.5,-10.2,1046.7,1031.8,26.6,6.4,0.00,0.0,100000,91.1,86
172400,2021-02-19,13:09:44,TURKEY,-0.9,-5.0,952.0,1016.0,28.6,6.6,0.09,0.5,111000,56.2,58
532310,2021-02-19,13:09:44,CHINA,-3.8,-16.0,850.9,857.9,29.0,17.7,0.00,0.0,100000,46.6,0
358840,2021-02-19,13:09:44,KAZAKHSTAN,-9.7,-12.8,982.0,994.9,19.3,6.9,0.00,11.0,101000,58.8,53
471290,2021-02-19,13:09:44,KOREASOUTH,-2.2,-7.9,1020.1,1023.9,23.4,7.4,0.05,0.0,110000,51.4,158
471170,2021-02-19,13:09:44,KOREASOUTH,-1.0,-5.9,1002.0,982.9,8.8,2.8,0.07,0.0,110000,96.2,105
475420,2021-02-19,13:09:44,JAPAN,-3.3,-7.3,1003.1,1000.7,8.5,20.6,0.00,0.0,100000,90.5,97
288670,2021-02-19,13:09:44,KAZAKHSTAN,-6.4,-8.7,1001.2,1030.8,21.3,12.9,0.00,23.0,101000,52.3,112
543080,2021-02-19,13:09:44,CHINA,-7.0,-20.4,1020.3,1027.7,30.3,10.4,0.03,0.0,110000,58.4,63
561670,2021-02-19,13:09:44,CHINA,-0.3,-11.6,705.2,714.0,38.3,6.7,0.00,0.0,100000,54.8,177
286790,2021-02-19,13:09:44,KAZAKHSTAN,-8.8,-11.1,1019.0,1029.6,13.4,18.0,0.01,4.7,111000,75.3,118
541610,2021-02-19,13:09:44,CHINA,-4.0,-12.1,1012.4,1023.3,13.0,13.2,0.03,0.0,110000,52.1,199
541611,2021-02-19,13:09:44,CHINA,-4.9,-11.6,1019.5,1041.3,10.9,1.1,0.00,0.0,100000,96.9,192
541570,2021-02-19,13:09:44,CHINA,-8.0,-16.3,1025.5,1023.1,12.7,6.3,0.03,0.0,110000,63.9,279
536460,2021-02-19,13:09:44,CHINA,-6.4,-16.7,926.5,1028.0,8.4,7.4,0.01,0.0,110000,51.6,260
538630,2021-02-19,13:09:44,CHINA,-1.7,-11.8,1016.9,1026.9,8.0,13.1,0.02,0.0,110000,54.6,138
538870,2021-02-19,13:09:44,CHINA,-4.3,-19.8,916.2,1026.8,32.3,4.0,0.00,0.0,100000,15.2,75
544360,2021-02-19,13:09:44,CHINA,-6.5,-18.5,1023.8,1025.4,35.0,8.8,0.01,0.0,110000,51.0,312
560180,2021-02-19,13:09:44,CHINA,-3.3,-15.6,627.1,635.5,24.5,16.5,0.01,0.0,110000,88.0,56
560340,2021-02-19,13:09:44,CHINA,-9.9,-17.5,600.9,593.5,21.1,17.4,0.05,0.0,110000,54.4,310
543770,2021-02-19,13:09:44,CHINA,-4.7,-10.4,1026.2,1025.3,11.3,5.1,0.03,0.0,110000,51.0,35
380910,2021-02-19,13:09:44,KAZAKHSTAN,-2.1,-6.8,1027.2,1030.1,43.6,10.7,0.02,1.2,111000,50.7,134
442290,2021-02-19,13:09:44,MONGOLIA,-11.2,-17.5,789.8,1015.4,47.3,9.5,0.00,0.0,100000,67.2,334
571930,2021-02-19,13:09:44,CHINA,-0.4,-8.3,1009.3,1025.2,4.6,7.1,0.01,0.0,110000,52.7,12
543860,2021-02-19,13:09:44,CHINA,-4.5,-12.0,964.5,1025.8,20.7,6.8,0.04,0.0,110000,54.3,184
363350,2021-02-19,13:09:44,KAZAKHSTAN,-6.0,-11.1,1024.2,1031.4,46.4,19.6,0.00,0.3,101000,51.7,211
543240,2021-02-19,13:09:44,CHINA,-5.1,-19.8,1023.8,1025.2,17.5,18.1,0.01,0.0,110000,50.1,354
508620,2021-02-19,13:09:44,CHINA,-5.9,-24.1,1019.9,1006.8,22.3,5.2,0.00,0.0,100000,16.6,320
368700,2021-02-19,13:09:44,KAZAKHSTAN,-0.9,-3.8,978.7,1022.9,10.2,5.2,0.05,2.2,111000,51.5,26
171500,2021-02-19,13:09:44,TURKEY,-0.6,-3.9,1021.2,1019.2,8.7,2.3,0.10,0.9,111000,57.9,293
475920,2021-02-19,13:09:44,JAPAN,-1.4,-6.8,1014.9,1017.0,21.7,16.3,0.18,2.0,111000,50.3,351
535430,2021-02-19,13:09:44,CHINA,-4.5,-17.2,880.9,1028.0,30.3,9.5,0.00,0.0,100000,69.9,4
540490,2021-02-19,13:09:44,CHINA,-5.7,-13.6,1028.7,1023.6,18.7,10.9,0.02,0.0,110000,69.7,218
380190,2021-02-19,13:09:44,KAZAKHSTAN,-9.5,-13.3,1018.8,1036.1,37.3,2.0,0.05,8.2,111000,52.2,31
544490,2021-02-19,13:09:44,CHINA,-1.4,-20.2,1019.2,1015.7,39.8,29.4,0.05,0.0,110000,52.4,109
470690,2021-02-19,13:09:44,KOREANORTH,-2.1,-7.9,1031.6,1023.8,10.0,8.6,0.22,0.0,110000,51.3,326
470700,2021-02-19,13:09:44,KOREANORTH,-1.4,-7.7,1027.1,1021.2,12.4,15.5,0.01,0.0,110000,80.6,128
353450,2021-02-19,13:09:44,KAZAKHSTAN,-3.4,-4.9,1064.9,1041.8,16.6,0.2,0.00,4.9,101000,69.6,160
475810,2021-02-19,13:09:44,JAPAN,-3.4,-8.9,1013.0,1016.2,28.8,9.1,0.02,5.9,111000,90.4,302
535290,2021-02-19,13:09:44,CHINA,-3.4,-14.9,893.0,1028.5,22.3,3.9,0.01,0.0,110000,63.5,95
475740,2021-02-19,13:09:44,JAPAN,-1.3,-8.4,1007.5,1018.2,13.7,22.0,0.03,0.0,110000,54.5,318
474050,2021-02-19,13:09:44,JAPAN,-9.7,-16.2,1009.5,1018.0,43.6,18.2,0.00,0.0,100000,85.1,27
536980,2021-02-19,13:09:44,CHINA,-0.6,-12.5,1023.9,1025.5,13.6,15.0,0.04,0.0,110000,51.1,122
289840,2021-02-19,13:09:44,KAZAKHSTAN,-2.9,-6.8,1028.9,1019.1,29.6,19.5,0.00,0.0,100000,93.8,31
407310,2021-02-19,13:09:44,IRAN,-0.3,-3.1,875.4,1024.1,2.7,6.1,0.00,0.0,100000,23.1,136
538210,2021-02-19,13:09:44,CHINA,-5.1,-19.0,929.4,1028.0,20.4,6.1,0.00,0.0,100000,37.7,283
443470,2021-02-19,13:09:44,MONGOLIA,-9.0,-27.1,861.9,1010.0,25.5,19.6,0.00,0.0,100000,91.1,323
381411,2021-02-19,13:09:44,KAZAKHSTAN,-3.3,-3.1,1012.8,991.3,1.9,29.6,0.00,0.0,100000,68.2,268
547760,2021-02-19,13:09:44,CHINA,-0.6,-6.9,1021.1,1025.6,18.5,8.6,0.04,0.0,110000,64.5,342
535640,2021-02-19,13:09:44,CHINA,-5.6,-19.8,936.7,1030.6,20.8,7.6,0.00,0.0,100000,68.1,306
476410,2021-02-19,13:09:44,JAPAN,-1.2,-8.8,989.5,1018.2,23.2,8.2,0.17,0.0,110000,54.4,250
476390,2021-02-19,13:09:44,JAPAN,-23.3,-30.1,1000.3,997.9,44.8,40.2,0.00,0.0,100000,55.1,218
511330,2021-02-19,13:09:44,CHINA,-4.7,-9.0,992.2,1033.3,25.0,9.5,0.05,0.0,,89.8,109
518860,2021-02-19,13:09:44,CHINA,-3.7,-21.0,701.4,698.4,26.8,15.4,0.00,0.0,100000,93.6,161
542360,2021-02-19,13:09:44,CHINA,-6.2,-16.1,1019.7,1024.1,13.3,24.2,0.02,0.0,110000,51.3,240
470580,2021-02-19,13:09:44,KOREANORTH,-2.7,-8.3,1015.4,1023.6,21.8,5.4,0.01,0.0,110000,52.1,5
593530,2021-02-19,13:09:44,TAIWAN,-1.0,-1.8,763.9,1023.1,14.8,5.5,0.00,0.0,100000,49.2,82
471320,2021-02-19,13:09:44,KOREASOUTH,-3.8,-14.0,996.1,983.0,9.9,5.5,0.00,0.0,100000,67.3,214
476370,2021-02-19,13:09:44,JAPAN,-2.8,-8.6,957.1,1016.1,25.3,7.9,0.21,0.0,110000,51.8,173
475750,2021-02-19,13:09:44,JAPAN,-3.1,-7.8,1021.6,1016.6,10.8,16.1,0.14,22.5,111000,85.6,140
510870,2021-02-19,13:09:44,CHINA,-4.2,-7.7,928.7,1028.7,36.3,3.2,0.07,0.0,110000,97.0,5
523780,2021-02-19,13:09:44,CHINA,-4.0,-18.7,985.8,1008.3,25.6,22.3,0.00,0.0,100000,67.4,154
506580,2021-02-19,13:09:44,CHINA,-9.1,-14.7,1025.4,1022.8,10.3,7.3,0.01,0.0,110000,56.9,179
170820,2021-02-19,13:09:44,TURKEY,-1.3,-5.5,1003.3,1013.1,8.5,14.9,0.05,0.5,111000,50.2,350
355490,2021-02-19,13:09:44,KAZAKHSTAN,-4.4,-7.2,1028.2,1033.7,18.3,17.3,0.00,2.6,101000,97.5,155
170673,2021-02-19,13:09:44,TURKEY,-0.6,-10.1,1012.8,978.2,12.6,14.4,0.00,0.0,100000,87.8,273
471430,2021-02-19,13:09:44,KOREASOUTH,-1.0,-9.6,1015.6,1023.0,24.0,18.4,0.06,0.0,110000,50.1,15
524240,2021-02-19,13:09:44,CHINA,-4.5,-15.9,898.0,1026.0,29.6,13.9,0.02,0.7,111000,52.3,260
749347,2021-02-19,13:09:44,CHINA,-1.2,-5.8,1035.1,1037.4,8.7,10.9,0.00,0.0,100000,91.4,262
749348,2021-02-19,13:09:44,CHINA,-14.7,-18.6,1033.0,1038.4,51.3,7.7,0.00,0.0,100000,60.9,57
529080,2021-02-19,13:09:44,CHINA,-7.8,-17.2,999.8,1006.2,24.5,23.8,0.01,0.0,110000,60.3,354
474790,2021-02-19,13:09:44,JAPAN,-7.9,-12.7,1001.6,997.2,7.1,13.7,0.00,0.0,100000,41.7,106
470670,2021-02-19,13:09:44,KOREANORTH,-5.1,-11.1,1050.4,1026.3,13.1,12.3,0.00,0.0,100000,14.3,246
542260,2021-02-19,13:09:44,CHINA,-5.4,-18.3,1020.3,1025.3,21.6,4.9,0.01,0.0,110000,52.2,35
470680,2021-02-19,13:09:44,KOREANORTH,-2.5,-6.5,1015.5,1024.1,12.5,13.8,0.01,0.0,110000,82.9,297
171700,2021-02-19,13:09:44,TURKEY,-1.7,-4.8,947.4,943.3,20.5,7.4,0.02,3.9,111000,82.4,220
354260,2021-02-19,13:09:44,KAZAKHSTAN,-4.3,-6.5,1004.8,1022.6,31.8,10.0,0.01,5.2,111000,50.2,119
504680,2021-02-19,13:09:44,CHINA,-14.1,-18.8,1013.4,1021.6,20.7,13.6,0.01,0.0,110000,51.1,272
474760,2021-02-19,13:09:44,JAPAN,-10.5,-13.3,999.9,1001.5,4.6,13.4,0.00,0.0,100000,77.4,30
350420,2021-02-19,13:09:44,KAZAKHSTAN,-3.3,-7.4,1027.1,1020.1,16.2,12.2,0.01,0.9,111000,83.2,168
522030,2021-02-19,13:09:44,CHINA,-0.2,-13.0,989.1,1027.5,36.1,2.2,0.00,0.0,100000,74.1,117
526330,2021-02-19,13:09:44,CHINA,-12.9,-23.3,990.8,980.9,24.6,6.1,0.01,0.0,110000,53.7,217
361520,2021-02-19,13:09:44,KAZAKHSTAN,-12.9,-17.6,1043.5,1034.5,17.4,10.5,0.01,1.4,111000,50.9,116
470520,2021-02-19,13:09:44,KOREANORTH,-4.3,-7.5,1017.5,1023.2,14.9,1.9,0.00,0.0,100000,24.2,101
356710,2021-02-19,13:09:44,KAZAKHSTAN,-4.1,-7.4,997.7,1028.6,18.0,20.9,0.00,3.2,101000,79.0,118
560330,2021-02-19,13:09:44,CHINA,-13.5,-21.0,626.2,621.8,34.7,5.3,0.03,0.0,110000,78.9,195
509630,2021-02-19,13:09:44,CHINA,-9.3,-12.8,1016.8,1022.1,12.0,5.8,0.01,0.0,110000,98.7,131
172100,2021-02-19,13:09:44,TURKEY,-0.3,-6.2,915.8,1023.1,23.9,1.9,0.00,0.0,100000,23.6,287
474210,2021-02-19,13:09:44,JAPAN,-4.2,-9.1,1015.6,1015.1,22.5,11.8,0.10,14.0,111000,50.5,292
549160,2021-02-19,13:09:44,CHINA,-0.2,-9.6,1027.4,1026.4,12.8,4.9,0.01,0.0,110000,53.7,274
442770,2021-02-19,13:09:44,MONGOLIA,-10.2,-19.0,1007.0,1026.0,36.7,23.0,2.35,0.0,110000,50.4,70
474110,2021-02-19,13:09:44,JAPAN,-6.3,-10.6,1011.5,1015.5,14.6,20.0,0.09,0.0,110000,63.6,155
474090,2021-02-19,13:09:44,JAPAN,-10.7,-13.7,1013.9,1014.9,25.7,1.3,0.05,8.6,111000,71.8,155
171200,2021-02-19,13:09:44,TURKEY,-2.0,-3.5,1025.8,1005.4,15.3,2.4,0.00,0.0,100000,64.4,87
172000,2021-02-19,13:09:44,TURKEY,-0.6,-4.8,975.2,1013.5,11.7,12.9,0.10,0.5,111000,50.1,208
477560,2021-02-19,13:09:44,JAPAN,-0.1,-5.4,1002.9,1019.1,16.9,7.8,0.22,0.0,110000,85.8,155
523130,2021-02-19,13:09:44,CHINA,-2.9,-12.8,921.5,897.5,61.7,2.5,0.00,0.0,100000,74.6,88
471010,2021-02-19,13:09:44,KOREASOUTH,-2.2,-8.1,1019.1,1023.5,20.6,0.3,0.05,0.2,111000,77.1,86
471020,2021-02-19,13:09:44,KOREASOUTH,-0.1,-7.2,1004.7,1024.4,7.0,15.4,0.01,0.0,110000,50.8,344
442320,2021-02-19,13:09:44,MONGOLIA,-12.2,-16.1,1041.5,1049.4,38.7,6.3,0.00,0.0,100000,78.6,67
474300,2021-02-19,13:09:44,JAPAN,-5.6,-10.1,1019.4,1015.5,15.1,24.7,0.08,7.1,111000,73.9,34
474180,2021-02-19,13:09:44,JAPAN,-11.2,-14.6,1010.2,1016.0,26.0,33.2,0.07,4.6,111000,69.6,235
351880,2021-02-19,13:09:44,KAZAKHSTAN,-5.0,-8.1,1027.8,1027.7,15.4,20.9,0.19,2.2,111000,50.2,247
528420,2021-02-19,13:09:44,CHINA,-10.2,-25.0,696.5,689.9,18.8,10.0,0.01,0.0,110000,76.7,120
442820,2021-02-19,13:09:44,MONGOLIA,-12.0,-27.3,819.1,1026.1,49.9,24.8,0.00,0.0,100000,34.7,151
548430,2021-02-19,13:09:44,CHINA,-1.7,-9.9,1023.8,1026.3,21.3,17.1,0.03,0.0,110000,50.7,225
170500,2021-02-19,13:09:44,TURKEY,-0.1,-4.7,1014.1,1020.1,17.3,10.1,0.04,0.5,111000,93.6,67
172050,2021-02-19,13:09:44,TURKEY,-3.8,-5.7,829.5,845.4,4.9,8.0,0.22,3.3,111000,52.5,238
471330,2021-02-19,13:09:44,KOREASOUTH,-0.5,-6.8,1018.7,1024.0,13.6,9.2,0.04,0.0,110000,78.5,105
471340,2021-02-19,13:09:44,KOREASOUTH,-1.6,-8.9,999.4,993.4,10.8,12.0,0.04,0.0,110000,54.9,129
506030,2021-02-19,13:09:44,CHINA,-10.2,-15.6,984.7,1027.5,30.6,2.6,0.01,0.0,110000,65.3,80
471350,2021-02-19,13:09:44,KOREASOUTH,-1.9,-8.8,1005.7,1023.0,17.8,11.8,0.04,0.0,110000,60.9,238
443850,2021-02-19,13:09:44,MONGOLIA,-3.1,-14.0,893.2,1026.3,33.9,10.7,0.00,0.0,100000,76.6,246
475490,2021-02-19,13:09:44,JAPAN,-1.8,-7.4,998.3,995.9,3.5,13.6,0.00,0.0,100000,31.1,42
471140,2021-02-19,13:09:44,KOREASOUTH,-2.3,-10.5,1004.7,1023.3,14.0,0.7,0.06,0.4,111000,81.0,153
517110,2021-02-19,13:09:44,CHINA,-1.6,-10.3,800.8,795.4,25.8,3.2,0.03,0.0,110000,52.8,80
560040,2021-02-19,13:09:44,CHINA,-5.9,-18.4,998.8,1001.6,34.1,18.5,0.01,0.0,110000,55.1,200
470600,2021-02-19,13:09:44,KOREANORTH,-1.6,-6.9,1025.2,1024.2,13.0,11.3,0.01,0.0,110000,51.3,150
470350,2021-02-19,13:09:44,KOREANORTH,-4.0,-11.3,1037.2,1024.4,19.3,11.9,0.04,0.0,110000,51.2,97
542180,2021-02-19,13:09:44,CHINA,-7.9,-22.1,992.4,1025.1,25.0,8.5,0.01,0.0,110000,51.4,111
570460,2021-02-19,13:09:44,CHINA,-3.6,-11.0,817.2,825.0,23.0,25.7,0.02,0.0,110000,51.3,212
540120,2021-02-19,13:09:44,CHINA,-12.2,-18.3,937.1,1029.7,22.8,13.8,0.02,0.0,110000,50.2,168
557730,2021-02-19,13:09:44,CHINA,-1.2,-9.1,620.3,621.9,18.6,15.4,0.03,0.0,110000,60.1,353
503530,2021-02-19,13:09:44,CHINA,-8.5,-17.9,1000.0,1022.8,20.3,7.6,0.00,0.0,100000,39.9,99
528660,2021-02-19,13:09:44,CHINA,-4.3,-14.6,772.4,766.9,10.6,5.6,0.01,0.0,110000,69.7,142
443170,2021-02-19,13:09:44,MONGOLIA,-5.9,-10.1,901.0,1032.1,25.5,1.1,0.00,3.3,101000,57.2,252
528250,2021-02-19,13:09:44,CHINA,-3.0,-19.3,723.5,722.4,22.7,1.7,0.00,0.0,100000,11.7,167
537870,2021-02-19,13:09:44,CHINA,-4.8,-15.7,978.2,1027.6,21.6,11.2,0.01,0.0,110000,50.0,258
537980,2021-02-19,13:09:44,CHINA,-0.1,-9.5,1019.6,1025.8,14.2,3.8,0.01,0.0,110000,68.0,234
542730,2021-02-19,13:09:44,CHINA,-8.1,-14.8,1020.2,1024.8,10.4,1.3,0.00,0.0,100000,40.1,68
171400,2021-02-19,13:09:44,TURKEY,-4.8,-7.1,871.7,855.3,7.8,15.0,0.07,18.1,111000,51.3,230
475880,2021-02-19,13:09:44,JAPAN,-3.4,-7.2,997.1,1015.1,17.2,11.9,0.18,0.0,110000,81.9,281
478210,2021-02-19,13:09:44,JAPAN,-3.0,-7.7,891.3,897.7,18.0,7.2,0.00,0.0,100000,34.4,113
474020,2021-02-19,13:09:44,JAPAN,-10.4,-14.8,1011.4,1018.4,22.2,15.4,0.05,0.0,110000,54.9,209
474010,2021-02-19,13:09:44,JAPAN,-7.7,,1011.6,1015.7,15.3,15.0,0.08,15.3,111000,87.1,142
560290,2021-02-19,13:09:44,CHINA,-3.3,-16.4,645.5,645.4,28.5,0.1,0.04,0.0,110000,53.9,264
358490,2021-02-19,13:09:44,KAZAKHSTAN,-1.9,-6.4,1013.3,1023.4,17.2,9.9,0.01,1.2,111000,52.3,157
547250,2021-02-19,13:09:44,CHINA,-1.8,-10.5,1028.9,1025.6,2.9,,0.03,0.0,110000,52.5,17
353210,2021-02-19,13:09:44,KAZAKHSTAN,-4.7,-10.3,1054.1,1035.4,8.2,10.1,0.00,0.0,100000,88.1,37
351730,2021-02-19,13:09:44,KAZAKHSTAN,-9.5,-12.4,1027.4,1032.8,26.9,21.1,0.00,5.2,101000,50.2,46
539230,2021-02-19,13:09:44,CHINA,-1.4,-10.7,952.8,1026.6,27.1,12.9,0.02,0.0,110000,50.4,73
561730,2021-02-19,13:09:44,CHINA,-7.7,-19.0,661.0,668.8,28.3,16.1,0.00,0.0,100000,67.7,0
475830,2021-02-19,13:09:44,JAPAN,-2.3,-7.9,1009.1,1011.2,3.4,13.0,0.00,0.0,100000,10.6,132
475820,2021-02-19,13:09:44,JAPAN,-2.5,-6.9,1021.1,1017.2,13.2,23.8,0.14,4.9,111000,50.4,306
510760,2021-02-19,13:09:44,CHINA,-7.4,-11.7,962.8,1032.5,30.4,3.0,0.04,0.0,110000,56.7,116
537050,2021-02-19,13:09:44,CHINA,-2.4,-15.7,973.1,1028.4,25.0,15.0,0.01,0.0,110000,50.2,134
171295,2021-02-19,13:09:44,TURKEY,-0.9,-2.0,997.7,1008.4,10.9,7.7,0.00,0.0,100000,56.9,15
478140,2021-02-19,13:09:44,JAPAN,-0.6,-5.6,1014.5,1023.1,15.9,0.1,0.00,0.0,100000,78.7,129
355760,2021-02-19,13:09:44,KAZAKHSTAN,-7.7,-11.8,1013.6,1036.2,26.3,15.1,0.01,6.9,111000,55.8,219
476900,2021-02-19,13:09:44,JAPAN,-6.6,-11.4,867.0,861.7,25.0,16.2,0.18,0.0,110000,53.0,296
353940,2021-02-19,13:09:44,KAZAKHSTAN,-4.8,-7.9,1002.1,1031.7,24.3,12.3,0.20,3.9,111000,54.0,49
507270,2021-02-19,13:09:44,CHINA,-5.4,-11.0,914.0,1027.4,31.3,4.0,0.02,0.0,110000,58.4,156
474880,2021-02-19,13:09:44,JAPAN,-4.0,-9.0,994.9,997.9,10.9,11.2,0.00,0.0,100000,98.8,337
170880,2021-02-19,13:09:44,TURKEY,-7.0,-8.9,880.8,860.1,22.8,12.1,0.49,25.2,111000,50.2,2
542920,2021-02-19,13:09:44,CHINA,-8.5,-20.2,1005.9,1025.0,15.8,8.0,0.00,0.0,100000,54.6,231
527370,2021-02-19,13:09:44,CHINA,-1.9,-18.9,725.4,729.3,24.6,22.9,0.01,0.0,110000,76.7,337
546180,2021-02-19,13:09:44,CHINA,-0.4,-10.3,1022.8,1024.7,12.6,13.2,0.08,0.0,110000,51.6,241
474400,2021-02-19,13:09:44,JAPAN,-8.4,-12.9,1012.6,1017.0,19.3,0.6,0.10,0.0,110000,90.3,257
545270,2021-02-19,13:09:44,CHINA,-1.2,-11.1,1030.7,1025.7,17.1,1.0,0.11,0.0,110000,52.8,193
170840,2021-02-19,13:09:44,TURKEY,-1.8,-6.8,942.3,1018.5,20.6,6.2,0.10,3.5,111000,91.8,174
549290,2021-02-19,13:09:44,CHINA,-0.3,-9.7,1025.3,1024.1,22.7,2.8,0.00,0.0,100000,60.6,21
474040,2021-02-19,13:09:44,JAPAN,-6.4,-13.0,1014.2,1017.1,33.7,19.7,0.12,0.0,110000,52.0,34
525760,2021-02-19,13:09:44,CHINA,-5.9,-20.7,849.8,861.4,32.7,35.9,0.00,0.0,100000,73.2,271
571440,2021-02-19,13:09:44,CHINA,-0.3,-8.4,907.7,1021.3,6.6,18.3,0.56,0.0,110000,51.1,104
528360,2021-02-19,13:09:44,CHINA,-2.8,-18.1,687.3,685.9,28.8,6.0,0.01,0.0,110000,54.9,282
509150,2021-02-19,13:09:44,CHINA,-7.6,-13.8,945.9,1029.2,33.0,16.9,0.02,0.0,110000,52.6,274
365350,2021-02-19,13:09:44,KAZAKHSTAN,-7.2,-11.4,1073.6,1035.2,33.9,8.8,0.00,0.0,100000,90.6,292
474280,2021-02-19,13:09:44,JAPAN,-3.0,-7.8,1011.6,1013.0,15.4,7.3,0.10,0.0,110000,51.8,334
548630,2021-02-19,13:09:44,CHINA,-1.4,-9.1,1029.6,1026.6,19.5,14.5,0.05,0.0,110000,54.0,329
507450,2021-02-19,13:09:44,CHINA,-6.8,-13.2,1015.8,1022.7,15.4,4.3,0.01,0.0,110000,59.0,64
512880,2021-02-19,13:09:44,CHINA,-5.0,-14.7,835.6,836.2,35.2,11.0,0.01,0.0,110000,82.7,253
471223,2021-02-19,13:09:44,KOREASOUTH,-1.2,-2.6,1020.2,1027.9,6.9,11.3,0.00,0.0,100000,50.3,87
471220,2021-02-19,13:09:44,KOREASOUTH,-2.6,-8.5,1015.8,1015.4,17.0,7.2,0.02,0.1,111000,58.5,228
562570,2021-02-19,13:09:44,CHINA,-2.1,-15.4,684.6,683.3,43.2,2.4,0.01,0.0,110000,53.4,81
383410,2021-02-19,13:09:44,KAZAKHSTAN,-0.8,-4.5,994.7,1027.8,7.6,10.2,0.19,1.4,111000,72.3,278
537640,2021-02-19,13:09:44,CHINA,-6.3,-15.5,972.5,1028.6,19.2,2.6,0.02,0.0,110000,57.2,57
560800,2021-02-19,13:09:44,CHINA,-7.7,-15.3,734.3,733.0,28.5,10.3,0.02,0.0,110000,50.2,76
560790,2021-02-19,13:09:44,CHINA,-6.6,-15.7,665.4,663.2,35.5,3.2,0.02,0.0,110000,50.6,331
471920,2021-02-19,13:09:44,KOREASOUTH,-1.0,-8.7,1021.3,1022.4,10.1,9.9,0.10,0.0,110000,87.7,298
514950,2021-02-19,13:09:44,CHINA,-2.5,-16.1,985.4,1032.7,31.7,38.4,0.00,0.0,100000,4.0,52
357390,2021-02-19,13:09:44,KAZAKHSTAN,-1.2,-6.8,1035.9,1028.6,46.4,13.0,0.00,3.0,101000,51.4,343
534630,2021-02-19,13:09:44,CHINA,-6.5,-15.4,930.5,1029.0,13.6,11.8,0.01,0.0,110000,53.7,172
471131,2021-02-19,13:09:44,KOREASOUTH,-1.4,-5.8,991.2,997.5,7.5,6.8,0.00,0.0,100000,44.1,128
531490,2021-02-19,13:09:44,CHINA,-6.8,-18.9,905.7,1027.7,31.0,16.1,0.02,0.0,110000,52.0,17
508540,2021-02-19,13:09:44,CHINA,-6.8,-14.1,1026.3,1022.3,15.8,14.6,0.01,0.0,110000,51.9,138
364420,2021-02-19,13:09:44,KAZAKHSTAN,-11.0,-11.4,1012.5,989.6,19.7,32.2,0.02,2.2,111000,98.4,144
513340,2021-02-19,13:09:44,CHINA,-5.8,-9.5,1042.4,1032.1,25.8,1.0,0.01,0.0,110000,50.1,162
572900,2021-02-19,13:09:44,CHINA,-0.3,-7.6,1021.7,1026.2,21.2,4.1,0.02,0.0,110000,50.2,65
524180,2021-02-19,13:09:44,CHINA,-0.5,-14.3,918.1,1027.1,27.0,3.0,0.01,0.0,110000,51.8,160
543740,2021-02-19,13:09:44,CHINA,-9.7,-15.7,1007.6,1023.3,12.9,3.4,0.01,0.0,110000,51.8,56
541020,2021-02-19,13:09:44,CHINA,-12.6,-17.6,938.2,1029.7,28.0,1.6,0.01,0.0,110000,69.5,85
526740,2021-02-19,13:09:44,CHINA,-7.1,-18.7,801.1,795.7,28.6,10.7,0.00,0.0,100000,83.7,99
364280,2021-02-19,13:09:44,KAZAKHSTAN,-14.5,-16.8,1036.9,1036.8,17.7,2.9,0.01,0.9,111000,50.4,194
535880,2021-02-19,13:09:44,CHINA,-4.5,-10.2,755.4,756.5,19.8,44.9,0.07,0.0,110000,75.9,356
353760,2021-02-19,13:09:44,KAZAKHSTAN,-5.5,-9.2,991.1,1030.8,20.9,5.9,0.01,6.4,111000,59.8,335
576220,2021-02-19,13:09:44,CHINA,-1.2,-1.3,841.6,837.7,6.4,16.4,0.05,0.0,110000,75.4,276
560670,2021-02-19,13:09:44,CHINA,-6.5,-19.2,650.5,654.6,22.7,27.6,0.00,0.0,100000,26.7,75
172500,2021-02-19,13:09:44,TURKEY,-2.0,-5.7,878.8,877.6,27.7,13.1,0.25,3.5,111000,90.5,281
543420,2021-02-19,13:09:44,CHINA,-3.7,-12.2,1019.6,1024.0,8.3,7.1,0.03,0.0,110000,52.7,210
560650,2021-02-19,13:09:44,CHINA,-5.3,-16.7,661.0,661.1,26.9,7.6,0.02,0.0,110000,69.4,29
542080,2021-02-19,13:09:44,CHINA,-7.7,-14.3,912.5,1028.3,29.1,24.5,0.01,0.0,110000,73.1,71
470280,2021-02-19,13:09:44,KOREANORTH,-0.7,-9.5,1021.9,1025.7,16.9,0.9,0.02,0.0,110000,53.0,156
527870,2021-02-19,13:09:44,CHINA,-5.7,-15.3,746.9,749.8,27.1,21.6,0.01,0.0,110000,69.4,166
548570,2021-02-19,13:09:44,CHINA,-0.6,-7.8,1024.3,1025.6,13.0,18.9,0.02,0.0,110000,89.6,164
357910,2021-02-19,13:09:44,KAZAKHSTAN,-6.7,-9.5,1032.3,1036.5,49.9,6.7,0.01,4.2,111000,78.4,266
475690,2021-02-19,13:09:44,JAPAN,-0.5,-7.7,1001.6,1002.5,11.5,18.3,0.00,0.0,100000,73.3,352
505270,2021-02-19,13:09:44,CHINA,-18.5,-20.8,990.2,1027.9,18.4,13.9,0.02,0.0,110000,51.4,9
475120,2021-02-19,13:09:44,JAPAN,-1.1,-6.4,1020.0,1018.9,41.1,6.1,0.00,0.0,100000,88.9,107
563740,2021-02-19,13:09:44,CHINA,-0.2,-7.1,748.3,750.7,29.6,19.2,0.03,0.0,110000,50.2,333
526020,2021-02-19,13:09:44,CHINA,-3.8,-21.6,726.2,725.7,23.2,4.1,0.01,0.0,110000,62.1,34
361770,2021-02-19,13:09:44,KAZAKHSTAN,-11.2,-15.9,1023.7,1025.0,9.8,16.1,0.01,0.0,110000,51.1,217
545340,2021-02-19,13:09:44,CHINA,-1.9,-13.8,1025.6,1025.7,13.3,0.6,0.02,,110000,51.4,91
470312,2021-02-19,13:09:44,CHINA,-2.1,-18.0,994.9,979.9,1.8,7.8,0.00,0.0,100000,46.4,117
543424,2021-02-19,13:09:44,CHINA,-3.5,-12.0,998.3,994.3,7.1,21.8,0.00,0.0,100000,44.7,356
560460,2021-02-19,13:09:44,CHINA,-6.6,-15.0,671.3,672.8,22.5,5.2,0.03,0.0,110000,84.1,312
443730,2021-02-19,13:09:45,MONGOLIA,-5.1,-17.6,853.5,1024.6,46.6,11.0,0.00,0.3,101000,72.5,83
443740,2021-02-19,13:09:45,MONGOLIA,-5.9,-14.8,824.4,1024.1,52.1,23.7,0.00,1.1,101000,51.6,115
478290,2021-02-19,13:09:45,JAPAN,-0.6,-7.2,1001.2,1019.1,19.9,13.7,0.07,0.0,110000,50.3,225
474760,2021-02-19,13:09:45,JAPAN,-9.7,-13.3,999.9,1001.6,4.5,13.4,0.00,0.0,100000,77.4,30
354260,2021-02-19,13:09:45,KAZAKHSTAN,-4.3,-6.5,1004.8,1022.6,31.9,10.1,0.01,5.2,111000,50.2,119
357460,2021-02-19,13:09:45,KAZAKHSTAN,-2.0,-6.1,1025.4,1027.0,15.0,17.8,0.00,0.8,101000,55.1,319
540260,2021-02-19,13:09:45,CHINA,-4.7,-16.4,1011.7,1024.1,25.3,23.4,0.01,0.0,110000,89.0,204
359250,2021-02-19,13:09:45,KAZAKHSTAN,-1.4,-7.1,1014.5,1028.7,27.7,3.4,0.69,0.0,110000,50.2,336
563850,2021-02-19,13:09:45,CHINA,-5.4,-8.2,747.1,745.5,7.2,1.2,0.06,0.0,110000,50.2,61
505570,2021-02-19,13:09:45,CHINA,-14.9,-20.6,1003.3,1022.7,11.1,12.7,0.01,0.0,110000,57.5,318
470520,2021-02-19,13:09:45,KOREANORTH,-1.4,-9.3,1017.3,1023.1,15.0,1.9,0.00,0.0,100000,24.3,101
548430,2021-02-19,13:09:45,CHINA,-1.7,-9.9,1023.8,1026.3,21.4,17.2,0.03,0.0,110000,50.7,224
509490,2021-02-19,13:09:45,CHINA,-8.0,-15.2,1018.5,1022.6,7.2,17.4,0.02,0.0,110000,82.0,250
357960,2021-02-19,13:09:45,KAZAKHSTAN,-8.7,-11.7,1019.4,1033.2,42.2,28.0,0.01,1.4,111000,53.3,315
560210,2021-02-19,13:09:45,CHINA,-7.1,-20.6,616.6,614.0,29.5,4.2,0.01,0.0,110000,51.6,149
540940,2021-02-19,13:09:45,CHINA,-5.0,-10.7,1010.6,1022.2,12.2,9.7,0.02,0.0,110000,88.3,329
477590,2021-02-19,13:09:45,JAPAN,-0.4,-6.4,1011.0,1017.9,8.6,15.6,0.29,0.0,110000,50.1,235
561720,2021-02-19,13:09:45,CHINA,-0.2,-11.7,777.9,782.9,37.7,6.9,0.02,0.0,110000,92.7,13
561730,2021-02-19,13:09:45,CHINA,-7.7,-19.0,661.0,668.8,28.4,16.0,0.00,0.0,100000,67.7,0
526610,2021-02-19,13:09:45,CHINA,-4.8,-21.0,928.1,946.3,70.2,12.1,0.00,0.0,100000,24.5,142
544230,2021-02-19,13:09:45,CHINA,-5.3,-19.2,975.7,1023.8,18.8,9.5,0.00,0.0,100000,38.4,272
509780,2021-02-19,13:09:45,CHINA,-6.6,-13.0,1006.1,1021.2,25.1,6.8,0.02,0.0,110000,52.3,11
584450,2021-02-19,13:09:45,CHINA,-2.0,-6.6,875.2,950.4,18.1,31.8,0.18,0.0,110000,50.7,57
476180,2021-02-19,13:09:45,JAPAN,-4.1,-9.5,975.6,1019.3,17.5,6.5,0.14,1.4,111000,59.0,136
477090,2021-02-19,13:09:45,JAPAN,-0.8,-8.4,1002.2,1005.0,8.4,8.3,0.00,0.0,100000,9.2,15
524950,2021-02-19,13:09:45,CHINA,-4.6,-18.3,903.1,1029.7,31.6,12.6,0.00,0.0,100000,16.2,150
171950,2021-02-19,13:09:45,TURKEY,-1.0,-5.7,957.2,972.9,9.2,1.6,0.07,1.8,111000,72.4,215
539590,2021-02-19,13:09:45,CHINA,-0.9,-9.8,1010.1,1027.0,19.7,15.5,0.01,0.0,110000,55.2,139
504680,2021-02-19,13:09:45,CHINA,-14.1,-18.8,1013.4,1021.6,20.7,13.6,0.01,0.0,110000,51.0,273
287660,2021-02-19,13:09:45,KAZAKHSTAN,-5.2,-9.5,1011.8,1027.6,6.7,14.5,0.01,3.5,111000,55.0,315
512320,2021-02-19,13:09:45,CHINA,-5.2,-9.0,1027.4,1031.4,7.4,23.3,0.03,0.0,110000,51.6,156
471650,2021-02-19,13:09:45,KOREASOUTH,-0.2,-6.1,1025.0,1024.4,18.3,11.0,0.09,0.0,110000,50.9,323
547530,2021-02-19,13:09:45,CHINA,-2.0,-9.2,1025.1,1026.4,15.9,12.7,0.07,0.0,110000,84.6,332
538980,2021-02-19,13:09:45,CHINA,-1.0,-9.8,1023.8,1026.8,15.9,8.8,0.02,0.0,110000,52.1,94
368590,2021-02-19,13:09:45,KAZAKHSTAN,-0.6,-5.8,1010.2,1026.4,33.3,12.8,0.01,1.5,111000,54.2,246
471110,2021-02-19,13:09:45,KOREASOUTH,-1.5,-6.7,1003.4,993.4,2.8,7.2,0.04,0.0,110000,51.5,1
547050,2021-02-19,13:09:45,CHINA,-9.2,-13.2,1040.0,1035.1,22.3,6.9,0.00,0.0,100000,4.6,241
171400,2021-02-19,13:09:45,TURKEY,-4.8,-7.1,871.7,855.5,7.7,14.9,0.07,18.1,111000,51.4,230
380190,2021-02-19,13:09:45,KAZAKHSTAN,-9.5,,1019.1,1036.1,37.2,2.0,0.05,8.2,111000,52.1,32
544490,2021-02-19,13:09:45,CHINA,-1.4,-20.2,1019.4,1015.8,39.8,29.5,0.05,0.0,110000,52.3,109
471131,2021-02-19,13:09:45,KOREASOUTH,-1.4,-5.8,991.0,997.5,7.5,6.8,0.00,0.0,100000,44.1,128
531490,2021-02-19,13:09:45,CHINA,-6.4,-18.9,905.7,1027.7,31.0,16.2,0.02,0.0,110000,51.9,16
510530,2021-02-19,13:09:45,CHINA,-9.4,-14.3,1025.8,1035.2,25.2,12.6,0.02,0.0,110000,53.7,197
286790,2021-02-19,13:09:45,KAZAKHSTAN,-8.5,-12.1,1019.0,1029.6,13.5,17.9,0.01,4.7,111000,75.2,118
509630,2021-02-19,13:09:45,CHINA,-9.3,-14.4,1016.7,1022.1,12.0,5.9,0.01,0.0,110000,98.8,131
170673,2021-02-19,13:09:45,TURKEY,-0.6,-10.1,1012.6,978.4,12.5,14.3,0.00,0.0,100000,87.9,273
542370,2021-02-19,13:09:45,CHINA,-7.4,-23.7,1038.1,1032.1,15.9,18.0,0.00,0.0,100000,90.9,28
470550,2021-02-19,13:09:45,KOREANORTH,-1.1,-9.1,1024.8,1022.5,11.9,5.7,0.12,0.3,111000,89.0,254
534800,2021-02-19,13:09:45,CHINA,-9.2,-19.0,960.6,1029.9,30.6,7.5,0.01,0.0,110000,78.3,342
538450,2021-02-19,13:09:45,CHINA,-2.4,-12.2,934.3,1029.3,14.4,10.3,0.01,0.0,110000,77.0,237
289520,2021-02-19,13:09:45,KAZAKHSTAN,-7.0,-10.9,1045.6,1033.8,10.0,22.3,0.63,0.0,110000,50.8,171
443140,2021-02-19,13:09:45,MONGOLIA,-9.0,-15.5,928.2,1022.0,13.5,4.1,0.00,1.5,101000,86.2,171
343980,2021-02-19,13:09:45,KAZAKHSTAN,-2.2,-5.0,1013.2,1013.6,20.1,21.1,0.00,7.9,101000,59.0,213
543420,2021-02-19,13:09:45,CHINA,-3.7,-13.5,1019.6,1024.0,8.3,7.0,0.03,0.0,110000,52.6,210
537380,2021-02-19,13:09:45,CHINA,-3.5,-15.2,872.1,1025.1,23.7,5.0,0.00,0.0,100000,95.8,118
170575,2021-02-19,13:09:45,TURKEY,-0.7,-3.3,1002.7,1003.9,8.2,15.4,0.00,0.0,100000,23.9,306
544930,2021-02-19,13:09:45,CHINA,-8.0,-13.6,1021.5,1025.2,19.1,5.4,0.01,0.0,110000,72.2,18
471750,2021-02-19,13:09:45,KOREASOUTH,-0.2,-4.7,966.1,1024.3,11.6,32.9,0.00,0.0,100000,8.9,111
470250,2021-02-19,13:09:45,KOREANORTH,-3.4,-7.3,1015.2,1020.2,10.0,8.2,0.09,0.1,111000,53.1,286
351730,2021-02-19,13:09:45,KAZAKHSTAN,-9.5,-13.4,1027.4,1032.8,27.0,21.1,0.00,5.2,101000,50.2,46
365350,2021-02-19,13:09:45,KAZAKHSTAN,-7.4,-9.0,1073.3,1035.2,34.0,8.8,0.00,0.0,100000,90.6,292
474280,2021-02-19,13:09:45,JAPAN,-3.0,-7.8,1011.6,1013.0,15.4,7.5,0.10,0.0,110000,51.7,334
377090,2021-02-19,13:09:45,ARMENIA,-2.3,-4.9,982.3,985.2,20.6,16.5,0.02,9.2,111000,51.5,86
528180,2021-02-19,13:09:45,CHINA,-2.8,-21.0,753.8,753.2,27.9,11.7,0.00,0.0,100000,69.3,8
526520,2021-02-19,13:09:45,CHINA,-8.1,-19.2,883.8,1029.4,29.0,3.5,0.00,0.0,100000,72.1,285
380810,2021-02-19,13:09:45,KAZAKHSTAN,-2.4,-5.8,1034.4,1029.0,20.7,30.1,0.03,0.2,111000,53.1,68
526510,2021-02-19,13:09:45,CHINA,-8.0,-28.5,976.8,995.2,66.3,3.9,0.00,0.0,100000,29.4,333
474020,2021-02-19,13:09:45,JAPAN,-10.1,-14.8,1011.5,1018.4,22.2,15.3,0.05,0.0,110000,54.9,210
474010,2021-02-19,13:09:45,JAPAN,-7.7,-12.8,1011.6,1015.7,15.4,15.1,0.08,15.3,111000,87.1,142
170671,2021-02-19,13:09:45,TURKEY,-5.8,-8.2,1016.7,1023.6,12.8,1.8,0.00,0.0,100000,0.9,234
475450,2021-02-19,13:09:45,JAPAN,-1.7,-5.6,1002.4,1006.8,10.4,13.6,0.00,0.0,100000,93.3,132
552280,2021-02-19,13:09:45,CHINA,-1.2,-15.8,603.4,600.0,30.5,0.0,0.01,0.0,110000,85.7,117
354060,2021-02-19,13:09:45,KAZAKHSTAN,-4.0,-7.0,1027.8,1028.4,27.0,18.1,0.00,0.0,100000,86.0,118
505640,2021-02-19,13:09:45,CHINA,-9.2,-15.6,1022.9,1023.5,11.9,8.8,0.01,0.0,110000,80.5,118
474810,2021-02-19,13:09:45,JAPAN,-11.3,-15.0,997.6,989.8,5.3,11.1,0.00,0.0,100000,16.1,345
442840,2021-02-19,13:09:45,MONGOLIA,-11.3,-14.3,783.3,1036.5,56.5,4.5,0.00,2.8,101000,61.1,123
548630,2021-02-19,13:09:45,CHINA,-1.4,-10.1,1029.7,1026.6,19.4,14.5,0.05,0.0,110000,54.0,329
507450,2021-02-19,13:09:45,CHINA,-6.6,-13.2,1015.8,1022.7,15.4,4.2,0.01,0.0,110000,59.0,64
525330,2021-02-19,13:09:45,CHINA,-2.0,-14.5,893.7,1027.6,31.0,6.6,0.01,0.0,110000,79.9,143
525331,2021-02-19,13:09:45,CHINA,-6.5,-10.4,974.3,995.5,2.3,10.4,0.00,0.0,100000,32.0,49
593530,2021-02-19,13:09:45,TAIWAN,-0.9,-2.9,763.9,1023.1,14.8,5.5,0.00,0.0,100000,49.1,81
471320,2021-02-19,13:09:45,KOREASOUTH,-3.8,-14.0,996.1,983.0,9.9,5.5,0.00,0.0,100000,67.4,215
542080,2021-02-19,13:09:45,CHINA,-7.5,-14.3,912.5,1028.3,29.1,24.3,0.01,0.0,110000,73.1,70
470280,2021-02-19,13:09:45,KOREANORTH,-2.6,-8.2,1021.9,1025.7,17.0,0.9,0.02,0.0,110000,52.9,156
171890,2021-02-19,13:09:45,TURKEY,-6.4,-10.7,905.3,919.6,11.3,6.6,0.02,8.2,111000,54.4,157
477670,2021-02-19,13:09:45,JAPAN,-0.6,-6.2,1018.6,1017.7,16.6,7.8,0.14,0.0,110000,61.5,150
356330,2021-02-19,13:09:45,KAZAKHSTAN,-2.5,-4.7,1027.6,1021.5,24.4,24.6,0.00,3.3,101000,63.8,241
581500,2021-02-19,13:09:45,CHINA,-0.7,-6.2,1022.1,1026.7,14.0,9.4,0.03,0.0,110000,54.4,31
172050,2021-02-19,13:09:45,TURKEY,-3.8,-5.7,829.4,845.6,5.0,7.9,0.22,3.3,111000,52.4,238
443170,2021-02-19,13:09:45,MONGOLIA,-5.9,-8.5,901.0,1032.1,25.5,1.3,0.00,3.3,101000,57.2,252
471530,2021-02-19,13:09:45,KOREASOUTH,-0.4,-8.1,1016.4,1017.4,8.8,13.1,0.00,0.0,100000,6.5,77
547150,2021-02-19,13:09:45,CHINA,-0.9,-10.9,1021.4,1026.7,12.8,21.0,0.05,0.0,110000,92.1,130
471520,2021-02-19,13:09:45,KOREASOUTH,-0.3,-9.6,1032.6,1021.7,12.6,19.9,0.09,0.0,110000,96.7,217
470690,2021-02-19,13:09:45,KOREANORTH,-2.1,-7.9,1031.7,1023.8,10.1,8.6,0.22,0.0,110000,51.3,325
470700,2021-02-19,13:09:45,KOREANORTH,-1.4,-7.7,1027.2,1021.2,12.3,15.6,0.01,0.0,110000,80.6,128
547250,2021-02-19,13:09:45,CHINA,-1.8,-11.7,1028.9,1025.6,3.0,15.7,0.03,0.0,110000,52.5,16
511560,2021-02-19,13:09:45,CHINA,-6.3,-11.9,929.1,1031.7,23.2,5.6,0.01,0.0,110000,88.1,312
170980,2021-02-19,13:09:45,TURKEY,-6.8,-10.2,815.6,816.0,12.8,18.5,0.07,11.5,111000,53.4,149
471920,2021-02-19,13:09:45,KOREASOUTH,-1.0,-8.7,1021.3,1022.4,10.1,9.8,0.10,0.0,110000,87.8,299
471170,2021-02-19,13:09:45,KOREASOUTH,-1.0,-6.7,1001.9,983.0,8.8,2.8,0.07,0.0,110000,96.2,105
527130,2021-02-19,13:09:45,CHINA,-5.1,-21.1,699.2,699.3,27.7,14.0,0.02,0.0,110000,63.8,60
537870,2021-02-19,13:09:45,CHINA,-4.6,-15.7,978.2,1027.6,21.6,11.2,0.01,0.0,110000,50.1,258
537980,2021-02-19,13:09:45,CHINA,-0.1,-10.5,1019.7,1025.8,14.2,3.8,0.01,0.0,110000,68.1,233
564440,2021-02-19,13:09:45,CHINA,-0.5,-5.8,734.9,734.6,27.5,9.4,0.07,0.0,110000,52.0,304
474340,2021-02-19,13:09:45,JAPAN,-10.3,-14.6,1004.6,1011.7,10.9,11.8,0.00,1.4,101000,91.6,41
474350,2021-02-19,13:09:45,JAPAN,-4.8,-12.2,1012.6,1006.4,34.1,8.1,0.03,0.0,110000,68.4,313
545870,2021-02-19,13:09:45,CHINA,-2.3,-8.9,1025.9,1025.4,25.1,41.0,0.00,0.0,100000,4.1,178
514630,2021-02-19,13:09:45,CHINA,-6.8,-9.5,947.9,1033.3,14.1,6.5,0.05,0.0,110000,73.9,279
354590,2021-02-19,13:09:45,KAZAKHSTAN,-3.2,-8.2,1024.6,1030.4,48.7,14.5,0.00,0.0,100000,25.7,287
350850,2021-02-19,13:09:45,KAZAKHSTAN,-8.9,-13.1,1025.7,1032.5,30.0,19.9,0.00,1.4,101000,51.3,104
544970,2021-02-19,13:09:45,CHINA,-3.5,-13.3,1024.6,1024.3,20.1,15.4,0.01,0.0,110000,94.0,279
560650,2021-02-19,13:09:45,CHINA,-5.3,-16.7,661.0,661.1,26.9,7.5,0.02,0.0,110000,69.4,29
376820,2021-02-19,13:09:45,ARMENIA,-3.7,-5.0,803.5,793.7,0.7,9.6,0.00,0.0,100000,17.4,274
514310,2021-02-19,13:09:45,CHINA,-1.1,-4.1,975.3,1028.3,29.3,3.3,0.12,0.0,110000,53.4,243
170900,2021-02-19,13:09:45,TURKEY,-1.6,-4.5,914.2,932.7,19.0,1.8,0.27,4.3,111000,65.7,148
507740,2021-02-19,13:09:45,CHINA,-12.9,-19.0,1013.4,1022.0,4.1,4.7,0.01,0.0,110000,50.0,313
523910,2021-02-19,13:09:45,CHINA,-13.2,-22.2,1002.1,1044.5,38.4,5.0,0.00,0.0,100000,10.8,358
369820,2021-02-19,13:09:45,KYRGYZSTAN,-13.6,-17.5,645.7,644.5,41.2,4.1,0.00,0.0,100000,87.2,282
170820,2021-02-19,13:09:45,TURKEY,-0.8,-5.5,1003.3,1013.1,8.5,14.8,0.05,0.5,111000,50.2,349
561820,2021-02-19,13:09:45,CHINA,-1.4,-9.7,778.6,818.4,33.8,13.5,0.07,0.0,110000,68.3,179
350670,2021-02-19,13:09:45,KAZAKHSTAN,-6.9,-10.8,1038.5,1034.2,15.9,16.0,0.00,3.0,101000,95.0,11
529550,2021-02-19,13:09:45,CHINA,-3.3,-18.0,694.4,684.8,32.5,12.4,0.02,0.0,110000,66.6,72
350780,2021-02-19,13:09:45,KAZAKHSTAN,-5.5,-9.1,1022.0,1033.3,9.9,14.9,0.02,8.6,111000,67.3,122
359970,2021-02-19,13:09:45,KAZAKHSTAN,-6.4,-9.2,1044.7,1032.9,31.2,5.4,0.05,0.9,111000,53.6,172
443050,2021-02-19,13:09:45,MONGOLIA,-12.8,-17.1,950.6,1027.2,47.0,10.3,0.01,2.2,111000,50.6,330
536730,2021-02-19,13:09:45,CHINA,-1.7,-13.7,975.3,1028.1,17.8,3.0,0.02,0.0,110000,50.2,65
517110,2021-02-19,13:09:45,CHINA,-1.6,-10.3,800.8,795.5,25.8,3.2,0.03,0.0,110000,52.8,80
560040,2021-02-19,13:09:45,CHINA,-5.8,-16.6,998.8,1001.6,34.2,18.4,0.01,0.0,110000,55.1,201
470600,2021-02-19,13:09:45,KOREANORTH,-1.6,-6.1,1025.2,1024.2,12.9,11.2,0.01,0.0,110000,51.3,150
562570,2021-02-19,13:09:45,CHINA,-1.3,-13.8,684.6,683.3,43.1,2.5,0.01,0.0,110000,53.5,81
474130,2021-02-19,13:09:45,JAPAN,-7.0,-9.9,1011.5,1017.3,19.0,5.3,0.00,0.0,100000,49.4,135
474170,2021-02-19,13:09:45,JAPAN,-14.8,-19.7,1009.5,1016.4,6.7,8.3,0.05,0.0,110000,72.6,188
548260,2021-02-19,13:09:45,CHINA,-3.0,-12.3,870.9,873.2,25.0,24.5,0.03,0.0,110000,66.9,329
170840,2021-02-19,13:09:45,TURKEY,-1.8,-5.7,942.3,1018.4,20.6,6.3,0.10,3.5,111000,91.8,174
549290,2021-02-19,13:09:45,CHINA,-0.3,-9.7,1025.3,1024.1,22.6,2.8,0.00,0.0,100000,60.6,21
543460,2021-02-19,13:09:45,CHINA,-2.6,-11.5,1018.7,1025.1,19.5,8.4,0.02,0.0,110000,57.5,304
363970,2021-02-19,13:09:45,KAZAKHSTAN,-11.3,-16.9,1024.5,1036.8,8.6,33.7,0.00,0.0,100000,86.2,102
471210,2021-02-19,13:09:45,KOREASOUTH,-3.1,-12.4,994.2,1024.2,12.9,2.5,0.06,0.0,110000,60.7,116
471200,2021-02-19,13:09:45,KOREASOUTH,-2.3,-7.5,1007.7,1010.2,8.7,8.1,0.00,0.1,101000,51.6,288
471260,2021-02-19,13:09:45,KOREASOUTH,-0.1,-9.3,999.0,957.8,8.3,14.5,0.00,0.0,100000,12.9,318
298070,2021-02-19,13:09:45,KAZAKHSTAN,-11.3,-14.2,1027.7,1027.5,1.5,5.4,0.02,4.3,111000,51.8,278
443540,2021-02-19,13:09:45,MONGOLIA,-6.5,-14.6,1044.1,1029.4,55.7,23.2,0.00,0.0,100000,48.8,336
472185,2021-02-19,13:09:45,JAPAN,-6.4,-12.8,986.1,967.8,10.9,13.6,0.00,0.0,100000,24.4,43
530830,2021-02-19,13:09:45,CHINA,-6.2,-10.8,962.6,1030.0,39.7,8.9,0.02,0.0,110000,52.3,83
561250,2021-02-19,13:09:45,CHINA,-1.4,-18.2,648.6,651.7,19.8,24.2,0.00,0.0,100000,51.3,73
543370,2021-02-19,13:09:45,CHINA,-5.1,-16.0,1022.8,1025.1,13.9,16.2,0.01,0.0,110000,64.6,230
364280,2021-02-19,13:09:45,KAZAKHSTAN,-14.5,-16.8,1036.9,1036.8,17.7,3.0,0.01,0.9,111000,50.4,194
549380,2021-02-19,13:09:45,CHINA,-1.9,-10.2,1030.4,1027.3,12.2,7.1,0.01,0.0,110000,52.5,8
521180,2021-02-19,13:09:45,CHINA,-4.2,-15.8,829.1,828.3,32.7,10.1,0.01,0.0,110000,56.7,137
508540,2021-02-19,13:09:45,CHINA,-6.8,-14.1,1026.3,1022.3,15.8,14.6,0.01,0.0,110000,52.0,137
471380,2021-02-19,13:09:45,KOREASOUTH,-0.2,-8.5,1026.3,1022.3,16.3,10.9,0.12,0.0,110000,59.2,239
170672,2021-02-19,13:09:45,TURKEY,-3.7,-6.7,979.7,964.8,6.3,8.8,0.00,0.0,100000,16.1,200
170674,2021-02-19,13:09:45,TURKEY,-4.4,-11.4,989.9,995.7,6.7,26.9,0.00,0.0,100000,89.5,74
478240,2021-02-19,13:09:45,JAPAN,-0.3,-8.4,1004.2,1024.0,12.3,0.9,0.04,0.0,110000,52.7,317
543770,2021-02-19,13:09:45,CHINA,-4.1,-10.4,1026.2,1025.3,11.2,5.1,0.03,0.0,110000,51.0,35
380910,2021-02-19,13:09:45,KAZAKHSTAN,-2.1,-5.7,1027.1,1030.1,43.6,10.6,0.02,1.2,111000,50.7,135
367780,2021-02-19,13:09:45,KAZAKHSTAN,-4.5,-10.2,1046.9,1031.8,26.7,6.3,0.00,0.0,100000,91.0,87
172400,2021-02-19,13:09:45,TURKEY,-0.9,-5.0,952.0,1016.0,28.6,6.5,0.09,0.5,111000,56.2,58
532310,2021-02-19,13:09:45,CHINA,-3.8,-14.7,850.9,857.9,29.0,17.6,0.00,0.0,100000,46.6,1
171280,2021-02-19,13:09:45,TURKEY,-1.5,-4.7,955.7,1012.1,11.4,9.0,0.09,1.6,111000,82.9,174
477420,2021-02-19,13:09:45,JAPAN,-0.7,-4.4,1024.4,1025.1,4.3,7.9,0.03,0.0,110000,51.5,47
537720,2021-02-19,13:09:45,CHINA,-2.4,-15.0,982.7,1025.6,6.6,3.1,0.01,0.0,110000,53.4,57
529960,2021-02-19,13:09:45,CHINA,-2.3,-8.3,778.1,776.4,18.4,23.1,0.03,0.0,110000,52.0,139
476370,2021-02-19,13:09:45,JAPAN,-2.8,-8.6,957.1,1016.1,25.2,7.8,0.21,0.0,110000,51.8,173
345810,2021-02-19,13:09:45,KAZAKHSTAN,-2.2,-6.2,1040.1,1028.7,49.1,24.8,0.00,0.0,100000,53.0,36
475530,2021-02-19,13:09:45,JAPAN,-2.0,-5.5,1004.5,1004.0,5.8,13.0,0.00,0.0,100000,48.5,332
527070,2021-02-19,13:09:45,CHINA,-4.8,-21.1,724.8,721.2,10.7,7.9,0.00,0.0,100000,61.7,327
523130,2021-02-19,13:09:45,CHINA,-2.9,-14.3,921.5,897.5,61.8,2.5,0.00,0.0,100000,74.6,87
523780,2021-02-19,13:09:45,CHINA,-4.0,-20.1,985.8,1008.3,25.5,22.4,0.00,0.0,100000,67.3,154
506580,2021-02-19,13:09:45,CHINA,-9.7,-14.7,1025.4,1022.8,10.3,7.3,0.01,0.0,110000,56.9,179
356710,2021-02-19,13:09:45,KAZAKHSTAN,-4.6,-8.5,997.6,1028.6,18.0,20.8,0.00,3.2,101000,79.0,118
545110,2021-02-19,13:09:45,CHINA,-0.3,-15.2,1021.0,1025.5,18.3,7.2,0.03,0.0,110000,74.7,329
471074,2021-02-19,13:09:45,KOREASOUTH,-1.2,-10.8,995.1,964.3,5.9,27.6,0.00,0.0,100000,38.8,346
471087,2021-02-19,13:09:45,KOREASOUTH,-2.4,-11.3,1025.7,1034.7,13.1,14.0,0.00,0.0,100000,82.9,15
471080,2021-02-19,13:09:45,KOREASOUTH,-1.5,-8.5,1019.1,1022.5,13.7,2.5,0.02,0.1,111000,53.6,217
471120,2021-02-19,13:09:45,KOREASOUTH,-0.8,-6.6,1018.3,1022.9,16.6,17.5,0.02,0.0,110000,54.3,252
506320,2021-02-19,13:09:45,CHINA,-14.2,-19.2,987.2,1024.0,27.3,14.0,0.01,0.0,110000,52.5,185
549450,2021-02-19,13:09:45,CHINA,-0.6,-8.8,1019.2,1026.8,21.2,5.6,0.03,0.0,110000,51.5,118
539290,2021-02-19,13:09:45,CHINA,-2.0,-11.6,882.4,888.8,10.2,15.8,0.00,0.0,100000,53.2,22
471280,2021-02-19,13:09:45,KOREASOUTH,-1.3,-7.6,1008.7,1009.9,3.1,8.2,0.00,0.0,100000,73.6,157
528360,2021-02-19,13:09:45,CHINA,-2.8,-19.3,687.3,685.9,28.7,6.0,0.01,0.0,110000,54.9,283
560330,2021-02-19,13:09:45,CHINA,-13.5,-22.5,626.2,621.8,34.7,5.4,0.03,0.0,110000,78.9,195
476900,2021-02-19,13:09:45,JAPAN,-6.5,-10.5,867.0,861.7,24.9,16.1,0.18,0.0,110000,53.0,296
583140,2021-02-19,13:09:45,CHINA,-0.2,-5.2,1016.7,1026.7,10.4,8.2,0.13,0.0,110000,51.0,197
475150,2021-02-19,13:09:45,JAPAN,-3.5,-8.4,999.4,1000.6,19.5,13.1,0.00,0.0,100000,44.4,301
513560,2021-02-19,13:09:45,CHINA,-9.9,-11.0,1006.1,1033.1,15.8,2.9,0.00,0.0,100000,96.7,145
509830,2021-02-19,13:09:45,CHINA,-8.8,-13.3,1016.7,1021.0,17.2,2.1,0.02,0.0,110000,99.0,278
474070,2021-02-19,13:09:45,JAPAN,-12.2,-14.9,1008.1,1014.5,14.5,12.4,0.09,16.5,111000,67.1,272
474060,2021-02-19,13:09:45,JAPAN,-7.8,-11.5,1010.4,1015.5,15.9,12.6,0.11,15.1,111000,51.3,93
357910,2021-02-19,13:09:45,KAZAKHSTAN,-6.3,-9.5,1032.3,1036.5,50.0,6.7,0.01,4.2,111000,78.5,266
542730,2021-02-19,13:09:45,CHINA,-8.1,-14.8,1020.2,1024.8,10.3,1.2,0.00,0.0,100000,40.1,68
470670,2021-02-19,13:09:45,KOREANORTH,-5.0,-9.7,1050.5,1026.4,13.2,12.3,0.00,0.0,100000,14.3,246
542260,2021-02-19,13:09:45,CHINA,-5.4,-19.5,1020.4,1025.3,21.6,4.9,0.01,0.0,110000,52.3,35
470680,2021-02-19,13:09:45,KOREANORTH,-2.5,-7.4,1015.6,1024.1,12.5,13.9,0.01,0.0,110000,83.0,297
470030,2021-02-19,13:09:45,KOREANORTH,-6.0,-14.3,1015.9,1019.4,20.0,9.1,0.01,0.0,110000,51.5,73
561670,2021-02-19,13:09:45,CHINA,-0.3,-13.3,705.2,714.0,38.4,6.7,0.00,0.0,100000,54.7,177
476400,2021-02-19,13:09:45,JAPAN,-8.1,-12.2,915.8,906.2,50.0,0.2,0.00,0.0,100000,32.2,167
353020,2021-02-19,13:09:45,KAZAKHSTAN,-3.8,-9.3,1057.9,1032.7,14.4,21.8,0.00,0.0,100000,41.1,162
561160,2021-02-19,13:09:45,CHINA,-1.1,-15.5,683.7,690.0,33.6,10.2,0.01,0.0,110000,52.4,72
170700,2021-02-19,13:09:45,TURKEY,-0.5,-4.1,943.2,1017.1,10.8,4.7,0.14,2.0,111000,54.1,99
549060,2021-02-19,13:09:45,CHINA,-1.7,-9.4,1024.4,1026.2,10.5,10.6,0.01,0.0,110000,62.3,56
526020,2021-02-19,13:09:45,CHINA,-3.8,-21.6,726.2,725.7,23.3,4.0,0.01,0.0,110000,62.1,34
361770,2021-02-19,13:09:45,KAZAKHSTAN,-11.0,-15.9,1023.7,1024.9,9.8,16.2,0.01,0.0,110000,51.1,217
358840,2021-02-19,13:09:45,KAZAKHSTAN,-9.8,-12.8,982.1,995.0,19.2,7.0,0.00,11.0,101000,58.9,54
171270,2021-02-19,13:09:45,TURKEY,-0.7,-3.9,1028.6,1018.8,22.8,11.3,0.05,0.0,110000,53.0,123
544010,2021-02-19,13:09:45,CHINA,-3.8,-17.0,984.7,1027.5,23.7,18.9,0.01,0.0,110000,51.4,218
546620,2021-02-19,13:09:45,CHINA,-1.0,,1020.6,1025.3,3.8,12.1,0.05,0.0,110000,70.7,91
470350,2021-02-19,13:09:45,KOREANORTH,-4.0,-11.3,1037.2,1024.4,19.2,11.8,0.04,0.0,110000,51.2,97
542180,2021-02-19,13:09:45,CHINA,-7.9,-22.1,992.4,1025.1,24.9,8.6,0.01,0.0,110000,51.3,110
570460,2021-02-19,13:09:45,CHINA,-3.6,-10.3,817.2,825.1,23.0,25.6,0.02,0.0,110000,51.3,212
540120,2021-02-19,13:09:45,CHINA,-12.2,-18.3,937.1,1029.7,22.7,13.7,0.02,0.0,110000,50.2,168
353610,2021-02-19,13:09:45,KAZAKHSTAN,-0.7,-4.2,990.8,1017.9,24.8,16.0,0.00,0.0,100000,98.3,155
171900,2021-02-19,13:09:45,TURKEY,-1.1,-5.1,947.5,973.3,16.2,9.2,0.13,1.7,111000,63.2,93
356990,2021-02-19,13:09:45,KAZAKHSTAN,-4.0,-10.7,951.9,1029.6,27.6,0.2,0.00,3.9,101000,51.1,315
543860,2021-02-19,13:09:45,CHINA,-4.5,-10.5,964.5,1025.8,20.7,6.9,0.04,0.0,110000,54.3,184
363350,2021-02-19,13:09:45,KAZAKHSTAN,-6.0,-11.1,1024.2,1031.4,46.5,19.7,0.00,0.3,101000,51.8,211
354160,2021-02-19,13:09:45,KAZAKHSTAN,-2.9,-6.1,1026.7,1028.9,6.4,14.6,0.05,7.8,111000,91.3,76
535020,2021-02-19,13:09:45,CHINA,-4.6,-19.1,977.5,1029.5,21.0,11.4,0.00,0.0,100000,5.9,238
467550,2021-02-19,13:09:45,TAIWAN,-1.5,-1.9,1004.4,998.6,63.2,16.3,0.00,0.0,100000,91.7,223
476800,2021-02-19,13:09:45,JAPAN,-0.1,-5.1,997.2,1017.5,26.5,12.9,0.00,0.0,100000,95.3,249
171240,2021-02-19,13:09:45,TURKEY,-1.3,-5.2,968.5,1018.8,13.5,8.9,0.08,1.2,111000,72.3,353
400830,2021-02-19,13:09:45,SYRIA,-1.7,-9.1,994.3,1022.8,19.8,22.5,0.00,0.0,100000,50.9,313
540960,2021-02-19,13:09:45,CHINA,-7.5,-13.6,1023.3,1021.7,15.7,18.3,0.02,0.0,110000,51.8,167
514950,2021-02-19,13:09:45,CHINA,-1.9,-17.3,985.4,1032.7,31.7,38.5,0.00,0.0,100000,4.0,52
357390,2021-02-19,13:09:45,KAZAKHSTAN,-1.2,-6.8,1035.8,1028.6,46.3,12.9,0.00,3.0,101000,51.4,343
557730,2021-02-19,13:09:45,CHINA,-0.6,-10.9,620.3,621.9,18.6,15.5,0.03,0.0,110000,60.1,353
503530,2021-02-19,13:09:45,CHINA,-8.5,-17.9,1000.0,1022.8,20.3,7.6,0.00,0.0,100000,39.8,99
170500,2021-02-19,13:09:45,TURKEY,-0.1,-4.7,1014.1,1020.1,17.2,10.1,0.04,0.5,111000,93.7,68
442820,2021-02-19,13:09:45,MONGOLIA,-10.8,-27.3,819.1,1026.0,49.9,24.9,0.00,0.0,100000,34.6,151
474410,2021-02-19,13:09:45,JAPAN,-5.7,-11.6,998.9,1001.8,15.0,11.8,0.00,0.0,100000,23.0,42
533520,2021-02-19,13:09:45,CHINA,-10.5,-19.4,960.5,1032.0,26.6,8.0,0.01,0.0,110000,51.3,329
474210,2021-02-19,13:09:45,JAPAN,-4.2,-9.1,1015.6,1015.1,22.6,11.9,0.10,14.0,111000,50.5,292
471223,2021-02-19,13:09:45,KOREASOUTH,-1.1,-2.6,1020.3,1027.9,6.8,11.4,0.00,0.0,100000,50.3,87
471220,2021-02-19,13:09:45,KOREASOUTH,-2.6,-8.5,1015.8,1015.4,17.1,7.2,0.02,0.1,111000,58.5,228
442770,2021-02-19,13:09:45,MONGOLIA,-10.2,-19.0,1007.2,1026.0,36.8,23.1,2.35,0.0,110000,50.4,70
547140,2021-02-19,13:09:45,CHINA,-1.7,-11.1,1026.3,1026.2,17.8,14.0,0.08,0.0,110000,51.5,336
471540,2021-02-19,13:09:45,KOREASOUTH,-0.4,-11.0,1010.8,1015.8,10.5,16.3,0.00,0.0,100000,69.0,187
471060,2021-02-19,13:09:45,KOREASOUTH,-1.4,-8.1,1016.0,1022.1,13.3,17.4,0.12,0.2,111000,52.6,267
474240,2021-02-19,13:09:45,JAPAN,-7.7,-12.9,1018.2,1017.0,20.8,7.9,0.00,0.0,100000,2.3,304
474250,2021-02-19,13:09:45,JAPAN,-9.8,-13.6,1000.5,1001.2,3.0,4.9,0.00,0.0,100000,96.7,301
474260,2021-02-19,13:09:45,JAPAN,-5.4,-11.4,1013.1,1015.5,27.5,24.3,0.03,1.4,111000,97.4,85
563570,2021-02-19,13:09:45,CHINA,-0.4,-16.9,644.9,645.2,31.6,14.3,0.01,0.0,110000,51.6,209
474230,2021-02-19,13:09:45,JAPAN,-4.7,-9.0,1010.1,1015.4,7.6,25.0,0.09,0.0,110000,51.2,273
474120,2021-02-19,13:09:45,JAPAN,-7.1,-11.8,1014.2,1012.4,11.2,12.1,0.14,14.8,111000,57.6,175
546160,2021-02-19,13:09:45,CHINA,-2.8,-12.7,1026.6,1026.2,13.4,8.7,0.02,0.0,110000,53.6,345
442290,2021-02-19,13:09:45,MONGOLIA,-10.4,-19.0,789.9,1015.5,47.2,9.4,0.00,0.0,100000,67.2,334
171600,2021-02-19,13:09:45,TURKEY,-2.5,-12.1,905.1,876.3,15.8,5.1,0.00,0.0,100000,42.9,182
471240,2021-02-19,13:09:45,KOREASOUTH,-2.8,-10.3,989.8,1081.3,15.5,4.2,0.00,0.0,100000,52.9,119
288790,2021-02-19,13:09:45,KAZAKHSTAN,-4.9,-7.7,1032.2,1032.0,7.1,24.8,0.01,0.5,111000,51.5,95
288770,2021-02-19,13:09:45,KAZAKHSTAN,-6.7,-11.3,1016.8,1019.4,19.2,14.2,0.02,5.4,111000,93.5,83
471330,2021-02-19,13:09:45,KOREASOUTH,-0.4,-7.9,1018.7,1024.0,13.6,9.2,0.04,0.0,110000,78.4,104
471340,2021-02-19,13:09:45,KOREASOUTH,-1.6,-7.8,999.3,993.4,10.8,12.0,0.04,0.0,110000,54.9,128
506030,2021-02-19,13:09:45,CHINA,-10.2,-14.3,984.6,1027.5,30.7,2.5,0.01,0.0,110000,65.3,80
471350,2021-02-19,13:09:45,KOREASOUTH,-1.8,-9.9,1005.7,1023.0,17.8,11.9,0.04,0.0,110000,60.9,238
475200,2021-02-19,13:09:45,JAPAN,-2.0,-4.7,1005.5,1018.4,14.4,12.0,0.16,0.0,110000,69.2,191
353860,2021-02-19,13:09:45,KAZAKHSTAN,-8.2,-11.0,986.8,984.4,18.2,13.8,0.00,0.0,100000,47.8,221
570730,2021-02-19,13:09:45,CHINA,-0.3,-11.3,1025.0,1024.4,16.6,14.7,0.00,0.0,100000,33.4,291
546560,2021-02-19,13:09:45,CHINA,-2.1,-8.2,1021.6,1024.8,25.8,30.8,0.01,0.0,110000,53.1,251
470460,2021-02-19,13:09:45,KOREANORTH,-1.4,-6.3,1018.7,1018.8,23.5,11.7,0.01,0.3,111000,53.9,236
347980,2021-02-19,13:09:45,KAZAKHSTAN,-2.0,-4.8,1021.0,1019.7,17.7,19.5,0.00,0.7,101000,50.1,268
470200,2021-02-19,13:09:45,KOREANORTH,-6.8,-11.2,1015.1,1029.1,0.0,1.3,0.00,0.0,100000,57.1,236
364420,2021-02-19,13:09:45,KAZAKHSTAN,-11.0,-12.3,1012.5,989.5,19.9,32.4,0.02,2.2,111000,98.4,144
471360,2021-02-19,13:09:45,KOREASOUTH,-2.1,-9.4,1014.7,1024.4,18.3,0.1,0.08,0.0,110000,52.4,71
471370,2021-02-19,13:09:45,KOREASOUTH,-1.4,-11.9,1011.7,1021.9,12.9,5.1,0.00,0.0,100000,56.0,281
171700,2021-02-19,13:09:45,TURKEY,-1.7,-5.9,947.4,943.3,20.6,7.3,0.02,3.9,111000,82.4,221
442870,2021-02-19,13:09:45,MONGOLIA,-8.7,-15.0,809.5,1027.9,52.9,10.9,0.00,1.6,101000,76.2,96
476120,2021-02-19,13:09:45,JAPAN,-0.6,-4.7,1018.3,1018.8,18.1,4.4,0.40,14.3,111000,50.4,149
170860,2021-02-19,13:09:45,TURKEY,-0.2,-5.9,944.7,1018.8,18.5,11.2,0.35,4.1,111000,52.0,60
474040,2021-02-19,13:09:45,JAPAN,-6.8,-13.0,1014.2,1017.1,33.7,19.6,0.12,0.0,110000,52.0,33
586530,2021-02-19,13:09:45,CHINA,-1.4,-3.2,914.5,1023.8,2.1,22.1,0.25,0.0,110000,51.0,123
513460,2021-02-19,13:09:45,CHINA,-8.5,-10.3,1053.4,1041.2,49.1,2.9,0.00,0.0,100000,33.0,325
543080,2021-02-19,13:09:45,CHINA,-7.3,-21.9,1020.3,1027.7,30.4,10.5,0.03,0.0,110000,58.4,64
471100,2021-02-19,13:09:45,KOREASOUTH,-1.6,-6.5,1008.3,1009.9,3.2,13.0,0.00,0.0,100000,98.6,206
360030,2021-02-19,13:09:45,KAZAKHSTAN,-10.0,-12.9,1020.9,1030.3,28.5,18.5,0.11,4.8,111000,75.4,179
474110,2021-02-19,13:09:45,JAPAN,-6.3,-10.6,1011.5,1015.5,14.5,20.1,0.09,0.0,110000,63.5,156
474090,2021-02-19,13:09:45,JAPAN,-10.7,-13.7,1014.0,1014.9,25.7,1.4,0.05,8.6,111000,71.9,155
366220,2021-02-19,13:09:45,KAZAKHSTAN,-11.9,-16.3,1041.5,1036.3,26.9,24.4,0.00,3.0,101000,67.1,316
522670,2021-02-19,13:09:45,CHINA,-5.7,-21.4,932.6,1029.7,28.5,10.2,0.00,0.0,100000,45.7,30
561520,2021-02-19,13:09:45,CHINA,-3.8,-11.8,662.7,666.5,28.6,13.7,0.02,0.0,110000,50.9,327
530680,2021-02-19,13:09:45,CHINA,-4.4,-14.0,,1029.0,29.6,13.1,0.01,0.0,110000,51.1,88
443290,2021-02-19,13:09:45,MONGOLIA,-7.9,-12.7,776.5,1029.6,21.9,13.8,0.00,2.8,101000,96.8,223
383530,2021-02-19,13:09:45,KYRGYZSTAN,-0.4,-3.5,1000.1,1028.3,7.6,10.0,0.03,0.4,111000,55.7,165
383531,2021-02-19,13:09:45,KYRGYZSTAN,-0.1,-1.2,990.9,984.0,2.0,13.1,0.00,0.0,100000,63.3,4
471290,2021-02-19,13:09:45,KOREASOUTH,-2.2,-7.9,1020.0,1023.9,23.5,7.5,0.05,0.0,110000,51.5,158
526330,2021-02-19,13:09:45,CHINA,-12.9,-23.3,990.9,980.8,24.5,6.2,0.01,0.0,110000,53.6,217
361520,2021-02-19,13:09:45,KAZAKHSTAN,-13.2,-16.5,1043.6,1034.5,17.3,10.5,0.01,1.4,111000,50.9,115
529080,2021-02-19,13:09:45,CHINA,-7.8,-17.2,999.8,1006.1,24.6,23.6,0.01,0.0,110000,60.3,354
474790,2021-02-19,13:09:45,JAPAN,-7.5,-12.7,1001.6,997.2,7.2,13.8,0.00,0.0,100000,41.8,106
475760,2021-02-19,13:09:45,JAPAN,-3.7,-8.0,1016.8,1017.3,5.9,10.8,0.13,0.0,110000,71.3,51
470990,2021-02-19,13:09:45,KOREASOUTH,-2.7,-11.4,1020.7,1024.6,9.9,2.5,0.00,0.0,100000,85.9,332
471030,2021-02-19,13:09:45,KOREASOUTH,-0.7,-5.1,1016.2,1024.6,13.7,22.0,0.00,0.0,100000,73.6,89
471025,2021-02-19,13:09:45,KOREASOUTH,-0.1,-5.8,1011.2,1015.3,1.7,7.7,0.00,0.0,100000,62.7,219
501360,2021-02-19,13:09:45,CHINA,-22.6,-30.9,968.5,1026.9,17.4,4.0,0.00,0.0,100000,56.4,80
541860,2021-02-19,13:09:45,CHINA,-10.3,-16.0,1010.5,1024.1,19.8,6.6,0.03,0.0,110000,52.2,122
524410,2021-02-19,13:09:45,CHINA,-5.7,-20.5,843.9,846.1,41.6,19.7,0.01,0.0,110000,50.1,51
471010,2021-02-19,13:09:45,KOREASOUTH,-2.2,-8.1,1019.1,1023.4,20.5,0.2,0.05,0.2,111000,77.1,86
471020,2021-02-19,13:09:45,KOREASOUTH,-0.1,-6.6,1004.7,1024.4,7.0,15.5,0.01,0.0,110000,50.8,344
474740,2021-02-19,13:09:45,JAPAN,-10.8,-19.5,1009.6,1001.0,6.8,6.6,0.00,0.0,100000,53.9,175
524240,2021-02-19,13:09:45,CHINA,-3.6,-17.5,898.0,1026.1,29.6,13.8,0.02,0.7,111000,52.3,260
749347,2021-02-19,13:09:45,CHINA,-1.2,-5.8,1035.1,1037.4,8.8,11.0,0.00,0.0,100000,91.5,262
749348,2021-02-19,13:09:45,CHINA,-14.5,-18.6,1033.0,1038.4,51.4,7.7,0.00,0.0,100000,60.9,57
513790,2021-02-19,13:09:45,CHINA,-9.4,-11.9,1021.5,1035.6,17.6,8.5,0.02,0.0,110000,50.5,353
577760,2021-02-19,13:09:45,CHINA,-0.4,-1.6,972.2,1024.0,12.5,23.2,0.29,0.0,110000,73.9,250
368215,2021-02-19,13:09:45,KAZAKHSTAN,-7.6,-10.2,1009.9,1021.5,5.3,15.2,0.00,0.0,100000,26.7,76
548230,2021-02-19,13:09:45,CHINA,-0.5,-12.2,1022.2,1026.3,10.3,11.8,0.02,0.0,110000,51.6,350
528660,2021-02-19,13:09:45,CHINA,-4.3,-14.6,772.4,766.9,10.5,5.6,0.01,0.0,110000,69.7,142
512880,2021-02-19,13:09:45,CHINA,-5.0,-14.7,835.6,836.2,35.2,11.0,0.01,0.0,110000,82.8,253
470750,2021-02-19,13:09:45,KOREANORTH,-2.2,-6.6,1027.7,1023.2,35.0,11.3,0.07,0.1,111000,51.9,109
509530,2021-02-19,13:09:45,CHINA,-7.6,-12.3,1015.6,1022.6,12.6,15.3,0.02,0.0,110000,88.7,327
443850,2021-02-19,13:09:45,MONGOLIA,-3.1,-15.4,893.1,1026.4,34.0,10.8,0.00,0.0,100000,76.6,246
475830,2021-02-19,13:09:45,JAPAN,-2.3,-7.9,1009.1,1011.2,3.5,13.1,0.00,0.0,100000,10.6,132
475820,2021-02-19,13:09:45,JAPAN,-2.5,-7.5,1021.1,1017.2,13.2,23.7,0.14,4.9,111000,50.4,306
510760,2021-02-19,13:09:45,CHINA,-7.4,-12.9,962.8,1032.5,30.4,3.1,0.04,0.0,110000,56.7,116
526740,2021-02-19,13:09:45,CHINA,-2.8,-20.1,801.1,795.7,28.7,10.8,0.00,0.0,100000,83.7,100
478090,2021-02-19,13:09:45,JAPAN,-0.3,-5.5,1019.0,1024.0,24.1,2.3,0.02,0.0,110000,50.9,117
171290,2021-02-19,13:09:45,TURKEY,-0.9,-5.4,968.4,1019.7,6.8,5.1,0.04,0.0,110000,51.8,176
561460,2021-02-19,13:09:45,CHINA,-0.9,-13.6,680.4,678.4,28.5,6.8,0.01,0.0,110000,89.8,274
367440,2021-02-19,13:09:45,KAZAKHSTAN,-5.2,-9.5,1039.9,1032.8,44.9,12.4,0.00,0.9,101000,51.9,217
552990,2021-02-19,13:09:45,CHINA,-4.6,-19.3,1003.4,996.8,21.2,19.6,0.01,0.0,110000,68.6,177
474300,2021-02-19,13:09:45,JAPAN,-5.6,-9.4,1019.4,1015.5,15.1,,0.08,7.1,111000,73.9,34
474180,2021-02-19,13:09:45,JAPAN,-11.2,-15.8,1010.2,1016.0,26.1,33.1,0.07,4.6,111000,69.6,235
351880,2021-02-19,13:09:45,KAZAKHSTAN,-4.4,-8.1,1027.8,1027.7,15.3,21.0,0.19,2.2,111000,50.2,247
528420,2021-02-19,13:09:45,CHINA,-10.8,-26.4,696.5,689.8,18.8,9.9,0.01,0.0,110000,76.8,120
536140,2021-02-19,13:09:45,CHINA,-3.3,-14.6,926.9,1028.0,15.9,9.0,0.00,0.0,100000,2.3,121
171990,2021-02-19,13:09:45,TURKEY,-4.3,-7.9,912.1,1031.1,18.6,10.2,0.60,3.3,111000,68.6,181
534460,2021-02-19,13:09:45,CHINA,-4.2,-17.6,1005.7,1029.3,8.2,11.9,0.00,0.0,100000,42.6,241
471064,2021-02-19,13:09:45,KOREASOUTH,-6.3,-12.3,1012.2,1011.1,15.1,0.3,0.00,0.0,100000,35.1,271
471066,2021-02-19,13:09:45,KOREASOUTH,-1.4,-8.2,1009.0,1006.6,10.3,3.7,0.00,0.1,101000,51.2,14
476170,2021-02-19,13:09:45,JAPAN,-5.9,-11.3,953.5,1024.0,20.3,9.2,0.00,0.0,100000,17.9,191
528250,2021-02-19,13:09:45,CHINA,-3.7,-20.8,723.5,722.4,22.7,1.8,0.00,0.0,100000,11.7,167
514635,2021-02-19,13:09:45,CHINA,-6.2,-9.1,992.5,996.3,7.3,6.2,0.00,0.0,100000,11.8,259
357000,2021-02-19,13:09:45,KAZAKHSTAN,-0.8,-5.0,1026.0,1022.2,19.6,29.7,0.04,1.8,111000,54.9,6
170880,2021-02-19,13:09:45,TURKEY,-6.6,-8.9,880.8,860.1,22.9,12.2,0.49,25.2,111000,50.1,2
470950,2021-02-19,13:09:45,KOREASOUTH,-3.1,-10.9,1007.3,1023.7,11.2,14.0,0.05,0.0,110000,54.8,124
474830,2021-02-19,13:09:45,JAPAN,-5.9,-13.4,1006.0,1003.0,9.0,8.1,0.00,0.0,100000,67.4,263
475690,2021-02-19,13:09:45,JAPAN,-0.2,-7.7,1001.6,1002.5,11.4,18.2,0.00,0.0,100000,73.3,352
475750,2021-02-19,13:09:45,JAPAN,-3.1,-7.1,1021.6,1016.6,10.7,16.1,0.14,22.5,111000,85.5,140
510870,2021-02-19,13:09:45,CHINA,-3.9,-7.7,928.7,1028.7,36.4,3.2,0.07,0.0,110000,96.9,5
443520,2021-02-19,13:09:45,MONGOLIA,-8.1,-15.1,1071.9,1030.2,53.1,20.0,0.00,0.0,100000,53.2,310
532760,2021-02-19,13:09:45,CHINA,-8.7,-18.0,918.6,1028.3,26.1,15.9,0.01,0.0,110000,86.4,211
442880,2021-02-19,13:09:45,MONGOLIA,-13.7,-21.1,916.6,1028.4,47.7,22.2,0.00,0.1,101000,61.8,69
471580,2021-02-19,13:09:45,KOREASOUTH,-0.6,-4.8,1010.9,1009.2,14.5,9.3,0.00,0.0,100000,65.5,198
471560,2021-02-19,13:09:45,KOREASOUTH,-0.2,-6.7,1018.2,1022.9,13.7,12.4,0.08,0.0,110000,84.8,81
442920,2021-02-19,13:09:45,MONGOLIA,-14.2,-19.8,889.7,1030.4,22.1,5.6,0.26,3.0,111000,86.5,258
526810,2021-02-19,13:09:45,CHINA,-3.8,-16.7,896.9,1030.3,28.6,9.6,0.00,0.0,100000,92.0,309
380620,2021-02-19,13:09:45,KAZAKHSTAN,-0.6,-7.2,1022.1,1025.7,20.5,3.7,0.01,0.3,111000,90.1,138
442370,2021-02-19,13:09:45,MONGOLIA,-7.4,-13.6,845.1,1024.1,50.8,13.8,0.00,0.2,101000,77.8,27
546020,2021-02-19,13:09:45,CHINA,-1.6,-12.9,1021.7,1025.6,9.2,5.1,0.02,0.0,110000,96.0,345
474200,2021-02-19,13:09:45,JAPAN,-8.5,-12.1,1014.1,1015.7,16.0,13.1,0.02,3.6,111000,65.0,256
351910,2021-02-19,13:09:45,KAZAKHSTAN,-5.2,-15.7,1034.0,1040.6,46.1,5.1,0.00,0.0,100000,15.3,248
171550,2021-02-19,13:09:45,TURKEY,-0.8,-6.1,899.1,1012.2,14.1,1.8,0.00,0.0,100000,76.4,183
585060,2021-02-19,13:09:45,CHINA,-0.5,-4.9,979.2,1026.7,15.3,13.2,0.16,0.0,110000,50.6,295
475910,2021-02-19,13:09:45,JAPAN,-1.4,-6.4,1005.2,1004.1,18.0,12.8,0.08,0.5,111000,52.5,69
475490,2021-02-19,13:09:45,JAPAN,-1.8,-7.4,998.4,995.9,3.5,13.7,0.00,0.0,100000,31.2,43
505270,2021-02-19,13:09:45,CHINA,-18.4,-20.8,990.2,1027.9,18.5,13.8,0.02,0.0,110000,51.4,9
475120,2021-02-19,13:09:45,JAPAN,-1.1,-6.4,1020.0,1018.9,41.1,6.1,0.00,0.0,100000,88.9,108
563740,2021-02-19,13:09:45,CHINA,-0.2,-6.2,748.3,750.7,29.7,19.1,0.03,0.0,110000,50.2,334
539150,2021-02-19,13:09:45,CHINA,-2.4,-11.1,907.3,1029.6,23.8,11.6,0.02,0.0,110000,52.4,99
570250,2021-02-19,13:09:45,CHINA,-0.4,-6.5,1047.7,1035.6,14.1,6.5,0.00,0.0,100000,4.2,80
171200,2021-02-19,13:09:45,TURKEY,-2.4,-4.7,1025.8,1005.2,15.3,2.4,0.00,0.0,100000,64.4,87
546180,2021-02-19,13:09:45,CHINA,-0.4,-9.1,1022.8,1024.7,12.5,13.2,0.08,0.0,110000,51.6,241
474400,2021-02-19,13:09:45,JAPAN,-8.4,-12.9,1012.6,1016.9,19.4,0.5,0.10,0.0,110000,90.3,257
442980,2021-02-19,13:09:45,MONGOLIA,-18.7,-26.0,1056.6,1032.8,41.2,16.7,0.05,0.0,110000,82.1,356
529830,2021-02-19,13:09:45,CHINA,-5.2,-12.0,817.3,838.3,12.3,7.5,0.00,0.0,100000,36.7,4
470410,2021-02-19,13:09:45,KOREANORTH,-3.3,-9.8,1009.5,1020.6,15.9,11.8,0.02,0.0,110000,52.6,223
536980,2021-02-19,13:09:45,CHINA,-0.6,-11.5,1023.9,1025.5,13.6,15.0,0.04,0.0,110000,51.1,122
289840,2021-02-19,13:09:45,KAZAKHSTAN,-2.6,-6.0,1029.0,1019.1,29.8,19.6,0.00,0.0,100000,93.8,31
362080,2021-02-19,13:09:45,KAZAKHSTAN,-13.0,-19.1,1011.6,1032.1,26.5,3.0,0.00,0.0,100000,53.5,258
346910,2021-02-19,13:09:45,KAZAKHSTAN,-1.6,-4.8,1021.4,1022.7,16.2,20.2,0.02,2.2,111000,50.3,120
524180,2021-02-19,13:09:45,CHINA,-1.3,-14.3,918.1,1027.1,26.9,3.1,0.01,0.0,110000,51.8,160
171295,2021-02-19,13:09:45,TURKEY,-0.5,-2.0,997.9,1007.9,10.9,7.7,0.00,0.0,100000,56.8,15
478140,2021-02-19,13:09:45,JAPAN,-0.6,-5.6,1014.5,1023.1,15.9,0.0,0.00,0.0,100000,78.6,130
355760,2021-02-19,13:09:45,KAZAKHSTAN,-7.7,-10.5,1013.6,1036.2,26.4,15.1,0.01,6.9,111000,55.7,219
580400,2021-02-19,13:09:45,CHINA,-0.3,-7.1,1029.0,1025.7,15.8,15.6,0.02,0.0,110000,76.6,163
570670,2021-02-19,13:09:45,CHINA,-0.4,-8.8,991.6,1028.9,20.4,4.2,0.02,0.0,110000,52.1,131
560180,2021-02-19,13:09:45,CHINA,-3.3,-14.1,627.1,635.5,24.5,16.4,0.01,0.0,110000,88.0,56
560340,2021-02-19,13:09:45,CHINA,-10.5,-19.5,600.9,593.5,21.0,17.3,0.05,0.0,110000,54.5,311
535930,2021-02-19,13:09:45,CHINA,-8.0,-20.8,980.3,1027.5,27.0,9.7,0.02,0.0,110000,60.9,279
471190,2021-02-19,13:09:45,KOREASOUTH,-2.0,-7.7,1024.5,1023.6,18.5,3.3,0.03,0.0,110000,80.7,307
471180,2021-02-19,13:09:45,KOREASOUTH,-3.4,-9.4,1013.7,1018.6,7.2,2.5,0.00,0.0,100000,58.6,84
288670,2021-02-19,13:09:45,KAZAKHSTAN,-7.0,-9.9,1001.5,1030.8,21.4,12.9,0.00,23.0,101000,52.4,112
529570,2021-02-19,13:09:45,CHINA,-3.9,-17.8,723.6,718.0,24.4,15.7,0.03,0.0,110000,90.2,61
475920,2021-02-19,13:09:45,JAPAN,-1.3,-6.1,1014.9,1017.0,21.7,16.3,0.18,2.0,111000,50.4,351
535430,2021-02-19,13:09:45,CHINA,-4.5,-17.2,880.9,1028.0,30.2,9.6,0.00,0.0,100000,69.9,4
442070,2021-02-19,13:09:45,MONGOLIA,-14.8,-20.1,1051.2,1044.0,55.4,4.0,0.00,0.0,100000,6.1,318
542360,2021-02-19,13:09:45,CHINA,-6.2,-16.1,1019.7,1024.1,13.2,24.3,0.02,0.0,110000,51.3,240
470580,2021-02-19,13:09:45,KOREANORTH,-2.9,-9.4,1015.4,1023.6,21.9,5.5,0.01,0.0,110000,52.1,5
508880,2021-02-19,13:09:45,CHINA,-6.7,-13.9,1014.2,1020.8,24.8,11.6,0.02,0.0,110000,60.1,168
355420,2021-02-19,13:09:45,KAZAKHSTAN,-6.6,-9.1,1016.4,1029.0,8.3,17.5,0.03,0.9,111000,89.0,151
582030,2021-02-19,13:09:45,CHINA,-0.1,-6.6,1022.6,1025.7,19.2,15.9,0.03,0.0,110000,50.7,44
527650,2021-02-19,13:09:45,CHINA,-8.4,-19.9,714.5,714.4,22.2,1.2,0.01,0.0,110000,51.5,234
509680,2021-02-19,13:09:45,CHINA,-11.7,-16.0,1017.6,1022.8,18.2,4.8,0.02,0.0,110000,51.0,234
541610,2021-02-19,13:09:45,CHINA,-3.8,-10.9,1012.5,1023.3,13.0,13.3,0.03,0.0,110000,52.1,199
541611,2021-02-19,13:09:45,CHINA,-4.9,-11.6,1019.5,1041.3,10.9,1.2,0.00,0.0,100000,96.9,192
541570,2021-02-19,13:09:45,CHINA,-7.8,-15.1,1025.5,1023.1,12.8,6.2,0.03,0.0,110000,64.0,280
172440,2021-02-19,13:09:45,TURKEY,-0.6,-5.0,952.6,975.8,10.1,10.0,0.02,0.8,111000,51.3,121
504340,2021-02-19,13:09:45,CHINA,-21.1,-24.4,961.4,1027.2,21.0,12.2,0.02,0.0,110000,53.2,134
350530,2021-02-19,13:09:45,KAZAKHSTAN,-4.7,-9.5,1028.3,1035.4,14.9,19.8,0.08,1.1,111000,63.7,156
537640,2021-02-19,13:09:45,CHINA,-6.3,-16.8,972.5,1028.6,19.1,2.7,0.02,0.0,110000,57.1,57
474900,2021-02-19,13:09:45,JAPAN,-10.7,-17.2,995.8,999.6,11.8,7.2,0.00,0.0,100000,76.7,214
474890,2021-02-19,13:09:45,JAPAN,-7.8,-13.6,1000.0,998.1,4.0,5.4,0.00,0.0,100000,31.6,15
505480,2021-02-19,13:09:45,CHINA,-16.5,-21.0,1007.9,1010.1,24.6,7.5,0.00,0.0,100000,35.7,278
360010,2021-02-19,13:09:45,KAZAKHSTAN,-11.8,-16.4,1024.4,1023.8,4.5,37.1,0.02,2.8,111000,55.6,234
540490,2021-02-19,13:09:45,CHINA,-5.7,-13.6,1028.7,1023.6,18.6,10.9,0.02,0.0,110000,69.7,218
400010,2021-02-19,13:09:45,SYRIA,-0.7,-4.8,1036.8,1012.6,15.7,2.9,0.00,0.0,100000,80.7,318
170960,2021-02-19,13:09:45,TURKEY,-2.8,-6.9,891.0,905.2,16.8,16.2,0.08,8.8,111000,51.8,37
476380,2021-02-19,13:09:45,JAPAN,-0.8,-9.8,994.2,1016.1,15.9,1.8,0.13,0.6,111000,51.4,16
584370,2021-02-19,13:09:45,CHINA,-3.0,-10.2,835.7,833.5,16.2,33.2,0.14,0.0,110000,76.7,49
571310,2021-02-19,13:09:45,CHINA,-0.3,-6.2,981.3,1029.3,6.7,2.6,0.00,0.0,100000,99.8,187
541020,2021-02-19,13:09:45,CHINA,-12.4,-19.2,938.2,1029.7,28.0,1.6,0.01,0.0,110000,69.5,84
527540,2021-02-19,13:09:45,CHINA,-9.4,-21.6,676.0,678.4,32.5,6.1,0.01,0.0,110000,94.7,228
524460,2021-02-19,13:09:45,CHINA,-3.2,-17.6,937.2,1034.8,41.6,10.6,0.00,0.0,100000,77.2,0
548570,2021-02-19,13:09:45,CHINA,-0.6,-7.0,1024.3,1025.6,12.9,19.0,0.02,0.0,110000,89.7,164
543240,2021-02-19,13:09:45,CHINA,-5.0,-18.2,1023.9,1025.2,17.4,18.0,0.01,0.0,110000,50.1,354
471270,2021-02-19,13:09:45,KOREASOUTH,-1.4,-6.2,1008.3,1015.2,8.8,10.4,0.01,0.2,111000,52.5,84
172410,2021-02-19,13:09:45,TURKEY,-3.2,-8.2,989.7,1045.0,11.8,11.1,0.00,0.0,100000,92.6,322
353450,2021-02-19,13:09:45,KAZAKHSTAN,-2.7,-6.2,1064.9,1041.9,16.5,0.0,0.00,4.9,101000,69.6,160
475810,2021-02-19,13:09:45,JAPAN,-3.2,-8.1,1013.0,1016.2,28.7,9.2,0.02,5.9,111000,90.4,302
535290,2021-02-19,13:09:45,CHINA,-3.1,-16.2,893.0,1028.5,22.3,3.8,0.01,0.0,110000,63.5,95
475740,2021-02-19,13:09:45,JAPAN,-1.3,-8.4,1007.5,1018.2,13.9,22.1,0.03,0.0,110000,54.4,318
508620,2021-02-19,13:09:45,CHINA,-18.0,-24.1,1020.1,1006.8,22.3,5.2,0.00,0.0,100000,16.6,321
368700,2021-02-19,13:09:45,KAZAKHSTAN,-0.9,-3.8,978.7,1022.9,10.3,5.2,0.05,2.2,111000,51.5,25
171500,2021-02-19,13:09:45,TURKEY,-0.5,-3.9,,1019.2,8.6,2.4,0.10,0.9,111000,57.8,293
537230,2021-02-19,13:09:45,CHINA,-5.5,-18.2,907.8,1029.1,14.5,11.3,0.02,0.0,110000,54.1,76
442320,2021-02-19,13:09:45,MONGOLIA,-11.9,-18.4,1041.3,1049.4,38.6,6.4,0.00,0.0,100000,78.6,66
534630,2021-02-19,13:09:45,CHINA,-6.5,-16.7,930.5,1029.0,13.5,11.8,0.01,0.0,110000,53.7,171
353760,2021-02-19,13:09:45,KAZAKHSTAN,-5.5,-9.2,991.0,1030.8,20.9,5.9,0.01,6.4,111000,59.9,334
539230,2021-02-19,13:09:45,CHINA,-1.4,-11.6,952.9,1026.6,27.1,12.8,0.02,0.0,110000,50.4,74
513340,2021-02-19,13:09:45,CHINA,-5.7,-8.5,1042.3,1032.1,25.8,1.0,0.01,0.0,110000,50.2,163
572900,2021-02-19,13:09:45,CHINA,-0.3,-6.6,1021.7,1026.2,21.1,4.0,0.02,0.0,110000,50.2,66
543740,2021-02-19,13:09:45,CHINA,-9.7,-15.7,1007.7,1023.3,12.9,3.5,0.01,0.0,110000,51.8,56
477690,2021-02-19,13:09:45,JAPAN,-0.8,-7.7,1019.9,1025.3,0.1,19.7,0.00,0.0,100000,39.2,263
171880,2021-02-19,13:09:45,TURKEY,-0.1,-3.6,937.6,1016.4,22.3,2.8,0.17,0.3,111000,54.3,188
538210,2021-02-19,13:09:45,CHINA,-5.9,-19.0,929.4,1028.0,20.4,6.1,0.00,0.0,100000,37.6,283
443470,2021-02-19,13:09:45,MONGOLIA,-9.0,-27.1,861.9,1010.1,25.4,19.8,0.00,0.0,100000,91.1,323
545270,2021-02-19,13:09:45,CHINA,-1.2,-12.1,1030.7,1025.7,17.1,0.9,0.11,0.0,110000,52.8,194
475800,2021-02-19,13:09:45,JAPAN,-3.4,-7.1,999.9,1002.0,20.8,14.6,0.00,1.9,101000,51.0,91
470080,2021-02-19,13:09:45,KOREANORTH,-3.9,-11.5,1014.3,1020.6,13.8,13.4,0.00,0.0,100000,97.2,305
442120,2021-02-19,13:09:45,MONGOLIA,-22.1,-26.2,912.3,1037.5,54.8,4.3,0.00,9.9,101000,73.5,210
544050,2021-02-19,13:09:45,CHINA,-4.5,-18.0,1022.5,1027.2,17.0,16.3,0.01,0.0,110000,54.2,193
442140,2021-02-19,13:09:45,MONGOLIA,-10.9,-18.4,825.1,1027.6,10.9,5.0,0.00,0.0,100000,91.6,0
560290,2021-02-19,13:09:45,CHINA,-3.3,-16.4,645.5,645.4,28.5,0.0,0.04,0.0,110000,53.9,264
289780,2021-02-19,13:09:45,KAZAKHSTAN,-8.8,-11.3,969.2,1020.4,10.9,4.5,0.00,0.0,100000,66.3,246
527870,2021-02-19,13:09:45,CHINA,-5.7,-15.3,746.9,749.8,27.1,21.7,0.01,0.0,110000,69.4,166
475870,2021-02-19,13:09:45,JAPAN,-0.7,-5.9,1014.1,1017.1,15.2,18.4,0.21,3.7,111000,84.5,181
475850,2021-02-19,13:09:45,JAPAN,-3.5,-9.4,1010.4,1014.1,21.4,8.1,0.13,2.9,111000,64.2,202
507880,2021-02-19,13:09:45,CHINA,-10.0,-14.4,1019.0,1019.4,22.9,12.5,0.02,0.0,110000,50.3,230
571930,2021-02-19,13:09:45,CHINA,-0.4,-7.3,1009.2,1025.2,4.5,7.1,0.01,0.0,110000,52.7,13
355490,2021-02-19,13:09:45,KAZAKHSTAN,-4.4,-7.2,1028.2,1033.7,18.4,17.4,0.00,2.6,101000,97.5,155
471430,2021-02-19,13:09:45,KOREASOUTH,-0.9,-9.6,1015.6,1023.0,24.1,18.5,0.06,0.0,110000,50.2,15
172000,2021-02-19,13:09:45,TURKEY,-0.6,-4.0,975.1,1013.5,11.8,12.8,0.10,0.5,111000,50.0,208
477560,2021-02-19,13:09:45,JAPAN,-0.3,-5.4,1002.9,1019.1,16.9,7.7,0.22,0.0,110000,85.9,155
570140,2021-02-19,13:09:45,CHINA,-2.0,-7.4,1003.4,1033.0,20.3,2.8,0.00,0.0,100000,0.9,111
471400,2021-02-19,13:09:45,KOREASOUTH,-0.7,-5.2,1016.8,1023.9,21.1,29.6,0.03,0.0,110000,50.5,172
471410,2021-02-19,13:09:45,KOREASOUTH,-0.7,-4.9,1012.6,1015.4,9.5,20.6,0.07,0.1,111000,95.6,274
471420,2021-02-19,13:09:45,KOREASOUTH,-1.4,-10.6,1013.4,1012.9,12.2,11.5,0.00,0.0,100000,53.8,201
471140,2021-02-19,13:09:45,KOREASOUTH,-2.3,-9.1,1004.7,1023.3,14.1,0.8,0.06,0.4,111000,81.0,153
351080,2021-02-19,13:09:45,KAZAKHSTAN,-3.9,-5.8,1019.1,1023.8,10.9,27.7,0.01,8.6,111000,79.9,313
476290,2021-02-19,13:09:45,JAPAN,-1.5,-9.7,1012.5,1016.1,27.6,17.6,0.04,0.0,110000,65.2,25
477150,2021-02-19,13:09:45,JAPAN,-0.6,-6.7,1001.8,1001.9,8.5,4.7,0.14,0.3,111000,50.1,200
471300,2021-02-19,13:09:45,KOREASOUTH,-0.1,-8.0,1018.9,1021.4,19.3,23.9,0.13,0.2,111000,50.0,254
471310,2021-02-19,13:09:45,KOREASOUTH,-2.0,-9.1,1020.5,1024.0,21.8,15.1,0.04,0.0,110000,52.2,252
383410,2021-02-19,13:09:45,KAZAKHSTAN,-0.8,-4.5,994.7,1027.8,7.7,10.2,0.19,1.4,111000,72.4,278
548360,2021-02-19,13:09:45,CHINA,-2.0,-13.3,1032.8,1027.3,14.1,13.6,0.03,0.0,110000,53.8,170
523230,2021-02-19,13:09:45,CHINA,-5.7,-17.7,818.8,817.2,35.5,21.3,0.01,0.0,110000,50.8,265
475700,2021-02-19,13:09:45,JAPAN,-3.2,-6.3,1007.4,1019.5,14.3,2.8,0.16,7.8,111000,51.4,108
534870,2021-02-19,13:09:45,CHINA,-8.6,-21.4,972.0,1027.9,13.4,13.1,0.01,0.0,110000,50.3,268
561060,2021-02-19,13:09:45,CHINA,-3.3,-15.8,619.0,617.0,29.1,12.7,0.02,0.0,110000,55.3,350
545390,2021-02-19,13:09:45,CHINA,-3.1,-12.3,1021.5,1026.5,22.8,9.6,0.02,0.0,110000,80.9,292
560800,2021-02-19,13:09:45,CHINA,-6.8,-15.3,734.3,733.0,28.6,10.2,0.02,0.0,110000,50.2,76
560790,2021-02-19,13:09:45,CHINA,-5.7,-13.9,665.4,663.3,35.4,3.3,0.02,0.0,110000,50.6,331
354970,2021-02-19,13:09:45,KAZAKHSTAN,-6.4,-13.4,988.9,1033.9,29.4,13.6,0.00,4.9,101000,50.7,32
475840,2021-02-19,13:09:45,JAPAN,-4.7,-9.0,1005.9,1015.1,3.9,19.2,0.10,3.7,111000,67.6,319
535130,2021-02-19,13:09:45,CHINA,-5.6,-18.6,925.9,1030.4,21.9,6.0,0.00,0.0,100000,20.6,305
475900,2021-02-19,13:09:45,JAPAN,-1.2,-6.8,1009.4,1017.5,19.5,8.6,0.10,0.9,111000,50.0,332
542590,2021-02-19,13:09:45,CHINA,-7.4,-15.1,1028.8,1024.9,19.3,4.2,0.02,0.0,110000,86.4,69
471000,2021-02-19,13:09:45,KOREASOUTH,-4.1,-10.9,922.2,1022.6,19.2,16.7,0.09,10.6,111000,52.0,227
470980,2021-02-19,13:09:45,KOREASOUTH,-2.7,-10.6,1011.3,1025.2,9.4,4.8,0.01,0.0,110000,72.1,139
545340,2021-02-19,13:09:45,CHINA,-2.1,-13.8,1025.6,1025.7,13.4,0.5,0.02,0.0,110000,51.4,90
474880,2021-02-19,13:09:45,JAPAN,-4.0,-9.0,995.0,997.9,11.0,11.1,0.00,0.0,100000,98.8,337
514670,2021-02-19,13:09:45,CHINA,-0.4,-13.8,829.4,828.4,28.7,0.9,0.00,0.0,100000,70.3,19
539470,2021-02-19,13:09:45,CHINA,-3.2,-14.8,949.3,1027.1,21.8,7.9,0.01,0.0,110000,81.4,131
570060,2021-02-19,13:09:45,CHINA,-0.5,-10.7,946.6,1026.1,11.7,5.3,0.02,0.0,110000,50.7,43
544830,2021-02-19,13:09:45,CHINA,-10.0,-15.6,1024.5,1024.0,12.2,13.4,0.01,0.0,110000,52.7,99
518860,2021-02-19,13:09:45,CHINA,-4.5,-22.6,701.4,698.5,26.9,15.5,0.00,0.0,100000,93.6,161
400300,2021-02-19,13:09:45,SYRIA,-0.3,-6.1,1038.3,1017.3,10.8,3.9,0.00,0.0,100000,8.7,165
172500,2021-02-19,13:09:45,TURKEY,-2.0,-6.4,878.9,877.6,27.7,13.0,0.25,3.5,111000,90.5,281
471610,2021-02-19,13:09:45,KOREASOUTH,-1.2,-7.4,1001.0,1001.4,5.9,11.6,0.05,0.0,110000,93.4,340
540270,2021-02-19,13:09:45,CHINA,-5.9,-16.9,1000.9,1024.1,26.5,10.6,0.01,0.0,110000,67.3,125
549160,2021-02-19,13:09:45,CHINA,-0.2,-9.6,1027.4,1026.4,12.9,5.0,0.01,0.0,110000,53.8,275
478210,2021-02-19,13:09:45,JAPAN,-3.1,-8.5,891.3,897.7,18.1,7.3,0.00,0.0,100000,34.4,113
475420,2021-02-19,13:09:45,JAPAN,-3.2,-7.3,1003.1,1000.8,8.5,20.7,0.00,0.0,100000,90.5,97
544360,2021-02-19,13:09:45,CHINA,-6.5,-18.5,1023.8,1025.4,35.0,8.8,0.01,0.0,110000,51.0,312
507270,2021-02-19,13:09:45,CHINA,-5.4,-9.3,914.0,1027.4,31.4,4.0,0.02,0.0,110000,58.4,156
443410,2021-02-19,13:09:45,MONGOLIA,-6.1,-13.9,855.9,1021.3,44.4,8.8,0.00,0.5,101000,52.7,306
515420,2021-02-19,13:09:45,CHINA,-16.6,-20.7,755.0,752.9,33.1,5.7,0.00,0.0,100000,67.6,101
539750,2021-02-19,13:09:45,CHINA,-2.3,-12.9,1022.9,1028.0,8.6,12.1,0.02,0.0,110000,67.4,120
547760,2021-02-19,13:09:45,CHINA,-0.6,-6.5,1021.1,1025.6,18.5,8.5,0.04,0.0,110000,64.5,342
170920,2021-02-19,13:09:45,TURKEY,-0.1,-3.3,957.1,982.5,6.7,10.4,0.24,3.5,111000,51.8,120
533910,2021-02-19,13:09:45,CHINA,-5.5,-13.9,880.8,1025.9,33.5,22.8,0.01,0.0,110000,50.4,121
533360,2021-02-19,13:09:45,CHINA,-6.3,-17.3,909.2,1029.9,27.1,7.1,0.01,0.0,110000,54.0,176
508440,2021-02-19,13:09:45,CHINA,-4.8,-14.3,1021.8,1022.9,12.8,14.7,0.01,0.0,110000,50.6,356
576220,2021-02-19,13:09:45,CHINA,-0.9,-2.0,841.6,837.6,6.5,16.3,0.05,0.0,110000,75.5,277
560670,2021-02-19,13:09:45,CHINA,-5.5,-17.2,650.5,654.5,22.6,27.7,0.00,0.0,100000,26.7,75
552790,2021-02-19,13:09:45,CHINA,-5.4,-22.8,994.2,995.3,31.5,39.4,0.01,0.0,110000,68.1,118
358490,2021-02-19,13:09:45,KAZAKHSTAN,-1.4,-6.4,1013.3,1023.5,17.1,10.0,0.01,1.2,111000,52.3,158
528560,2021-02-19,13:09:45,CHINA,-2.6,-17.4,768.1,767.8,21.9,6.3,0.03,0.0,110000,56.2,257
474330,2021-02-19,13:09:45,JAPAN,-14.4,-17.6,990.2,1014.5,29.8,14.1,,0.0,100000,57.3,199
474050,2021-02-19,13:09:45,JAPAN,-9.7,-16.2,1009.5,1018.0,43.7,18.2,0.00,0.0,100000,85.2,27
471460,2021-02-19,13:09:45,KOREASOUTH,-0.3,-6.3,1018.8,1023.6,12.7,7.4,0.05,0.0,110000,50.8,280
475970,2021-02-19,13:09:45,JAPAN,-1.7,-9.1,974.3,1018.1,20.5,16.3,0.07,0.0,110000,96.9,135
470312,2021-02-19,13:09:45,CHINA,-1.9,-18.0,994.9,980.0,1.7,7.7,0.00,0.0,100000,46.4,116
543110,2021-02-19,13:09:45,CHINA,-5.0,-15.9,975.7,1027.8,23.9,8.1,0.02,0.0,110000,67.2,229
172480,2021-02-19,13:09:45,TURKEY,-5.1,-7.7,902.9,868.9,16.1,2.7,0.33,18.1,111000,50.3,67
470500,2021-02-19,13:09:45,KOREANORTH,-5.3,-9.4,1020.3,1023.8,18.7,5.1,0.08,0.0,110000,51.2,121
476720,2021-02-19,13:09:45,JAPAN,-0.9,-6.7,1019.8,1020.7,24.8,15.2,0.00,0.0,100000,57.9,216
352290,2021-02-19,13:09:45,KAZAKHSTAN,-5.8,-9.4,1017.1,1026.4,4.8,10.7,0.28,4.0,111000,51.4,231
287850,2021-02-19,13:09:45,KAZAKHSTAN,-4.9,-7.1,1049.8,1018.4,10.0,2.9,0.00,11.6,101000,52.5,105
374320,2021-02-19,13:09:45,GEORGIA,-0.3,-3.7,952.5,955.1,30.7,8.7,0.16,5.7,111000,72.8,357
353630,2021-02-19,13:09:45,KAZAKHSTAN,-7.6,-8.8,1054.8,1043.4,14.3,19.2,0.00,0.0,100000,86.2,167
541350,2021-02-19,13:09:45,CHINA,-8.3,-20.1,1019.5,1024.0,20.3,22.1,0.01,0.0,110000,56.4,235
361860,2021-02-19,13:09:45,KAZAKHSTAN,-2.5,-6.8,992.5,1019.8,7.3,2.0,0.00,17.0,101000,50.5,29
560930,2021-02-19,13:09:45,CHINA,-5.0,-9.2,1012.5,1033.0,15.8,1.4,0.02,0.0,110000,51.1,268
548080,2021-02-19,13:09:45,CHINA,-1.3,-8.7,1026.8,1026.1,2.8,9.5,0.01,0.0,110000,94.8,134
477470,2021-02-19,13:09:45,JAPAN,-0.9,-4.7,1024.3,1024.0,10.9,4.6,0.00,0.0,100000,82.8,318
443040,2021-02-19,13:09:45,MONGOLIA,-12.1,-16.4,1022.4,1032.2,46.3,7.3,0.00,1.1,101000,76.3,298
512430,2021-02-19,13:09:45,CHINA,-2.2,-10.1,1008.0,1034.0,14.2,2.6,0.00,0.0,100000,70.4,356
353940,2021-02-19,13:09:45,KAZAKHSTAN,-4.8,-7.9,1002.1,1031.7,24.3,12.2,0.20,3.9,111000,54.1,50
521120,2021-02-19,13:09:45,CHINA,-1.8,-17.8,1022.9,1026.0,28.1,21.1,0.00,0.0,100000,13.6,173
366390,2021-02-19,13:09:45,KAZAKHSTAN,-10.2,-14.6,1036.4,1033.0,49.2,3.3,0.00,38.4,101000,51.9,294
353210,2021-02-19,13:09:45,KAZAKHSTAN,-5.0,-10.3,1054.2,1035.4,8.1,10.0,0.00,0.0,100000,88.1,37
509150,2021-02-19,13:09:45,CHINA,-8.2,-12.2,945.9,1029.2,33.1,17.0,0.02,0.0,110000,52.6,274
535880,2021-02-19,13:09:45,CHINA,-4.5,-11.1,755.4,756.5,19.8,44.8,0.07,0.0,110000,75.9,356
470390,2021-02-19,13:09:45,KOREANORTH,-3.7,-7.9,1042.4,1024.8,12.6,0.8,0.00,0.0,100000,52.7,73
537050,2021-02-19,13:09:45,CHINA,-1.8,-15.7,973.2,1028.4,25.0,15.1,0.01,0.0,110000,50.3,134
442190,2021-02-19,13:09:45,MONGOLIA,-6.2,-17.5,848.4,1027.7,20.1,11.2,0.00,0.0,100000,10.0,284
507560,2021-02-19,13:09:45,CHINA,-7.5,-12.5,1009.2,1022.7,16.6,9.8,0.01,0.0,110000,50.8,6
554720,2021-02-19,13:09:45,CHINA,-3.8,-21.7,998.1,992.5,23.4,43.5,0.01,0.0,110000,52.1,21
289570,2021-02-19,13:09:45,KAZAKHSTAN,-4.0,-7.7,1027.2,1024.5,4.6,3.1,0.04,7.4,111000,53.1,53
476200,2021-02-19,13:09:45,JAPAN,-3.7,-9.4,927.5,1018.3,28.8,13.3,0.14,0.0,110000,52.5,95
538630,2021-02-19,13:09:45,CHINA,-1.7,-13.0,1016.9,1026.9,8.0,13.0,0.02,0.0,110000,54.5,137
538870,2021-02-19,13:09:45,CHINA,-4.3,-22.3,916.2,1026.8,32.3,4.1,0.00,0.0,100000,15.2,76
542920,2021-02-19,13:09:45,CHINA,-8.7,-20.2,1005.9,1025.1,15.9,8.0,0.00,0.0,100000,54.6,230
527370,2021-02-19,13:09:45,CHINA,-2.3,-18.9,725.4,729.3,24.6,22.9,0.01,0.0,110000,76.7,337
352170,2021-02-19,13:09:45,KAZAKHSTAN,-3.0,-5.8,1023.3,1022.0,17.0,21.9,0.01,4.8,111000,88.7,349
535640,2021-02-19,13:09:45,CHINA,-6.4,-18.1,936.8,1030.6,20.7,7.6,0.00,0.0,100000,68.1,306
476410,2021-02-19,13:09:45,JAPAN,-1.3,-8.8,989.5,1018.2,23.1,8.2,0.17,0.0,110000,54.3,250
476390,2021-02-19,13:09:45,JAPAN,-23.3,-30.1,1000.3,997.9,44.7,39.9,0.00,0.0,100000,55.1,218
511330,2021-02-19,13:09:45,CHINA,-4.7,-10.1,992.2,1033.3,,9.6,0.05,0.0,110000,89.8,109
442590,2021-02-19,13:09:45,MONGOLIA,-7.7,-11.9,953.7,1027.0,11.6,17.7,0.00,1.6,101000,79.8,270
359530,2021-02-19,13:09:45,KAZAKHSTAN,-3.1,-5.2,1014.2,1028.3,25.0,19.7,0.00,3.7,101000,87.5,205
350420,2021-02-19,13:09:45,KAZAKHSTAN,-2.4,-7.4,1027.1,1020.0,16.3,12.3,0.01,0.9,111000,83.2,168
522030,2021-02-19,13:09:45,CHINA,-0.9,-11.5,989.1,1027.5,36.2,2.1,0.00,0.0,100000,74.2,117
531920,2021-02-19,13:09:45,CHINA,-4.5,-9.9,918.2,1031.9,30.9,22.8,0.01,0.0,110000,51.2,186
541150,2021-02-19,13:09:45,CHINA,-7.1,-18.5,976.0,1026.3,21.1,22.9,0.01,0.0,110000,80.6,241
470610,2021-02-19,13:09:45,KOREANORTH,-1.1,-7.6,1016.6,1020.3,27.1,10.6,0.15,0.8,111000,69.6,8
470650,2021-02-19,13:09:45,KOREANORTH,-3.6,-9.6,1018.3,1024.4,13.8,7.5,0.01,0.0,110000,81.8,171
525760,2021-02-19,13:09:45,CHINA,-5.9,-20.7,849.8,861.3,32.6,36.1,0.00,0.0,100000,73.2,270
471070,2021-02-19,13:09:45,KOREASOUTH,-0.8,-7.8,1013.6,1016.3,13.7,13.5,0.03,0.3,111000,81.1,36
471065,2021-02-19,13:09:45,KOREASOUTH,-2.1,-7.2,1017.4,1031.1,5.1,10.3,0.00,2.8,101000,50.3,343
536460,2021-02-19,13:09:45,CHINA,-5.6,-18.1,926.5,1028.0,8.3,7.4,0.01,0.0,110000,51.6,260
524360,2021-02-19,13:09:45,CHINA,-3.3,-17.1,863.2,1028.5,27.2,30.9,0.01,0.0,110000,51.6,317
470050,2021-02-19,13:09:45,KOREANORTH,-4.5,-8.1,900.9,898.4,13.6,9.0,0.05,6.0,111000,88.1,265
475880,2021-02-19,13:09:45,JAPAN,-3.5,-7.2,997.0,1015.1,17.3,12.0,0.18,0.0,110000,82.0,281
171350,2021-02-19,13:09:45,TURKEY,-0.7,-6.0,922.3,1010.9,14.8,17.7,0.00,0.0,100000,28.8,194
355820,2021-02-19,13:09:45,KAZAKHSTAN,-3.7,-6.4,1026.3,1032.4,25.8,15.1,0.00,2.6,101000,51.6,93
478180,2021-02-19,13:09:45,JAPAN,-1.1,-6.8,944.9,1027.9,27.4,12.8,0.00,0.0,100000,1.2,117
442410,2021-02-19,13:09:45,MONGOLIA,-12.4,-15.0,1025.8,1033.1,46.9,8.2,0.00,2.1,101000,50.3,159
544710,2021-02-19,13:09:45,CHINA,-5.7,-13.3,1024.0,1025.0,15.8,24.1,0.00,0.0,100000,31.6,311
543424,2021-02-19,13:09:45,CHINA,-3.5,-12.0,998.3,994.3,7.1,21.7,0.00,0.0,100000,44.6,356
381411,2021-02-19,13:09:45,KAZAKHSTAN,-3.3,-3.1,1012.8,991.3,2.0,29.7,0.00,0.0,100000,68.1,268
364390,2021-02-19,13:09:45,KAZAKHSTAN,-7.7,-14.7,995.2,1001.3,34.8,28.9,0.01,0.7,111000,68.4,227
560460,2021-02-19,13:09:45,CHINA,-6.6,-16.6,671.3,672.8,22.4,5.3,0.03,0.0,110000,84.1,312
475160,2021-02-19,13:09:45,JAPAN,-3.2,-8.0,998.4,992.6,12.6,21.2,0.00,0.0,100000,81.2,220
541150,2021-02-19,13:09:46,CHINA,-6.8,-17.2,975.9,1026.3,21.1,22.8,0.01,0.0,110000,80.5,241
546560,2021-02-19,13:09:46,CHINA,-2.1,-7.7,1021.6,1024.8,25.7,30.7,0.01,0.0,110000,53.1,251
443850,2021-02-19,13:09:46,MONGOLIA,-3.1,-14.0,893.1,1026.4,34.1,10.7,0.00,0.0,100000,76.6,245
172100,2021-02-19,13:09:46,TURKEY,-0.3,-6.2,915.8,1023.1,24.0,1.9,0.00,0.0,100000,23.5,286
442290,2021-02-19,13:09:46,MONGOLIA,-11.2,-19.0,789.8,1015.4,47.3,9.3,0.00,0.0,100000,67.3,334
540490,2021-02-19,13:09:46,CHINA,-5.7,-14.9,1028.7,1023.6,18.6,11.0,0.02,0.0,110000,69.7,219
359970,2021-02-19,13:09:46,KAZAKHSTAN,-6.4,-10.3,1044.6,1032.9,31.2,5.4,0.05,0.9,111000,53.7,172
443050,2021-02-19,13:09:46,MONGOLIA,-12.8,-15.9,950.6,1027.2,47.0,10.2,0.01,2.2,111000,50.6,330
536730,2021-02-19,13:09:46,CHINA,-2.2,-13.7,975.3,1028.1,17.8,2.9,0.02,0.0,110000,50.3,65
549450,2021-02-19,13:09:46,CHINA,-0.6,-8.8,1019.2,1026.8,21.1,5.7,0.03,0.0,110000,51.4,117
474340,2021-02-19,13:09:46,JAPAN,-10.1,-13.4,1004.6,1011.7,10.9,11.9,0.00,1.4,101000,91.5,41
474350,2021-02-19,13:09:46,JAPAN,-4.9,-11.1,1012.5,1006.4,34.0,8.0,0.03,0.0,110000,68.4,313
545870,2021-02-19,13:09:46,CHINA,-2.3,-8.9,1025.9,1025.4,25.2,41.1,0.00,0.0,100000,4.1,179
470350,2021-02-19,13:09:46,KOREANORTH,-4.0,-12.3,1037.3,1024.4,19.2,11.9,0.04,0.0,110000,51.2,97
542180,2021-02-19,13:09:46,CHINA,-7.9,-20.6,992.4,1025.1,25.0,8.7,0.01,0.0,110000,51.3,111
470990,2021-02-19,13:09:46,KOREASOUTH,-2.7,-11.4,1020.7,1024.6,9.8,2.5,0.00,0.0,100000,86.0,332
471030,2021-02-19,13:09:46,KOREASOUTH,-0.7,-4.6,1016.2,1024.6,13.7,22.1,0.00,0.0,100000,73.6,89
471025,2021-02-19,13:09:46,KOREASOUTH,-0.1,-5.8,1011.2,1015.3,1.6,7.6,0.00,0.0,100000,62.7,219
501360,2021-02-19,13:09:46,CHINA,-22.6,-28.5,968.5,1026.9,17.3,3.9,0.00,0.0,100000,56.4,80
289570,2021-02-19,13:09:46,KAZAKHSTAN,-4.1,-7.7,1027.1,1024.5,4.7,3.0,0.04,7.4,111000,53.1,53
570460,2021-02-19,13:09:46,CHINA,-3.4,-11.0,817.2,825.1,23.0,25.5,0.02,0.0,110000,51.4,213
540120,2021-02-19,13:09:46,CHINA,-12.2,-16.9,937.1,1029.7,22.7,13.8,0.02,0.0,110000,50.2,168
509630,2021-02-19,13:09:46,CHINA,-9.1,-14.4,1016.7,1022.1,12.0,6.0,0.01,0.0,110000,98.7,131
471430,2021-02-19,13:09:46,KOREASOUTH,-1.0,-10.7,1015.5,1023.0,24.1,18.5,0.06,0.0,110000,50.1,15
476200,2021-02-19,13:09:46,JAPAN,-3.7,-8.4,927.5,1018.3,28.7,13.4,0.14,0.0,110000,52.5,96
539290,2021-02-19,13:09:46,CHINA,-0.6,-12.3,882.4,888.7,10.3,15.7,0.00,0.0,100000,53.1,22
507740,2021-02-19,13:09:46,CHINA,-12.9,-19.0,1013.4,1022.0,4.0,4.6,0.01,0.0,110000,50.1,313
514635,2021-02-19,13:09:46,CHINA,-6.2,-9.1,992.5,996.4,7.3,6.2,0.00,0.0,100000,11.8,259
474050,2021-02-19,13:09:46,JAPAN,-9.7,-16.2,1009.5,1018.0,43.8,18.1,0.00,0.0,100000,85.1,26
529570,2021-02-19,13:09:46,CHINA,-3.9,-17.8,723.6,718.0,24.3,15.8,0.03,0.0,110000,90.1,62
477090,2021-02-19,13:09:46,JAPAN,-0.8,-9.0,1002.2,1005.0,8.3,8.3,0.00,0.0,100000,9.2,15
356990,2021-02-19,13:09:46,KAZAKHSTAN,-4.3,-10.7,951.9,1029.6,27.5,0.2,0.00,3.9,101000,51.0,315
475840,2021-02-19,13:09:46,JAPAN,-4.9,-9.9,1005.9,1015.1,3.9,19.3,0.10,3.7,111000,67.6,320
535130,2021-02-19,13:09:46,CHINA,-5.0,-17.3,925.9,1030.4,21.9,6.1,0.00,0.0,100000,20.6,305
475900,2021-02-19,13:09:46,JAPAN,-1.2,-7.5,1009.4,1017.5,19.5,8.5,0.10,0.9,111000,50.0,333
470312,2021-02-19,13:09:46,CHINA,-1.9,-18.0,994.9,980.2,1.8,7.6,0.00,0.0,100000,46.4,117
477590,2021-02-19,13:09:46,JAPAN,-0.4,-6.4,1011.0,1017.9,8.6,15.6,0.29,0.0,110000,50.2,235
471580,2021-02-19,13:09:46,KOREASOUTH,-0.6,-5.6,1010.9,1009.2,14.4,9.2,0.00,0.0,100000,65.5,198
471560,2021-02-19,13:09:46,KOREASOUTH,-0.2,-6.7,1018.2,1022.9,13.8,12.5,0.08,0.0,110000,84.8,81
528560,2021-02-19,13:09:46,CHINA,-0.8,-17.4,768.1,767.8,21.8,6.4,0.03,0.0,110000,56.3,257
474330,2021-02-19,13:09:46,JAPAN,-14.4,-17.6,990.2,1014.5,29.7,14.2,0.00,0.0,100000,57.4,199
580400,2021-02-19,13:09:46,CHINA,-0.9,-7.1,1029.0,1025.7,15.9,15.7,0.02,0.0,110000,76.6,164
471070,2021-02-19,13:09:46,KOREASOUTH,-0.8,-7.0,1013.6,1016.3,13.6,13.4,0.03,0.3,111000,81.1,36
471065,2021-02-19,13:09:46,KOREASOUTH,-2.1,-7.9,1017.4,1030.9,5.2,10.4,0.00,2.8,101000,50.3,343
354590,2021-02-19,13:09:46,KAZAKHSTAN,-3.9,-8.2,1024.6,1030.4,48.8,14.4,0.00,0.0,100000,25.7,287
442840,2021-02-19,13:09:46,MONGOLIA,-10.9,-14.3,783.3,1036.5,56.4,4.4,0.00,2.8,101000,61.1,123
471530,2021-02-19,13:09:46,KOREASOUTH,-0.5,-8.1,1016.4,1017.4,8.8,13.0,0.00,0.0,100000,6.4,77
547150,2021-02-19,13:09:46,CHINA,-0.9,-10.9,1021.3,1026.7,12.8,21.1,0.05,0.0,110000,92.1,129
471520,2021-02-19,13:09:46,KOREASOUTH,-0.3,-8.6,1032.6,1021.7,12.6,20.0,0.09,0.0,110000,96.8,218
474110,2021-02-19,13:09:46,JAPAN,-6.5,-10.6,1011.5,1015.5,14.6,20.2,0.09,0.0,110000,63.6,156
474090,2021-02-19,13:09:46,JAPAN,-3.8,-14.6,1013.9,1014.9,25.7,1.3,0.05,8.6,111000,71.8,155
474410,2021-02-19,13:09:46,JAPAN,-5.7,-11.6,998.9,1001.8,14.9,11.7,0.00,0.0,100000,23.1,42
518860,2021-02-19,13:09:46,CHINA,-4.5,-21.0,701.4,698.5,26.8,15.6,0.00,0.0,100000,93.7,161
443520,2021-02-19,13:09:46,MONGOLIA,-8.1,-16.2,1071.5,1030.2,53.1,20.1,0.00,0.0,100000,53.2,309
172500,2021-02-19,13:09:46,TURKEY,-2.0,-5.7,878.8,877.6,27.8,13.0,0.25,3.5,111000,90.4,281
475880,2021-02-19,13:09:46,JAPAN,-3.4,-6.4,997.0,1015.1,17.2,11.9,0.18,0.0,110000,81.9,281
172480,2021-02-19,13:09:46,TURKEY,-4.8,-7.1,903.0,868.8,16.2,2.7,0.33,18.1,111000,50.2,67
537870,2021-02-19,13:09:46,CHINA,-4.8,-15.7,978.2,1027.6,21.6,11.2,0.01,0.0,110000,50.0,258
537980,2021-02-19,13:09:46,CHINA,-0.1,-9.5,1019.6,1025.8,14.2,3.9,0.01,0.0,110000,68.0,233
570230,2021-02-19,13:09:46,CHINA,-0.4,-10.2,870.0,1003.7,6.5,0.7,0.00,0.0,100000,36.0,37
357460,2021-02-19,13:09:46,KAZAKHSTAN,-2.7,-5.2,1025.4,1027.0,15.0,17.8,0.00,0.8,101000,55.1,319
471750,2021-02-19,13:09:46,KOREASOUTH,-0.2,-3.8,966.1,1024.3,11.5,32.8,0.00,0.0,100000,8.9,112
470250,2021-02-19,13:09:46,KOREANORTH,-3.4,-7.3,1015.2,1020.2,10.0,8.3,0.09,0.1,111000,53.1,285
369820,2021-02-19,13:09:46,KYRGYZSTAN,-13.1,-19.4,645.7,644.4,41.1,4.1,0.00,0.0,100000,87.1,281
507880,2021-02-19,13:09:46,CHINA,-9.5,-14.4,1019.0,1019.4,22.8,12.5,0.02,0.0,110000,50.3,230
350420,2021-02-19,13:09:46,KAZAKHSTAN,-2.4,-7.4,1027.1,1020.0,16.2,12.2,0.01,0.9,111000,83.2,168
522030,2021-02-19,13:09:46,CHINA,-0.2,-11.5,989.1,1027.5,36.1,2.1,0.00,0.0,100000,74.1,117
353210,2021-02-19,13:09:46,KAZAKHSTAN,-5.0,-10.3,1054.4,1035.5,8.0,10.0,0.00,0.0,100000,88.1,38
529550,2021-02-19,13:09:46,CHINA,-3.3,-18.0,694.4,684.7,32.5,12.4,0.02,0.0,110000,66.5,71
350780,2021-02-19,13:09:46,KAZAKHSTAN,-6.5,-9.1,1021.9,1033.3,10.0,14.9,0.02,8.6,111000,67.3,121
528250,2021-02-19,13:09:46,CHINA,-3.7,-19.4,723.5,722.4,22.6,1.9,0.00,0.0,100000,11.7,166
475420,2021-02-19,13:09:46,JAPAN,-3.2,-7.3,1003.1,1000.8,8.5,20.8,0.00,0.0,100000,90.5,96
533360,2021-02-19,13:09:46,CHINA,-6.0,-16.0,909.2,1029.9,27.1,7.0,0.01,0.0,110000,54.1,175
289780,2021-02-19,13:09:46,KAZAKHSTAN,-8.7,-12.1,969.2,1020.3,10.8,4.4,0.00,0.0,100000,66.3,246
470670,2021-02-19,13:09:46,KOREANORTH,-5.0,-9.7,1050.4,1026.4,13.3,12.3,0.00,0.0,100000,14.3,246
542260,2021-02-19,13:09:46,CHINA,-5.4,-18.3,1020.4,1025.3,21.7,4.9,0.01,0.0,110000,52.2,34
470680,2021-02-19,13:09:46,KOREANORTH,-2.5,-7.4,1015.5,1024.2,12.4,14.0,0.01,0.0,110000,82.9,297
538980,2021-02-19,13:09:46,CHINA,-1.0,-9.8,1023.8,1026.8,15.8,8.7,0.02,0.0,110000,52.1,94
517110,2021-02-19,13:09:46,CHINA,-2.0,-10.3,800.8,795.4,25.7,3.2,0.03,0.0,110000,52.8,80
560040,2021-02-19,13:09:46,CHINA,-5.8,-16.6,998.8,1001.6,34.2,18.5,0.01,0.0,110000,55.1,200
470600,2021-02-19,13:09:46,KOREANORTH,-1.6,-6.1,1025.2,1024.2,12.8,11.3,0.01,0.0,110000,51.3,149
536140,2021-02-19,13:09:46,CHINA,-3.3,-13.3,926.9,1028.0,15.9,9.1,0.00,0.0,100000,2.3,121
515420,2021-02-19,13:09:46,CHINA,-16.3,-19.2,755.0,752.9,33.1,5.6,0.00,0.0,100000,67.6,101
539750,2021-02-19,13:09:46,CHINA,-2.3,-11.8,1022.9,1028.0,8.5,12.1,0.02,0.0,110000,67.4,120
474830,2021-02-19,13:09:46,JAPAN,-5.9,-12.9,1006.0,1003.0,9.1,8.2,0.00,0.0,100000,67.4,264
474900,2021-02-19,13:09:46,JAPAN,-11.3,-16.2,995.8,999.6,11.8,7.3,0.00,0.0,100000,76.7,214
474890,2021-02-19,13:09:46,JAPAN,-7.8,-13.6,1000.0,998.0,3.9,5.5,0.00,0.0,100000,31.6,16
505480,2021-02-19,13:09:46,CHINA,-16.3,-19.0,1007.9,1010.1,24.6,7.5,0.00,0.0,100000,35.8,279
584370,2021-02-19,13:09:46,CHINA,-3.0,-10.2,835.7,833.6,16.2,33.4,0.14,0.0,110000,76.7,48
172440,2021-02-19,13:09:46,TURKEY,-0.6,-4.0,952.6,975.8,10.1,10.0,0.02,0.8,111000,51.4,120
470500,2021-02-19,13:09:46,KOREANORTH,-5.3,-9.4,1020.2,1023.8,18.8,5.2,0.08,0.0,110000,51.2,121
359530,2021-02-19,13:09:46,KAZAKHSTAN,-3.1,-5.2,1014.2,1028.3,25.1,19.7,0.00,3.7,101000,87.4,205
470610,2021-02-19,13:09:46,KOREANORTH,-1.2,-7.6,1016.6,1020.3,27.0,10.5,0.15,0.8,111000,69.7,9
470650,2021-02-19,13:09:46,KOREANORTH,-3.6,-9.6,1018.4,1024.4,13.7,7.6,0.01,0.0,110000,81.8,170
561160,2021-02-19,13:09:46,CHINA,-1.1,-14.1,683.7,690.0,33.6,10.1,0.01,0.0,110000,52.4,72
471920,2021-02-19,13:09:46,KOREASOUTH,-1.2,-10.0,1021.3,1022.4,10.0,9.8,0.10,0.0,110000,87.8,298
345810,2021-02-19,13:09:46,KAZAKHSTAN,-1.7,-7.0,1040.0,1028.7,49.2,24.9,0.00,0.0,100000,53.1,36
535880,2021-02-19,13:09:46,CHINA,-4.5,-10.2,755.4,756.5,19.7,44.6,0.07,0.0,110000,75.9,356
542920,2021-02-19,13:09:46,CHINA,-8.7,-21.8,1005.9,1025.1,16.0,8.0,0.00,0.0,100000,54.6,230
527370,2021-02-19,13:09:46,CHINA,-2.3,-17.6,725.3,729.3,24.6,23.0,0.01,0.0,110000,76.8,337
548570,2021-02-19,13:09:46,CHINA,-0.6,-7.0,1024.3,1025.6,13.0,19.1,0.02,0.0,110000,89.7,163
471330,2021-02-19,13:09:46,KOREASOUTH,-0.4,-7.9,1018.7,1024.0,13.5,9.1,0.04,0.0,110000,78.4,105
471340,2021-02-19,13:09:46,KOREASOUTH,-1.6,-8.9,999.3,993.4,10.7,12.0,0.04,0.0,110000,54.8,129
506030,2021-02-19,13:09:46,CHINA,-10.2,-14.3,984.6,1027.5,30.7,2.4,0.01,0.0,110000,65.3,81
471350,2021-02-19,13:09:46,KOREASOUTH,-1.9,-9.9,1005.7,1023.0,17.7,12.0,0.04,0.0,110000,60.9,237
171600,2021-02-19,13:09:46,TURKEY,-3.2,-10.2,905.2,876.3,15.9,5.2,0.00,0.0,100000,42.9,182
442370,2021-02-19,13:09:46,MONGOLIA,-7.0,-12.1,845.0,1024.1,50.7,13.9,0.00,0.2,101000,77.7,26
586530,2021-02-19,13:09:46,CHINA,-1.3,-3.2,914.5,1023.8,2.1,22.0,0.25,0.0,110000,51.0,122
350670,2021-02-19,13:09:46,KAZAKHSTAN,-6.9,-9.8,1038.5,1034.2,16.0,16.1,0.00,3.0,101000,95.0,11
442980,2021-02-19,13:09:46,MONGOLIA,-18.7,-26.0,1056.6,1032.8,41.2,16.8,0.05,0.0,110000,82.1,355
471210,2021-02-19,13:09:46,KOREASOUTH,-3.2,-12.4,994.2,1024.2,12.9,2.5,0.06,0.0,110000,60.7,116
471200,2021-02-19,13:09:46,KOREASOUTH,-2.3,-6.6,1007.7,1010.2,8.7,8.1,0.00,0.1,101000,51.6,288
471260,2021-02-19,13:09:46,KOREASOUTH,-0.2,-7.9,998.9,957.8,8.2,14.5,0.00,0.0,100000,12.9,317
298070,2021-02-19,13:09:46,KAZAKHSTAN,-11.3,-14.2,1027.7,1027.5,1.6,5.3,0.02,4.3,111000,51.8,278
367780,2021-02-19,13:09:46,KAZAKHSTAN,-4.5,-11.7,1046.7,1031.8,26.8,6.4,0.00,0.0,100000,91.1,87
172400,2021-02-19,13:09:46,TURKEY,-0.9,-5.8,952.0,1016.0,28.6,6.6,0.09,0.5,111000,56.2,58
532310,2021-02-19,13:09:46,CHINA,-3.8,-14.7,850.9,857.9,28.9,17.7,0.00,0.0,100000,46.7,1
470200,2021-02-19,13:09:46,KOREANORTH,-6.9,-11.2,1015.1,1029.1,0.0,1.2,0.00,0.0,100000,57.1,236
512880,2021-02-19,13:09:46,CHINA,-5.0,-14.7,835.7,836.2,35.2,11.0,0.01,0.0,110000,82.8,253
560290,2021-02-19,13:09:46,CHINA,-3.3,-14.8,645.5,645.4,28.6,0.1,0.04,0.0,110000,53.9,265
509780,2021-02-19,13:09:46,CHINA,-6.6,-14.2,1006.2,1021.3,25.2,6.9,0.02,0.0,110000,52.2,11
584450,2021-02-19,13:09:46,CHINA,-2.0,-7.4,875.2,950.4,18.1,31.7,0.18,0.0,110000,50.7,57
443170,2021-02-19,13:09:46,MONGOLIA,-5.9,-10.1,901.0,1032.1,25.5,1.1,0.00,3.3,101000,57.2,252
170820,2021-02-19,13:09:46,TURKEY,-1.3,-5.5,1003.3,1013.1,8.4,14.9,0.05,0.5,111000,50.2,350
541860,2021-02-19,13:09:46,CHINA,-10.3,-17.4,1010.5,1024.1,19.7,6.7,0.03,0.0,110000,52.2,122
524410,2021-02-19,13:09:46,CHINA,-5.7,-19.2,843.9,846.1,41.6,19.6,0.01,0.0,110000,50.1,50
524180,2021-02-19,13:09:46,CHINA,-1.3,-14.3,918.1,1027.1,27.0,3.0,0.01,0.0,110000,51.8,160
581500,2021-02-19,13:09:46,CHINA,-0.7,-5.4,1022.2,1026.7,13.9,9.3,0.03,0.0,110000,54.4,31
563850,2021-02-19,13:09:46,CHINA,-5.0,-8.2,747.1,745.5,7.1,1.1,0.06,0.0,110000,50.2,61
505570,2021-02-19,13:09:46,CHINA,-15.8,-19.0,1003.4,1022.7,11.1,12.8,0.01,0.0,110000,57.5,318
543370,2021-02-19,13:09:46,CHINA,-5.0,-17.2,1022.8,1025.1,14.0,16.1,0.01,0.0,110000,64.6,230
351730,2021-02-19,13:09:46,KAZAKHSTAN,-9.7,-12.4,1027.4,1032.8,27.0,21.1,0.00,5.2,101000,50.2,46
510530,2021-02-19,13:09:46,CHINA,-9.4,-13.2,1025.8,1035.3,25.1,12.6,0.02,0.0,110000,53.7,197
509150,2021-02-19,13:09:46,CHINA,-8.2,-12.2,945.9,1029.2,33.1,17.1,0.02,0.0,110000,52.6,274
171270,2021-02-19,13:09:46,TURKEY,-0.2,-5.0,1028.4,1018.8,22.9,11.4,0.05,0.0,110000,53.0,122
352170,2021-02-19,13:09:46,KAZAKHSTAN,-3.0,-6.8,1023.3,1022.0,16.9,22.0,0.01,4.8,111000,88.7,348
471010,2021-02-19,13:09:46,KOREASOUTH,-2.2,-9.4,1019.1,1023.4,20.4,0.3,0.05,0.2,111000,77.1,86
471020,2021-02-19,13:09:46,KOREASOUTH,-0.1,-6.6,1004.7,1024.4,6.9,15.4,0.01,0.0,110000,50.9,344
543420,2021-02-19,13:09:46,CHINA,-3.7,-12.2,1019.6,1024.0,8.2,6.9,0.03,0.0,110000,52.6,210
171890,2021-02-19,13:09:46,TURKEY,-6.4,-10.7,905.4,919.4,11.3,6.5,0.02,8.2,111000,54.5,157
477670,2021-02-19,13:09:46,JAPAN,-0.7,-5.2,1018.6,1017.7,16.7,7.7,0.14,0.0,110000,61.5,150
356330,2021-02-19,13:09:46,KAZAKHSTAN,-1.5,-4.7,1027.6,1021.5,24.5,24.5,0.00,3.3,101000,63.8,241
525760,2021-02-19,13:09:46,CHINA,-5.9,-19.5,849.8,861.4,32.7,36.2,0.00,0.0,100000,73.2,270
474760,2021-02-19,13:09:46,JAPAN,-10.5,-13.3,999.9,1001.6,4.6,13.4,0.00,0.0,100000,77.4,30
374320,2021-02-19,13:09:46,GEORGIA,-0.3,-4.6,952.5,955.1,30.6,8.6,0.16,5.7,111000,72.8,357
548230,2021-02-19,13:09:46,CHINA,-0.5,-11.2,1022.2,1026.3,10.3,11.7,0.02,0.0,110000,51.6,351
170673,2021-02-19,13:09:46,TURKEY,-0.9,-9.6,1012.8,978.5,12.5,14.4,0.00,0.0,100000,87.8,273
514670,2021-02-19,13:09:46,CHINA,-0.4,-15.2,829.4,828.4,28.6,0.9,0.00,0.0,100000,70.3,18
539470,2021-02-19,13:09:46,CHINA,-0.9,-14.8,949.2,1027.1,21.8,8.0,0.01,0.0,110000,81.4,131
570060,2021-02-19,13:09:46,CHINA,-1.2,-9.7,946.6,1026.1,11.7,5.2,0.02,0.0,110000,50.7,43
366220,2021-02-19,13:09:46,KAZAKHSTAN,-11.9,-16.3,1041.5,1036.3,27.0,24.4,0.00,3.0,101000,67.1,316
475910,2021-02-19,13:09:46,JAPAN,-1.4,-5.6,1005.1,1004.1,18.0,12.7,0.08,0.5,111000,52.5,69
442920,2021-02-19,13:09:46,MONGOLIA,-14.2,-17.9,889.7,1030.4,22.1,5.7,0.26,3.0,111000,86.4,259
478210,2021-02-19,13:09:46,JAPAN,-3.0,-7.7,891.3,897.8,18.0,7.4,0.00,0.0,100000,34.4,113
548260,2021-02-19,13:09:46,CHINA,-3.0,-13.0,870.9,873.1,25.0,24.4,0.03,0.0,110000,66.9,329
383530,2021-02-19,13:09:46,KYRGYZSTAN,-0.4,-4.6,1000.1,1028.3,7.6,10.0,0.03,0.4,111000,55.7,164
383531,2021-02-19,13:09:46,KYRGYZSTAN,-0.1,-0.2,991.1,983.7,2.1,13.0,0.00,0.0,100000,63.3,4
527130,2021-02-19,13:09:46,CHINA,-5.1,-19.6,699.2,699.4,27.7,14.1,0.02,0.0,110000,63.7,61
471460,2021-02-19,13:09:46,KOREASOUTH,-0.3,-6.3,1018.9,1023.6,12.8,7.4,0.05,0.0,110000,50.8,280
470390,2021-02-19,13:09:46,KOREANORTH,-3.6,-7.9,1042.4,1024.7,12.6,0.8,0.00,0.0,100000,52.7,72
533520,2021-02-19,13:09:46,CHINA,-9.9,-19.4,960.5,1032.0,26.6,7.9,0.01,0.0,110000,51.2,328
570730,2021-02-19,13:09:46,CHINA,-0.3,-11.3,1025.0,1024.4,16.6,14.6,0.00,0.0,100000,33.4,291
548630,2021-02-19,13:09:46,CHINA,-1.4,-10.1,1029.6,1026.6,19.4,14.5,0.05,0.0,110000,54.1,329
507450,2021-02-19,13:09:46,CHINA,-6.6,-14.5,1015.8,1022.7,15.3,4.1,0.01,0.0,110000,59.0,64
544930,2021-02-19,13:09:46,CHINA,-8.0,-14.9,1021.6,1025.2,19.1,5.4,0.01,0.0,110000,72.2,19
571440,2021-02-19,13:09:46,CHINA,-0.3,-8.4,907.7,1021.2,6.7,18.5,0.56,0.0,110000,51.1,104
350850,2021-02-19,13:09:46,KAZAKHSTAN,-9.0,-14.2,1025.7,1032.5,30.0,20.0,0.00,1.4,101000,51.3,104
544970,2021-02-19,13:09:46,CHINA,-3.7,-13.3,1024.6,1024.2,20.2,15.3,0.01,0.0,110000,94.0,279
478090,2021-02-19,13:09:46,JAPAN,-0.3,-6.7,1019.0,1023.9,24.2,2.3,0.02,0.0,110000,50.9,117
171290,2021-02-19,13:09:46,TURKEY,-0.7,-5.4,968.4,1019.6,6.9,5.2,0.04,0.0,110000,51.8,177
511560,2021-02-19,13:09:46,CHINA,-6.3,-13.1,929.1,1031.7,23.3,5.5,0.01,0.0,110000,88.1,312
467550,2021-02-19,13:09:46,TAIWAN,-1.5,-1.6,1004.5,998.5,63.0,16.3,0.00,0.0,100000,91.6,223
470460,2021-02-19,13:09:46,KOREANORTH,-1.3,-5.4,1018.8,1018.9,23.5,11.6,0.01,0.3,111000,54.0,237
347980,2021-02-19,13:09:46,KAZAKHSTAN,-2.0,-4.8,1021.0,1019.7,17.6,19.5,0.00,0.7,101000,50.1,267
474240,2021-02-19,13:09:46,JAPAN,-7.7,-12.9,1018.2,1017.0,20.9,7.9,0.00,0.0,100000,2.2,304
474250,2021-02-19,13:09:46,JAPAN,-10.4,-13.6,1000.5,1001.3,3.1,4.8,0.00,0.0,100000,96.7,302
474260,2021-02-19,13:09:46,JAPAN,-5.4,-10.6,1013.1,1015.5,27.5,24.2,0.03,1.4,111000,97.4,85
563570,2021-02-19,13:09:46,CHINA,-1.4,-16.9,644.9,645.2,31.5,14.3,0.01,0.0,110000,51.6,209
543424,2021-02-19,13:09:46,CHINA,-3.5,-13.2,998.3,994.3,7.1,21.6,0.00,0.0,100000,44.6,356
471290,2021-02-19,13:09:46,KOREASOUTH,-2.2,-6.9,1020.0,1023.9,23.4,7.4,0.05,0.0,110000,51.4,158
539230,2021-02-19,13:09:46,CHINA,-1.8,-11.6,952.8,1026.6,27.0,12.8,0.02,0.0,110000,50.4,73
359250,2021-02-19,13:09:46,KAZAKHSTAN,-1.9,-8.2,1014.4,1028.7,27.7,3.5,0.69,0.0,110000,50.2,335
547760,2021-02-19,13:09:46,CHINA,-0.6,-6.5,1021.1,1025.6,18.5,8.4,0.04,0.0,110000,64.5,342
537640,2021-02-19,13:09:46,CHINA,-5.4,-16.8,972.5,1028.6,19.2,2.7,0.02,0.0,110000,57.1,57
475970,2021-02-19,13:09:46,JAPAN,-1.7,-9.1,974.3,1018.1,20.5,16.4,0.07,0.0,110000,97.0,135
442820,2021-02-19,13:09:46,MONGOLIA,-12.0,-28.5,819.1,1025.9,50.0,24.9,0.00,0.0,100000,34.7,151
170920,2021-02-19,13:09:46,TURKEY,-0.4,-3.3,957.1,982.5,6.6,10.5,0.24,3.5,111000,51.8,120
533910,2021-02-19,13:09:46,CHINA,-5.5,-13.9,880.8,1025.9,33.6,22.7,0.01,0.0,110000,50.4,121
527070,2021-02-19,13:09:46,CHINA,-5.9,-23.0,724.8,721.2,10.8,7.8,0.00,0.0,100000,61.7,327
171900,2021-02-19,13:09:46,TURKEY,-1.1,-5.1,947.5,973.3,16.3,9.2,0.13,1.7,111000,63.2,93
514310,2021-02-19,13:09:46,CHINA,-1.1,-4.1,975.3,1028.3,29.2,3.3,0.12,0.0,110000,53.4,244
470950,2021-02-19,13:09:46,KOREASOUTH,-3.1,-9.6,1007.3,1023.7,11.2,13.9,0.05,0.0,110000,54.9,124
470520,2021-02-19,13:09:46,KOREANORTH,-4.2,-7.5,1017.5,1023.2,14.9,1.9,0.00,0.0,100000,24.2,102
514630,2021-02-19,13:09:46,CHINA,-6.8,-10.5,947.9,1033.3,14.1,6.5,0.05,0.0,110000,73.9,278
470030,2021-02-19,13:09:46,KOREANORTH,-6.0,-13.2,1015.9,1019.4,20.1,9.0,0.01,0.0,110000,51.5,74
475690,2021-02-19,13:09:46,JAPAN,-0.5,-6.9,1001.6,1002.5,11.5,18.1,0.00,0.0,100000,73.3,352
524360,2021-02-19,13:09:46,CHINA,-3.3,-15.7,863.2,1028.5,27.2,30.8,0.01,0.0,110000,51.5,317
470050,2021-02-19,13:09:46,KOREANORTH,-5.4,-8.1,900.9,898.4,13.5,9.0,0.05,6.0,111000,88.2,265
544710,2021-02-19,13:09:46,CHINA,-5.7,-14.4,1024.0,1025.0,15.8,24.1,0.00,0.0,100000,31.6,312
470410,2021-02-19,13:09:46,KOREANORTH,-3.3,-9.8,1009.4,1020.6,16.0,11.9,0.02,0.0,110000,52.6,224
537380,2021-02-19,13:09:46,CHINA,-4.2,-15.2,872.1,1025.0,23.7,5.0,0.00,0.0,100000,95.7,118
548430,2021-02-19,13:09:46,CHINA,-1.7,-9.9,1023.8,1026.3,21.4,17.3,0.03,0.0,110000,50.7,225
476170,2021-02-19,13:09:46,JAPAN,-6.1,-10.1,953.4,1024.0,20.2,9.2,0.00,0.0,100000,17.9,191
471380,2021-02-19,13:09:46,KOREASOUTH,-0.2,-8.5,1026.3,1022.3,16.3,10.8,0.12,0.0,110000,59.2,239
541020,2021-02-19,13:09:46,CHINA,-12.6,-17.6,938.2,1029.7,28.0,1.5,0.01,0.0,110000,69.5,84
535930,2021-02-19,13:09:46,CHINA,-8.3,-20.8,980.4,1027.5,26.9,9.8,0.02,0.0,110000,60.9,279
529960,2021-02-19,13:09:46,CHINA,-2.3,-8.3,778.1,776.3,18.4,23.2,0.03,0.0,110000,51.9,139
360010,2021-02-19,13:09:46,KAZAKHSTAN,-11.8,-16.4,1024.1,1023.8,4.4,36.9,0.02,2.8,111000,55.6,233
477420,2021-02-19,13:09:46,JAPAN,-0.7,-3.4,1024.4,1025.1,4.2,8.0,0.03,0.0,110000,51.5,47
504340,2021-02-19,13:09:46,CHINA,-21.1,-24.4,961.4,1027.2,21.0,12.1,0.02,0.0,110000,53.2,135
350530,2021-02-19,13:09:46,KAZAKHSTAN,-5.0,-9.5,1028.3,1035.4,15.0,19.9,0.08,1.1,111000,63.6,157
560460,2021-02-19,13:09:46,CHINA,-6.0,-15.0,671.3,672.8,22.5,5.4,0.03,0.0,110000,84.1,312
471140,2021-02-19,13:09:46,KOREASOUTH,-2.3,-9.1,1004.7,1023.3,14.0,0.7,0.06,0.4,111000,80.9,153
540960,2021-02-19,13:09:46,CHINA,-7.5,-13.6,1023.2,1021.7,15.7,18.4,0.02,0.0,110000,51.7,167
513460,2021-02-19,13:09:46,CHINA,-8.5,-11.5,1053.5,1041.2,49.0,3.0,0.00,0.0,100000,32.9,325
172050,2021-02-19,13:09:46,TURKEY,-3.8,-6.9,829.4,845.4,5.1,7.9,0.22,3.3,111000,52.4,238
442870,2021-02-19,13:09:46,MONGOLIA,-8.7,-13.5,,1027.9,52.8,11.0,0.00,1.6,101000,76.2,96
529830,2021-02-19,13:09:46,CHINA,-6.1,-13.5,817.3,838.4,12.2,7.6,0.00,0.0,100000,36.7,4
505640,2021-02-19,13:09:46,CHINA,-9.4,-15.6,1023.0,1023.5,11.8,8.9,0.01,0.0,110000,80.5,119
474810,2021-02-19,13:09:46,JAPAN,-10.7,-15.9,997.6,989.9,5.2,11.1,0.00,0.0,100000,16.1,345
475870,2021-02-19,13:09:46,JAPAN,-0.7,-5.9,1014.1,1017.0,15.2,18.3,0.21,3.7,111000,84.5,181
475850,2021-02-19,13:09:46,JAPAN,-3.4,-10.3,1010.4,1014.1,21.5,8.1,0.13,2.9,111000,64.2,203
527650,2021-02-19,13:09:46,CHINA,-9.4,-21.7,714.4,714.4,22.3,1.3,0.01,0.0,110000,51.5,235
362080,2021-02-19,13:09:46,KAZAKHSTAN,-13.0,-17.8,1011.5,1032.0,26.4,3.0,0.00,0.0,100000,53.5,257
346910,2021-02-19,13:09:46,KAZAKHSTAN,-1.6,-5.7,1021.4,1022.7,16.2,20.1,0.02,2.2,111000,50.2,120
548360,2021-02-19,13:09:46,CHINA,-2.0,-13.3,1032.8,1027.3,14.2,13.7,0.03,0.0,110000,53.7,170
523230,2021-02-19,13:09:46,CHINA,-5.7,-19.3,818.8,817.2,35.5,21.2,0.01,0.0,110000,50.9,265
549160,2021-02-19,13:09:46,CHINA,-0.2,-9.6,1027.4,1026.4,12.8,4.9,0.01,0.0,110000,53.8,274
560180,2021-02-19,13:09:46,CHINA,-2.8,-15.6,627.1,635.4,24.5,16.5,0.01,0.0,110000,88.1,57
560340,2021-02-19,13:09:46,CHINA,-10.5,-19.5,600.9,593.6,21.0,17.4,0.05,0.0,110000,54.4,311
170671,2021-02-19,13:09:46,TURKEY,-5.8,-8.8,1016.7,1023.4,12.8,1.9,0.00,0.0,100000,0.8,234
475530,2021-02-19,13:09:46,JAPAN,-2.1,-6.0,1004.4,1004.0,5.8,13.1,0.00,0.0,100000,48.6,332
368590,2021-02-19,13:09:46,KAZAKHSTAN,-0.6,-5.8,1010.2,1026.4,33.2,12.9,0.01,1.5,111000,54.2,245
471110,2021-02-19,13:09:46,KOREASOUTH,-0.4,-6.7,1003.3,993.5,2.7,7.3,0.04,0.0,110000,51.6,1
547050,2021-02-19,13:09:46,CHINA,-9.2,-14.5,1040.1,1035.1,22.4,6.8,0.00,0.0,100000,4.6,241
474210,2021-02-19,13:09:46,JAPAN,-4.2,-9.1,1015.6,1015.1,22.6,12.0,0.10,14.0,111000,50.6,292
474020,2021-02-19,13:09:46,JAPAN,-10.1,-14.8,1011.5,1018.4,22.3,15.4,0.05,0.0,110000,54.9,209
474010,2021-02-19,13:09:46,JAPAN,-7.7,-12.3,1011.6,1015.7,15.5,15.0,0.08,15.3,111000,87.1,142
476290,2021-02-19,13:09:46,JAPAN,-1.5,-9.7,1012.5,1016.1,27.5,17.5,0.04,0.0,110000,65.2,24
443290,2021-02-19,13:09:46,MONGOLIA,-8.4,-11.3,776.5,1029.6,21.8,13.7,0.00,2.8,101000,96.8,223
471360,2021-02-19,13:09:46,KOREASOUTH,-2.1,-9.4,1014.7,1024.4,18.2,0.2,0.08,0.0,110000,52.3,72
471370,2021-02-19,13:09:46,KOREASOUTH,-1.2,-10.5,1011.7,1021.9,13.0,5.1,0.00,0.0,100000,56.0,281
523130,2021-02-19,13:09:46,CHINA,-2.9,-12.8,921.4,897.5,61.9,2.5,0.00,0.0,100000,74.6,87
557730,2021-02-19,13:09:46,CHINA,-1.2,-10.9,620.3,621.9,18.5,15.4,0.03,0.0,110000,60.1,353
503530,2021-02-19,13:09:46,CHINA,-8.5,-18.9,1000.0,1022.8,20.2,7.5,0.00,0.0,100000,39.9,100
471064,2021-02-19,13:09:46,KOREASOUTH,-6.3,-12.3,1012.5,1011.1,15.1,0.4,0.00,0.0,100000,35.1,272
471066,2021-02-19,13:09:46,KOREASOUTH,-1.6,-8.2,1009.0,1006.5,10.2,3.6,0.00,0.1,101000,51.2,14
353610,2021-02-19,13:09:46,KAZAKHSTAN,-0.7,-4.2,990.8,1017.9,24.9,16.0,0.00,0.0,100000,98.3,155
509680,2021-02-19,13:09:46,CHINA,-11.8,-17.6,1017.6,1022.8,18.2,4.8,0.02,0.0,110000,50.9,234
476180,2021-02-19,13:09:46,JAPAN,-4.2,-10.6,975.6,1019.3,17.5,6.5,0.14,1.4,111000,59.0,137
475750,2021-02-19,13:09:46,JAPAN,-3.4,-7.1,1021.6,1016.6,10.7,16.2,0.14,22.5,111000,85.5,140
510870,2021-02-19,13:09:46,CHINA,-4.2,-6.8,928.8,1028.7,36.3,3.3,0.07,0.0,110000,96.9,5
542730,2021-02-19,13:09:46,CHINA,-8.1,-16.6,1020.2,1024.8,10.4,1.3,0.00,0.0,100000,40.1,68
356710,2021-02-19,13:09:46,KAZAKHSTAN,-4.1,-7.4,997.7,1028.6,17.9,20.8,0.00,3.2,101000,79.0,118
442770,2021-02-19,13:09:46,MONGOLIA,-10.1,-19.0,1007.0,1026.0,36.9,23.2,2.35,0.0,110000,50.3,70
355820,2021-02-19,13:09:46,KAZAKHSTAN,-2.8,-7.9,1026.4,1032.4,25.7,15.2,0.00,2.6,101000,51.5,94
478180,2021-02-19,13:09:46,JAPAN,-0.4,-6.8,944.9,1027.9,27.3,12.7,0.00,0.0,100000,1.2,117
552990,2021-02-19,13:09:46,CHINA,-4.6,-19.3,1003.4,996.8,21.2,19.7,0.01,0.0,110000,68.6,177
357910,2021-02-19,13:09:46,KAZAKHSTAN,-6.3,-10.8,1032.3,1036.5,50.1,6.8,0.01,4.2,111000,78.4,266
171200,2021-02-19,13:09:46,TURKEY,-2.4,-4.7,1025.8,1005.4,15.3,2.4,0.00,0.0,100000,64.3,88
353940,2021-02-19,13:09:46,KAZAKHSTAN,-4.6,-7.9,1002.1,1031.7,24.3,12.3,0.20,3.9,111000,54.1,50
171400,2021-02-19,13:09:46,TURKEY,-4.8,-7.1,871.8,855.3,7.7,15.0,0.07,18.1,111000,51.3,230
526330,2021-02-19,13:09:46,CHINA,-12.9,-25.1,990.8,980.6,24.6,6.1,0.01,0.0,110000,53.6,217
361520,2021-02-19,13:09:46,KAZAKHSTAN,-13.2,-17.6,1043.5,1034.5,17.3,10.4,0.01,1.4,111000,50.9,116
524240,2021-02-19,13:09:46,CHINA,-3.6,-17.5,898.0,1026.1,29.7,13.7,0.02,0.7,111000,52.3,260
749347,2021-02-19,13:09:46,CHINA,-1.2,-5.8,1035.1,1037.4,8.7,11.0,0.00,0.0,100000,91.5,263
749348,2021-02-19,13:09:46,CHINA,-14.7,-18.6,1033.0,1038.4,51.5,7.7,0.00,0.0,100000,60.9,57
476720,2021-02-19,13:09:46,JAPAN,-0.9,-5.4,1019.8,1020.7,24.7,15.1,0.00,0.0,100000,57.9,216
352290,2021-02-19,13:09:46,KAZAKHSTAN,-5.8,-8.3,1017.1,1026.4,4.7,10.8,0.28,4.0,111000,51.4,231
523910,2021-02-19,13:09:46,CHINA,-13.2,-20.2,1002.1,1044.6,38.3,4.9,0.00,0.0,100000,10.8,359
542590,2021-02-19,13:09:46,CHINA,-7.4,-15.1,1028.8,1024.9,19.3,4.2,0.02,0.0,110000,86.4,70
471000,2021-02-19,13:09:46,KOREASOUTH,-4.0,-10.9,922.2,1022.6,19.2,16.6,0.09,10.6,111000,52.0,227
470980,2021-02-19,13:09:46,KOREASOUTH,-2.8,-12.1,1011.3,1025.2,9.4,4.9,0.01,0.0,110000,72.2,139
383410,2021-02-19,13:09:46,KAZAKHSTAN,-0.8,-3.6,994.7,1027.8,7.8,10.1,0.19,1.4,111000,72.3,278
526810,2021-02-19,13:09:46,CHINA,-4.4,-18.1,896.9,1030.3,28.5,9.7,0.00,0.0,100000,92.0,309
380620,2021-02-19,13:09:46,KAZAKHSTAN,-2.4,-6.2,1022.1,1025.8,20.6,3.8,0.01,0.3,111000,90.1,138
287850,2021-02-19,13:09:46,KAZAKHSTAN,-4.6,-7.1,1049.9,1018.4,9.9,2.9,0.00,11.6,101000,52.5,105
477470,2021-02-19,13:09:46,JAPAN,-0.9,-4.7,1024.3,1024.0,10.8,4.6,0.00,0.0,100000,82.8,318
351080,2021-02-19,13:09:46,KAZAKHSTAN,-3.3,-5.8,1019.0,1023.8,10.8,27.6,0.01,8.6,111000,79.9,313
526020,2021-02-19,13:09:46,CHINA,-3.3,-21.6,726.2,725.7,23.3,3.9,0.01,0.0,110000,62.1,34
361770,2021-02-19,13:09:46,KAZAKHSTAN,-11.2,-14.6,1023.6,1024.9,9.8,16.1,0.01,0.0,110000,51.1,217
561060,2021-02-19,13:09:46,CHINA,-2.4,-15.8,619.0,617.0,29.1,12.8,0.02,0.0,110000,55.3,349
170880,2021-02-19,13:09:46,TURKEY,-7.0,-9.7,880.8,860.1,22.8,12.1,0.49,25.2,111000,50.2,2
528360,2021-02-19,13:09:46,CHINA,-2.8,-19.3,687.3,685.9,28.8,6.0,0.01,0.0,110000,54.9,282
443730,2021-02-19,13:09:46,MONGOLIA,-5.1,-16.1,853.5,1024.6,46.6,10.9,0.00,0.3,101000,72.5,83
443740,2021-02-19,13:09:46,MONGOLIA,-5.9,-14.8,824.4,1024.2,52.0,23.6,0.00,1.1,101000,51.7,115
443410,2021-02-19,13:09:46,MONGOLIA,-6.7,-13.9,855.9,1021.3,44.3,8.7,0.00,0.5,101000,52.7,305
360030,2021-02-19,13:09:46,KAZAKHSTAN,-10.3,-12.9,1020.9,1030.3,28.5,18.6,0.11,4.8,111000,75.3,179
552790,2021-02-19,13:09:46,CHINA,-5.0,-22.8,994.2,995.2,31.4,39.5,0.01,0.0,110000,68.0,118
545270,2021-02-19,13:09:46,CHINA,-1.2,-11.1,1030.6,1025.7,17.2,1.0,0.11,0.0,110000,52.8,193
545273,2021-02-19,13:09:46,CHINA,-0.1,-9.7,1001.0,993.3,5.5,13.2,0.00,0.0,100000,8.9,356
442190,2021-02-19,13:09:46,MONGOLIA,-7.1,-17.5,848.3,1027.8,20.0,11.3,0.00,0.0,100000,10.0,283
570360,2021-02-19,13:09:46,CHINA,-0.4,-7.8,1005.9,1025.1,1.7,11.3,0.02,0.0,110000,66.7,22
443040,2021-02-19,13:09:46,MONGOLIA,-11.8,-14.9,1022.4,1032.2,46.4,7.3,0.00,1.1,101000,76.4,298
512430,2021-02-19,13:09:46,CHINA,-5.9,-9.2,1008.0,1034.0,14.2,2.6,0.00,0.0,100000,70.5,355
549380,2021-02-19,13:09:46,CHINA,-1.9,-10.2,1030.5,1027.3,12.2,7.1,0.01,0.0,110000,52.5,8
288670,2021-02-19,13:09:46,KAZAKHSTAN,-6.4,-9.9,1001.8,1030.8,21.4,12.8,0.00,23.0,101000,52.4,112
170500,2021-02-19,13:09:46,TURKEY,-0.1,-5.5,1014.1,1020.1,17.2,10.1,0.04,0.5,111000,93.6,67
536460,2021-02-19,13:09:46,CHINA,-5.6,-18.1,926.5,1028.0,8.4,7.3,0.01,0.0,110000,51.6,260
509530,2021-02-19,13:09:46,CHINA,-7.6,-12.3,1015.6,1022.6,12.5,15.4,0.02,0.0,110000,88.7,327
470750,2021-02-19,13:09:46,KOREANORTH,-2.3,-5.5,1027.6,1023.2,35.1,11.4,0.07,0.1,111000,52.0,110
475800,2021-02-19,13:09:46,JAPAN,-3.4,-7.7,999.9,1002.0,20.9,14.4,0.00,1.9,101000,51.0,91
560650,2021-02-19,13:09:46,CHINA,-5.3,-16.7,661.0,661.1,26.9,7.4,0.02,0.0,110000,69.4,29
471650,2021-02-19,13:09:46,KOREASOUTH,-0.2,-6.1,1025.0,1024.4,18.4,10.9,0.09,0.0,110000,50.8,323
547530,2021-02-19,13:09:46,CHINA,-2.0,-9.2,1025.1,1026.4,15.9,12.6,0.07,0.0,110000,84.6,331
576220,2021-02-19,13:09:46,CHINA,-1.2,-1.3,841.6,837.5,6.5,16.4,0.05,0.0,110000,75.4,277
560670,2021-02-19,13:09:46,CHINA,-5.5,-19.2,650.5,654.6,22.7,27.8,0.00,0.0,100000,26.7,75
564440,2021-02-19,13:09:46,CHINA,-0.5,-6.7,734.9,734.6,27.6,9.4,0.07,0.0,110000,52.0,305
471223,2021-02-19,13:09:46,KOREASOUTH,-1.2,-3.5,1020.3,1027.9,6.7,11.3,0.00,0.0,100000,50.3,87
471220,2021-02-19,13:09:46,KOREASOUTH,-2.6,-8.5,1015.8,1015.4,17.1,7.1,0.02,0.1,111000,58.5,228
377090,2021-02-19,13:09:46,ARMENIA,-2.7,-4.9,982.2,985.3,20.7,16.4,0.02,9.2,111000,51.5,85
443540,2021-02-19,13:09:46,MONGOLIA,-6.4,-14.6,1044.3,1029.4,55.7,23.3,0.00,0.0,100000,48.8,336
442880,2021-02-19,13:09:46,MONGOLIA,-13.7,-22.4,916.6,1028.4,47.7,22.3,0.00,0.1,101000,61.8,68
527870,2021-02-19,13:09:46,CHINA,-5.7,-14.2,746.9,749.8,27.2,21.6,0.01,0.0,110000,69.4,166
542080,2021-02-19,13:09:46,CHINA,-7.5,-14.3,912.5,1028.3,29.1,24.2,0.01,0.0,110000,73.0,71
470280,2021-02-19,13:09:46,KOREANORTH,-2.6,-8.2,1021.9,1025.7,16.9,0.9,0.02,0.0,110000,53.0,156
571930,2021-02-19,13:09:46,CHINA,-0.4,-8.3,1009.3,1025.2,4.5,7.1,0.01,0.0,110000,52.7,12
381411,2021-02-19,13:09:46,KAZAKHSTAN,-3.3,-3.1,1012.8,991.3,2.1,29.6,0.00,0.0,100000,68.1,268
543460,2021-02-19,13:09:46,CHINA,-2.6,-11.5,1018.7,1025.1,19.6,8.5,0.02,0.0,110000,57.5,305
363970,2021-02-19,13:09:46,KAZAKHSTAN,-11.0,-16.9,1024.8,1036.8,8.4,33.9,0.00,0.0,100000,86.2,102
534630,2021-02-19,13:09:46,CHINA,-6.5,-16.7,930.5,1029.0,13.5,11.9,0.01,0.0,110000,53.6,171
513340,2021-02-19,13:09:46,CHINA,-5.8,-9.5,1042.2,1032.1,25.8,1.0,0.01,0.0,110000,50.1,162
572900,2021-02-19,13:09:46,CHINA,-0.3,-6.6,1021.8,1026.2,21.1,4.1,0.02,0.0,110000,50.2,66
561820,2021-02-19,13:09:46,CHINA,-2.1,-9.7,778.6,818.4,33.7,13.6,0.07,0.0,110000,68.4,179
354160,2021-02-19,13:09:46,KAZAKHSTAN,-2.9,-7.1,1026.7,1028.9,6.4,14.6,0.05,7.8,111000,91.3,76
535020,2021-02-19,13:09:46,CHINA,-3.9,-17.6,977.5,1029.5,21.0,11.4,0.00,0.0,100000,5.8,238
560800,2021-02-19,13:09:46,CHINA,-6.8,-16.9,734.2,733.0,28.7,10.3,0.02,0.0,110000,50.2,76
560790,2021-02-19,13:09:46,CHINA,-6.6,-13.9,665.4,663.2,35.4,3.4,0.02,0.0,110000,50.7,331
537720,2021-02-19,13:09:46,CHINA,-2.4,-13.6,982.8,1025.6,6.6,3.2,0.01,0.0,110000,53.4,58
539590,2021-02-19,13:09:46,CHINA,-0.9,-11.0,1010.1,1027.0,19.7,15.5,0.01,0.0,110000,55.2,140
543770,2021-02-19,13:09:46,CHINA,-4.1,-10.4,1026.3,1025.3,11.2,5.1,0.03,0.0,110000,51.0,34
380910,2021-02-19,13:09:46,KAZAKHSTAN,-1.6,-5.7,1027.1,1030.1,43.5,10.6,0.02,1.2,111000,50.7,134
354260,2021-02-19,13:09:46,KAZAKHSTAN,-4.3,-6.5,1004.8,1022.6,31.9,10.1,0.01,5.2,111000,50.1,119
368215,2021-02-19,13:09:46,KAZAKHSTAN,-7.8,-10.2,1009.7,1021.8,5.4,15.1,0.00,0.0,100000,26.7,76
476900,2021-02-19,13:09:46,JAPAN,-6.5,-10.5,867.0,861.7,24.8,16.0,0.18,0.0,110000,53.0,296
513560,2021-02-19,13:09:46,CHINA,-9.4,-12.4,1006.1,1033.1,15.8,2.9,0.00,0.0,100000,96.7,145
288790,2021-02-19,13:09:46,KAZAKHSTAN,-4.9,-7.7,1032.3,1032.0,7.0,24.9,0.01,0.5,111000,51.5,95
288770,2021-02-19,13:09:46,KAZAKHSTAN,-6.8,-11.3,1016.8,1019.4,19.2,14.3,0.02,5.4,111000,93.5,82
471400,2021-02-19,13:09:46,KOREASOUTH,-0.6,-5.2,1016.7,1024.0,21.2,29.5,0.03,0.0,110000,50.5,173
471410,2021-02-19,13:09:46,KOREASOUTH,-0.7,-5.6,1012.7,1015.4,9.5,20.5,0.07,0.1,111000,95.5,274
471420,2021-02-19,13:09:46,KOREASOUTH,-1.4,-9.5,1013.3,1012.9,12.2,11.4,0.00,0.0,100000,53.8,201
471240,2021-02-19,13:09:46,KOREASOUTH,-2.7,-10.3,989.6,1081.8,15.5,4.2,0.00,0.0,100000,52.8,119
504680,2021-02-19,13:09:46,CHINA,-14.1,-18.8,1013.4,1021.6,20.7,13.6,0.01,0.0,110000,51.1,273
343980,2021-02-19,13:09:46,KAZAKHSTAN,-2.1,-6.0,1013.2,1013.6,20.2,21.0,0.00,7.9,101000,59.0,213
172000,2021-02-19,13:09:46,TURKEY,-0.6,-4.0,975.2,1013.5,11.7,12.7,0.10,0.5,111000,50.1,208
477560,2021-02-19,13:09:46,JAPAN,-0.3,-5.4,1002.9,1019.1,16.9,7.7,0.22,0.0,110000,85.9,154
547140,2021-02-19,13:09:46,CHINA,-1.7,-11.1,1026.4,1026.2,17.9,14.1,0.08,0.0,110000,51.6,335
471540,2021-02-19,13:09:46,KOREASOUTH,-0.4,-11.0,1010.7,1015.5,10.5,16.2,0.00,0.0,100000,69.0,187
471060,2021-02-19,13:09:46,KOREASOUTH,-1.4,-8.1,1016.0,1022.1,13.2,17.3,0.12,0.2,111000,52.6,266
523780,2021-02-19,13:09:46,CHINA,-3.4,-18.7,985.8,1008.3,25.6,22.5,0.00,0.0,100000,67.4,154
506580,2021-02-19,13:09:46,CHINA,-9.7,-13.4,1025.4,1022.8,10.2,7.3,0.01,0.0,110000,56.9,179
443140,2021-02-19,13:09:46,MONGOLIA,-9.0,-16.8,928.2,1022.0,13.4,4.0,0.00,1.5,101000,86.2,170
475760,2021-02-19,13:09:46,JAPAN,-3.5,-8.0,1016.8,1017.3,6.0,10.8,0.13,0.0,110000,71.3,51
534870,2021-02-19,13:09:46,CHINA,-8.6,-19.9,972.0,1027.9,13.5,13.0,0.01,0.0,110000,50.2,267
546160,2021-02-19,13:09:46,CHINA,-2.8,-12.7,1026.6,1026.2,13.4,8.6,0.02,0.0,110000,53.6,344
364420,2021-02-19,13:09:46,KAZAKHSTAN,-11.0,-12.3,1012.5,989.4,19.7,32.7,0.02,2.2,111000,98.4,145
554720,2021-02-19,13:09:46,CHINA,-4.2,-21.7,998.2,992.4,23.4,43.6,0.01,0.0,110000,52.1,21
474300,2021-02-19,13:09:46,JAPAN,-5.6,-10.1,1019.4,1015.5,15.1,24.7,0.08,7.1,111000,73.8,34
474180,2021-02-19,13:09:46,JAPAN,-11.2,-15.8,1010.2,1016.0,26.0,33.2,0.07,4.6,111000,69.6,236
351880,2021-02-19,13:09:46,KAZAKHSTAN,-5.0,-8.1,1027.8,1027.7,15.2,21.1,0.19,2.2,111000,50.3,247
528420,2021-02-19,13:09:46,CHINA,-10.2,-25.0,696.6,689.8,18.8,10.0,0.01,0.0,110000,76.8,119
560330,2021-02-19,13:09:46,CHINA,-12.5,-22.5,626.2,621.8,34.8,5.3,0.03,0.0,110000,78.9,195
474230,2021-02-19,13:09:46,JAPAN,-4.7,-9.0,1010.1,1015.4,7.7,24.9,0.09,0.0,110000,51.3,272
474120,2021-02-19,13:09:46,JAPAN,-7.5,-11.8,1014.3,1012.4,11.1,12.2,0.14,14.8,111000,57.6,175
471300,2021-02-19,13:09:46,KOREASOUTH,-0.1,-8.9,1018.9,1021.4,19.2,24.0,0.13,0.2,111000,50.0,254
471310,2021-02-19,13:09:46,KOREASOUTH,-1.9,-9.1,1020.5,1024.0,21.8,15.0,0.04,0.0,110000,52.2,252
471074,2021-02-19,13:09:46,KOREASOUTH,-1.2,-10.8,995.3,964.8,5.9,27.7,0.00,0.0,100000,38.8,345
471087,2021-02-19,13:09:46,KOREASOUTH,-2.3,-10.4,1025.6,1034.5,13.1,13.9,0.00,0.0,100000,83.0,14
471080,2021-02-19,13:09:46,KOREASOUTH,-1.5,-8.5,1019.1,1022.5,13.8,2.5,0.02,0.1,111000,53.6,218
471120,2021-02-19,13:09:46,KOREASOUTH,-0.7,-7.5,1018.3,1023.0,16.6,17.5,0.02,0.0,110000,54.3,253
506320,2021-02-19,13:09:46,CHINA,-14.2,-20.4,987.2,1024.0,27.2,13.9,0.01,0.0,110000,52.5,186
476400,2021-02-19,13:09:46,JAPAN,-8.1,-13.5,915.8,906.2,49.9,0.2,0.00,0.0,100000,32.2,167
353020,2021-02-19,13:09:46,KAZAKHSTAN,-3.5,-8.3,1057.8,1032.8,14.4,21.9,0.00,0.0,100000,41.1,162
170980,2021-02-19,13:09:46,TURKEY,-6.8,-8.6,815.6,816.0,12.8,18.4,0.07,11.5,111000,53.4,150
522670,2021-02-19,13:09:46,CHINA,-5.7,-19.8,932.6,1029.7,28.5,10.1,0.00,0.0,100000,45.7,30
561520,2021-02-19,13:09:46,CHINA,-3.8,-10.0,662.7,666.5,28.6,13.7,0.02,0.0,110000,50.9,327
530680,2021-02-19,13:09:46,CHINA,-4.4,-12.4,932.7,1029.0,29.5,13.2,0.01,0.0,110000,51.1,89
475700,2021-02-19,13:09:46,JAPAN,-3.2,-7.1,1007.4,1019.5,14.4,2.7,0.16,7.8,111000,51.3,108
538450,2021-02-19,13:09:46,CHINA,-2.4,-13.5,934.3,1029.3,14.3,10.3,0.01,0.0,110000,77.0,238
289520,2021-02-19,13:09:46,KAZAKHSTAN,-7.1,-10.9,1045.5,1033.8,9.9,22.2,0.63,0.0,110000,50.8,170
509830,2021-02-19,13:09:46,CHINA,-8.8,-13.3,1016.6,1021.0,17.1,2.0,0.02,0.0,110000,99.0,278
170700,2021-02-19,13:09:46,TURKEY,-0.5,-5.1,943.2,1017.1,10.7,4.7,0.14,2.0,111000,54.0,99
549060,2021-02-19,13:09:46,CHINA,-1.7,-8.4,1024.4,1026.2,10.6,10.7,0.01,0.0,110000,62.3,56
171950,2021-02-19,13:09:46,TURKEY,-1.5,-4.6,957.2,972.9,9.2,1.5,0.07,1.8,111000,72.4,215
400300,2021-02-19,13:09:46,SYRIA,-0.3,-4.7,1038.2,1017.3,10.9,3.9,0.00,0.0,100000,8.6,164
476120,2021-02-19,13:09:46,JAPAN,-0.6,-5.5,1018.3,1018.8,18.0,4.4,0.40,14.3,111000,50.4,149
526740,2021-02-19,13:09:46,CHINA,-7.7,-18.7,801.1,795.7,28.6,10.9,0.00,0.0,100000,83.7,100
471190,2021-02-19,13:09:46,KOREASOUTH,-2.1,-8.8,1024.5,1023.6,18.5,3.2,0.03,0.0,110000,80.7,308
471180,2021-02-19,13:09:46,KOREASOUTH,-3.5,-9.4,1013.6,1018.7,7.2,2.4,0.00,0.0,100000,58.5,84
365350,2021-02-19,13:09:46,KAZAKHSTAN,-7.4,-9.0,1073.1,1035.1,34.1,8.8,0.00,0.0,100000,90.6,293
474280,2021-02-19,13:09:46,JAPAN,-3.0,-7.8,1011.6,1012.9,15.5,7.6,0.10,0.0,110000,51.8,334
508440,2021-02-19,13:09:46,CHINA,-4.8,-14.3,1021.8,1022.9,12.8,14.8,0.01,0.0,110000,50.6,355
508540,2021-02-19,13:09:46,CHINA,-6.8,-14.1,1026.3,1022.3,15.9,14.7,0.01,0.0,110000,52.0,137
471610,2021-02-19,13:09:46,KOREASOUTH,-1.3,-7.4,1001.0,1001.5,5.8,11.6,0.05,0.0,110000,93.4,340
471100,2021-02-19,13:09:46,KOREASOUTH,-1.6,-6.5,1008.4,1009.9,3.2,12.9,0.00,0.0,100000,98.6,207
475490,2021-02-19,13:09:46,JAPAN,-1.8,-8.0,998.4,995.9,3.5,13.6,0.00,0.0,100000,31.1,42
526520,2021-02-19,13:09:46,CHINA,-8.1,-19.2,883.8,1029.4,29.1,3.4,0.00,0.0,100000,72.1,285
380810,2021-02-19,13:09:46,KAZAKHSTAN,-2.1,-5.8,1034.4,1029.0,20.7,30.2,0.03,0.2,111000,53.1,68
526510,2021-02-19,13:09:46,CHINA,-8.2,-29.3,977.0,995.0,66.3,3.9,0.00,0.0,100000,29.4,333
528660,2021-02-19,13:09:46,CHINA,-4.3,-14.6,772.4,766.9,10.5,5.6,0.01,0.0,110000,69.7,142
545110,2021-02-19,13:09:46,CHINA,-1.1,-14.0,1021.0,1025.5,18.4,7.3,0.03,0.0,110000,74.6,329
471170,2021-02-19,13:09:46,KOREASOUTH,-1.0,-5.9,1001.9,983.1,8.7,2.7,0.07,0.0,110000,96.1,106
542360,2021-02-19,13:09:46,CHINA,-6.2,-16.1,1019.7,1024.1,13.2,24.4,0.02,0.0,110000,51.3,240
470580,2021-02-19,13:09:46,KOREANORTH,-2.7,-8.3,1015.4,1023.6,21.9,5.4,0.01,0.0,110000,52.1,5
357960,2021-02-19,13:09:46,KAZAKHSTAN,-8.5,-11.7,1019.4,1033.2,42.2,28.0,0.01,1.4,111000,53.3,315
538630,2021-02-19,13:09:46,CHINA,-1.7,-11.8,1016.9,1026.9,7.9,12.9,0.02,0.0,110000,54.5,138
538870,2021-02-19,13:09:46,CHINA,-4.4,-22.3,916.2,1026.8,32.2,4.0,0.00,0.0,100000,15.2,76
526610,2021-02-19,13:09:46,CHINA,-4.8,-21.0,928.1,946.2,70.3,12.0,0.00,0.0,100000,24.6,143
544230,2021-02-19,13:09:46,CHINA,-5.3,-19.2,975.7,1023.8,18.7,9.4,0.00,0.0,100000,38.4,273
357000,2021-02-19,13:09:46,KAZAKHSTAN,-1.1,-5.0,1025.9,1022.2,19.7,29.6,0.04,1.8,111000,54.9,6
475450,2021-02-19,13:09:46,JAPAN,-1.7,-6.1,1002.4,1006.7,10.4,13.7,0.00,0.0,100000,93.3,132
552280,2021-02-19,13:09:46,CHINA,-1.7,-17.4,603.4,600.0,30.5,0.0,0.01,0.0,110000,85.7,117
354060,2021-02-19,13:09:46,KAZAKHSTAN,-4.0,-7.8,1027.8,1028.4,26.9,18.0,0.00,0.0,100000,86.0,119
547250,2021-02-19,13:09:46,CHINA,-1.8,-11.7,1028.9,1025.6,3.0,15.6,0.03,0.0,110000,52.4,16
171280,2021-02-19,13:09:46,TURKEY,-1.1,-4.7,955.7,1012.2,11.5,8.9,0.09,1.6,111000,82.9,173
353630,2021-02-19,13:09:46,KAZAKHSTAN,-7.6,-8.8,1054.9,1043.4,14.3,19.3,0.00,0.0,100000,86.2,167
366390,2021-02-19,13:09:46,KAZAKHSTAN,-10.6,-13.2,1036.4,1033.0,49.2,3.3,0.00,38.4,101000,51.9,293
507560,2021-02-19,13:09:46,CHINA,-7.5,-12.5,1009.2,1022.7,16.5,9.7,0.01,0.0,110000,50.8,5
529080,2021-02-19,13:09:46,CHINA,-7.8,-18.8,999.8,1006.1,24.5,23.5,0.01,0.0,110000,60.3,353
474790,2021-02-19,13:09:46,JAPAN,-7.5,-11.7,1001.6,997.2,7.2,13.7,0.00,0.0,100000,41.8,107
287660,2021-02-19,13:09:46,KAZAKHSTAN,-5.3,-8.4,1011.8,1027.6,6.7,14.5,0.01,3.5,111000,55.0,315
475160,2021-02-19,13:09:46,JAPAN,-3.3,-8.0,998.4,992.5,12.5,21.1,0.00,0.0,100000,81.1,220
475920,2021-02-19,13:09:46,JAPAN,-1.4,-6.1,1015.0,1017.0,21.8,16.2,0.18,2.0,111000,50.3,350
535430,2021-02-19,13:09:46,CHINA,-4.5,-17.2,880.9,1028.0,30.2,9.7,0.00,0.0,100000,70.0,4
171990,2021-02-19,13:09:46,TURKEY,-4.3,-7.9,912.0,1031.1,18.7,10.3,0.60,3.3,111000,68.7,180
540270,2021-02-19,13:09:46,CHINA,-5.9,-16.9,1001.0,1024.1,26.5,10.7,0.01,0.0,110000,67.3,126
534800,2021-02-19,13:09:46,CHINA,-9.0,-20.4,960.6,1029.9,30.6,7.4,0.01,0.0,110000,78.3,341
358840,2021-02-19,13:09:46,KAZAKHSTAN,-9.8,-12.8,982.1,995.2,19.2,6.9,0.00,11.0,101000,58.9,54
170900,2021-02-19,13:09:46,TURKEY,-1.6,-5.4,914.2,932.7,18.9,1.7,0.27,4.3,111000,65.7,148
583140,2021-02-19,13:09:46,CHINA,-0.2,-4.2,1016.7,1026.7,10.5,8.3,0.13,0.0,110000,51.0,197
475150,2021-02-19,13:09:46,JAPAN,-3.5,-8.4,999.4,1000.6,19.5,13.2,0.00,0.0,100000,44.4,301
543740,2021-02-19,13:09:46,CHINA,-9.7,-17.4,1007.7,1023.3,12.9,3.5,0.01,0.0,110000,51.8,56
171550,2021-02-19,13:09:46,TURKEY,-0.8,-7.1,899.1,1012.2,14.1,1.8,0.00,0.0,100000,76.4,183
585060,2021-02-19,13:09:46,CHINA,-0.5,-4.2,979.2,1026.7,15.3,13.1,0.16,0.0,110000,50.6,295
540260,2021-02-19,13:09:46,CHINA,-4.6,-16.4,1011.7,1024.1,25.3,23.3,0.01,0.0,110000,89.0,204
442590,2021-02-19,13:09:46,MONGOLIA,-7.3,-11.9,953.7,1027.0,11.6,17.6,0.00,1.6,101000,79.8,271
471280,2021-02-19,13:09:46,KOREASOUTH,-1.3,-7.6,1008.6,1009.9,3.1,8.1,0.00,0.0,100000,73.6,156
570140,2021-02-19,13:09:46,CHINA,-2.0,-8.9,1003.7,1033.0,20.2,2.8,0.00,0.0,100000,0.9,111
474740,2021-02-19,13:09:46,JAPAN,-10.4,-19.5,1009.6,1001.3,6.8,6.6,0.00,0.0,100000,53.9,175
561460,2021-02-19,13:09:46,CHINA,-2.0,-13.6,680.4,678.4,28.6,6.7,0.01,0.0,110000,89.8,274
367440,2021-02-19,13:09:46,KAZAKHSTAN,-5.2,-8.3,1040.0,1032.8,44.9,12.3,0.00,0.9,101000,51.9,217
582030,2021-02-19,13:09:46,CHINA,-0.1,-5.7,1022.6,1025.7,19.2,16.0,0.03,0.0,110000,50.6,44
170840,2021-02-19,13:09:46,TURKEY,-1.8,-6.8,942.3,1018.4,20.6,6.4,0.10,3.5,111000,91.9,174
549290,2021-02-19,13:09:46,CHINA,-0.3,-8.5,1025.3,1024.1,22.7,2.8,0.00,0.0,100000,60.6,21
560210,2021-02-19,13:09:46,CHINA,-7.8,-18.9,616.6,614.0,29.5,4.1,0.01,0.0,110000,51.7,149
540940,2021-02-19,13:09:46,CHINA,-5.0,-12.1,1010.6,1022.2,12.2,9.8,0.02,0.0,110000,88.4,329
543110,2021-02-19,13:09:46,CHINA,-5.0,-15.9,975.7,1027.8,23.9,8.1,0.02,0.0,110000,67.2,228
170575,2021-02-19,13:09:46,TURKEY,-0.7,-4.1,1002.8,1003.9,8.2,15.5,0.00,0.0,100000,23.9,306
470080,2021-02-19,13:09:46,KOREANORTH,-3.9,-12.5,1014.3,1020.5,13.8,13.3,0.00,0.0,100000,97.2,305
535640,2021-02-19,13:09:46,CHINA,-6.4,-18.1,936.7,1030.6,20.7,7.6,0.00,0.0,100000,68.1,306
476410,2021-02-19,13:09:46,JAPAN,-1.3,-7.7,989.5,1018.2,23.2,8.3,0.17,0.0,110000,54.3,250
476390,2021-02-19,13:09:46,JAPAN,-22.4,-30.1,1000.3,997.9,44.7,40.2,0.00,0.0,100000,55.1,218
511330,2021-02-19,13:09:46,CHINA,-4.4,-10.1,992.2,1033.3,25.0,9.5,0.05,0.0,110000,89.8,109
474040,2021-02-19,13:09:46,JAPAN,-6.4,-12.1,1014.2,1017.1,33.8,19.7,0.12,0.0,110000,52.1,34
470690,2021-02-19,13:09:46,KOREANORTH,-2.1,-8.7,1031.8,1023.8,10.0,8.5,0.22,0.0,110000,51.3,326
470700,2021-02-19,13:09:46,KOREANORTH,-1.3,-7.7,1027.1,1021.1,12.3,15.7,0.01,0.0,110000,80.6,128
534460,2021-02-19,13:09:46,CHINA,-5.1,-17.6,1005.6,1029.3,8.3,11.7,0.00,0.0,100000,42.6,241
539150,2021-02-19,13:09:46,CHINA,-2.4,-12.2,907.3,1029.6,23.8,11.5,0.02,0.0,110000,52.4,99
570250,2021-02-19,13:09:46,CHINA,-0.4,-6.5,1047.7,1035.6,14.0,6.5,0.00,0.0,100000,4.2,80
509490,2021-02-19,13:09:46,CHINA,-8.2,-16.6,1018.5,1022.6,7.1,17.5,0.02,0.0,110000,82.0,251
512320,2021-02-19,13:09:46,CHINA,-5.2,-9.9,1027.4,1031.4,7.4,23.1,0.03,0.0,110000,51.6,156
171295,2021-02-19,13:09:46,TURKEY,-0.5,-2.0,997.7,1008.4,11.0,7.7,0.00,0.0,100000,56.8,15
478140,2021-02-19,13:09:46,JAPAN,-0.6,-6.9,1014.5,1023.1,15.8,0.0,0.00,0.0,100000,78.6,129
355760,2021-02-19,13:09:46,KAZAKHSTAN,-7.7,-11.8,1013.6,1036.2,26.3,15.0,0.01,6.9,111000,55.8,219
400010,2021-02-19,13:09:46,SYRIA,-0.7,-4.8,1036.9,1012.6,15.8,2.7,0.00,0.0,100000,80.7,319
170960,2021-02-19,13:09:46,TURKEY,-3.2,-5.7,890.9,905.2,16.7,16.3,0.08,8.8,111000,51.8,37
570670,2021-02-19,13:09:46,CHINA,-1.3,-7.5,991.6,1028.8,20.4,4.3,0.02,0.0,110000,52.0,131
376820,2021-02-19,13:09:46,ARMENIA,-3.7,-6.3,803.5,793.8,0.6,9.6,0.00,0.0,100000,17.4,274
548080,2021-02-19,13:09:46,CHINA,-1.3,-9.8,1026.8,1026.1,2.8,9.4,0.01,0.0,110000,94.8,134
545340,2021-02-19,13:09:46,CHINA,-2.1,-13.8,1025.6,1025.7,13.3,0.6,0.02,0.0,,51.4,90
476380,2021-02-19,13:09:46,JAPAN,-0.8,-9.8,994.3,1016.1,16.0,1.7,0.13,0.6,111000,51.3,17
505270,2021-02-19,13:09:46,CHINA,-18.5,-20.8,990.2,1027.9,18.5,13.8,0.02,0.0,110000,51.4,9
475120,2021-02-19,13:09:46,JAPAN,-1.1,-5.4,1020.0,1018.9,41.2,6.2,0.00,0.0,100000,88.9,108
563740,2021-02-19,13:09:46,CHINA,-0.2,-6.2,748.3,750.7,29.6,19.2,0.03,0.0,110000,50.1,333
171240,2021-02-19,13:09:46,TURKEY,-1.3,-5.2,968.5,1018.8,13.4,8.9,0.08,1.2,111000,72.4,352
400830,2021-02-19,13:09:46,SYRIA,-1.7,-9.8,994.4,1022.4,19.9,22.4,0.00,0.0,100000,50.8,313
513790,2021-02-19,13:09:46,CHINA,-9.4,-13.5,1021.5,1035.6,17.6,8.5,0.02,0.0,110000,50.5,352
546620,2021-02-19,13:09:46,CHINA,-2.5,-11.6,1020.6,1025.3,3.8,12.2,0.05,0.0,110000,70.8,90
560930,2021-02-19,13:09:46,CHINA,-5.0,-9.8,1012.6,1033.1,15.7,1.5,0.02,0.0,110000,51.1,268
508880,2021-02-19,13:09:46,CHINA,-6.2,-12.7,1014.3,1020.8,24.9,11.7,0.02,0.0,110000,60.2,168
355420,2021-02-19,13:09:46,KAZAKHSTAN,-6.8,-10.4,1016.4,1029.0,8.3,17.5,0.03,0.9,111000,88.9,150
544830,2021-02-19,13:09:46,CHINA,-10.2,-15.6,1024.5,1024.0,12.3,13.3,0.01,0.0,110000,52.7,99
562570,2021-02-19,13:09:46,CHINA,-2.1,-15.4,684.6,683.3,43.1,2.4,0.01,0.0,110000,53.5,82
521180,2021-02-19,13:09:46,CHINA,-4.1,-15.8,829.1,828.3,32.6,10.2,0.01,0.0,110000,56.7,137
477150,2021-02-19,13:09:46,JAPAN,-0.6,-6.7,1001.9,1002.0,8.6,4.6,0.14,0.3,111000,50.2,199
471131,2021-02-19,13:09:46,KOREASOUTH,-1.4,-5.8,991.2,997.5,7.5,6.8,0.00,0.0,100000,44.0,128
531490,2021-02-19,13:09:46,CHINA,-6.4,-18.9,905.7,1027.7,31.0,16.3,0.02,0.0,110000,52.0,16
561720,2021-02-19,13:09:46,CHINA,-0.2,-13.6,777.9,783.0,37.8,6.9,0.02,0.0,110000,92.8,12
561730,2021-02-19,13:09:46,CHINA,-7.7,-19.0,661.0,668.8,28.4,15.8,0.00,0.0,100000,67.7,0
543080,2021-02-19,13:09:46,CHINA,-7.3,-21.9,1020.3,1027.7,30.4,10.4,0.03,0.0,110000,58.4,63
442070,2021-02-19,13:09:46,MONGOLIA,-14.8,-20.1,1051.3,1044.0,55.3,3.9,0.00,0.0,100000,6.1,317
521120,2021-02-19,13:09:46,CHINA,-1.0,-17.8,1022.9,1026.0,28.0,21.0,0.00,0.0,100000,13.6,173
476370,2021-02-19,13:09:46,JAPAN,-2.7,-8.6,957.1,1016.1,25.2,7.9,0.21,0.0,110000,51.8,173
525330,2021-02-19,13:09:46,CHINA,-2.4,-14.5,893.6,1027.6,31.0,6.6,0.01,0.0,110000,79.9,144
525331,2021-02-19,13:09:46,CHINA,-5.7,-11.8,974.2,995.5,2.3,10.4,0.00,0.0,100000,32.0,50
543240,2021-02-19,13:09:46,CHINA,-5.0,-18.2,1023.8,1025.2,17.4,18.1,0.01,0.0,110000,,354
364280,2021-02-19,13:09:46,KAZAKHSTAN,-14.5,-18.4,1036.9,1036.8,17.7,3.0,0.01,0.9,111000,50.4,194
514950,2021-02-19,13:09:46,CHINA,-2.6,-16.1,985.4,1032.7,31.6,38.7,0.00,0.0,100000,4.1,51
357390,2021-02-19,13:09:46,KAZAKHSTAN,-1.2,-5.7,1035.8,1028.6,46.4,12.9,0.00,3.0,101000,51.5,342
472185,2021-02-19,13:09:46,JAPAN,-6.8,-12.9,986.0,967.6,11.0,13.5,0.00,0.0,100000,24.4,43
528180,2021-02-19,13:09:46,CHINA,-3.7,-22.5,753.8,753.3,27.8,11.8,0.00,0.0,100000,69.3,8
364390,2021-02-19,13:09:46,KAZAKHSTAN,-7.7,-16.0,995.3,1001.3,34.8,28.8,0.01,0.7,111000,68.4,228
541610,2021-02-19,13:09:46,CHINA,-3.8,-10.9,1012.5,1023.3,13.1,13.4,0.03,0.0,110000,52.1,199
541611,2021-02-19,13:09:46,CHINA,-4.6,-11.6,1019.5,1041.3,10.9,1.3,0.00,0.0,100000,96.9,193
541570,2021-02-19,13:09:46,CHINA,-7.8,-15.1,1025.6,1023.1,12.7,6.2,0.03,0.0,110000,64.0,279
508620,2021-02-19,13:09:46,CHINA,-18.0,-24.1,1020.4,1006.8,22.3,5.3,0.00,0.0,100000,16.6,321
368700,2021-02-19,13:09:46,KAZAKHSTAN,-0.9,-4.9,978.7,1022.9,10.3,5.2,0.05,2.2,111000,51.5,26
171500,2021-02-19,13:09:46,TURKEY,-0.5,-3.9,1021.2,1019.2,8.6,2.5,0.10,0.9,111000,57.9,293
690110,2021-02-19,13:09:46,IRAQ,-0.4,-6.0,877.7,1019.3,43.5,16.6,0.00,0.0,100000,80.3,332
442320,2021-02-19,13:09:46,MONGOLIA,-12.2,-16.1,1041.5,1049.4,38.6,6.3,0.00,0.0,100000,78.6,67
537050,2021-02-19,13:09:46,CHINA,-1.8,-15.7,973.1,1028.4,24.9,15.0,0.01,0.0,110000,50.2,134
546180,2021-02-19,13:09:46,CHINA,-0.4,-9.1,1022.8,1024.7,12.5,13.2,0.08,0.0,110000,51.7,241
474400,2021-02-19,13:09:46,JAPAN,-8.1,-13.8,1012.6,1017.0,19.3,0.6,0.10,0.0,110000,90.3,257
477690,2021-02-19,13:09:46,JAPAN,-0.8,-8.8,1019.9,1025.3,0.2,19.8,0.00,0.0,100000,39.2,263
171880,2021-02-19,13:09:46,TURKEY,-0.1,-4.3,937.6,1016.4,22.3,2.8,0.17,0.3,111000,54.3,188
286790,2021-02-19,13:09:46,KAZAKHSTAN,-8.8,-12.1,1019.0,1029.6,13.4,18.0,0.01,4.7,111000,75.2,118
536980,2021-02-19,13:09:46,CHINA,-0.6,-11.5,1024.0,1025.5,13.7,15.0,0.04,0.0,110000,51.1,122
289840,2021-02-19,13:09:46,KAZAKHSTAN,-2.9,-6.8,1029.1,1019.2,29.6,19.6,0.00,0.0,100000,93.8,31
170672,2021-02-19,13:09:46,TURKEY,-3.7,-5.7,979.7,964.7,6.3,8.8,0.00,0.0,100000,16.0,200
170674,2021-02-19,13:09:46,TURKEY,-3.7,-11.4,989.9,995.7,6.7,26.8,0.00,0.0,100000,89.4,74
478240,2021-02-19,13:09:46,JAPAN,-0.3,-8.4,1004.2,1024.0,12.4,0.8,0.04,0.0,110000,52.7,317
507270,2021-02-19,13:09:46,CHINA,-6.5,-9.3,914.0,1027.4,31.4,4.1,0.02,0.0,110000,58.5,156
475200,2021-02-19,13:09:46,JAPAN,-2.0,-5.5,1005.5,1018.4,14.3,12.1,0.16,0.0,110000,69.3,191
353860,2021-02-19,13:09:46,KAZAKHSTAN,-8.2,-12.3,986.9,984.1,18.2,13.8,0.00,0.0,100000,47.8,221
474880,2021-02-19,13:09:46,JAPAN,-4.0,-9.6,995.0,997.9,10.9,11.2,0.00,0.0,100000,98.8,338
353760,2021-02-19,13:09:46,KAZAKHSTAN,-4.8,-8.1,991.0,1030.8,20.9,5.9,0.01,6.4,111000,59.9,334
171350,2021-02-19,13:09:46,TURKEY,-0.7,-4.8,922.3,1011.0,14.8,17.6,0.00,0.0,100000,28.8,195
593530,2021-02-19,13:09:46,TAIWAN,-1.0,-1.8,763.9,1023.1,14.8,5.5,0.00,0.0,100000,49.1,82
471320,2021-02-19,13:09:46,KOREASOUTH,-3.7,-12.4,996.0,982.9,9.9,5.5,0.00,0.0,100000,67.4,215
471270,2021-02-19,13:09:46,KOREASOUTH,-1.4,-7.3,1008.3,1015.2,8.8,10.5,0.01,0.2,111000,52.5,85
172410,2021-02-19,13:09:46,TURKEY,-3.2,-8.2,989.9,1044.8,11.8,11.2,0.00,0.0,100000,92.6,321
524460,2021-02-19,13:09:46,CHINA,-3.8,-17.6,937.1,1034.8,41.6,10.5,0.00,0.0,100000,77.2,1
476800,2021-02-19,13:09:46,JAPAN,-0.1,-5.1,997.2,1017.5,26.5,13.0,0.00,0.0,100000,95.2,249
543860,2021-02-19,13:09:46,CHINA,-4.4,-10.5,964.5,1025.8,20.7,7.0,0.04,0.0,110000,54.3,183
363350,2021-02-19,13:09:46,KAZAKHSTAN,-6.6,-11.1,1024.2,1031.4,46.5,19.6,0.00,0.3,101000,51.8,211
527540,2021-02-19,13:09:46,CHINA,-9.4,-23.1,676.0,678.4,32.6,6.0,0.01,0.0,110000,94.7,227
531920,2021-02-19,13:09:46,CHINA,-4.5,-11.4,918.2,1031.9,30.9,22.7,0.01,0.0,110000,51.3,185
544010,2021-02-19,13:09:46,CHINA,-3.7,-17.0,984.7,1027.5,23.6,18.9,0.01,0.0,110000,51.4,218
442120,2021-02-19,13:09:46,MONGOLIA,-22.1,-24.7,912.3,1037.5,54.8,4.2,0.00,9.9,101000,73.6,211
544050,2021-02-19,13:09:46,CHINA,-4.5,-18.0,1022.4,1027.2,16.9,16.2,0.01,0.0,110000,54.2,193
442140,2021-02-19,13:09:46,MONGOLIA,-9.9,-18.4,825.1,1027.5,10.8,5.1,0.00,0.0,100000,91.5,1
380190,2021-02-19,13:09:46,KAZAKHSTAN,-9.5,-12.1,1019.5,1036.1,37.0,1.9,0.05,8.2,111000,52.1,31
544490,2021-02-19,13:09:46,CHINA,-1.4,-18.8,1019.2,1015.7,39.7,29.4,0.05,0.0,110000,52.3,109
544360,2021-02-19,13:09:46,CHINA,-6.5,-19.9,1023.8,1025.4,35.1,8.9,0.01,0.0,110000,50.9,313
537230,2021-02-19,13:09:46,CHINA,-6.2,-18.2,907.8,1029.1,14.4,11.4,0.02,0.0,110000,54.1,76
538210,2021-02-19,13:09:46,CHINA,-5.9,-17.7,929.5,1028.1,20.5,6.2,0.00,0.0,100000,37.6,283
443470,2021-02-19,13:09:46,MONGOLIA,-8.1,-27.1,862.0,1010.1,25.5,19.6,0.00,0.0,100000,91.1,323
532760,2021-02-19,13:09:46,CHINA,-8.7,-19.3,918.6,1028.3,26.0,16.0,0.01,0.0,110000,86.4,211
171700,2021-02-19,13:09:46,TURKEY,-1.0,-4.8,947.5,943.3,20.5,7.2,0.02,3.9,111000,82.4,221
170860,2021-02-19,13:09:46,TURKEY,-0.5,-5.1,944.7,1018.8,18.4,11.1,0.35,4.1,111000,52.0,60
545390,2021-02-19,13:09:46,CHINA,-3.1,-13.4,1021.5,1026.5,22.8,9.6,0.02,0.0,110000,81.0,291
355490,2021-02-19,13:09:46,KAZAKHSTAN,-4.4,-8.5,1028.1,1033.7,18.3,17.3,0.00,2.6,101000,97.5,155
542370,2021-02-19,13:09:46,CHINA,-7.7,-23.7,1037.8,1032.1,16.0,18.1,0.00,0.0,100000,90.9,28
470550,2021-02-19,13:09:46,KOREANORTH,-1.1,-9.1,1024.8,1022.5,11.9,5.6,0.12,0.3,111000,89.0,253
541350,2021-02-19,13:09:46,CHINA,-8.3,-18.8,1019.6,1024.0,20.4,22.0,0.01,0.0,110000,56.4,234
361860,2021-02-19,13:09:46,KAZAKHSTAN,-2.5,-6.8,992.4,1019.8,7.3,2.0,0.00,17.0,101000,50.6,29
358490,2021-02-19,13:09:46,KAZAKHSTAN,-1.4,-6.4,1013.3,1023.5,17.2,10.1,0.01,1.2,111000,52.2,158
478290,2021-02-19,13:09:46,JAPAN,-0.6,-8.7,1001.1,1019.1,20.0,13.8,0.07,0.0,110000,50.3,225
524950,2021-02-19,13:09:46,CHINA,-5.0,-19.7,903.1,1029.7,31.7,12.5,0.00,0.0,100000,16.2,150
474130,2021-02-19,13:09:46,JAPAN,-7.0,-10.6,1011.5,1017.3,18.9,5.4,0.00,0.0,100000,49.4,135
474170,2021-02-19,13:09:46,JAPAN,-4.7,-18.0,1009.5,1016.4,6.6,8.4,0.05,0.0,110000,72.5,188
530830,2021-02-19,13:09:46,CHINA,-5.8,-12.1,962.6,1030.0,39.7,8.8,0.02,0.0,110000,52.4,82
561250,2021-02-19,13:09:46,CHINA,-2.5,-19.9,648.6,651.7,19.9,24.3,0.00,0.0,100000,51.3,74
354970,2021-02-19,13:09:46,KAZAKHSTAN,-5.7,-13.4,988.9,1033.9,29.3,13.7,0.00,4.9,101000,50.7,32
546020,2021-02-19,13:09:46,CHINA,-1.6,-11.8,1021.7,1025.6,9.1,5.1,0.02,0.0,110000,96.0,344
474200,2021-02-19,13:09:46,JAPAN,-7.9,-12.1,1014.1,1015.7,16.0,13.0,0.02,3.6,111000,65.1,256
351910,2021-02-19,13:09:46,KAZAKHSTAN,-5.2,-15.7,1034.2,1040.6,46.3,5.2,0.00,0.0,100000,15.3,248
474070,2021-02-19,13:09:46,JAPAN,-11.4,-14.9,1008.1,1014.5,14.5,12.3,0.09,16.5,111000,67.1,272
474060,2021-02-19,13:09:46,JAPAN,-7.8,-11.5,1010.4,1015.5,15.9,12.8,0.11,15.1,111000,51.2,93
475830,2021-02-19,13:09:46,JAPAN,-2.3,-7.9,1009.2,1011.2,3.4,13.2,0.00,0.0,100000,10.7,132
475820,2021-02-19,13:09:46,JAPAN,-2.5,-7.5,1021.0,1017.2,13.2,23.8,0.14,4.9,111000,50.3,306
510760,2021-02-19,13:09:46,CHINA,-2.8,-12.9,962.8,1032.5,30.4,3.1,0.04,0.0,110000,56.7,116
442410,2021-02-19,13:09:46,MONGOLIA,-12.4,-15.0,1025.8,1033.1,46.9,8.1,0.00,2.1,101000,50.3,159
353450,2021-02-19,13:09:46,KAZAKHSTAN,-2.7,-6.2,1064.9,1041.8,16.4,0.0,0.00,4.9,101000,69.5,159
475810,2021-02-19,13:09:46,JAPAN,-3.2,-8.9,1012.9,1016.2,28.7,9.1,0.02,5.9,111000,90.3,302
535290,2021-02-19,13:09:46,CHINA,-3.4,-16.2,893.0,1028.5,22.2,3.7,0.01,0.0,110000,63.5,95
475740,2021-02-19,13:09:46,JAPAN,-1.3,-9.0,1007.5,1018.2,14.0,22.2,0.03,0.0,110000,54.4,318

